{"type":"FeatureCollection","features":[{"type":"Feature","geometry":{"type":"Polygon","coordinates":[[[-117.26214300010753,46.78808800023174],[-117.26229500044349,46.78784199970468],[-117.26203000012963,46.787690000167245],[-117.26174999974714,46.787519999836185],[-117.26151000044594,46.78734000016683],[-117.26126000020068,46.78719000008506],[-117.26103000004693,46.787069999841684],[-117.2607599997102,46.78698999973589],[-117.26050000031749,46.78692999973224],[-117.26022999998077,46.786910000126255],[-117.25975999962746,46.78690000001288],[-117.2591899997151,46.78692999973224],[-117.25771000013167,46.78698999973589],[-117.2576060003746,46.78699800018235],[-117.25754199990217,46.787210000202116],[-117.25744499981779,46.78753399971008],[-117.25734400043376,46.7879030000377],[-117.25719700012067,46.78842500014137],[-117.2550039996114,46.78819100002099],[-117.25500299978651,46.78805400009083],[-117.25500299978651,46.78754499982812],[-117.25492099977075,46.78756700005739],[-117.25466899987568,46.78766900010837],[-117.2546200003702,46.787690000167245],[-117.25435000003344,46.787840000085815],[-117.25428499973611,46.78775499991674],[-117.25426800001767,46.7877350000022],[-117.2542489997511,46.78771699970368],[-117.25422799983473,46.7877010002534],[-117.25420299972035,46.78768600030309],[-117.25417699978107,46.78767299997379],[-117.254149000192,46.78766199988192],[-117.25411999987969,46.78765300002873],[-117.25408899991756,46.78764699992079],[-117.2540570001305,46.78764199993276],[-117.2540089995516,46.78764000030651],[-117.25295099974258,46.78757200005233],[-117.25287200009986,46.787568000179455],[-117.25279299955882,46.78755899969546],[-117.25276599979465,46.78755200006979],[-117.25274300022843,46.78754300019821],[-117.25272099958879,46.78753300020248],[-117.2526999996724,46.78752099995912],[-117.25268100030414,46.78750800020503],[-117.25266500041063,46.78749399970928],[-117.252650000342,46.7874780001927],[-117.25264899961878,46.78744200003287],[-117.25348300002011,46.78739699995296],[-117.25325700006431,46.78602100013783],[-117.25211300004156,46.786017000149656],[-117.25211100039175,46.7861240001917],[-117.25211300004156,46.78622700004852],[-117.25153599955819,46.786223000075665],[-117.25108000034692,46.786223000075665],[-117.25099999998096,46.78622199992866],[-117.25092100033824,46.786220999781584],[-117.25078999991868,46.7862200002496],[-117.25066000022233,46.7862200002496],[-117.25015499970895,46.786220999781584],[-117.24845800039057,46.786215000129076],[-117.24793699998365,46.78621100015536],[-117.24605499981902,46.7862039997393],[-117.24723300017698,46.787155999992024],[-117.24731400036782,46.78722400015663],[-117.24728800042853,46.78724099987679],[-117.24674399955713,46.78759499977705],[-117.24723800019981,46.78801600008885],[-117.24718399977316,46.78803999973714],[-117.24739200018561,46.78825699988984],[-117.247264999964,46.78830900000909],[-117.24714399959018,46.78835399994159],[-117.24719399981889,46.7883939999184],[-117.2476309996619,46.7887360002593],[-117.247998000083,46.78902699976083],[-117.24662599955633,46.78981599998589],[-117.24543700022605,46.79049799997062],[-117.24423100027902,46.791188999802586],[-117.24413199964651,46.79123699994917],[-117.24412999999667,46.79224599993837],[-117.24414000004244,46.79289000024658],[-117.24415400028612,46.79295699991056],[-117.24419699994384,46.79316000028335],[-117.24421200001244,46.79322800024312],[-117.24422999955581,46.793171999884585],[-117.24427599958652,46.7930419998599],[-117.2442649997159,46.793005999731314],[-117.24425999969301,46.792986999944176],[-117.24427200028688,46.792950999778796],[-117.2444200004249,46.79302000002335],[-117.24447700032633,46.79305000002189],[-117.24499000033728,46.79331999987098],[-117.2450820003988,46.79337400004725],[-117.24527999986721,46.793489999718865],[-117.24518000030811,46.79358000010823],[-117.24506399995714,46.79367499977514],[-117.24495000015433,46.793769999889385],[-117.24470999995482,46.79397000026144],[-117.24442100024982,46.79423299981302],[-117.24421200001244,46.79442499973801],[-117.24418500024825,46.79444800022441],[-117.24412999999667,46.79449999989744],[-117.24413099982159,46.79688800023707],[-117.24413500001957,46.797012999848306],[-117.24795000040245,46.7970269997129],[-117.25016099955674,46.79703499989747],[-117.25092499963787,46.797037999735714],[-117.25100500000383,46.7970310001128],[-117.25108500036976,46.7970310001128],[-117.25494300041038,46.796987000002304],[-117.25489700037961,46.792754000002056],[-117.25494599988511,46.79269699973859],[-117.25587800019576,46.791593000109984],[-117.25592199967836,46.791573999823996],[-117.25619500038816,46.791436999893996],[-117.25644599956001,46.791280999840886],[-117.2566709996909,46.79110800022701],[-117.25686900005762,46.79091899971819],[-117.25703700028714,46.790718000245114],[-117.25717399965615,46.79050499982825],[-117.25736600017508,46.78994799996297],[-117.25741800005363,46.789804999716935],[-117.25744800019085,46.78971499978021],[-117.25754699992507,46.78968400030019],[-117.25823300018838,46.78946199993096],[-117.25905800036894,46.789608000110626],[-117.25939200027976,46.7896670001214],[-117.25935899976949,46.78959400016109],[-117.2591210001181,46.7891449997614],[-117.2595000002348,46.789203000188074],[-117.25993999955253,46.78927000013655],[-117.26021999993503,46.78934000026908],[-117.26065000010531,46.78947000001],[-117.2607100003798,46.789494000240126],[-117.26124400030719,46.789544999694094],[-117.26131000042942,46.78943800030162],[-117.26214300010753,46.78808800023174]]]},"properties":{"AREALAND":"1016236","AREAWATER":"0","BASENAME":"Albion","CBSAPCI":"N","CENTLAT":"+46.7915997","CENTLON":"-117.2512267","FUNCSTAT":"A","GEOID":"5301010","INTPTLAT":"+46.7915997","INTPTLON":"-117.2512267","LSADC":"43","MTFCC":"G4110","NAME":"Albion town","NECTAPCI":"N","OBJECTID":4554,"OID":"27890256943242","PLACE":"01010","PLACECC":"C1","PLACENS":"02412345","STATE":"53","DISP_CLR":4,"slug":"albion","jurisdiction_key":"albion_city","county_fips":["53075"]}}]}
