{"type":"FeatureCollection","features":[{"type":"Feature","geometry":{"type":"Polygon","coordinates":[[[-122.26218400041753,47.29053300026791],[-122.2621819998694,47.29038599969564],[-122.26210999989937,47.28739699998495],[-122.26041199985777,47.28740099973458],[-122.26041500023082,47.286938999843315],[-122.26041000020795,47.286687000029865],[-122.26042899957622,47.2842630002283],[-122.26044199999498,47.283355999725245],[-122.26046700010934,47.28142299983506],[-122.26048100035307,47.279030000085186],[-122.26060199982857,47.27902899998958],[-122.26060100000365,47.279110999844235],[-122.26132599972672,47.27910800017136],[-122.26135099984113,47.27897300009009],[-122.26144999957529,47.2784470002528],[-122.26060699985143,47.27845399977977],[-122.26049700024656,47.278454999886236],[-122.26030399990273,47.27845200017622],[-122.25936900011735,47.27845800020559],[-122.25928600027666,47.27846099991531],[-122.25929200012445,47.278431999870236],[-122.25934300017808,47.278174999805906],[-122.259492000141,47.27742699989957],[-122.25959500007316,47.27694999985933],[-122.25966200002031,47.276674000298556],[-122.25996400014411,47.275535999849275],[-122.26026399971975,47.2747399998895],[-122.26047299995714,47.27418699985723],[-122.25943299969146,47.274153999766305],[-122.25882699979405,47.274131999897364],[-122.25866000028779,47.274127000175234],[-122.25805299966714,47.27410599987428],[-122.25781400019086,47.27409700000398],[-122.2575270001357,47.27408699994312],[-122.25613799989056,47.274040999760686],[-122.25531299971003,47.273802000156785],[-122.25428500003824,47.27349600012115],[-122.25326300021422,47.27317899970611],[-122.25247099964567,47.27293200000853],[-122.2523109998121,47.27289800014251],[-122.25214400030582,47.27289000027842],[-122.2500219999417,47.272901999769346],[-122.24809200009648,47.27292199972753],[-122.24722900028112,47.27292700017303],[-122.24670399967624,47.272933999820715],[-122.24643099986477,47.27293900026508],[-122.24644299956036,47.27184400016588],[-122.24643000003985,47.27057999975299],[-122.24646500019999,47.26826600022101],[-122.24620599973389,47.26826099994469],[-122.24567500017953,47.26822399983581],[-122.24554799995792,47.268211000203266],[-122.24551500034597,47.268209000212615],[-122.24487500011337,47.26819799995796],[-122.24484199960311,47.26822700012565],[-122.24479399992252,47.26824300004323],[-122.24472199995249,47.2682529999892],[-122.24422999985794,47.26823700007469],[-122.24283499976501,47.26824300004323],[-122.24223399989047,47.268245999722446],[-122.23952999991835,47.26825800026632],[-122.23952200042075,47.26870299987147],[-122.23949899995621,47.26998800012012],[-122.23949800013129,47.2713310002548],[-122.2394899997354,47.27181700000584],[-122.23950099960604,47.271878000099555],[-122.2370619999478,47.271894999753414],[-122.23683299961894,47.271897000214324],[-122.23683400034218,47.27217099985958],[-122.2368209999234,47.27291999991493],[-122.2368150000756,47.27341500029952],[-122.23680099983191,47.27444600015206],[-122.2367880003114,47.2754820002352],[-122.23741699977504,47.2754820002352],[-122.23746000033107,47.2754829997884],[-122.23944399970463,47.275483999951035],[-122.23944299987971,47.2756299997233],[-122.2394410002299,47.275936999762926],[-122.23943100018415,47.27758000004812],[-122.23942199996331,47.27912600003431],[-122.24304099962934,47.27910700007723],[-122.24550699995005,47.279095000165015],[-122.24594499961798,47.279094000070636],[-122.24624500009195,47.27909299997619],[-122.24644900030643,47.27909199988178],[-122.24650500038294,47.28221200017552],[-122.24643000003985,47.28350899979187],[-122.24620499990897,47.28449000020754],[-122.24595399983879,47.285156000090154],[-122.24572899970791,47.285582000130745],[-122.24520300017645,47.28642699997963],[-122.24354899961743,47.28902100020046],[-122.24039299973373,47.29363799995628],[-122.24065600039775,47.29363799995628],[-122.24149800029673,47.29363400006902],[-122.24168400006955,47.29363000018151],[-122.2434320003399,47.29362099997648],[-122.2436230001356,47.29362000015671],[-122.24432299974433,47.29359799985178],[-122.24827799986933,47.293579000218045],[-122.24995300034472,47.29357499971709],[-122.25177900043285,47.29356799975356],[-122.25254599998874,47.29356600011198],[-122.25418799995387,47.29355900014726],[-122.2546480002614,47.293545000215104],[-122.25728299973822,47.29352500013146],[-122.25755899992275,47.293522999878974],[-122.25803000010093,47.293518999983014],[-122.25819599978229,47.29351800016131],[-122.25826100007961,47.29351800016131],[-122.25949999963862,47.2935099997591],[-122.2597459996859,47.29349499999182],[-122.25990200021984,47.2934849999415],[-122.26046799993425,47.293480000220235],[-122.2604789998049,47.29185599982768],[-122.26044500036804,47.29056500001503],[-122.2604429998199,47.290471999744284],[-122.26061500024736,47.290688000043346],[-122.26078699977649,47.29090199971789],[-122.26144999957529,47.29104699972846],[-122.26160699993414,47.29071600019804],[-122.26164399974407,47.2906370002892],[-122.26148700028355,47.29043999994089],[-122.26152999994125,47.290408000118134],[-122.26218400041753,47.29053300026791]]]},"properties":{"AREALAND":"3345729","AREAWATER":"0","BASENAME":"Algona","CBSAPCI":"N","CENTLAT":"+47.2819870","CENTLON":"-122.2504673","FUNCSTAT":"A","GEOID":"5301290","INTPTLAT":"+47.2819870","INTPTLON":"-122.2504673","LSADC":"25","MTFCC":"G4110","NAME":"Algona city","NECTAPCI":"N","OBJECTID":14039,"OID":"27890836057913","PLACE":"01290","PLACECC":"C1","PLACENS":"02409680","STATE":"53","DISP_CLR":3,"slug":"algona","jurisdiction_key":"algona_city","county_fips":["53033"]}}]}
