{"type":"FeatureCollection","features":[{"type":"Feature","geometry":{"type":"Polygon","coordinates":[[[-117.06345199961531,46.347693000150926],[-117.06337100032277,46.347534999900645],[-117.06331000022341,46.3474149997194],[-117.06328400028414,46.34736599998302],[-117.06314199999392,46.34714599980282],[-117.06301700032044,46.346953000282646],[-117.0627939998394,46.346663000233235],[-117.06268000003656,46.34651499988457],[-117.06262899998293,46.34645199988686],[-117.06251699982992,46.34631599986085],[-117.06234799977554,46.34610899972814],[-117.0623169998134,46.346073000002505],[-117.06218600029216,46.34591399979376],[-117.06177399966519,46.34556299989538],[-117.06135600008876,46.345279999791934],[-117.0609429996369,46.34497599971622],[-117.06072199970396,46.34482399997461],[-117.06064700025918,46.344762999784024],[-117.06049200044849,46.34465700025672],[-117.0603810001204,46.344581999946364],[-117.0602039996701,46.34447999988],[-117.0599509999501,46.344364000254224],[-117.05976600000214,46.34430100025805],[-117.05961299984129,46.34426100013423],[-117.05957000018358,46.33782099979011],[-117.059555000115,46.337655000155294],[-117.05952599980266,46.33617399980563],[-117.05949400001563,46.33508699998988],[-117.05948399996986,46.334805999878405],[-117.05913099979244,46.33481299985679],[-117.05535099956964,46.33479700025933],[-117.05406099995704,46.334791999918956],[-117.05272399959046,46.33479700025933],[-117.04899399959636,46.33479400017922],[-117.04898199990078,46.333719000161175],[-117.04889200038741,46.33370499992344],[-117.0488289997399,46.33101899992561],[-117.04612599959273,46.33104000007168],[-117.0330149999861,46.331007000015724],[-117.0329449996659,46.32729200008044],[-117.02895500027914,46.327274000228776],[-117.02569499974003,46.32724199971971],[-117.02579400037254,46.32764799978959],[-117.0258139995657,46.32772800012326],[-117.0258410002282,46.32780799971964],[-117.0258479999009,46.327830999752535],[-117.02593099974158,46.328106000071],[-117.02598500016823,46.328285999925555],[-117.02609200029838,46.328495999730876],[-117.02691300028094,46.33011000022992],[-117.02707399993939,46.33038600015629],[-117.02728999984949,46.330739999789564],[-117.02743399978952,46.33100299983846],[-117.0275099999575,46.33114000000679],[-117.02776000020276,46.331750000117665],[-117.0278050004086,46.33188400003594],[-117.02800000040227,46.332460000250705],[-117.02818000032734,46.33275999978201],[-117.02823999970347,46.33283000028356],[-117.02839000038959,46.3330199998641],[-117.02902999972387,46.3335999998871],[-117.02923999978618,46.33380000013704],[-117.02956200000145,46.33408399995472],[-117.0298399998358,46.334329999867066],[-117.02999999966937,46.334479999981525],[-117.03023999986887,46.33476000008682],[-117.03014699998246,46.33474099977059],[-117.02639199987401,46.33470400018047],[-117.0248699995595,46.334687000108936],[-117.02481699985604,46.3346889997528],[-117.02292499964567,46.33462700021558],[-117.02335599964091,46.33525200016606],[-117.02355099963457,46.33546299970354],[-117.02389399976624,46.33583699971107],[-117.02430499966998,46.33627599986284],[-117.02524200000347,46.33689099989723],[-117.02558400031023,46.337065999858126],[-117.02581299974078,46.33718299985979],[-117.02624100026128,46.337578000004115],[-117.02665499963976,46.337940999944585],[-117.02678400040948,46.33807399981842],[-117.02700100014447,46.33829600004837],[-117.0275869999504,46.33863400024327],[-117.0296709997814,46.3398170002864],[-117.03038999965672,46.34021899991507],[-117.03327799975182,46.34116800021099],[-117.03348399961615,46.34123700017042],[-117.03492899993778,46.34148199983526],[-117.03641500026728,46.34170999989384],[-117.03859500035776,46.34194800023546],[-117.03947900008951,46.342034999791636],[-117.04060999969349,46.342129999797585],[-117.04207599993148,46.342229999919276],[-117.0457010003436,46.34253599973837],[-117.04654900009034,46.34256700030339],[-117.0471380002693,46.34265400011492],[-117.04809200032126,46.34277400020511],[-117.0495049999575,46.34301000029626],[-117.0519749995779,46.34391200009122],[-117.05203599967727,46.34392899977535],[-117.05344400018897,46.34448699986022],[-117.05369799973388,46.344581000305325],[-117.0560290003354,46.345557999919414],[-117.05664699992836,46.34581100011376],[-117.05768200017118,46.3463850001443],[-117.05884000043763,46.34701800013608],[-117.05945300000774,46.34754800011118],[-117.05962100023721,46.34771400009488],[-117.05970200042806,46.34778100006876],[-117.0596489998263,46.346040999950844],[-117.05960899964334,46.34495300007213],[-117.06247699964698,46.34753099969217],[-117.06251000015725,46.347569999697235],[-117.06256500040885,46.347648999828856],[-117.06274000031102,46.34789999986623],[-117.06345199961531,46.347693000150926]]]},"properties":{"AREALAND":"2780241","AREAWATER":"370268","BASENAME":"Asotin","CBSAPCI":"N","CENTLAT":"+46.3370550","CENTLON":"-117.0428594","FUNCSTAT":"A","GEOID":"5303075","INTPTLAT":"+46.3337268","INTPTLON":"-117.0398015","LSADC":"25","MTFCC":"G4110","NAME":"Asotin city","NECTAPCI":"N","OBJECTID":12089,"OID":"27890244331135","PLACE":"03075","PLACECC":"C1","PLACENS":"02409742","STATE":"53","DISP_CLR":2,"slug":"asotin","jurisdiction_key":"asotin_city","county_fips":["53003"]}}]}
