{"type":"FeatureCollection","features":[{"type":"Feature","geometry":{"type":"Polygon","coordinates":[[[-122.60343599976909,47.667636999896125],[-122.60372799984714,47.66454999992129],[-122.60279899990955,47.66083999995457],[-122.60174899959813,47.65891900020663],[-122.5997479996078,47.65525899974524],[-122.59879699992892,47.653519999700634],[-122.59836299956062,47.65288799978172],[-122.59787999968685,47.6521859997046],[-122.59555599965637,47.64880399983141],[-122.59432200012024,47.64700900010494],[-122.59404900030879,47.64661200012243],[-122.59299999982225,47.645624999802166],[-122.59206800040992,47.64474799987234],[-122.59169799961576,47.64448400014528],[-122.58874900031958,47.64237499989087],[-122.5866310001534,47.64083099978997],[-122.58585600020157,47.63937699983777],[-122.58540599993978,47.63825400010964],[-122.58505899961015,47.63701400010086],[-122.58509399977024,47.63640599971287],[-122.58511800005971,47.6357830002489],[-122.58525399960382,47.63236800001822],[-122.5852600003499,47.63129500003914],[-122.5852800004414,47.628626000188],[-122.58528700011412,47.627716000082245],[-122.58565199998709,47.62548999969773],[-122.58573499982775,47.62460199976994],[-122.58593300019447,47.62150800027796],[-122.5859349998443,47.62147699993572],[-122.58628899984663,47.615955000140715],[-122.58679600000985,47.60780999999939],[-122.58586200004936,47.60141900016705],[-122.58541699981043,47.599223999727755],[-122.58513999980103,47.59851000004799],[-122.58470399978292,47.597460000207356],[-122.58351600027757,47.59552900026703],[-122.58243500000398,47.594219999814825],[-122.58106400020051,47.59290399970739],[-122.57958100024405,47.59173799975151],[-122.57820000039486,47.590884000173915],[-122.5771779996725,47.5902519998894],[-122.57589899993056,47.589630999774954],[-122.57577099988403,47.589569000051696],[-122.5734460000286,47.588645000142876],[-122.57160099967388,47.588070999852356],[-122.5704469996054,47.58786600008389],[-122.56976299989019,47.58774499971966],[-122.56839899975941,47.58794599997085],[-122.56776500027291,47.58818299982702],[-122.56598000019268,47.58885300013404],[-122.56426899973223,47.58964899975904],[-122.56367799990346,47.58992499974955],[-122.56126299963637,47.59118399999593],[-122.55792600000265,47.59276699977924],[-122.55388899986191,47.59437899985553],[-122.55178400011451,47.59452800008759],[-122.55087299972027,47.59459299990961],[-122.54856799995633,47.59429300024402],[-122.54737600025301,47.59363199982242],[-122.54554699979182,47.592390999955406],[-122.54497699987944,47.59161100029065],[-122.54463499957268,47.591142000245554],[-122.54313400007285,47.58845299974361],[-122.54165500031435,47.58569499979008],[-122.54079999999661,47.583678999839144],[-122.54006900042572,47.581355999991125],[-122.5397510004084,47.58042799996033],[-122.53921300028307,47.5788510000725],[-122.53830500026187,47.57630899973067],[-122.53728199971464,47.574525000221605],[-122.53559899974162,47.57246600023154],[-122.53461700010058,47.57157499989144],[-122.53406100043188,47.57107099973272],[-122.53162000022552,47.56939700002574],[-122.53122799969005,47.56912800006279],[-122.53036800024772,47.56867799977801],[-122.52875100039697,47.56783299986162],[-122.52794399975977,47.56741099998669],[-122.52789899955395,47.56738799979816],[-122.5216350003654,47.564702999772585],[-122.51700999987058,47.56310300005289],[-122.51472799967289,47.56247599987188],[-122.51260200000908,47.561891999871534],[-122.50817499988099,47.561240000085036],[-122.50425400009121,47.56099400003201],[-122.50165999972397,47.56101800020629],[-122.49614700019775,47.561323000049285],[-122.49219000042295,47.56192800011799],[-122.48912900007547,47.562627999925205],[-122.48775499989895,47.563051999880614],[-122.48476300004675,47.5639759999383],[-122.4773380002187,47.56649699974092],[-122.4716220003029,47.56857299974114],[-122.46474399992272,47.57144099992334],[-122.46065800027647,47.573254000161526],[-122.45667200018937,47.575216000119354],[-122.45478099980389,47.57618600008312],[-122.4547459996438,47.576391000143204],[-122.45472599955231,47.57659099984224],[-122.45462699981809,47.577208999829836],[-122.45409999956341,47.57966199992666],[-122.45358200042786,47.58123699997872],[-122.45315800010535,47.582207999699385],[-122.4516960000653,47.58508499980773],[-122.45138300007082,47.58570199977245],[-122.45051299968448,47.58741600025918],[-122.44969199970191,47.5889630002962],[-122.44833199976908,47.59125300007525],[-122.44788300023049,47.59229700018315],[-122.44756900041118,47.593312999972596],[-122.44730499992218,47.594454999986276],[-122.44715699978417,47.595573999990556],[-122.44698400043013,47.597611999889445],[-122.44694699972192,47.598099999710115],[-122.44685899985836,47.59916199986023],[-122.44655799955947,47.602771999990864],[-122.44620299973226,47.60703499970907],[-122.44606299999015,47.60799799996382],[-122.44650300020623,47.61149399979068],[-122.44685300001058,47.612419999840164],[-122.4472980002495,47.61306900002803],[-122.44771099980305,47.61420899980191],[-122.44790800034488,47.61474100023452],[-122.44832099989844,47.61569599971904],[-122.4486149996263,47.61638199993336],[-122.44864200028881,47.616446000098136],[-122.4486699998779,47.61651000018457],[-122.44920299998034,47.6175229998816],[-122.44954299973898,47.6181709999887],[-122.4500499999022,47.619022000132425],[-122.4514030001623,47.62095699989271],[-122.45300599976936,47.62287599990741],[-122.45376300017784,47.62378199983912],[-122.45425199989937,47.624636000084465],[-122.45490800002548,47.62656099985842],[-122.4549850000184,47.627191999722896],[-122.45490999967532,47.627647000263615],[-122.45456700044195,47.629006999915],[-122.45437200044827,47.629669000260506],[-122.45419900019593,47.63025799970342],[-122.45406899960126,47.6306959998935],[-122.45387100013288,47.631370999811395],[-122.453681999987,47.63201299981782],[-122.4535220001534,47.632556000077],[-122.45306699986874,47.63452400002268],[-122.45284000008802,47.636086999806665],[-122.45269399959984,47.63874899980731],[-122.45267500023158,47.63910999981619],[-122.45267900042955,47.64056100023572],[-122.45268600010223,47.642347999888315],[-122.45281199960061,47.64379800011403],[-122.45318099967156,47.64624799992595],[-122.45325099999175,47.64671300002],[-122.45339099973384,47.647653999722124],[-122.45410499958629,47.651119000043735],[-122.45428200003659,47.65201799975047],[-122.4543459996107,47.652662000169705],[-122.45440500006025,47.653252999954674],[-122.45521599999708,47.65531599976443],[-122.45605899972092,47.657707000124724],[-122.45675699967985,47.65968300011041],[-122.4572510003226,47.661334999811835],[-122.45809900006931,47.66390599970941],[-122.45856900042259,47.6656050001],[-122.45937500033656,47.66916099970338],[-122.4596199996606,47.671118000198035],[-122.45973699983647,47.672119999938396],[-122.45977399964642,47.672417999769245],[-122.45970900024737,47.6753790001043],[-122.45970000002656,47.67578800013085],[-122.45968300030812,47.675916000054315],[-122.4589710001055,47.680926000141554],[-122.45855799965364,47.68249799977747],[-122.45811099976487,47.68376499984674],[-122.45800000033512,47.68407899988984],[-122.45761399964744,47.68517099999914],[-122.45748800014906,47.685430000206516],[-122.45696799956704,47.68650399994947],[-122.45609200023122,47.688312000257795],[-122.45475599968954,47.69048900006525],[-122.45442900034968,47.690985000058475],[-122.45331799993892,47.69267100025985],[-122.45302599986087,47.693265999795415],[-122.45273700015585,47.69378900000521],[-122.45191299980026,47.6952369998422],[-122.45156200017097,47.69585599973574],[-122.45062900003542,47.697496000004136],[-122.44986199958122,47.698863999710014],[-122.44930900028557,47.70013899979613],[-122.44892699979583,47.70086199974554],[-122.44883499973432,47.70103600000756],[-122.44853099996072,47.70152000013489],[-122.44805499975966,47.70227900009342],[-122.44692499998061,47.70447800011095],[-122.44642899968807,47.70518800019483],[-122.4456570001093,47.70629300009564],[-122.44491399994453,47.70709099970405],[-122.44431399989492,47.70764600010716],[-122.44160099970198,47.70945900021534],[-122.4400249998591,47.71058800011739],[-122.43928900026533,47.71123200023991],[-122.43745999980418,47.713047999884765],[-122.43705200027347,47.71392599997734],[-122.43688099967095,47.714291000032546],[-122.43661200005741,47.715198000116395],[-122.43578900042503,47.71797599980513],[-122.4353230002697,47.71982099975127],[-122.43439599998196,47.7243530000252],[-122.43406100024616,47.72635699998115],[-122.44568999972125,47.726380999835484],[-122.47735499993713,47.726415999829776],[-122.49713200021185,47.72643900019306],[-122.50387900017249,47.72645700020755],[-122.51583599971063,47.72649000001653],[-122.52900999996473,47.726540999790124],[-122.53057900013494,47.726548000252784],[-122.54384999957512,47.72659599977434],[-122.54536199984392,47.726459999806515],[-122.54664300013401,47.72623699993947],[-122.54716399964259,47.72610600001136],[-122.54811500021982,47.72584700000965],[-122.54867300043664,47.725657999750865],[-122.54906800044684,47.72552600009382],[-122.55002499997354,47.72511500013182],[-122.55067400042697,47.724784000145576],[-122.55114800007989,47.72453000013742],[-122.55186100010741,47.724066999726794],[-122.5520850004134,47.72392300008093],[-122.55424700006222,47.722106999926964],[-122.55541799984914,47.7211179998488],[-122.55666900000203,47.72007799972179],[-122.55942499985265,47.717739999847026],[-122.56570300018323,47.71245099996835],[-122.56580000026759,47.7123679997634],[-122.56600000028415,47.712200000087414],[-122.56754099996692,47.71089900016585],[-122.56880299999047,47.7098359999343],[-122.57156399986398,47.7067909999663],[-122.57305400039144,47.70403400023707],[-122.57401299956796,47.70232999999071],[-122.57599400036511,47.69620599992712],[-122.57710999990044,47.69087899980769],[-122.57768900003367,47.68974899976233],[-122.58000200019355,47.68524300019986],[-122.58048699971714,47.684686999900485],[-122.58319300023736,47.68159299980886],[-122.58702000031582,47.67911100007862],[-122.59336499969525,47.67656400014085],[-122.59708200016884,47.67472500010856],[-122.5990439998011,47.67317000014006],[-122.60175000032135,47.67102899998386],[-122.6031830000491,47.668319000274586],[-122.60339099956323,47.66792800005036],[-122.60343599976909,47.667636999896125]]]},"properties":{"AREALAND":"71520334","AREAWATER":"97029953","BASENAME":"Bainbridge Island","CBSAPCI":"N","CENTLAT":"+47.6488441","CENTLON":"-122.5155009","FUNCSTAT":"A","GEOID":"5303736","INTPTLAT":"+47.6424870","INTPTLON":"-122.5077640","LSADC":"25","MTFCC":"G4110","NAME":"Bainbridge Island city","NECTAPCI":"N","OBJECTID":31623,"OID":"27890908308914","PLACE":"03736","PLACECC":"C1","PLACENS":"02409770","STATE":"53","DISP_CLR":4,"slug":"bainbridge_island","jurisdiction_key":"bainbridge_island_city","county_fips":["53035"]}}]}
