{"type":"FeatureCollection","features":[{"type":"Feature","geometry":{"type":"Polygon","coordinates":[[[-122.21473399986186,47.58702100017321],[-122.2106339999719,47.58372100012509],[-122.2095150000635,47.58312399982056],[-122.20589300002447,47.58341299987121],[-122.20453300009167,47.5838210000067],[-122.20446799979432,47.583820000233025],[-122.20248600007059,47.583804000216006],[-122.20215100033484,47.58380499998999],[-122.20206299957299,47.583797999753926],[-122.2020209997402,47.58376199999666],[-122.20194799994526,47.583781999730235],[-122.20190500028752,47.58378699981391],[-122.20102800022849,47.5837919998971],[-122.20091299970245,47.5837560001357],[-122.20082499983887,47.5837430000306],[-122.19982099955821,47.58374500018681],[-122.19975199996124,47.583737000167474],[-122.1994950000433,47.583750000274016],[-122.19910300040614,47.58377000001217],[-122.19842700018853,47.5837739997165],[-122.19795900038338,47.58377800002647],[-122.19731300030301,47.58377800002647],[-122.1965450000239,47.58377800002647],[-122.19654800039696,47.58392900029443],[-122.19655699971945,47.5842679999353],[-122.19656599994029,47.58532300024527],[-122.19656900031335,47.585622999830434],[-122.19655699971945,47.58655200019604],[-122.19655500006964,47.5867159997086],[-122.19655500006964,47.58674000021483],[-122.19667600044346,47.58674000021483],[-122.19725399985347,47.58674299997438],[-122.19728399999072,47.58674299997438],[-122.19784200020752,47.586745999733765],[-122.19788900006318,47.586745999733765],[-122.19836299971611,47.58674799977523],[-122.19846900002133,47.58674900009887],[-122.19901600036751,47.58675100014022],[-122.19938899973808,47.58675300018148],[-122.19948300034774,47.58675300018148],[-122.19956299981536,47.586753999899145],[-122.19963599961028,47.586753999899145],[-122.19986400011422,47.58675500022268],[-122.19996100019863,47.5867559999403],[-122.20030099995725,47.5867570002638],[-122.20039399984368,47.58675799998138],[-122.20059700023324,47.58675899969894],[-122.20078499965592,47.58676000002238],[-122.20083400005971,47.58676000002238],[-122.20115999957466,47.5867609997399],[-122.20134299987275,47.5867620000633],[-122.20146500007147,47.58676299978079],[-122.20189100004382,47.5867649998216],[-122.20228100003116,47.58676699986233],[-122.20234299995545,47.58676699986233],[-122.20248299969754,47.586768000185614],[-122.20259800022357,47.586768000185614],[-122.20261099974408,47.58679000002237],[-122.20276300008001,47.586790999739314],[-122.20327199989305,47.58679299977905],[-122.20336200030474,47.58679400010185],[-122.2033659996044,47.586907000100254],[-122.2033659996044,47.58692400009499],[-122.20337900002316,47.58698500020887],[-122.20352600033625,47.5869859999221],[-122.20360099978102,47.5869859999221],[-122.20376700036068,47.5869870002412],[-122.20389200003417,47.58698799995439],[-122.20387799979046,47.58691500024103],[-122.20409299987561,47.58691500024103],[-122.20409600024865,47.586768000185614],[-122.20417300024157,47.586768999902986],[-122.20433499972494,47.586768999902986],[-122.20438999997656,47.58677000022624],[-122.2044159999158,47.58677000022624],[-122.20461900030539,47.58677099994357],[-122.20465899959004,47.58677099994357],[-122.20490200016262,47.58677200026678],[-122.20514499983686,47.586779999822326],[-122.20517300032427,47.586779999822326],[-122.20539000005923,47.586781000145365],[-122.2054229996712,47.586781000145365],[-122.20566500041885,47.58678199986249],[-122.20581500020668,47.58678300018549],[-122.2058450003439,47.58678300018549],[-122.20687399984062,47.586794999818714],[-122.20963600043736,47.586960999814984],[-122.21473399986186,47.58702100017321]]]},"properties":{"AREALAND":"213876","AREAWATER":"219274","BASENAME":"Beaux Arts Village","CBSAPCI":"N","CENTLAT":"+47.5852913","CENTLON":"-122.2049487","FUNCSTAT":"A","GEOID":"5304895","INTPTLAT":"+47.5853522","INTPTLON":"-122.2036463","LSADC":"43","MTFCC":"G4110","NAME":"Beaux Arts Village town","NECTAPCI":"N","OBJECTID":386,"OID":"27890836057915","PLACE":"04895","PLACECC":"C1","PLACENS":"02411673","STATE":"53","DISP_CLR":3,"slug":"beaux_arts_village","jurisdiction_key":"beaux_arts_village_city","county_fips":["53033"]}}]}
