{"type":"FeatureCollection","features":[{"type":"Feature","geometry":{"type":"MultiPolygon","coordinates":[[[[-122.80530400006143,47.54215799975068],[-122.80541899968914,47.538556000040174],[-122.80394400012861,47.53852200017413],[-122.80023000002805,47.538437999839765],[-122.80032700011245,47.53642899985704],[-122.80042300037188,47.53401999976703],[-122.80056099956583,47.53050300021421],[-122.80056599958871,47.53027200003561],[-122.8008309999026,47.52400699991386],[-122.79997099956198,47.52399499984566],[-122.79944300038068,47.523988000107956],[-122.7898569998304,47.523853999748944],[-122.78945000012463,47.52386199981622],[-122.78931000038254,47.52386500014442],[-122.78695299984177,47.52386300012783],[-122.78653299971721,47.52387799994706],[-122.78440200003052,47.52386799986583],[-122.7838289997451,47.52387100019373],[-122.77915100044517,47.52386900017737],[-122.77910299986627,47.52521300004345],[-122.77909199999561,47.525531999884635],[-122.77908500032294,47.52574700015317],[-122.77907699992701,47.52600000014179],[-122.77906699988125,47.52627600017143],[-122.7790490003379,47.52680200015388],[-122.77902599987337,47.527482000300864],[-122.7788869999562,47.5274799998156],[-122.77713000036337,47.527467999935354],[-122.77336199983611,47.5274410000431],[-122.76840599980352,47.52740999976777],[-122.76847699994863,47.52516500025122],[-122.76847299975066,47.52508599997939],[-122.76868500036109,47.517711000189855],[-122.76868799983583,47.51755199969881],[-122.76869200003378,47.517410000051115],[-122.76869700005668,47.51713400008934],[-122.76912300002903,47.516998000145755],[-122.76961900032155,47.516834000119694],[-122.76979199967559,47.51677700016818],[-122.77020099992951,47.51678000029487],[-122.77405300012232,47.51681299985736],[-122.77403899987861,47.514931000291355],[-122.77407400003872,47.51426399980663],[-122.7740930003053,47.51336500003695],[-122.77474600005837,47.513378000014455],[-122.77480600033283,47.51337899991922],[-122.7751539995891,47.51338200024024],[-122.77516199998499,47.513361999714945],[-122.77534299973495,47.51229100001319],[-122.77551400033748,47.51108099974261],[-122.77568900023968,47.510075999942586],[-122.77570099993524,47.51000900024248],[-122.77606499998332,47.51000900024248],[-122.77708299960936,47.51001200014939],[-122.7778459998656,47.51001300011829],[-122.77801800029306,47.51001400008722],[-122.77809100008798,47.506635000055624],[-122.77787299962979,47.5066249997219],[-122.77660599958338,47.50662799982222],[-122.77626400017496,47.506629999889],[-122.77637499960471,47.5059520001912],[-122.77643200040443,47.505732999913164],[-122.77643499987919,47.50535500011009],[-122.77648699975771,47.505025000069594],[-122.77652600011577,47.50478299981376],[-122.77661499980422,47.50478299981376],[-122.7794350001273,47.50478700008783],[-122.77954200025741,47.504781000283415],[-122.77953899988435,47.504478999937454],[-122.77948899965564,47.50107700026035],[-122.77946699991435,47.49945900019856],[-122.7793809997006,47.49738300014499],[-122.77929299983705,47.4949389998585],[-122.77917400001138,47.49210799974235],[-122.7790900003458,47.49124099998303],[-122.77862800038842,47.486493000167414],[-122.77855999971806,47.48584099986363],[-122.7784660000067,47.48486900027676],[-122.77838700036399,47.48405200013028],[-122.77931200010363,47.48404099988781],[-122.780287000072,47.484028999786226],[-122.78119099989522,47.4840270000726],[-122.7838580000574,47.48219000023481],[-122.78552799961163,47.481014000166994],[-122.7921659997923,47.476409999829784],[-122.78979900010408,47.474306000027894],[-122.78967500025551,47.47421200025944],[-122.78979099970819,47.47413800001335],[-122.79048600019235,47.47365899992902],[-122.79162699984205,47.472873000048075],[-122.7932920002717,47.47172800010998],[-122.79346399980085,47.4716069998995],[-122.7963960002769,47.47356699972232],[-122.79856700014653,47.472079999966255],[-122.7986700000787,47.47200900001084],[-122.79572900028012,47.470046000006526],[-122.79656899963096,47.4694669997262],[-122.79831299970331,47.46827000004426],[-122.79843499990206,47.46818600017224],[-122.79855399972774,47.46809900029337],[-122.79901800023325,47.46840800023658],[-122.80049100014396,47.46939099981467],[-122.80074300003903,47.469558000298655],[-122.80066000019835,47.46405899971673],[-122.80062400021335,47.4620119997475],[-122.80062400021335,47.46199400024607],[-122.80062400021335,47.46195400011724],[-122.80023300040111,47.461950000224135],[-122.7996350000013,47.461941000159904],[-122.79743900001729,47.461908000113624],[-122.79464600035675,47.46186700024815],[-122.79185299979787,47.46182500007134],[-122.78906000013728,47.46178400014112],[-122.78626599975351,47.461741999898],[-122.78551300044133,47.46173099984324],[-122.78347300009295,47.461700000228625],[-122.78068000043238,47.46165900020093],[-122.77791600018581,47.46161699985795],[-122.77788699987347,47.46161699985795],[-122.77783699964476,47.465411999714426],[-122.77782300029939,47.466597000279386],[-122.77615899969466,47.46554100006778],[-122.77592600006615,47.465414999740375],[-122.77513799969553,47.46541400013661],[-122.7751419998935,47.465065000012814],[-122.77459000042276,47.46488600021274],[-122.77377799976273,47.46475599985031],[-122.77331300033065,47.4647520001704],[-122.77299899961297,47.464749999723054],[-122.77250300021872,47.4648030000138],[-122.77244100029445,47.46480999975026],[-122.7724160001801,47.4691669999795],[-122.76806100002202,47.46921799979003],[-122.76704699969561,47.469231999907976],[-122.76704000002292,47.4656269997226],[-122.7670099998857,47.46562999973624],[-122.76627299956871,47.46563299974975],[-122.76544999993635,47.465598999991656],[-122.76521999978257,47.46557000003769],[-122.76445300022668,47.46547200020062],[-122.76356899959661,47.46530399988131],[-122.76296699989717,47.46511300011684],[-122.76240799985543,47.46494900013727],[-122.76191900013389,47.46475599985031],[-122.74153699978666,47.474781000155424],[-122.74126899999807,47.47492099970613],[-122.74126300015028,47.475714000026926],[-122.74126099960215,47.476344000275546],[-122.74123499966288,47.48370299992385],[-122.7511700001926,47.48413600013994],[-122.75129499986609,47.48414199987533],[-122.75133199967598,47.48722499979187],[-122.75137900042999,47.491525000292455],[-122.75137900042999,47.491564999768094],[-122.7462819999321,47.49129900007269],[-122.74606099999913,47.49128600008956],[-122.74600699957247,47.491327000072104],[-122.74599700042505,47.49133500024265],[-122.7455310002697,47.491692999949194],[-122.74551700002601,47.49170500012088],[-122.74626900041159,47.49185199987719],[-122.74629600017578,47.491866999742456],[-122.74629500035088,47.49206200002926],[-122.74629700000067,47.49492400026373],[-122.7461990000914,47.494919000195495],[-122.74135799968653,47.494694999929266],[-122.74121499957141,47.49469100010006],[-122.74112800043109,47.494750999933686],[-122.74097100007224,47.49485599978095],[-122.74127700039399,47.494867999836835],[-122.74136100005957,47.4950719997604],[-122.74142299998387,47.495223999842764],[-122.74144200025044,47.49639600012508],[-122.74137500030328,47.49647699974261],[-122.74120299987582,47.49668299993042],[-122.7412020000509,47.497265000171474],[-122.74120000040111,47.49835000024934],[-122.74121499957141,47.50197499981309],[-122.73612600036772,47.50175300016351],[-122.73616300017767,47.50542100023332],[-122.73617700042135,47.50678299991726],[-122.73617599969812,47.506844999948534],[-122.7363280000341,47.50693300002371],[-122.73652399985266,47.506924999802344],[-122.73685399956557,47.50691300007472],[-122.73701500012237,47.50697700000599],[-122.73722500018464,47.506987000272645],[-122.73726100016964,47.50697700000599],[-122.73751999973743,47.50689800025974],[-122.73780699979261,47.50691100001873],[-122.73819699977992,47.507048000037486],[-122.73788100031076,47.50761099979314],[-122.73781900038648,47.50771800004136],[-122.73778500005129,47.50778000018178],[-122.73783799975473,47.50790900028815],[-122.73800000013644,47.50802299997715],[-122.73820500017584,47.50809699982375],[-122.73833099967422,47.50826899986767],[-122.73838799957565,47.50834599997632],[-122.73864799986664,47.50844499995004],[-122.73884299986031,47.50870000023601],[-122.73907600038712,47.50890499980552],[-122.73915099983189,47.50909499999399],[-122.73918400034218,47.509179999983346],[-122.74143600040266,47.50924000024988],[-122.74145700031906,47.51033500004369],[-122.74146999983952,47.51099100004698],[-122.74171099986394,47.51115099973628],[-122.74216799979843,47.511455999745834],[-122.7420020001171,47.511569000286094],[-122.7414880002812,47.511922000111284],[-122.74149099975592,47.51203700011565],[-122.7415030003498,47.512301999799426],[-122.74120100022601,47.512508999704544],[-122.74100399968421,47.512371999984744],[-122.74088400003359,47.51229800009807],[-122.73632300001121,47.51542599989135],[-122.73632700020919,47.515582999818676],[-122.736328999859,47.516065999880254],[-122.73634899995048,47.519995999868534],[-122.72942500043784,47.52002299995297],[-122.72839199984486,47.52059499977978],[-122.7284560003173,47.52064800015866],[-122.72782899960514,47.52099499980533],[-122.72689299999486,47.521513999897316],[-122.72707200009503,47.52166200026614],[-122.72650999968023,47.521973999856144],[-122.72613300011167,47.52218299990672],[-122.7261070001724,47.522161000227946],[-122.72532200017486,47.52259600007772],[-122.72516800018907,47.52246800001253],[-122.72398800018131,47.523121000238646],[-122.72384800043922,47.523197000070425],[-122.72354899979017,47.52335599983322],[-122.72316700019874,47.52354799990029],[-122.72296399980915,47.523639000214224],[-122.72277300001346,47.52371699992437],[-122.72256600032424,47.52379599983147],[-122.72239399989677,47.52385700007761],[-122.7221789998116,47.52392700001414],[-122.72212299973512,47.523943999828646],[-122.72198600036609,47.52398400008408],[-122.7217770001287,47.52403999978386],[-122.7215660002415,47.524090999707596],[-122.72134299976042,47.5241400001823],[-122.72113500024628,47.52417899998271],[-122.72091599996318,47.52421599975104],[-122.72069599985517,47.52424700009424],[-122.72046800024953,47.52427500011454],[-122.72025099961624,47.52429500011988],[-122.72017000032369,47.52429999981669],[-122.72028599977631,47.52397899975051],[-122.72035199989857,47.52379900016344],[-122.72068900018243,47.52286999976454],[-122.72118299992687,47.521663999759994],[-122.72118299992687,47.52151300014752],[-122.72118299992687,47.521355999764204],[-122.72118399975179,47.52043300022427],[-122.72118399975179,47.52001499990692],[-122.72049500001368,47.52001299974355],[-122.7158920001585,47.52000399991748],[-122.7156090003013,47.52000399991748],[-122.7132230003465,47.51997899998796],[-122.71323400021716,47.52005000002351],[-122.71319099966112,47.523497999767216],[-122.71361400015876,47.523486999901415],[-122.71360999996081,47.523419000017974],[-122.71444400036214,47.52339700025093],[-122.71445600005772,47.523811000276474],[-122.71446100008059,47.52398600009605],[-122.71447299977616,47.52444000023389],[-122.71401599984166,47.52610800016812],[-122.71393700019894,47.52631599986183],[-122.71359400006726,47.527648000277225],[-122.71314200015564,47.52764599979828],[-122.71312200006417,47.528314999855134],[-122.71148500012193,47.5283220002286],[-122.71140599958089,47.52859899978617],[-122.71132500028835,47.52910999999046],[-122.70839799983517,47.5291089997789],[-122.70823700017668,47.5291089997789],[-122.7081610000087,47.5291089997789],[-122.70795099994643,47.5291089997789],[-122.70787800015148,47.52910999999046],[-122.70785200021221,47.530516000191376],[-122.70785300003713,47.530762999752206],[-122.70785499968694,47.53137599978263],[-122.70785499968694,47.53139399977714],[-122.70785800006,47.532290000120554],[-122.70786499973268,47.53451100017696],[-122.7075910000963,47.53451399989605],[-122.70737500018626,47.53452700009196],[-122.70514400004214,47.53451999994025],[-122.7052090003395,47.53815799997689],[-122.70360599983411,47.53816100009381],[-122.70362199972762,47.539069999716936],[-122.70257599961417,47.539071999760125],[-122.70262599984288,47.54179699984289],[-122.69997899977216,47.54180099972113],[-122.70003099965072,47.545435999986545],[-122.69737699990733,47.54543799978688],[-122.69738199993022,47.54589199978106],[-122.69472700036188,47.54589400017032],[-122.69472300016393,47.54544000019347],[-122.69405600016715,47.54544100009359],[-122.69338599979734,47.54544299989368],[-122.69337800029973,47.54542800017817],[-122.69278599974771,47.545433000285925],[-122.6904829996336,47.545455999805384],[-122.68420699985117,47.54548300012482],[-122.68291600041363,47.5454619998102],[-122.6817949999571,47.54547000021981],[-122.68068500026952,47.54547800002178],[-122.67964199963082,47.54548599982257],[-122.6795620001632,47.54586700006264],[-122.6794440001624,47.546429999878825],[-122.67933399965926,47.54679299976766],[-122.67932600016162,47.54682000000473],[-122.67927799958274,47.54696600016984],[-122.67910100003071,47.54750900006812],[-122.67871500024137,47.54747800013489],[-122.67871600006627,47.54761700006395],[-122.67871699989117,47.548046000089826],[-122.67715000026912,47.54804399978269],[-122.67640899975419,47.54804299993223],[-122.67632000006573,47.54804299993223],[-122.67579000033629,47.54804200008179],[-122.6750439997985,47.54804100023132],[-122.67342500029791,47.54803899992395],[-122.67342500029791,47.54802799974802],[-122.67337599989412,47.54789000015597],[-122.67348100037441,47.54756599997575],[-122.67334800030501,47.547518999886194],[-122.67302500026483,47.5479550002859],[-122.67281000017968,47.54803300021412],[-122.67217800034301,47.548178000184315],[-122.67206199999205,47.54827000005353],[-122.67194300016635,47.54840399987735],[-122.67163099999684,47.54905599993218],[-122.67099099976423,47.54904700023864],[-122.67075200028795,47.54904999973243],[-122.67015399988814,47.54904400013833],[-122.67014700021547,47.54911399980643],[-122.6699670002904,47.54912200026493],[-122.67001499997097,47.54970900018333],[-122.67000099972726,47.55089600008033],[-122.66999300022967,47.552019000290315],[-122.67001499997097,47.55237599984905],[-122.6699890000317,47.552715000062584],[-122.67010500038266,47.55278899993027],[-122.67010200000962,47.55301100011894],[-122.67009699998674,47.553145999700064],[-122.67009600016182,47.55318600011545],[-122.67044599996619,47.55329399993259],[-122.67060699962468,47.55334400015425],[-122.6706009997769,47.55356799990702],[-122.67056700034001,47.55359199984539],[-122.67056399996696,47.5536450002261],[-122.6705370002028,47.55407199994222],[-122.67051299991336,47.55472300008855],[-122.67050799989049,47.55538000011061],[-122.67050700006557,47.55609099980612],[-122.67050700006557,47.55660999998205],[-122.67050000039288,47.55682799980188],[-122.67048399960102,47.55737800011087],[-122.67049199999695,47.557613999853345],[-122.67015899991104,47.55776099992626],[-122.66954600034092,47.55783100007588],[-122.66954700016584,47.55791200005432],[-122.66954899981566,47.558012000124414],[-122.6695449996177,47.55810800015763],[-122.66995600041973,47.55817200008205],[-122.66995399987161,47.55831699988683],[-122.67015499971306,47.558369000078656],[-122.67035700027773,47.5585019998914],[-122.67070500043229,47.55873100007689],[-122.67119599980364,47.55908299996426],[-122.67168299987536,47.55943300003915],[-122.67178400015771,47.55963099977344],[-122.67182799964031,47.55971699995769],[-122.67202400035723,47.559859000248956],[-122.67223799971914,47.560015999943744],[-122.67263699992732,47.5603540002189],[-122.67306799992254,47.56064799973239],[-122.67306299989967,47.56096500000878],[-122.67303500031059,47.561077999987766],[-122.67319799961889,47.561108999757],[-122.67316800037997,47.56145999983413],[-122.67314800028849,47.562094999742094],[-122.67314599974034,47.562168999699345],[-122.67309999970959,47.562168999699345],[-122.67298400025696,47.5621680001184],[-122.67271800011818,47.5621680001184],[-122.67254800023888,47.5621680001184],[-122.67244500030671,47.5621680001184],[-122.67209899980197,47.5621680001184],[-122.67208299990847,47.5621680001184],[-122.67187600021921,47.5621680001184],[-122.67187700004413,47.56222300007727],[-122.67187600021921,47.562253000195845],[-122.67113499970426,47.56225099982479],[-122.67083299958048,47.56225000024536],[-122.67037999984395,47.56224799987418],[-122.67033800001116,47.56353099983919],[-122.67029799982818,47.563644999897846],[-122.67019900009399,47.56370499970144],[-122.6679539997062,47.563698999966604],[-122.66775799988763,47.563758999708355],[-122.66776700010844,47.56548700024016],[-122.66776700010844,47.56555699976542],[-122.66664499982701,47.565507000287276],[-122.66657899970478,47.565503999916984],[-122.66632199978685,47.56549299977017],[-122.66630599989328,47.565492000252654],[-122.66614299968667,47.56549299977017],[-122.6647309998753,47.56549799978209],[-122.6647309998753,47.56550799980451],[-122.66376699977762,47.5655100000512],[-122.66376699977762,47.56548399986877],[-122.66376699977762,47.56454799985959],[-122.66376699977762,47.56368299986226],[-122.66430999992585,47.563681999703995],[-122.66433000001733,47.56186699990474],[-122.66431199957567,47.56186699990474],[-122.66431499994872,47.56160299984243],[-122.66431599977362,47.56148699978932],[-122.66438400044402,47.56148699978932],[-122.66443799997236,47.56148699978932],[-122.66444499964504,47.56093700018013],[-122.66445200021604,47.56042599976983],[-122.66445399986588,47.560365000232466],[-122.66442799992662,47.56036700006938],[-122.66420699999368,47.56038299997415],[-122.66412800035097,47.56039899987404],[-122.6641309998257,47.56007999996232],[-122.66369700035573,47.56007199996425],[-122.663026000161,47.560031999955704],[-122.66249399988345,47.560039999959876],[-122.66248700021075,47.557611000243455],[-122.66249200023364,47.55636499970557],[-122.66231300013347,47.556387000192935],[-122.66203199992609,47.55642299997844],[-122.66170200021321,47.55643499990146],[-122.6608159999333,47.55644899980816],[-122.65960999998627,47.55646900027466],[-122.65949000033568,47.556462999711165],[-122.65947500026708,47.55522699992775],[-122.65947600009197,47.55507700026572],[-122.65940499994686,47.555033999717594],[-122.65926699985461,47.55495100009659],[-122.65923500006755,47.5549310002632],[-122.65869500029238,47.554602000120056],[-122.65717999965054,47.555742999850835],[-122.65680800010489,47.55551500025759],[-122.65670000014985,47.55544900009449],[-122.65662800017982,47.55540199979905],[-122.65805900025774,47.55443199985769],[-122.65823300033504,47.55431999982566],[-122.65812200000695,47.55424999983566],[-122.6580330003185,47.55420100021142],[-122.65792399964023,47.554147999786764],[-122.65781900005824,47.554083000062164],[-122.65748199977435,47.55387500015908],[-122.6571899996963,47.5536959998555],[-122.6567019997997,47.55339700017954],[-122.65621999975082,47.55310000012435],[-122.65614399958284,47.55305300014712],[-122.6534229998923,47.5513810001597],[-122.65210200031754,47.55056900028006],[-122.64753999957195,47.547754999768436],[-122.64622300019514,47.54829899982727],[-122.64469599985773,47.548936999884646],[-122.64392799957862,47.54918799990828],[-122.64325200025934,47.54941100001759],[-122.64251300029255,47.549638000277284],[-122.6410040003968,47.550041999979484],[-122.6402360001177,47.55021899980743],[-122.6347240004164,47.551463999978566],[-122.63377200001428,47.55166899980053],[-122.6332949999883,47.55176299977017],[-122.6330060002833,47.55181300024003],[-122.63252300040956,47.55189599998097],[-122.6322589999206,47.551936000137914],[-122.63177600004684,47.55200699996231],[-122.63151599975583,47.55203999979673],[-122.63102500038448,47.552100999931994],[-122.63077199976617,47.552127000087346],[-122.63021299972442,47.55218300005166],[-122.62994599976074,47.55220400009861],[-122.62950999974265,47.5522389999561],[-122.6291850000526,47.552267999958914],[-122.62900900032551,47.55228500028758],[-122.6285139998579,47.55235400010279],[-122.62802799961108,47.5524459999172],[-122.62755200030833,47.552561000215945],[-122.62708799980285,47.55269799987337],[-122.62664000008915,47.55285699992955],[-122.62620900009397,47.55303600006759],[-122.62579800019023,47.55323399972487],[-122.62540800020288,47.553452000252044],[-122.62522200043003,47.55356799990702],[-122.62484099976521,47.55380700026819],[-122.62443900008232,47.55396699972835],[-122.62399200019357,47.554055999928984],[-122.62365900010765,47.55407400001929],[-122.62332799967155,47.55405100003754],[-122.62300600035458,47.553991000090264],[-122.62265499982698,47.553882000151766],[-122.6223109998704,47.55378400016921],[-122.62195900041621,47.553702000129626],[-122.62159899966778,47.553636000108035],[-122.62123399979478,47.55358699990966],[-122.62066800008036,47.553550000249146],[-122.62049200035327,47.55353800027172],[-122.61993400013642,47.55354600005489],[-122.61937900029265,47.5535910001008],[-122.61894199955131,47.55364699971323],[-122.61871200029587,47.5536959998555],[-122.61856499998278,47.553733000019164],[-122.61848100031719,47.55375400005133],[-122.61840799962395,47.5537729999865],[-122.61825199998833,47.55381500001029],[-122.61810399985032,47.55385999982517],[-122.61795900008539,47.553908000029736],[-122.61781599997022,47.553959000009456],[-122.61767600022816,47.55401400009835],[-122.61753899996081,47.55407199994222],[-122.61744199987643,47.55411700014268],[-122.61727500037016,47.55419700006685],[-122.61698099974397,47.55436100028737],[-122.6167859997503,47.55448400026751],[-122.61646100006031,47.55472700019296],[-122.61610600023305,47.55506700007092],[-122.6157570002536,47.55549099998747],[-122.61480900004942,47.55650199972425],[-122.61438200025216,47.55690900011844],[-122.61436899983337,47.556922000217455],[-122.61378600040051,47.55747900026432],[-122.61281499973181,47.55829399994875],[-122.61179200008289,47.55907299992777],[-122.6109140001989,47.559738000016516],[-122.60993500003259,47.560264999803756],[-122.60878400033717,47.56088500011232],[-122.60718699967958,47.5617460000666],[-122.60712300010547,47.56177299987434],[-122.60524299959064,47.562595000090695],[-122.60458099961676,47.56290699984451],[-122.60387799963495,47.56324100019888],[-122.602931000154,47.5637869998472],[-122.60177399971248,47.564593000155334],[-122.60040299990901,47.565833000099275],[-122.59998500033258,47.56631200008599],[-122.59792499989273,47.568684000154754],[-122.59650899988341,47.57023699999994],[-122.59960299984284,47.57195300016079],[-122.60284800031334,47.57385999996976],[-122.60309199981249,47.57400300006591],[-122.60319899994263,47.57406400008556],[-122.60467100002842,47.57406500004555],[-122.60632999971199,47.574066000005516],[-122.60631700019151,47.57503799994413],[-122.60645100008581,47.575049999845575],[-122.60645899958342,47.57554599983086],[-122.60642799962129,47.57553100024722],[-122.6064229995984,47.57593099999685],[-122.60609500043365,47.57593099999685],[-122.60611899982479,47.57605999977507],[-122.60608299983976,47.5767069997782],[-122.60608000036505,47.577066999907416],[-122.60313199999547,47.57706400019938],[-122.60304300030701,47.577267000054384],[-122.60301300016978,47.57748800025852],[-122.6030220003906,47.57773100014384],[-122.60299999975099,47.57804300003383],[-122.60297899983459,47.578352000248394],[-122.60294899969738,47.57880300029856],[-122.60299200025338,47.57885000020391],[-122.60297999965951,47.579668000256824],[-122.60296799996395,47.579976999970604],[-122.60292399958303,47.581064000012944],[-122.60350600008928,47.58105600018982],[-122.60466500018063,47.58106000010156],[-122.60563699977594,47.58105399993087],[-122.60563500012613,47.58113600018375],[-122.60675499985945,47.58113600018375],[-122.60679699969224,47.58113600018375],[-122.60691600041622,47.58113600018375],[-122.60693800015754,47.58110100023932],[-122.60724000028132,47.58110500014758],[-122.60818500011244,47.5810829997394],[-122.60831599963369,47.58108000026145],[-122.60831099961082,47.581133000102874],[-122.60829800009034,47.58130599984063],[-122.60827100032618,47.58199999996324],[-122.60826200010534,47.58287200017879],[-122.60823500034115,47.58377099978681],[-122.60823699999098,47.583839999944445],[-122.61072500005302,47.58383600024511],[-122.6135899996836,47.58379999990804],[-122.61449400040516,47.58379900013396],[-122.61475600034598,47.583804000216006],[-122.61473999955413,47.58440999971696],[-122.61437499968116,47.5844089999545],[-122.61436899983337,47.58468800018826],[-122.61436800000847,47.584741999768525],[-122.6147360002545,47.584741999768525],[-122.61471699998792,47.58561900026734],[-122.61465400023873,47.58741600025918],[-122.61526199978596,47.58741800027504],[-122.6152500000904,47.58782600009458],[-122.61524199969448,47.58831899995015],[-122.61513000043979,47.58831800026234],[-122.61490699995872,47.58832200022504],[-122.6134890002996,47.58834799997523],[-122.6134630003603,47.58970599986977],[-122.61344800029173,47.58987400024945],[-122.61405400018911,47.589874999907494],[-122.61404900016623,47.59006100019299],[-122.61404699961811,47.59012299993927],[-122.6155520002142,47.5901450001834],[-122.61611499955558,47.59014700009498],[-122.61613299999723,47.58925699978216],[-122.61628399960998,47.58925899972767],[-122.61657999988597,47.58925800005785],[-122.6169320002385,47.58925699978216],[-122.616948000132,47.58925699978216],[-122.61693899991118,47.58832899985615],[-122.6188250002738,47.58835599989576],[-122.62078100005826,47.58835300022864],[-122.62156299968277,47.58835199993565],[-122.62157100007869,47.589794000280165],[-122.62014500002363,47.58978599997357],[-122.62015500006937,47.589569000051696],[-122.61901400041968,47.58956599984824],[-122.61881000020516,47.58956700011803],[-122.61880699983212,47.589650000027255],[-122.61879000011366,47.59012299993927],[-122.61880600000721,47.59168200026575],[-122.61878599991572,47.59182399992695],[-122.61871999979347,47.591981999754125],[-122.618959999993,47.59199200017194],[-122.61926600031472,47.59200399982262],[-122.61955199964669,47.59199200017194],[-122.61975199966324,47.59198400020134],[-122.61965399975394,47.59494099983862],[-122.61964899973107,47.595139999993876],[-122.61875800032664,47.59513700010979],[-122.61849700021072,47.59513700010979],[-122.61848700016496,47.59562799984998],[-122.61873999988498,47.59562900000392],[-122.6196350003857,47.59563499971552],[-122.61987399986195,47.595637000023096],[-122.62028499976572,47.59563000015783],[-122.62104600037212,47.595642000185904],[-122.62132300038157,47.59564399988742],[-122.62121200005348,47.59922900015355],[-122.62114099990836,47.60072299996559],[-122.62112400018994,47.60171700009057],[-122.62110099972541,47.60252399993835],[-122.6210940000527,47.602669999935735],[-122.62108200035715,47.602922999974545],[-122.6210520002199,47.6035349998135],[-122.62101000038712,47.60435999985341],[-122.62096600000619,47.60534199969787],[-122.62090999992968,47.60687400009316],[-122.62224499974815,47.60687899978772],[-122.62339299996884,47.60687799984884],[-122.6235019997488,47.606881000271095],[-122.62360499968096,47.60687899978772],[-122.62497800003256,47.60689699989558],[-122.62884000027113,47.60688799984243],[-122.6319219996367,47.60689699989558],[-122.6321269996761,47.60689400007991],[-122.63389500003792,47.60686599997518],[-122.63403399995512,47.606867999853385],[-122.6340690001152,47.606868999792454],[-122.63408500000872,47.606868999792454],[-122.63408599983362,47.60685300015936],[-122.63418499956784,47.60685200022002],[-122.63439700017825,47.60328899975899],[-122.6345829999511,47.600178000228865],[-122.63507500004569,47.600178000228865],[-122.63629500023642,47.60017700016189],[-122.63721699960301,47.60017700016189],[-122.63714899983096,47.60129199997236],[-122.63966000035752,47.60139599977309],[-122.63978699968082,47.60139000011634],[-122.63979900027469,47.60122199975716],[-122.63980199974944,47.60113000019715],[-122.63982100001598,47.600574999867305],[-122.6398340004348,47.600400000086736],[-122.6398639996737,47.60002399998693],[-122.6398700004198,47.59991400005579],[-122.6398849995901,47.59962799987927],[-122.63990499968159,47.59923500005807],[-122.64140199988177,47.59923500005807],[-122.64362499962992,47.599230000238656],[-122.64392000008102,47.599230000238656],[-122.64423300007549,47.59922900015355],[-122.64459799994846,47.59922900015355],[-122.64471199975127,47.59922900015355],[-122.64473199984276,47.59922900015355],[-122.64483700032307,47.599182999852886],[-122.64495799979858,47.599159000206726],[-122.64531000015107,47.59916500011932],[-122.6453059999531,47.59922800006843],[-122.64529699973228,47.59934500020536],[-122.64506400010376,47.603004999887375],[-122.65020599990922,47.60301199997738],[-122.65042799966704,47.60301299999017],[-122.65065399962286,47.59994299971313],[-122.6516219999185,47.59994100017591],[-122.65292900014789,47.59993799996136],[-122.65304999962339,47.59993799996136],[-122.65329900004376,47.59993799996136],[-122.65423100035439,47.5999349997466],[-122.65380399965882,47.59920900026482],[-122.65581300004504,47.599209999744545],[-122.65612600003949,47.59920900026482],[-122.65617999956787,47.59920900026482],[-122.6570209996419,47.5989600001925],[-122.65858599961412,47.59867900012532],[-122.6590839995565,47.59857900015984],[-122.65909000030263,47.59832400010967],[-122.6591599997245,47.5980690000282],[-122.65925799963377,47.59773899993085],[-122.65933600034991,47.59732599985037],[-122.65935200024343,47.59729300007145],[-122.65924099991535,47.59681799988312],[-122.65908100008176,47.59625899988851],[-122.65908699992954,47.595553999916284],[-122.65902500000529,47.59424200015406],[-122.65885799960068,47.592602999840224],[-122.6588710000195,47.59210199979494],[-122.65748199977435,47.591889999698026],[-122.65645199955443,47.59132599979673],[-122.65553199983766,47.591779000007755],[-122.65503399989531,47.59198400020134],[-122.65419500036937,47.592373999918856],[-122.65390300029132,47.59251399969885],[-122.65379899963592,47.59256299983624],[-122.6535350000453,47.59257399974952],[-122.65337900040971,47.5925799998114],[-122.65159699980416,47.59265000007848],[-122.65159000013148,47.592587000084656],[-122.6510290004399,47.592608000292955],[-122.65080599995882,47.59260599986958],[-122.65080900033186,47.59197699984742],[-122.65070600039972,47.59197800007114],[-122.64981699974679,47.591981999754125],[-122.64850299984472,47.59199800030054],[-122.64839599971458,47.59199800030054],[-122.64839700043782,47.59195799983412],[-122.64839999991256,47.59187900024681],[-122.64842099982896,47.59053700017356],[-122.64842699967674,47.59018299970204],[-122.64818300017757,47.590175999713054],[-122.6477479999844,47.590178000229265],[-122.64771799984717,47.59017699997119],[-122.64737399989059,47.59017500006076],[-122.64709199985828,47.59017300015026],[-122.64699700032203,47.59017199989204],[-122.64699800014695,47.590143000271745],[-122.64568500006978,47.59010700003132],[-122.64568000004694,47.58975000009344],[-122.64566900017628,47.589112000196764],[-122.6456659998032,47.588651000049346],[-122.64517200005879,47.5886490000806],[-122.64516799986085,47.587778000067054],[-122.64698899992611,47.58779099977591],[-122.64698800010119,47.58791099973243],[-122.6477129998243,47.58762200027943],[-122.64805599995599,47.587498000240856],[-122.64982699979254,47.586489999854855],[-122.65008999955826,47.58633399986382],[-122.65015400003067,47.586298000032876],[-122.65019300038874,47.58632999974918],[-122.65089100034764,47.58689299985097],[-122.65146799993273,47.587691000207876],[-122.65152700038229,47.587776000064956],[-122.65204799989085,47.58838299992142],[-122.65242100015978,47.58881799989626],[-122.65257000012271,47.58892099997515],[-122.65305800001931,47.58925899972767],[-122.65360700001531,47.589798999789565],[-122.65376400037417,47.5899540000965],[-122.65541399983688,47.59048400015955],[-122.65674799983043,47.59061200018172],[-122.65927299970241,47.59084200018279],[-122.6600550002252,47.59092699976934],[-122.66103600004132,47.58980900001866],[-122.66161400034966,47.588186999800044],[-122.66175800028972,47.58719799989009],[-122.6619359996666,47.58643499993048],[-122.6622160000491,47.584751999752044],[-122.66227100030068,47.5825119999713],[-122.66171499973369,47.580649000153265],[-122.66161400034966,47.580242999824485],[-122.66155499990012,47.580066000222494],[-122.66140400028738,47.58008700000117],[-122.65991999960767,47.58028499983737],[-122.65982699972126,47.58019199998],[-122.65982699972126,47.58017100024348],[-122.6596950003751,47.58000999976164],[-122.65969399965185,47.57975999998182],[-122.65969200000207,47.57954500001627],[-122.65969200000207,47.579519000135384],[-122.65969299982696,47.579453999770564],[-122.6597460004287,47.57939700000888],[-122.65972700016215,47.57910900007282],[-122.6605759997338,47.57910099995096],[-122.66057300025905,47.5786079999313],[-122.66084100004765,47.57860700005802],[-122.66084000022276,47.57838800009003],[-122.66110700018646,47.57838800009003],[-122.66111100038441,47.57883999969894],[-122.66204399962166,47.57883899983014],[-122.662040000322,47.57838599972915],[-122.66244600020288,47.57838599972915],[-122.66244600020288,47.577846999978206],[-122.66232400000413,47.577846999978206],[-122.66232400000413,47.57739100008909],[-122.66110100033868,47.57739299988197],[-122.66110100033868,47.576480999738685],[-122.6611740001336,47.576480999738685],[-122.6611740001336,47.57602500007333],[-122.6613850000208,47.576024000150774],[-122.6613850000208,47.57556800014169],[-122.66110100033868,47.57556900007296],[-122.66110100033868,47.5753410000987],[-122.66044500021255,47.575342000034304],[-122.66044500021255,47.57511400028361],[-122.65969299982696,47.575108000037574],[-122.6597229999642,47.57274699984251],[-122.65975399992634,47.57242000004163],[-122.65971299991844,47.5723759997958],[-122.66047600017468,47.5723759997958],[-122.66047600017468,47.57244299983863],[-122.66108899974478,47.57244199984767],[-122.66109399976767,47.57237499980357],[-122.66248200018791,47.57238099975675],[-122.66247999963974,47.57245599971938],[-122.66256800040162,47.57245699971007],[-122.66333900015546,47.57245599971938],[-122.66333900015546,47.573415000206616],[-122.6641090000844,47.57341400023417],[-122.66421700003943,47.57341300026175],[-122.66422100023738,47.57369500021269],[-122.66422100023738,47.57382400004505],[-122.66422100023738,47.57385700007796],[-122.66422600026024,47.57534399990544],[-122.66422600026024,47.57541400019581],[-122.66512199968757,47.57541099978705],[-122.66513099990841,47.575908999838525],[-122.66512500006063,47.57623600027523],[-122.66601800001321,47.57623199999498],[-122.6663410000534,47.57623199999498],[-122.6663410000534,47.576187999922034],[-122.66690500011799,47.57618700000259],[-122.66690400029309,47.57581899986591],[-122.66680300001074,47.57581999979238],[-122.66680300001074,47.57508299971195],[-122.66769199976538,47.57508400025851],[-122.66778999967468,47.575085000199024],[-122.6677939998726,47.57532200010653],[-122.66780899994124,47.5764330002161],[-122.66782800020782,47.57697800001154],[-122.66886599992537,47.57882300010873],[-122.66914799995767,47.57934599994627],[-122.66925599991268,47.57933299995801],[-122.6695449996177,47.57932200029171],[-122.66994100035113,47.5793079998317],[-122.66998999985661,47.57930699997179],[-122.66999099968153,47.5794040002275],[-122.67047699992835,47.57940299976349],[-122.67060699962468,47.57940199990543],[-122.67071999960258,47.57940199990543],[-122.6711659996664,47.57940199990543],[-122.67116700038964,47.578809999990604],[-122.6713530001625,47.578707000012756],[-122.67185100010485,47.57843100025563],[-122.67210800002282,47.578323000139115],[-122.6722610001837,47.57833999989167],[-122.67239900027595,47.57832800013819],[-122.67263100007953,47.57832999989528],[-122.67278400024041,47.57832200026039],[-122.67286899973092,47.578309000017924],[-122.67289200019545,47.57830599977499],[-122.67306399972459,47.57825399998164],[-122.67320600001479,47.57827200024229],[-122.67320900038784,47.57836800011374],[-122.6732129996875,47.57896400025026],[-122.67321799971037,47.57916799987313],[-122.67322199990834,47.57946400015825],[-122.67322699993119,47.57986599985972],[-122.67276199960078,47.580804000288616],[-122.67277699966941,47.581413000043824],[-122.67286399970803,47.58196700021461],[-122.67294900009685,47.58291300010937],[-122.67282799972303,47.583362999867546],[-122.67274700043049,47.58366499993829],[-122.67281500020255,47.58409899997047],[-122.67275099973013,47.58490600010478],[-122.67285000036266,47.5851479997437],[-122.67262299968361,47.5855129999196],[-122.67287700012685,47.58618400020297],[-122.67275900012608,47.58734400024324],[-122.67269999967651,47.588272999752],[-122.6725159995535,47.58931100010173],[-122.67270600042262,47.59015499974052],[-122.6728469999896,47.59062400014883],[-122.67246500039818,47.59137600007005],[-122.67209399977911,47.59246300029837],[-122.67265100017104,47.59292499978847],[-122.67245799982716,47.59440699998027],[-122.67240099992576,47.59484500006846],[-122.67242199984217,47.59486499980792],[-122.67317400022776,47.59532800006027],[-122.67353499990276,47.59611600000128],[-122.67396300042327,47.59705100024906],[-122.6788590001814,47.59767100003763],[-122.68200699966921,47.59681100017585],[-122.68233200025753,47.596550999914385],[-122.68245399955794,47.59645299979276],[-122.682857999789,47.59612299980153],[-122.68314700039231,47.595890000149446],[-122.68310300001139,47.59488200024683],[-122.68626800011593,47.59513700010979],[-122.68811799959522,47.59528600000092],[-122.68904999990583,47.59616499979486],[-122.68925599977017,47.59635299981329],[-122.69055100030397,47.596355000093425],[-122.69090199993326,47.59635600023341],[-122.6909329998954,47.59635600023341],[-122.69095999965958,47.59635600023341],[-122.69155300003649,47.596356999767686],[-122.69183000004594,47.596356999767686],[-122.69193499962792,47.596356999767686],[-122.69217800020049,47.596357999907646],[-122.69275300013574,47.596357999907646],[-122.69332499969796,47.59635900004762],[-122.6935790001412,47.59635900004762],[-122.69544399968906,47.596349999998736],[-122.6955109996362,47.596349999998736],[-122.69626700021976,47.59634600004381],[-122.69640600013693,47.59634600004381],[-122.69783600038996,47.59634300022886],[-122.69863200025817,47.59633400017722],[-122.69887900013038,47.59633300003677],[-122.69895100010038,47.5963309997558],[-122.69896199997103,47.5959729997233],[-122.69902700026839,47.593816999894635],[-122.69905499985747,47.59293500002609],[-122.69924400000335,47.588978999948026],[-122.69941700025572,47.58545399999889],[-122.69941899990552,47.585373999938554],[-122.69942200027857,47.58528000028705],[-122.69943200032431,47.584984000165676],[-122.69951599998991,47.58440399993024],[-122.69956100019576,47.58409699982779],[-122.69956200002068,47.584044999726906],[-122.69966199957977,47.581206000002396],[-122.69967499999856,47.5809120001351],[-122.7010509998249,47.58091099969995],[-122.70161800026257,47.58090999987066],[-122.70158099955434,47.58181899978254],[-122.70173200006539,47.58181899978254],[-122.70169299970733,47.582948000054266],[-122.70346000024423,47.582948000054266],[-122.70346899956675,47.58272600007662],[-122.70478699966678,47.58272500028203],[-122.70485399961392,47.58091399979355],[-122.70569100038831,47.58090699977683],[-122.70652499989136,47.580905999947504],[-122.70660699990715,47.580905999947504],[-122.70666399980854,47.58078700012416],[-122.70674499999937,47.58061799982876],[-122.70682799984006,47.580565000071964],[-122.7071480004055,47.58066800003037],[-122.70732499995754,47.58071900001714],[-122.70772900018856,47.58083599972773],[-122.70797500023585,47.58088499989141],[-122.70856000021686,47.5808879999865],[-122.71011799961809,47.58086900018927],[-122.710378999734,47.58081200015025],[-122.71046400012283,47.58076800029028],[-122.71064700042092,47.58067599991275],[-122.71091799968427,47.58047399978122],[-122.71114399964009,47.58030399984653],[-122.71172899962107,47.57986699970891],[-122.71212199998146,47.57966199992666],[-122.71219099957845,47.57962999976998],[-122.71234200008948,47.579560000268],[-122.71255499962652,47.5795039998719],[-122.71288600006262,47.5795180002795],[-122.71334800001998,47.57960899980804],[-122.71371299989298,47.57972799988503],[-122.71402099986453,47.57988800017335],[-122.71411999959875,47.57993899970803],[-122.71441000002694,47.580152000186054],[-122.71466399957187,47.58042499983884],[-122.714778000273,47.580613999883305],[-122.71487399963414,47.58084400019044],[-122.71500800042676,47.581309999733236],[-122.71506500032818,47.58181000026276],[-122.71532800009392,47.58084800011834],[-122.71545399959228,47.58064299993552],[-122.71547100020904,47.58028799996683],[-122.71548499955442,47.579992000098564],[-122.7154889997524,47.57990400017528],[-122.7154960003234,47.579759000130586],[-122.71549899979813,47.57969400006378],[-122.71551899988961,47.57929300011371],[-122.71551999971453,47.5792689998289],[-122.71553300013332,47.578994999736196],[-122.71553499978315,47.57892900006573],[-122.71638599990294,47.5783970001981],[-122.716453999675,47.57835499988264],[-122.71671999981378,47.57819499975735],[-122.71734900017572,47.5770789999499],[-122.71864499963613,47.57633400007698],[-122.71889900007933,47.576187999922034],[-122.71912099983719,47.57606100030296],[-122.7194609995958,47.575980999826434],[-122.71986300017703,47.575887000276985],[-122.72007099969116,47.57583900020983],[-122.72020100028583,47.57580800006739],[-122.72030199966986,47.57579299995273],[-122.72042800006655,47.57579599973362],[-122.72049800038674,47.57580800006739],[-122.72055600011306,47.575825000030484],[-122.72061999968717,47.57585099992777],[-122.72066599971794,47.57587699981212],[-122.72072400034254,47.57592200007092],[-122.72076399962721,47.575969000138336],[-122.72078999956646,47.576016000163605],[-122.72080299998527,47.57605299971537],[-122.72080700018323,47.57608000002694],[-122.72081200020611,47.576197999721494],[-122.72081600040406,47.57632299978062],[-122.72082200025184,47.576480999738685],[-122.72082399990168,47.57653599981935],[-122.7208259995515,47.57659500009506],[-122.72082800009963,47.57664699971804],[-122.72082899992455,47.57667299981314],[-122.72083099957436,47.57668800028169],[-122.72083499977232,47.576703000139915],[-122.72085099966584,47.5767389999034],[-122.72086999993242,47.57676699976962],[-122.72090000006966,47.576797000042575],[-122.7209310000318,47.57681899982775],[-122.72097799988745,47.5768439999306],[-122.72103399996396,47.576863999883024],[-122.72109099986535,47.57687500006572],[-122.72114899959168,47.57687900029685],[-122.72119499962244,47.576876999878316],[-122.72125400007198,47.57686800011503],[-122.72132000019421,47.576849000070915],[-122.72265400018776,47.57642100002557],[-122.72305199967272,47.575776999906545],[-122.72444099991786,47.57454100004436],[-122.72446400038237,47.574295999988216],[-122.72458999988075,47.572983000048204],[-122.72466299967567,47.572213000202105],[-122.72469600018596,47.57186400005753],[-122.72478999989731,47.570877999703214],[-122.72484799962363,47.57027500003091],[-122.72493600038548,47.56935000012057],[-122.72496899999743,47.569238999906226],[-122.72504099996746,47.56899700006499],[-122.72542599993194,47.56770900022525],[-122.72560300038224,47.56711600014913],[-122.72561000005496,47.56707299978338],[-122.7256910002458,47.5665849997701],[-122.72576200039092,47.56615899970084],[-122.72582799961486,47.565761000099705],[-122.72676400012344,47.56513900025934],[-122.7271060004302,47.56477100007066],[-122.72738900028743,47.564465000155636],[-122.72759099995378,47.564248000132935],[-122.72764399965723,47.56419000003609],[-122.72767100031973,47.564131999874974],[-122.72812300023135,47.56307500015462],[-122.72861699997576,47.56191800001832],[-122.72889999983298,47.56018199998191],[-122.72907499973518,47.55910800004714],[-122.72924200013975,47.5580719997111],[-122.72953199966966,47.55629999969976],[-122.7295559999591,47.55613600009153],[-122.72956000015705,47.55598100029306],[-122.72954799956318,47.555858000189296],[-122.72951699960103,47.5557190002914],[-122.72945800004982,47.5555550000772],[-122.72940600017128,47.55545199982811],[-122.72932199960738,47.55531900015467],[-122.72921600020048,47.555186000143614],[-122.72914099985739,47.55510599991056],[-122.72902000038188,47.554994999824416],[-122.72886700022103,47.55488000001697],[-122.72869300014375,47.554771000108836],[-122.72852200043953,47.554681999910066],[-122.7283099998291,47.55459300016636],[-122.7281130001856,47.55452700005446],[-122.7278310001533,47.55445600000663],[-122.72765399970297,47.554424999938476],[-122.72744500036393,47.55440099977533],[-122.72722100005794,47.554388000263394],[-122.72699900030008,47.55438999972214],[-122.7267619995753,47.554406999968734],[-122.72651600042632,47.55444200017368],[-122.72626299980803,47.55449699975567],[-122.72608000040822,47.5545510001599],[-122.72587500036882,47.554626000191135],[-122.72392299988398,47.555497000056015],[-122.72350699995738,47.55568199971121],[-122.723045,47.55588900001596],[-122.72274799989911,47.55602200006141],[-122.72261800020276,47.556074000105895],[-122.72213899962864,47.55625900014893],[-122.72038899970846,47.55693799996179],[-122.72008199956181,47.55706200023993],[-122.71980100025274,47.557192999775005],[-122.71956899955086,47.55731500010262],[-122.7193409999452,47.55745200006229],[-122.719166000043,47.55756900023103],[-122.71898399956984,47.557708000071216],[-122.71887399996496,47.557793000110166],[-122.71875299959116,47.557899999863324],[-122.71853599985617,47.55811200000364],[-122.7183679996267,47.55830699970414],[-122.71821199999107,47.558517999759495],[-122.71802100019535,47.558845999919605],[-122.71792699958571,47.559052000208624],[-122.717699999805,47.55957300002061],[-122.71758500017727,47.55983700000706],[-122.71733099973406,47.560422000100466],[-122.71668999967653,47.56189300006393],[-122.71594499986196,47.56360100015983],[-122.71590300002917,47.56499699973188],[-122.71588799996056,47.56550299979354],[-122.715836000082,47.56723500013148],[-122.71583000023423,47.56744100016477],[-122.71582199983831,47.567714000025646],[-122.71580199974684,47.56839900029024],[-122.71579699972395,47.5685369998186],[-122.71578900022634,47.568811000088225],[-122.71578199965536,47.5690510000714],[-122.71578099983044,47.56908500013665],[-122.71577699963247,47.569222000229416],[-122.71576499993692,47.569633000175834],[-122.71576099973895,47.5697700000473],[-122.71575200041644,47.570043999927364],[-122.71574800021847,47.57018099993595],[-122.71573999982257,47.570456000119016],[-122.71573599962457,47.570593000262],[-122.715728000127,47.57086700007889],[-122.71505500028242,47.570868000099935],[-122.71299300019274,47.57087000014194],[-122.7117870002457,47.570865000036775],[-122.71179100044368,47.57087999974484],[-122.71181300018497,47.570958000096944],[-122.71183800029934,47.57104399986874],[-122.7118650000635,47.571129000089336],[-122.71189400037585,47.57121500018641],[-122.71192600016288,47.571299000116724],[-122.71195999959974,47.57138399992344],[-122.71199599958477,47.57146800018876],[-122.71207199975272,47.57163100028309],[-122.71195600030012,47.57165699983849],[-122.71181999985768,47.571690000024844],[-122.71207099992783,47.57226999990574],[-122.71183400010136,47.57226999990574],[-122.71157200016056,47.57174400028492],[-122.71150500021339,47.57160300009473],[-122.71146599985533,47.57151299999405],[-122.71142900004541,47.57142199972826],[-122.71139399988533,47.5713319999226],[-122.71136200009828,47.57123999993443],[-122.71133199996105,47.57114899980035],[-122.71130500019686,47.57105700009678],[-122.71127900025759,47.570965000231595],[-122.71125499996815,47.57086600005785],[-122.71031799963463,47.57087200018392],[-122.70855400036908,47.570877000288405],[-122.70787099958048,47.570877000288405],[-122.70767200028718,47.570877000288405],[-122.70765800004347,47.570667999754946],[-122.70763399975401,47.570328999931796],[-122.70761299983761,47.57002699990574],[-122.70759500029428,47.56977999986022],[-122.7075769998526,47.569524000048624],[-122.70756599998195,47.56936899985517],[-122.70754199969251,47.56901599992768],[-122.70751800030138,47.56882300020443],[-122.7073919999047,47.56854699986689],[-122.70732900015548,47.56840999982679],[-122.7072239996752,47.56829100008957],[-122.70710800022255,47.56823699990569],[-122.70688800011453,47.56821500015157],[-122.70672599973281,47.56822899994108],[-122.7065209996934,47.56824700001127],[-122.70634800033936,47.56826199986307],[-122.7062679999734,47.56827500017556],[-122.7061680004143,47.56830900013846],[-122.7060069998575,47.56841199996266],[-122.70580199981809,47.56854899999754],[-122.7054920001967,47.56875599977303],[-122.70532300014231,47.56886999997641],[-122.7051759998292,47.56896800022939],[-122.7052589996699,47.56524100012745],[-122.70528299995931,47.564163000261715],[-122.7052949996549,47.56362300003345],[-122.7052949996549,47.5636120000978],[-122.7053020002259,47.562701000164964],[-122.70530800007369,47.56187100006997],[-122.70530800007369,47.561844999899854],[-122.70512599960051,47.56184600009315],[-122.70510700023222,47.56176399993996],[-122.70511399990492,47.56170600012375],[-122.7051959999207,47.56158799990227],[-122.7060550004364,47.560340999759],[-122.70626700014851,47.55996700025555],[-122.70665799996075,47.55996799987848],[-122.70666200015873,47.55971200000019],[-122.70659900040951,47.55971200000019],[-122.70666100033381,47.55899800019943],[-122.70670800018947,47.55886799997141],[-122.70670900001438,47.55878299985779],[-122.70671400003724,47.5578880002758],[-122.70671700041031,47.55753100007535],[-122.70554200042541,47.55753100007535],[-122.70554300025033,47.55744100004337],[-122.70554400007522,47.55737299993015],[-122.7055480002732,47.55687599971268],[-122.70554999992302,47.55655100022806],[-122.70555199957286,47.556324000205606],[-122.70534999990647,47.556324000205606],[-122.70536400015018,47.55439599991681],[-122.70537699967066,47.55269700011173],[-122.71069799957624,47.55269799987337],[-122.71072500023874,47.549066999892354],[-122.71247099996094,47.549066999892354],[-122.7160460001443,47.54906500023047],[-122.71600799961118,47.555746000173926],[-122.7164600004211,47.555201999811814],[-122.71637199965923,47.55516799982902],[-122.71739500020647,47.55395999974702],[-122.71746800000142,47.55398800027297],[-122.71779100004159,47.554112999991695],[-122.71800399957861,47.553852999829545],[-122.71829300018192,47.55349899987142],[-122.71877699988059,47.55293100020301],[-122.72002899985836,47.55179599975824],[-122.72078999956646,47.55104600019048],[-122.72117000040639,47.550588999959324],[-122.72137700009564,47.550221000031605],[-122.721550000348,47.54980500027062],[-122.72175600021231,47.54901399973225],[-122.72393899977749,47.549011000236405],[-122.73622099990396,47.548875999704606],[-122.73624400036852,47.54526900001883],[-122.74158299981744,47.54523199994312],[-122.7415309999389,47.548922999789966],[-122.74143200020468,47.55608299980522],[-122.74140100024255,47.55832899998232],[-122.74137199993024,47.563285999798886],[-122.74664299960709,47.56327099973444],[-122.75160100018782,47.563257999998434],[-122.75187099962626,47.56325900016475],[-122.75449500013075,47.563249999879474],[-122.75711999956182,47.56324199975935],[-122.76023500033598,47.56328000001611],[-122.7628210003073,47.5633100001355],[-122.77299000029043,47.563432999718124],[-122.7730150004048,47.55983599977541],[-122.77429499997166,47.559849999985815],[-122.77829500030248,47.55989199998833],[-122.77830100015026,47.55925300029266],[-122.7783029998001,47.55915699993253],[-122.7783029998001,47.55879600009806],[-122.7783089996479,47.558158000029486],[-122.77831100019603,47.55784399994614],[-122.77831299984582,47.55776099992626],[-122.7783220000667,47.556687999760385],[-122.77832799991445,47.556291000037696],[-122.77833100028751,47.556136999787554],[-122.77834600035611,47.55268999996075],[-122.77878499984897,47.5526949999821],[-122.7791199995847,47.55269700011173],[-122.78361700003298,47.55271599982388],[-122.78362100023095,47.5522389999561],[-122.78363399975142,47.55051899983594],[-122.78364499962208,47.549112000146394],[-122.78364499962208,47.54910299985612],[-122.78378400043756,47.545514000025186],[-122.78446599960463,47.54552400022387],[-122.78912399971139,47.54555799979368],[-122.7889200003952,47.549117999732665],[-122.79386399983393,47.549183999987385],[-122.79434900025583,47.549188999736856],[-122.79435699975342,47.54898399991531],[-122.79450900008939,47.545597999937],[-122.7999229998814,47.54566999975427],[-122.80472599975309,47.545733999710954],[-122.80517500018999,47.54574000029032],[-122.8051769998398,47.54561699979733],[-122.80520600015215,47.5448439999523],[-122.80529700038873,47.54241000005573],[-122.80530400006143,47.54215799975068]],[[-122.75735899993643,47.50644400002734],[-122.75669100011471,47.50643100015268],[-122.75623500000513,47.50640599982445],[-122.75589900044447,47.5063869997127],[-122.75560099962033,47.50637099970908],[-122.75554299989403,47.506851000123824],[-122.7534080000094,47.50832099995343],[-122.75270599985254,47.50784600028994],[-122.75248800029264,47.50769199970621],[-122.75166300011209,47.508257999842925],[-122.75177500026513,47.50965399973417],[-122.75076400031173,47.50959000003317],[-122.74783600003366,47.509477000086086],[-122.74771499965982,47.507614999851704],[-122.74769700011649,47.50733099978999],[-122.74768100022293,47.50704399993572],[-122.74692800001246,47.50756599972001],[-122.74688299980662,47.507597000192554],[-122.74630600022151,47.5072310001204],[-122.74410199984162,47.50575599985509],[-122.74627799973412,47.50585199971487],[-122.7465720003603,47.505867999876685],[-122.7471709996867,47.50626899995049],[-122.74736499985546,47.506134999847454],[-122.74742299958176,47.50617300024657],[-122.74811200021817,47.505953000237504],[-122.74859199971887,47.505800000217164],[-122.74880000013133,47.505671999833744],[-122.74841500016687,47.505402999821754],[-122.74763000016932,47.504852999711574],[-122.74738199957389,47.50467899986255],[-122.74630000037375,47.50392299995296],[-122.74630000037375,47.50367899989925],[-122.74630100019867,47.50230299998281],[-122.74630200002356,47.50220100020879],[-122.75008100042145,47.50486800011095],[-122.7506909996185,47.504502999895855],[-122.75129499986609,47.504129000055464],[-122.75147899998908,47.50425000000988],[-122.75163100032506,47.50435099997388],[-122.75178600013575,47.504243000065216],[-122.75188999989284,47.504171999880654],[-122.75231199966721,47.50433600003357],[-122.75240600027685,47.50436699998636],[-122.75252099990458,47.50437399991444],[-122.75383900000462,47.504444999825836],[-122.75385499989814,47.504445999900845],[-122.75602800031591,47.50456300004734],[-122.75666500017546,47.504597000082526],[-122.75733299999713,47.504608000267645],[-122.75733600037019,47.50486100024876],[-122.75735899993643,47.50644400002734]],[[-122.69464600017103,47.56362099971471],[-122.69285100004504,47.56503999998346],[-122.69463000027751,47.56502999987174],[-122.69463699995022,47.56638799975463],[-122.69447799994155,47.56641500020058],[-122.6942910003438,47.56644699994777],[-122.69388100026498,47.56649299992893],[-122.69409899982486,47.56683700022045],[-122.694277999925,47.56732099995558],[-122.6943480002452,47.56762800024075],[-122.6943890002531,47.56796499981671],[-122.69446299987291,47.5683909997443],[-122.69450499970571,47.56880300021128],[-122.69450800007877,47.568827999898446],[-122.69451300010167,47.56907400013577],[-122.69383500023422,47.56907799975067],[-122.69194499967368,47.56908500013665],[-122.69147400039378,47.56908700024675],[-122.68922900000601,47.56909600013519],[-122.68923300020396,47.56818800002741],[-122.6892359996787,47.56768299992215],[-122.68923999987665,47.567078999737866],[-122.68924900009749,47.56545600003086],[-122.68722899984057,47.56546200017057],[-122.68723200021363,47.56460500002561],[-122.68706099961109,47.56458800005703],[-122.6865610000189,47.56457600018285],[-122.68656199984382,47.56444900028521],[-122.68662200011826,47.559988999836655],[-122.68393099966664,47.559996000225006],[-122.68394499991034,47.55908299996426],[-122.68133299999975,47.559089999867446],[-122.68126199985461,47.559059999756215],[-122.68127000025054,47.5581939998107],[-122.68008100002194,47.55818400021071],[-122.67992000036347,47.55818200029051],[-122.67994999960239,47.55632600019676],[-122.68318500002715,47.55634200012309],[-122.6837459997187,47.55634400011356],[-122.68398900029129,47.55634400011356],[-122.68466100031091,47.55634200012309],[-122.6853080002162,47.556340000132586],[-122.68548200029348,47.556340000132586],[-122.68566999971613,47.55633899983418],[-122.68612099980284,47.556338000142006],[-122.68651699963797,47.5563369998435],[-122.68936200007539,47.556328999880215],[-122.68934399963373,47.558212000298205],[-122.69070799976451,47.55819899991306],[-122.69070299974165,47.55910400027716],[-122.69069900044198,47.55997400004059],[-122.69078099955944,47.55997799974415],[-122.69196899996312,47.55997400004059],[-122.69196099956719,47.56041400015463],[-122.69193600035115,47.56182800024796],[-122.69191500043476,47.56362800022387],[-122.69195200024468,47.56362800022387],[-122.69442900043607,47.56362099971471],[-122.69464600017103,47.56362099971471]]],[[[-122.69748300021253,47.5169570001873],[-122.6948260000961,47.51695099995393],[-122.69489300004324,47.51496500028449],[-122.69498099990678,47.512304000256755],[-122.69489700024121,47.512302999724696],[-122.69139400002786,47.51231500004027],[-122.6899889998892,47.512317999815366],[-122.67905400017509,47.51234700005928],[-122.67905199962692,47.51244599976707],[-122.67904999997711,47.51253300023868],[-122.67900099957332,47.514118000192326],[-122.67893000032652,47.516477999823195],[-122.67892899960329,47.51652399998717],[-122.67891799973263,47.51687699985055],[-122.6790480003273,47.51687699985055],[-122.68344699996796,47.51685899972765],[-122.68342799970138,47.51776799973345],[-122.68182900029228,47.517769999982406],[-122.68182699974416,47.51785400005589],[-122.68177900006357,47.51979999980514],[-122.67885300033362,47.51982799977236],[-122.67886099983123,47.52126100011165],[-122.67887400025002,47.522562999905944],[-122.67889299961826,47.524349000096215],[-122.67889299961826,47.52445899987603],[-122.67888900031862,47.52530199993374],[-122.68211200014952,47.52530799981868],[-122.68370600043403,47.52530799981868],[-122.683703000061,47.52626700020656],[-122.68410800011695,47.52626799986571],[-122.68410599956881,47.52692600015639],[-122.68410599956881,47.52717800027575],[-122.68410599956881,47.52737099994323],[-122.68410599956881,47.527476000058044],[-122.68410599956881,47.527577999846976],[-122.68410300009408,47.52767699993417],[-122.68411999981254,47.52999800019292],[-122.68409499969816,47.530493000182915],[-122.68424399966106,47.53099199984304],[-122.68453200043949,47.53095200007934],[-122.68878299994216,47.52962400006736],[-122.69010600006507,47.52906399994331],[-122.68936500044845,47.52826099971558],[-122.68938100034197,47.52603699983886],[-122.68937200012112,47.52582099987812],[-122.68938399981668,47.52554099997567],[-122.68955200004619,47.52547900019373],[-122.69005300036162,47.52529299980174],[-122.69031399957919,47.52519900028548],[-122.69057899989308,47.5251109999017],[-122.69086199975028,47.52502499994916],[-122.69109899957675,47.52495799992375],[-122.69141999996711,47.52487600028314],[-122.69167500023524,47.52481600030221],[-122.69158700037171,47.52463399996035],[-122.69189199997022,47.52456900003185],[-122.69217700037557,47.52451599997456],[-122.69253300002772,47.5244580001824],[-122.69284400037235,47.524414999991784],[-122.69304900041176,47.52438999973782],[-122.69313300007735,47.52438100005593],[-122.69345500029263,47.524349999791916],[-122.69376499991402,47.52432799980869],[-122.69409200015215,47.524311000118644],[-122.69410999969553,47.52451599997456],[-122.69412800013718,47.52472500021018],[-122.69453900004092,47.52470200008864],[-122.69456499998019,47.52470099979298],[-122.69497800043206,47.5246989998083],[-122.69510800012839,47.5246989998083],[-122.6958470000952,47.52464999985571],[-122.69601899962431,47.52466199977408],[-122.69602000034756,47.52456300006237],[-122.69601899962431,47.52353799975615],[-122.69732699967862,47.523543999842865],[-122.69736900040971,47.51988500004945],[-122.6973810001053,47.51951799973554],[-122.69739500034898,47.519150999887806],[-122.69740100019679,47.51898099991652],[-122.69740600021963,47.51882800026012],[-122.69741999956503,47.518429999710314],[-122.69743600035687,47.51797599973528],[-122.69743800000668,47.51793499993436],[-122.69745499972514,47.51744800017393],[-122.69745700027327,47.51739100028271],[-122.69748300021253,47.5169570001873]]],[[[-122.77829100010453,47.5670910002509],[-122.77826099996732,47.56349399992637],[-122.77299000029043,47.563432999718124],[-122.77301000038193,47.567027999799805],[-122.77829100010453,47.5670910002509]]],[[[-122.77302600027546,47.56882499971844],[-122.77301000038193,47.567027999799805],[-122.76245200023635,47.566898000101524],[-122.76247499980256,47.568695000237504],[-122.77302600027546,47.56882499971844]]]]},"properties":{"AREALAND":"73657993","AREAWATER":"9656785","BASENAME":"Bremerton","CBSAPCI":"Y","CENTLAT":"+47.5436085","CENTLON":"-122.7121149","FUNCSTAT":"A","GEOID":"5307695","INTPTLAT":"+47.5399667","INTPTLON":"-122.7170631","LSADC":"25","MTFCC":"G4110","NAME":"Bremerton city","NECTAPCI":"N","OBJECTID":31792,"OID":"27890908308915","PLACE":"07695","PLACECC":"C1","PLACENS":"02409899","STATE":"53","DISP_CLR":1,"slug":"bremerton","jurisdiction_key":"bremerton_city","county_fips":["53035"]}}]}
