{"type":"FeatureCollection","features":[{"type":"Feature","geometry":{"type":"Polygon","coordinates":[[[-122.24926700008137,47.80243999971528],[-122.24925399966256,47.80143599976799],[-122.24923799976904,47.80017599980571],[-122.24922500024859,47.79881299997833],[-122.24382399997705,47.798730999721414],[-122.24379600038795,47.79552999994829],[-122.24379300001492,47.79512300029604],[-122.24376700007566,47.79149599970441],[-122.24376299987769,47.79025299972436],[-122.24376000040294,47.78986500025959],[-122.24371400037221,47.784342000294885],[-122.24371299964898,47.784225999961116],[-122.24371299964898,47.78420900016625],[-122.24368099986194,47.7842050001072],[-122.24243100043228,47.78419699998815],[-122.24242999970903,47.78394700017457],[-122.24242999970903,47.783727000189074],[-122.24242999970903,47.7835080000552],[-122.24242999970903,47.78328900020598],[-122.24242899988414,47.78307000003766],[-122.24242899988414,47.78284999996223],[-122.24242899988414,47.78263099975535],[-122.24242899988414,47.78241199983311],[-122.24242899988414,47.78219199999109],[-122.24242800005922,47.781973000030305],[-122.24242800005922,47.78175399975052],[-122.24242800005922,47.7813149998238],[-122.24242899988414,47.780602000122585],[-122.24297600023031,47.78060899995636],[-122.24368699970971,47.780613000292156],[-122.24377299992342,47.78062000012444],[-122.24377200009853,47.78029000010607],[-122.24377299992342,47.78005900005413],[-122.24377299992342,47.77982199989058],[-122.24377299992342,47.77959899979443],[-122.24377299992342,47.77936899994922],[-122.24377399974834,47.778678000073306],[-122.24377499957323,47.77821699999078],[-122.24377499957323,47.7775259998959],[-122.24377600029648,47.77696100023287],[-122.24366099977044,47.776959000226334],[-122.24363300018133,47.776959000226334],[-122.24361200026493,47.776959000226334],[-122.24308300036043,47.776949999894285],[-122.24275699994719,47.776975000276266],[-122.24260100031158,47.77696700025189],[-122.24258299986991,47.77696599994694],[-122.24221799999694,47.77695999992776],[-122.24203899989679,47.77695700021976],[-122.24192599991889,47.776953999907896],[-122.24183800005534,47.776953999907896],[-122.24169999996306,47.776951000199546],[-122.24162399979511,47.776949999894285],[-122.24144200022023,47.77694799988732],[-122.24130900015082,47.77694599988033],[-122.24106300010354,47.77694199986607],[-122.2409330004072,47.77693999985885],[-122.24082499955387,47.77693799985154],[-122.24073000001759,47.776951000199546],[-122.2395399999641,47.776923999798186],[-122.23916699969519,47.77691500006373],[-122.23909100042553,47.77691100004708],[-122.23863299976783,47.776903999715415],[-122.238370999827,47.776900000301616],[-122.23821500019139,47.77689099995936],[-122.23810100038857,47.77688699994086],[-122.23771399987598,47.776870999863895],[-122.23716999990283,47.77686200012026],[-122.23649799988318,47.77685000005721],[-122.23593899984145,47.77684800004644],[-122.23568500029654,47.776839000298835],[-122.23489399955291,47.77683599998016],[-122.23410799973043,47.77682500021883],[-122.23383499991895,47.77681199983932],[-122.23303900005077,47.776815999863544],[-122.23291699985202,47.776815999863544],[-122.23182800008087,47.77679999976473],[-122.22760699981711,47.77674500029296],[-122.22766399971852,47.774932000264876],[-122.22770200025164,47.774033999842246],[-122.2277549999551,47.77258400016992],[-122.22777699969642,47.772051000051555],[-122.22787100030605,47.7695139998153],[-122.22787899980366,47.76932400001949],[-122.2278889998494,47.76889400011125],[-122.22789899989516,47.76861000024438],[-122.22790200026819,47.76850299981151],[-122.22790399991803,47.768452000080735],[-122.22792099963645,47.767995000000965],[-122.22792800020746,47.76778299976313],[-122.2279449999259,47.767298999878044],[-122.22796199964432,47.76680899973277],[-122.22797000004024,47.76656799994921],[-122.22808899986596,47.76656899985041],[-122.22898600001648,47.76657100025653],[-122.22900899958272,47.76597700003512],[-122.22900699993289,47.765938999720944],[-122.22887999971128,47.76594200006455],[-122.22881799978701,47.765943999891],[-122.22882199998496,47.76548500027182],[-122.22800900039833,47.76547499984302],[-122.22801100004814,47.765413999721666],[-122.22803899963725,47.76461699972973],[-122.2280579999038,47.76407300003714],[-122.22806499957649,47.763875000064424],[-122.22810599958439,47.762686000125534],[-122.22812099965299,47.76227200003208],[-122.22812200037623,47.76223200006146],[-122.22812900004891,47.76200100009743],[-122.2281349998967,47.76179400015226],[-122.22813700044483,47.76174399987575],[-122.2281409997445,47.76159799995264],[-122.22815900018612,47.761028999903225],[-122.22816900023189,47.760680000280075],[-122.22818099992745,47.76029800002454],[-122.22819099997321,47.759971999769775],[-122.228204000392,47.75955599974582],[-122.22822799978313,47.75874499986465],[-122.22823100015616,47.75863600016718],[-122.22823899965378,47.758450000117236],[-122.22824100020192,47.75831199988429],[-122.22824299985173,47.75824700017726],[-122.2282470000497,47.758113000264814],[-122.2282539997224,47.75798799999936],[-122.22824600022479,47.75790100021225],[-122.22826700014119,47.75747900008309],[-122.22827399981387,47.75723499970897],[-122.22832400004259,47.75558600009491],[-122.22836099985251,47.75457700020396],[-122.22837199972317,47.754307000183005],[-122.22837900029417,47.75413600004908],[-122.22838000011909,47.7541089998812],[-122.22838500014196,47.75398800023181],[-122.22838699979178,47.753900000255186],[-122.2283259996924,47.753880999918096],[-122.22774300025954,47.753693000087125],[-122.22768600035815,47.7536749998235],[-122.22713599963892,47.7535059997292],[-122.22627799984643,47.75324300008457],[-122.22594300011065,47.75314500027666],[-122.22585799972185,47.75311899975432],[-122.22577099968322,47.75309399998317],[-122.22547299975737,47.75302099971288],[-122.22525299964936,47.752972999785506],[-122.22501499999798,47.7529289998635],[-122.2246850002851,47.75287900012659],[-122.22425900031276,47.75283200023343],[-122.22327199975054,47.752792000252384],[-122.22213600012368,47.7527569998663],[-122.22180700023571,47.752748000177334],[-122.22137700006542,47.752726000125854],[-122.22130199972234,47.7527199997259],[-122.22115500030756,47.75270900029933],[-122.22098000040536,47.752697000098735],[-122.22079100025948,47.75267900009457],[-122.22064599959623,47.75265999991563],[-122.22065599964195,47.75261200025924],[-122.2206640000379,47.752575000015746],[-122.22068699960411,47.75246700024815],[-122.22070099984782,47.75240300005641],[-122.22071000006864,47.75235699990777],[-122.22072299958911,47.75230000020546],[-122.22082100039673,47.75198100003029],[-122.2208699999022,47.751824000274965],[-122.22090900026028,47.75169700023022],[-122.22095299974289,47.751555000051],[-122.22102499971292,47.75145100014175],[-122.22113400039116,47.751391000076396],[-122.22120600036118,47.75137600020021],[-122.22165599972467,47.751369000055185],[-122.22301599965749,47.7514],[-122.22377499971579,47.75138099995807],[-122.22388600004385,47.75137799998264],[-122.22394899979302,47.75051000022108],[-122.22397499973229,47.750150000133615],[-122.22414999963449,47.74777300014012],[-122.22373100023314,47.747769000298156],[-122.21928900003645,47.74773699973943],[-122.21925600042451,47.747031000037374],[-122.21919000030223,47.74560100025832],[-122.21912800037796,47.744256000189125],[-122.21912599982984,47.744216999987984],[-122.2191080002865,47.74382900006623],[-122.21910300026363,47.74373100004889],[-122.21903600031646,47.74226800016205],[-122.21900600017925,47.74160700022716],[-122.21895299957748,47.74044800008029],[-122.21886600043716,47.73861699981661],[-122.21906399990557,47.738623000030174],[-122.22014699982894,47.738659000088916],[-122.22092400032889,47.73867899977518],[-122.2220249997956,47.73865100021228],[-122.22227900023883,47.73865800025543],[-122.2228259996867,47.73869699978828],[-122.22246199963863,47.738306000284226],[-122.22236999957713,47.738208000139885],[-122.22141399987534,47.73717799970859],[-122.22076500032021,47.73646699999556],[-122.2191300000278,47.73466000016345],[-122.21898400043793,47.7344999997749],[-122.21894000005697,47.73445599994436],[-122.21880199996474,47.73431800012487],[-122.21876199978176,47.73427799981111],[-122.21853800037408,47.73409400014708],[-122.21845200016037,47.73403200016639],[-122.21826300001449,47.73390999983288],[-122.21811800024953,47.73382799990376],[-122.21796900028662,47.73375200001621],[-122.21781600012574,47.7336830001256],[-122.21750499978111,47.73356399997686],[-122.21714900012896,47.73345500009958],[-122.21697000002884,47.733411999924485],[-122.21605000031205,47.73320900019207],[-122.21589100030339,47.73317299999022],[-122.2155940002025,47.73310699975696],[-122.21527199998721,47.73303700027865],[-122.214948999947,47.73296600015929],[-122.21438700043052,47.73280899984098],[-122.21433999967657,47.73279300010135],[-122.21393899981857,47.73265899989899],[-122.21357899996846,47.73251900024811],[-122.21341499993692,47.732445000168354],[-122.21326900034707,47.732372999891886],[-122.21321200044564,47.73234300004942],[-122.21321999994325,47.73246199996738],[-122.21322099976817,47.73250499971856],[-122.21322099976817,47.73255900010047],[-122.21322599979104,47.73300199990003],[-122.21322599979104,47.733080000159234],[-122.21068099982759,47.73304599975076],[-122.20784600033423,47.73300800015648],[-122.20724899975932,47.73300900009846],[-122.2046410000467,47.73301600029598],[-122.20430399976281,47.73301800017961],[-122.20396800020212,47.73302100000492],[-122.20284199972272,47.73302299988835],[-122.2019799997323,47.73302299988835],[-122.20084900012834,47.733023999830046],[-122.20004700041234,47.733028000200825],[-122.19926099969157,47.733033999850065],[-122.19824300006552,47.73303700027865],[-122.19678699987324,47.73303900016147],[-122.19518500009109,47.73304499980949],[-122.19446700004069,47.73304700029621],[-122.19411200021344,47.733048000237446],[-122.19405199993898,47.733048000237446],[-122.19224199974437,47.733048000237446],[-122.19182400016795,47.733049000178646],[-122.19171799986273,47.73307100008879],[-122.19117800008759,47.73307299997032],[-122.19028500013496,47.73307599979245],[-122.18962200033616,47.73307699973312],[-122.18957399975729,47.73307599979245],[-122.18902099956333,47.733062999957745],[-122.18834600006896,47.733049000178646],[-122.18803800009736,47.73304499980949],[-122.18754199980482,47.73304700029621],[-122.18699500035697,47.73649699987886],[-122.1867939996172,47.73776599977365],[-122.18662100026313,47.73888000027331],[-122.18648999984359,47.738881999931735],[-122.18650400008727,47.73943399998271],[-122.18652400017878,47.74016899980123],[-122.18651800033096,47.74035599975296],[-122.18649599969135,47.740739000012525],[-122.18649300021661,47.74078299997074],[-122.18554900021041,47.74046900008626],[-122.18471300015925,47.740192000131955],[-122.1844000001648,47.74008900027901],[-122.18410899991166,47.739992000278136],[-122.18199099974547,47.73929099975086],[-122.1809100003702,47.73892399999026],[-122.18015999963447,47.73866799979767],[-122.17810099991782,47.737991999959505],[-122.17781300003774,47.73789699997682],[-122.17655900041012,47.737471000110766],[-122.17573000003165,47.73720900025185],[-122.17557900041892,47.73716200010309],[-122.17535799958765,47.73709299989785],[-122.17532099977774,47.737655999777346],[-122.17528300014287,47.738225999711716],[-122.17524899980772,47.73874299992784],[-122.17519000025648,47.73975199992264],[-122.17516199976907,47.74025600023709],[-122.17514699970044,47.74056100021396],[-122.17512800033221,47.74097800025786],[-122.17508800014923,47.741616999807064],[-122.17507399990552,47.74178299992295],[-122.17493699963819,47.74347900010631],[-122.17486499966816,47.74449099989987],[-122.17481399961453,47.74522000014868],[-122.1748119999647,47.74524900011396],[-122.17480199991894,47.74540799978237],[-122.17479199987324,47.745553000131714],[-122.17477799962953,47.74574299976972],[-122.17475699971313,47.74606099983123],[-122.17472300027623,47.74657099997631],[-122.17467300004752,47.74738700008309],[-122.17466899984957,47.74747000006778],[-122.17465399978096,47.74773400015793],[-122.1746510003062,47.74777699998174],[-122.17464200008538,47.74792800012108],[-122.17463399968949,47.74807800016977],[-122.17463100021472,47.74812700003562],[-122.17461100012325,47.74846500018349],[-122.17459400040482,47.74860299995589],[-122.17457599996314,47.748739999722595],[-122.17449800014535,47.74919499997519],[-122.17443799987089,47.74956999982161],[-122.17443000037329,47.749694999774015],[-122.17442899965005,47.7499460002068],[-122.17442000032754,47.750105000023076],[-122.17439299966505,47.750316000218255],[-122.17437900031968,47.75041000027882],[-122.17430499980152,47.75075700013083],[-122.17426299996872,47.75096099989864],[-122.17465399978096,47.75096200009983],[-122.17463399968949,47.75185200000058],[-122.17462000034406,47.75263000028659],[-122.17461799979593,47.75277300011475],[-122.17478400037561,47.75300999974601],[-122.17488899995762,47.75322199979615],[-122.17490599967603,47.753380999870956],[-122.17485999964526,47.753622999899406],[-122.17476199973599,47.75412400017751],[-122.17493300033854,47.754126999994696],[-122.17571699961286,47.75414000000564],[-122.17573199968146,47.75453799988489],[-122.17586300010102,47.75454500020759],[-122.17546899991574,47.75548799986803],[-122.17533900021941,47.75582499981263],[-122.17533099982346,47.75585700022976],[-122.17554799955845,47.755933999963766],[-122.17633099990618,47.75621800019368],[-122.17604100037627,47.75708899981411],[-122.1759590003605,47.75734500000444],[-122.17568700037393,47.75738099979807],[-122.17538699989996,47.75731700021483],[-122.17523000043946,47.7572529999489],[-122.17516799961685,47.757214999904754],[-122.17510499986766,47.75717599975116],[-122.17498799969181,47.75712399970215],[-122.17482100018553,47.75708600016772],[-122.17458699983379,47.75707200020511],[-122.17459000020685,47.75730599994825],[-122.1745879996587,47.757497000238615],[-122.17458299963585,47.75788100006013],[-122.174580999986,47.758077999834256],[-122.17458000016111,47.75817000024273],[-122.17457799961298,47.75832500005751],[-122.17457799961298,47.758367000130384],[-122.17454199962798,47.75836199983595],[-122.17450099962008,47.758358000203884],[-122.17430200032675,47.758343999979665],[-122.17403899966271,47.758316000123756],[-122.17391999983704,47.75829600013116],[-122.17333499985602,47.7582039999455],[-122.17288200011949,47.75821800020743],[-122.1727630002938,47.758188000159194],[-122.1724670000178,47.75813699997707],[-122.17241099994129,47.75812499982039],[-122.17223199984116,47.75810599981826],[-122.17108299979554,47.75797799994098],[-122.17040900012607,47.757929000291504],[-122.1699399995977,47.75789399973713],[-122.16973399973337,47.7578879999331],[-122.169347999944,47.757892000205146],[-122.16879399992514,47.75792299988755],[-122.1676299998109,47.75799599992387],[-122.16759899984874,47.75799900012171],[-122.1671929999679,47.758035000066734],[-122.16690599991271,47.75809799991065],[-122.16636600013754,47.758095999782554],[-122.16624800013678,47.75809499971849],[-122.16594699983789,47.7580920001301],[-122.16588699956343,47.7580920001301],[-122.16559399966046,47.75809000000177],[-122.16490300027256,47.75808500028459],[-122.16465700022526,47.75808400022034],[-122.16434199968268,47.75808200009171],[-122.16405299997768,47.758079999963044],[-122.16400000027424,47.75807899989866],[-122.16365100029479,47.75807699976984],[-122.16347700021748,47.75807599970544],[-122.16328100039892,47.758074000180414],[-122.16328100039892,47.758212999898674],[-122.16328100039892,47.7582450000549],[-122.16328499969858,47.75831899969922],[-122.16329399991939,47.75851200000645],[-122.16331300018595,47.758885000254764],[-122.1633650000645,47.75993399989983],[-122.16352599972299,47.75992899975595],[-122.16353099974586,47.76012100010451],[-122.16356000005818,47.76079199995917],[-122.16358199979949,47.76130800008954],[-122.16360000024116,47.76167300025796],[-122.16574799964626,47.761688000185266],[-122.16634600004603,47.76169300016009],[-122.16642399986387,47.76528599970969],[-122.16376000007472,47.765267999833696],[-122.16381899962596,47.76539200019489],[-122.16384100026556,47.76543900021558],[-122.16393300032708,47.76558899990764],[-122.16396099991618,47.765632999992896],[-122.1640880001378,47.76580399977872],[-122.16452199960773,47.766342999955164],[-122.1649209998159,47.766837999744205],[-122.16530099975749,47.76732999999321],[-122.1658990001573,47.76807599997757],[-122.16636100011468,47.76866800005408],[-122.16647099971952,47.76888799976444],[-122.16649500000896,47.76900200019784],[-122.16651500010045,47.76918700010465],[-122.16652299959806,47.76935400028762],[-122.16656600015408,47.770397999804715],[-122.1665689996288,47.770463000027696],[-122.1665750003749,47.7706359998818],[-122.16658000039779,47.77074000008598],[-122.16660600033705,47.77146799991804],[-122.16662899990327,47.7720929999103],[-122.16664399997188,47.77250800011203],[-122.1666670004364,47.77327800005642],[-122.16666900008624,47.77335599973787],[-122.16669800039854,47.774367000185194],[-122.16670400024633,47.77468699989966],[-122.16671199974397,47.775103000267016],[-122.16673199983543,47.77576599984083],[-122.16673600003338,47.77593500007289],[-122.16674600007912,47.77624900029942],[-122.16693000020213,47.7762500000145],[-122.16846000001429,47.77625499979695],[-122.16859499973349,47.77625499979695],[-122.16860899997718,47.77625499979695],[-122.16866199968062,47.77625499979695],[-122.16873899967355,47.77625499979695],[-122.16882300023742,47.77625499979695],[-122.16885900022244,47.77625499979695],[-122.16918200026264,47.77625899986406],[-122.16944300037855,47.77625899986406],[-122.16943800035565,47.7766820000912],[-122.16943699963245,47.7767749999023],[-122.17064699977743,47.77677200018363],[-122.17063400025698,47.777178000179994],[-122.17134599956127,47.777190000167344],[-122.17134200026162,47.777345999750764],[-122.17133999971348,47.777433999913],[-122.17133700023875,47.77762800022469],[-122.1714250001023,47.77762800022469],[-122.17210600034275,47.77763299987463],[-122.17208899972601,47.77811399993095],[-122.17222900036641,47.778115000213816],[-122.17229399976542,47.77811599989302],[-122.17232700027571,47.77811599989302],[-122.17236699956037,47.77811599989302],[-122.17239500004777,47.77833899970981],[-122.17240900029148,47.778467000195846],[-122.17242000016213,47.778667999766576],[-122.1724390004287,47.77900499986813],[-122.17245799979696,47.7792720001137],[-122.17247299986559,47.77947399984729],[-122.1724820000864,47.779934000005746],[-122.17250200017789,47.779934000005746],[-122.17303100008242,47.77993000022136],[-122.17484799994972,47.77995200023889],[-122.17501100015633,47.77995900016018],[-122.17520100012713,47.7799679999714],[-122.17523899976194,47.7799679999714],[-122.17526100040159,47.7799679999714],[-122.17527200027222,47.78013499994151],[-122.17541100018941,47.78224199992718],[-122.17563899979505,47.78559200017348],[-122.17574699975009,47.787256000246316],[-122.17642600034075,47.78726999993171],[-122.1862449996212,47.78743699998383],[-122.18636099997215,47.78743900019082],[-122.18637100001787,47.78777999995495],[-122.18637500021585,47.78788599985944],[-122.1864010001551,47.788176000008015],[-122.18643399976709,47.78852900015305],[-122.18643999961488,47.78873599991969],[-122.18646200025448,47.78894899991231],[-122.18646899992719,47.78899500029762],[-122.18647700032308,47.7890469998707],[-122.18647899997293,47.78905699999157],[-122.18649999988932,47.78933800024711],[-122.18663399978362,47.79113700020516],[-122.186618999715,47.79113700020516],[-122.18655599996583,47.79113700020516],[-122.18654900029311,47.791214000222624],[-122.18654400027025,47.79127200016825],[-122.1865350000494,47.7913750001099],[-122.18653800042246,47.79144400016754],[-122.18653000002654,47.79148900012957],[-122.18652300035386,47.79152399980485],[-122.18652199963061,47.79165899996963],[-122.18652199963061,47.79175100012691],[-122.18657799970713,47.79207499972504],[-122.18657199985932,47.79223399994002],[-122.18645899988142,47.79520299970096],[-122.18636400034518,47.797635999974325],[-122.18633599985779,47.79830800028474],[-122.18631400011647,47.7990339999527],[-122.18625999968981,47.79933999985062],[-122.18623100027581,47.79963400012545],[-122.18623899977341,47.80009499974972],[-122.18623700012357,47.80063899975018],[-122.18623399975054,47.80129599987333],[-122.18623299992565,47.80154399984267],[-122.18623100027581,47.801992999723964],[-122.18622299987989,47.80229400000072],[-122.18620799981127,47.802664999794516],[-122.18623899977341,47.80323399985656],[-122.18622399970478,47.80367400028659],[-122.18621399965906,47.8040539997431],[-122.18618400042014,47.80433199981721],[-122.18616199978051,47.80482699998395],[-122.1861679996283,47.80521799984541],[-122.1861390002143,47.805500999709864],[-122.1861180002979,47.80550200006907],[-122.1861180002979,47.80558699976191],[-122.18614000003922,47.80920600027155],[-122.18614199968904,47.80942999971914],[-122.18614500006207,47.8100699998846],[-122.18614599988699,47.810535999910975],[-122.18614699971191,47.81088600002928],[-122.18615099990986,47.812687000053856],[-122.18614199968904,47.812979999984606],[-122.18611400009993,47.81404499985749],[-122.18617299965116,47.81404199987664],[-122.18639399958411,47.8141139999727],[-122.18649300021661,47.81413300002328],[-122.18671400014955,47.814194000297476],[-122.1869429995801,47.814269999737775],[-122.18704200021263,47.814281000020614],[-122.18727099964315,47.81433500000428],[-122.18749199957611,47.814403999734125],[-122.18760700010215,47.81441499998858],[-122.18805700036394,47.814517999900005],[-122.18827800029688,47.814555999698584],[-122.18862200025347,47.8145940000726],[-122.18874399955388,47.8145869999899],[-122.18897200005782,47.8145869999899],[-122.18920899988429,47.81455999983449],[-122.18942999981725,47.81452200003885],[-122.18962099961293,47.81446800024965],[-122.18970799965159,47.81444299980318],[-122.1898630003606,47.81439900000158],[-122.18988900029986,47.8143859999708],[-122.18995700007191,47.814353999973996],[-122.19007000004983,47.814305999941865],[-122.19015600026357,47.81427099992809],[-122.19024800032507,47.81422400001045],[-122.19044499996856,47.81410200006414],[-122.19059200028165,47.814012000058476],[-122.19067500012231,47.81395599994942],[-122.19085400022246,47.813851999931394],[-122.19092399964433,47.81379500005359],[-122.19107000013253,47.8137089997173],[-122.19110799976737,47.81368799971176],[-122.19116700021692,47.81364399987372],[-122.19128000019484,47.81355900009466],[-122.19130100011122,47.813542999843904],[-122.19136700023347,47.81349400006333],[-122.1913839999519,47.81348099980598],[-122.19148199986118,47.81342899995059],[-122.19223400024677,47.81293100027605],[-122.19258700042418,47.81268500021542],[-122.19263299955661,47.81265599983475],[-122.19276300015129,47.81257600015686],[-122.19290000041863,47.81246999994136],[-122.19306199990201,47.81235799995665],[-122.193250000223,47.812235000222984],[-122.19337099969852,47.812135000097285],[-122.19353499973005,47.8120219997597],[-122.19370399978446,47.81192300006266],[-122.1937640000589,47.81189399985975],[-122.19379500002104,47.81185700015979],[-122.19383199983096,47.81183700024578],[-122.19398400016692,47.81176000002234],[-122.19400099988538,47.81175100028653],[-122.19408200007622,47.81171399988139],[-122.1942639996511,47.81161700008013],[-122.19461099998074,47.81156200004389],[-122.1947559997457,47.81155399991312],[-122.19487799994441,47.811558000280336],[-122.19500000014315,47.8115689999311],[-122.19511399994596,47.81158399994474],[-122.1956789998355,47.81171399988139],[-122.19633499996162,47.81187099985372],[-122.19657900035908,47.81191999995921],[-122.19683799992687,47.81198500015093],[-122.19707499975333,47.81201199983543],[-122.19718899955613,47.81201600016731],[-122.19754000008373,47.81203799987582],[-122.19766200028245,47.81203100005184],[-122.19789099971302,47.81202299999331],[-122.19812800043778,47.812003999773985],[-122.19835699986835,47.811973999985],[-122.19857799980126,47.81192400029819],[-122.19879200006152,47.81186299977055],[-122.19900499959853,47.81179400028393],[-122.19920299996525,47.81171000012953],[-122.19938700008827,47.811622999718615],[-122.19957000038639,47.811520000097694],[-122.19973799971756,47.811409000119376],[-122.19988400020573,47.81128999973237],[-122.20002700032086,47.81116499998531],[-122.20015700001721,47.811034999880896],[-122.20045499994303,47.81069200016887],[-122.20048500008026,47.8106349998389],[-122.20053100011103,47.810576999788225],[-122.2007060000132,47.8104130000849],[-122.2007679999375,47.81032599991433],[-122.20084400010545,47.8102570001955],[-122.20118100038937,47.8099930000577],[-122.20161700040745,47.80977200024954],[-122.20170299972285,47.80973799987071],[-122.201817000424,47.80967699979182],[-122.20193700007461,47.80963700008694],[-122.20206000009824,47.80960399989998],[-122.20232500041209,47.80955399974125],[-122.20240999990259,47.809525000025324],[-122.20243400019204,47.80951799986266],[-122.20255600039079,47.8094960002932],[-122.20289299977637,47.80945799980839],[-122.20313399980077,47.80945399988273],[-122.20325000015173,47.80943600021356],[-122.20348600015328,47.80942999971914],[-122.20384000015562,47.80943600021356],[-122.20407399960902,47.80945799980839],[-122.2042820000215,47.809444000067295],[-122.20437499990791,47.80944499974729],[-122.20467200000884,47.80946499997918],[-122.20478599981166,47.80945100023997],[-122.20510700020199,47.809461000054064],[-122.20581299965852,47.809442999784004],[-122.20590300007021,47.809470999866235],[-122.2072189996221,47.80945999977111],[-122.20753499998959,47.80945100023997],[-122.2076889999754,47.80941200004161],[-122.20797900040363,47.809412999722234],[-122.20802299988624,47.80941400000609],[-122.2088520002647,47.8094109997577],[-122.20914299961953,47.8094109997577],[-122.20972599995073,47.80941400000609],[-122.21048800038204,47.809432000286215],[-122.21137399976364,47.80942599979134],[-122.21207900029353,47.80943299996644],[-122.21212899962396,47.80943400024992],[-122.21274600029032,47.80943299996644],[-122.21291699999455,47.80943299996644],[-122.2131680000647,47.80943400024992],[-122.21343099983045,47.80942799975528],[-122.21360300025788,47.80942500011097],[-122.21387799971919,47.80942599979134],[-122.21432399978302,47.80942799975528],[-122.21470299989973,47.80942300014696],[-122.21497800025932,47.809421000182816],[-122.2152800003831,47.80942399982731],[-122.21538400014019,47.80942599979134],[-122.21553599957784,47.80942399982731],[-122.21564899955574,47.80942300014696],[-122.21591800006757,47.80942599979134],[-122.21618699968107,47.80942300014696],[-122.2164899996298,47.809421000182816],[-122.21721400042628,47.809412999722234],[-122.21731599963523,47.80941200004161],[-122.21773800030795,47.809408999793106],[-122.21878299969818,47.80940400018295],[-122.21979399965154,47.80939100010834],[-122.2198689999946,47.80939100010834],[-122.22038700002845,47.80939100010834],[-122.22061999965695,47.809398999969],[-122.22092900035176,47.8093950000388],[-122.22166300029568,47.809400000253135],[-122.2221079996363,47.80939700000394],[-122.22242099963073,47.809406000147746],[-122.22274500039416,47.80942799975528],[-122.2230449999698,47.80946699994163],[-122.22308900035073,47.80947499979058],[-122.22325000000922,47.809504999816546],[-122.22341700041378,47.80953600010673],[-122.22344300035307,47.80954199998558],[-122.2234459998278,47.80940299989889],[-122.22344699965272,47.809364000267756],[-122.22372200001233,47.80934900021622],[-122.2242409998711,47.8093420000298],[-122.22761600003793,47.80931199990968],[-122.22763199993146,47.80931199990968],[-122.22779099994013,47.80931100022717],[-122.22801199987303,47.809309000258715],[-122.22833900011122,47.80931500016379],[-122.22867200019714,47.8093230000362],[-122.22963299992179,47.80934099974454],[-122.22954800043128,47.80915399975523],[-122.22925299998018,47.808505999767846],[-122.22909499979643,47.808159999925245],[-122.22904799994078,47.80805700007266],[-122.22890800019869,47.80774999992121],[-122.2288670001908,47.80765900005233],[-122.22886200016794,47.80764800017676],[-122.22874900019,47.80740799995239],[-122.22854699962534,47.8069769997394],[-122.22840199986038,47.80669499980622],[-122.22828100038487,47.806461000239814],[-122.22819799964589,47.80630099977472],[-122.22789700024532,47.80575999979302],[-122.22832900006546,47.80575999979302],[-122.23064100040041,47.80580099982057],[-122.23092900028048,47.80582499985109],[-122.2310770004185,47.805809000234206],[-122.23121899981041,47.805793000009025],[-122.23124300009985,47.805790000154815],[-122.23130400019923,47.805783000092056],[-122.2314220002,47.80552100025385],[-122.23153799965263,47.80527700021088],[-122.23175799976065,47.80508000001743],[-122.23184999982216,47.805023000165136],[-122.23191099992152,47.80498900029756],[-122.23207900015102,47.804912999945174],[-122.23219299995384,47.80487399995937],[-122.23226900012182,47.80485500014134],[-122.23231500015258,47.80483999999426],[-122.23247499998615,47.8047939997576],[-122.23245999991754,47.80459200007241],[-122.2324580002677,47.804456999719434],[-122.23245200041991,47.803928000291684],[-122.23245999991754,47.803406000084394],[-122.23245200041991,47.80295899995791],[-122.23244700039707,47.80239999986738],[-122.23244700039707,47.802353999883515],[-122.23244499984891,47.80219600028453],[-122.23302300015725,47.80219400004211],[-122.23343700043401,47.80219799992347],[-122.23465699972644,47.80222300023093],[-122.23527500021773,47.802230999988886],[-122.2360690004361,47.80225000016333],[-122.23631299993528,47.8022540000404],[-122.23664400037137,47.802260999975324],[-122.23688799987053,47.80226499985153],[-122.2371670004281,47.80227099996693],[-122.23762099998953,47.80227499984237],[-122.23786600021194,47.802277999899616],[-122.23843399957619,47.802283000195715],[-122.23871800015664,47.802277999899616],[-122.23902899960295,47.802283000195715],[-122.23934999999328,47.80229099994445],[-122.23980199990493,47.80229700005683],[-122.23994900021802,47.802303999986016],[-122.24036099994665,47.80230900027962],[-122.24071900014694,47.80231099991421],[-122.24119799982276,47.802321999713286],[-122.24151699966497,47.802326000188195],[-122.24200600028482,47.80233300011343],[-122.24215000022488,47.802334999747096],[-122.24246400004425,47.80234300009122],[-122.2429419998951,47.80236799972549],[-122.24320300001104,47.80235300006703],[-122.24395100019868,47.802363999857214],[-122.24453000033189,47.80237200019686],[-122.24482400005974,47.802376999880515],[-122.24526199972766,47.80238299998302],[-122.24536100036018,47.80239099971634],[-122.245467999592,47.80238699984983],[-122.24573799992875,47.80240699978264],[-122.24573899975364,47.80242999975622],[-122.24574299995159,47.802506999934636],[-122.24574499960143,47.80254400026188],[-122.24574600032464,47.80256700017477],[-122.24574700014956,47.80280600003125],[-122.2457990000281,47.8027800001961],[-122.24585000008173,47.802753999744546],[-122.24586500015033,47.80274600006717],[-122.24588500024184,47.80273900019755],[-122.2460450000754,47.80268600003374],[-122.24612299989323,47.80266000013853],[-122.24638400000912,47.80257499987975],[-122.24655899991129,47.802516999878925],[-122.24668100011003,47.802483000181205],[-122.24677300017153,47.8024410001335],[-122.24679599973774,47.80239099971634],[-122.24706299970146,47.80240699978264],[-122.24836599973287,47.802426999707755],[-122.24847100021316,47.802428000126206],[-122.24877900018474,47.80243299980448],[-122.24911599957031,47.802437000270835],[-122.24918300041578,47.80243800008566],[-122.24926700008137,47.80243999971528]],[[-122.1859080002356,47.755848999976315],[-122.18592199958101,47.75633400020745],[-122.1858229998468,47.756372999784354],[-122.18575800044779,47.75639899988868],[-122.1856460002948,47.75643800002076],[-122.18556000008107,47.75646600028343],[-122.1855120004005,47.75647999980517],[-122.18547300004244,47.75649199973732],[-122.18535599986659,47.756523999744246],[-122.18526600035321,47.7565449999079],[-122.18517599994152,47.75656499996964],[-122.18512200041314,47.7565750002996],[-122.18505399974278,47.75658799969896],[-122.18496199968126,47.75660299988458],[-122.18490399995494,47.7566110000221],[-122.18486600032013,47.75661699997339],[-122.18480600004565,47.75662500010875],[-122.18448200018055,47.75664799981155],[-122.18423000028548,47.756665000163004],[-122.18393700038253,47.756686000269795],[-122.18036100037422,47.75693399994067],[-122.18023900017548,47.75694200002725],[-122.1802960000769,47.75662000025078],[-122.1843230001719,47.75635100005756],[-122.18458900031068,47.7563200000425],[-122.18476099983981,47.756291999701304],[-122.1848090004187,47.756284000118676],[-122.18485700009929,47.75627599993093],[-122.18501199990997,47.75623700028132],[-122.18508100040525,47.7562130002966],[-122.18512400006298,47.75619799999855],[-122.18520400042891,47.75617000019563],[-122.18524299988866,47.756157000087846],[-122.1853220004297,47.756122000153304],[-122.18538299963075,47.756093999705506],[-122.1854219999888,47.75607699977143],[-122.18566899986101,47.755965000208846],[-122.18570099964806,47.75595099994461],[-122.18574599985392,47.755929000039394],[-122.18579199988464,47.755907000124886],[-122.18585600035706,47.75587599984529],[-122.1859080002356,47.755848999976315]]]},"properties":{"AREALAND":"35314964","AREAWATER":"0","BASENAME":"Bothell","CBSAPCI":"N","CENTLAT":"+47.7735313","CENTLON":"-122.2043759","FUNCSTAT":"A","GEOID":"5307380","INTPTLAT":"+47.7735313","INTPTLON":"-122.2043759","LSADC":"25","MTFCC":"G4110","NAME":"Bothell city","NECTAPCI":"N","OBJECTID":29533,"OID":"27890836057918","PLACE":"07380","PLACECC":"C1","PLACENS":"02409882","STATE":"53","DISP_CLR":5,"slug":"bothell","jurisdiction_key":"bothell_city","county_fips":["53033","53061"]}}]}
