{
  "type": "FeatureCollection",
  "features": [
    {
      "type": "Feature",
      "geometry": {
        "type": "Polygon",
        "coordinates": [
          [
            [
              -119.69041800005331,
              48.01401200019176
            ],
            [
              -119.69043300012194,
              48.01201500006688
            ],
            [
              -119.69030199970236,
              48.01201500006688
            ],
            [
              -119.6880940000228,
              48.0119949998379
            ],
            [
              -119.68693400010653,
              48.01198400003914
            ],
            [
              -119.68469899976448,
              48.01196699974465
            ],
            [
              -119.6847289999017,
              48.00923000003668
            ],
            [
              -119.68473499974948,
              48.009082000021635
            ],
            [
              -119.68474599962013,
              48.007716000225514
            ],
            [
              -119.68474999981808,
              48.007103000273005
            ],
            [
              -119.68475999986383,
              48.006490999734275
            ],
            [
              -119.68478099978024,
              48.00465400010158
            ],
            [
              -119.68478099978024,
              48.004592000193334
            ],
            [
              -119.68206400028765,
              48.00460500001547
            ],
            [
              -119.68201900008181,
              48.00460399989056
            ],
            [
              -119.6816929996686,
              48.004607000265224
            ],
            [
              -119.68163400011736,
              48.004607000265224
            ],
            [
              -119.67943399993541,
              48.004616999709675
            ],
            [
              -119.67934500024695,
              48.004616999709675
            ],
            [
              -119.67934799972167,
              48.003795000078455
            ],
            [
              -119.67934900044487,
              48.00334999990496
            ],
            [
              -119.67935000026979,
              48.00277700017169
            ],
            [
              -119.67935000026979,
              48.00275500024596
            ],
            [
              -119.67935100009471,
              48.002556999891134
            ],
            [
              -119.67935100009471,
              48.002493999700825
            ],
            [
              -119.67935199991963,
              48.001680000149335
            ],
            [
              -119.67935399956946,
              48.00100600017044
            ],
            [
              -119.67926599970589,
              48.00100600017044
            ],
            [
              -119.67707899994276,
              48.00100499997576
            ],
            [
              -119.67702399969116,
              48.00100499997576
            ],
            [
              -119.67683200007053,
              48.00100999974682
            ],
            [
              -119.67621399957925,
              48.00100499997576
            ],
            [
              -119.67470800005657,
              48.00100499997576
            ],
            [
              -119.67404000023488,
              48.00100499997576
            ],
            [
              -119.67403900040996,
              47.99979200020332
            ],
            [
              -119.67403500021202,
              47.99840600013026
            ],
            [
              -119.67403500021202,
              47.998377999872574
            ],
            [
              -119.67403299966388,
              47.99736099972843
            ],
            [
              -119.67397800031058,
              47.997361999993714
            ],
            [
              -119.67204099989436,
              47.997349999814084
            ],
            [
              -119.66863999978828,
              47.99733100017514
            ],
            [
              -119.6686130000241,
              47.99732999990919
            ],
            [
              -119.66861200019918,
              47.99750600012849
            ],
            [
              -119.6685939997575,
              47.999939000212834
            ],
            [
              -119.6685920001077,
              48.00028599984156
            ],
            [
              -119.66856899964314,
              48.000276000158586
            ],
            [
              -119.66862999974252,
              48.00047000003329
            ],
            [
              -119.66824700032619,
              48.00024599989597
            ],
            [
              -119.66705100042492,
              47.99972100028995
            ],
            [
              -119.66370700022021,
              47.9985029997676
            ],
            [
              -119.66370499967208,
              47.9985929999373
            ],
            [
              -119.66370399984716,
              47.998817000038635
            ],
            [
              -119.66311399984328,
              47.99853299984162
            ],
            [
              -119.66303400037566,
              47.99849500022578
            ],
            [
              -119.66286399959802,
              47.998413000042014
            ],
            [
              -119.66276999988672,
              47.99836799981981
            ],
            [
              -119.66237900007445,
              47.99818000014998
            ],
            [
              -119.66161599981818,
              47.99781200020747
            ],
            [
              -119.6603620001906,
              47.99720900004886
            ],
            [
              -119.66025500006049,
              47.9971580001668
            ],
            [
              -119.66017200021979,
              47.99711800020047
            ],
            [
              -119.65783700031862,
              47.996705000027205
            ],
            [
              -119.6556680000988,
              47.996313000146614
            ],
            [
              -119.65432999990732,
              47.996158000120566
            ],
            [
              -119.6543290000824,
              47.99638399994099
            ],
            [
              -119.6543220004097,
              47.99725700028079
            ],
            [
              -119.65433099973224,
              47.997270000148085
            ],
            [
              -119.65435699967149,
              47.997329000244385
            ],
            [
              -119.65438900035687,
              47.997456000202384
            ],
            [
              -119.65440000022753,
              47.997584000108816
            ],
            [
              -119.65439100000668,
              47.99769199993313
            ],
            [
              -119.6543630004176,
              47.99774499980318
            ],
            [
              -119.6543700000903,
              47.997791000224716
            ],
            [
              -119.65433199955713,
              47.99785499980205
            ],
            [
              -119.65431599966362,
              47.99790400028892
            ],
            [
              -119.652949999883,
              47.99728800014383
            ],
            [
              -119.6519699998918,
              47.99684500029331
            ],
            [
              -119.65188899970094,
              47.99693400007604
            ],
            [
              -119.65183799964731,
              47.9969810002911
            ],
            [
              -119.65177700044626,
              47.997002000002446
            ],
            [
              -119.65169999955506,
              47.99700599988924
            ],
            [
              -119.65162000008743,
              47.996992999955424
            ],
            [
              -119.65153899989656,
              47.9969729999122
            ],
            [
              -119.65145400040608,
              47.996941000187505
            ],
            [
              -119.65137499986501,
              47.99690600022174
            ],
            [
              -119.65107899958905,
              47.99679099982348
            ],
            [
              -119.65098300022788,
              47.99674900022049
            ],
            [
              -119.65087199989979,
              47.99671699975577
            ],
            [
              -119.6507870004093,
              47.99669300029587
            ],
            [
              -119.65068899960171,
              47.996671999857654
            ],
            [
              -119.65059300024055,
              47.99665699988288
            ],
            [
              -119.65041199959224,
              47.99663900026809
            ],
            [
              -119.65032799992666,
              47.99663400007343
            ],
            [
              -119.6502469997358,
              47.99663900026809
            ],
            [
              -119.65004099987148,
              47.99662499996221
            ],
            [
              -119.64839399988351,
              47.99645000002629
            ],
            [
              -119.6480420004293,
              47.99641200007861
            ],
            [
              -119.64761399990883,
              47.99606199997174
            ],
            [
              -119.64722599957129,
              47.99574300008543
            ],
            [
              -119.64722399992148,
              47.99578800019263
            ],
            [
              -119.64722399992148,
              47.99595599972517
            ],
            [
              -119.64722399992148,
              47.99617900016688
            ],
            [
              -119.64722399992148,
              47.996821999966514
            ],
            [
              -119.64721499970064,
              47.9977050002919
            ],
            [
              -119.64721499970064,
              47.99775600023439
            ],
            [
              -119.6472049996549,
              47.998884000253
            ],
            [
              -119.64739399980078,
              47.99892700015632
            ],
            [
              -119.64757399972585,
              47.99896899978968
            ],
            [
              -119.64836499957117,
              47.9991709998098
            ],
            [
              -119.64961300024933,
              47.99949199998826
            ],
            [
              -119.65001699958205,
              47.99959599973939
            ],
            [
              -119.65010699999374,
              47.99961900003176
            ],
            [
              -119.65067899955594,
              47.99976599993312
            ],
            [
              -119.6510340002815,
              47.99985800013671
            ],
            [
              -119.65123400029806,
              47.999908999754204
            ],
            [
              -119.65140900020023,
              47.99994200025774
            ],
            [
              -119.65176499985236,
              48.00000799999924
            ],
            [
              -119.65246799983417,
              48.000221000064485
            ],
            [
              -119.65304799979229,
              48.00043399985139
            ],
            [
              -119.65369600042082,
              48.00067299978719
            ],
            [
              -119.65393400007221,
              48.000759999780655
            ],
            [
              -119.65452300025117,
              48.00095000005778
            ],
            [
              -119.65481899962884,
              48.0010449999339
            ],
            [
              -119.65521100016433,
              48.0011719997608
            ],
            [
              -119.65541200000578,
              48.001259000114906
            ],
            [
              -119.65564100033464,
              48.001358999760306
            ],
            [
              -119.65574799956647,
              48.00139600008488
            ],
            [
              -119.6564120000885,
              48.00168700021794
            ],
            [
              -119.65682600036526,
              48.00182499983115
            ],
            [
              -119.65821300006226,
              48.00247599971818
            ],
            [
              -119.65840300003309,
              48.002565000005205
            ],
            [
              -119.65866800034695,
              48.002747999721194
            ],
            [
              -119.65882900000543,
              48.00286099974715
            ],
            [
              -119.66012799983886,
              48.003762000236534
            ],
            [
              -119.6613060001968,
              48.00494499988675
            ],
            [
              -119.66221199966986,
              48.00584600003624
            ],
            [
              -119.66315900004912,
              48.00678599970338
            ],
            [
              -119.66359300041738,
              48.00721599977373
            ],
            [
              -119.66466799994485,
              48.00828300006423
            ],
            [
              -119.66571499988322,
              48.00899500024095
            ],
            [
              -119.66660899966071,
              48.0095310001417
            ],
            [
              -119.66739000035861,
              48.00999200020522
            ],
            [
              -119.66778700001866,
              48.010211000009136
            ],
            [
              -119.66886099972122,
              48.010811000223384
            ],
            [
              -119.66894899958477,
              48.010859999822365
            ],
            [
              -119.66948400023537,
              48.01125899971748
            ],
            [
              -119.67077999969575,
              48.01208499990589
            ],
            [
              -119.67139800018705,
              48.012397999860745
            ],
            [
              -119.67169799976271,
              48.012655000294444
            ],
            [
              -119.67269700002049,
              48.013294999790155
            ],
            [
              -119.67314800010722,
              48.01349399974122
            ],
            [
              -119.67368500040764,
              48.01386999975072
            ],
            [
              -119.6741680002814,
              48.014206000086084
            ],
            [
              -119.67487899976078,
              48.01458300024349
            ],
            [
              -119.67614300033246,
              48.01525000005605
            ],
            [
              -119.67621199992941,
              48.015287999948676
            ],
            [
              -119.67676799959813,
              48.0156580000325
            ],
            [
              -119.67732199961699,
              48.01590000005435
            ],
            [
              -119.67885300015234,
              48.01672499992313
            ],
            [
              -119.67945300020196,
              48.01701100008121
            ],
            [
              -119.68041099955356,
              48.01746699999758
            ],
            [
              -119.68109000014421,
              48.01779100009646
            ],
            [
              -119.68151100009369,
              48.0180570000688
            ],
            [
              -119.6818340001339,
              48.018261000170426
            ],
            [
              -119.68220999987753,
              48.01844899996175
            ],
            [
              -119.68256600042798,
              48.018626999937744
            ],
            [
              -119.68268100005572,
              48.01868399993854
            ],
            [
              -119.68334600040266,
              48.019071999893015
            ],
            [
              -119.68399499995776,
              48.01944999975986
            ],
            [
              -119.68456400004526,
              48.01978300029342
            ],
            [
              -119.68485000027553,
              48.01998800000149
            ],
            [
              -119.68597599985662,
              48.02079600016263
            ],
            [
              -119.68769399998972,
              48.022027000254994
            ],
            [
              -119.6881149999392,
              48.02232800016646
            ],
            [
              -119.69032000014401,
              48.02233900016186
            ],
            [
              -119.69033799968736,
              48.022114000280254
            ],
            [
              -119.69031599994607,
              48.02196699977912
            ],
            [
              -119.69034600008328,
              48.02174100028369
            ],
            [
              -119.69027400011328,
              48.021501000234565
            ],
            [
              -119.69038200006831,
              48.02155500007269
            ],
            [
              -119.69038399971812,
              48.02137900019184
            ],
            [
              -119.69038299989323,
              48.0211760002146
            ],
            [
              -119.69038200006831,
              48.01900400021735
            ],
            [
              -119.68989099979862,
              48.01900400021735
            ],
            [
              -119.68942299999348,
              48.01900400021735
            ],
            [
              -119.68884899988312,
              48.01899700009538
            ],
            [
              -119.68848599965996,
              48.01899200026526
            ],
            [
              -119.68831900015368,
              48.01899099981846
            ],
            [
              -119.68799899958825,
              48.01880999974837
            ],
            [
              -119.68796599997629,
              48.018791000202114
            ],
            [
              -119.68825399985637,
              48.01874700018239
            ],
            [
              -119.68793699966398,
              48.0185680001657
            ],
            [
              -119.68783899975467,
              48.018508999725256
            ],
            [
              -119.6877269996017,
              48.01844899996175
            ],
            [
              -119.68766800005045,
              48.01829500020902
            ],
            [
              -119.68764899978387,
              48.0182430002823
            ],
            [
              -119.68753499998108,
              48.01797600020222
            ],
            [
              -119.68745499961513,
              48.01777899986203
            ],
            [
              -119.68741299978232,
              48.01767400024557
            ],
            [
              -119.68727700023821,
              48.01726400023903
            ],
            [
              -119.68723899970506,
              48.01715300028465
            ],
            [
              -119.68750099964586,
              48.017259000240784
            ],
            [
              -119.6875729996159,
              48.017285999985084
            ],
            [
              -119.68766600040061,
              48.01732000006578
            ],
            [
              -119.68778299967818,
              48.01736300022407
            ],
            [
              -119.68784999962534,
              48.01736800021224
            ],
            [
              -119.68789999985405,
              48.01737199972164
            ],
            [
              -119.68797299964898,
              48.01735300024635
            ],
            [
              -119.68819799977989,
              48.01729000010176
            ],
            [
              -119.68846899994152,
              48.017189000214834
            ],
            [
              -119.68816500016791,
              48.01691500028064
            ],
            [
              -119.68813000000783,
              48.01688099993288
            ],
            [
              -119.68797299964898,
              48.01601400001375
            ],
            [
              -119.68826100042739,
              48.015457000191304
            ],
            [
              -119.68877000024042,
              48.0151159999899
            ],
            [
              -119.6890299996331,
              48.01494400005824
            ],
            [
              -119.68915699985469,
              48.0148569999512
            ],
            [
              -119.68960899976634,
              48.014554999752704
            ],
            [
              -119.69031900031912,
              48.01407899990016
            ],
            [
              -119.69041800005331,
              48.01401200019176
            ]
          ]
        ]
      },
      "properties": {
        "AREALAND": "2777583",
        "AREAWATER": "587228",
        "BASENAME": "Bridgeport",
        "CBSAPCI": "N",
        "CENTLAT": "+48.0070005",
        "CENTLON": "-119.6727010",
        "FUNCSTAT": "A",
        "GEOID": "5307870",
        "INTPTLAT": "+48.0070058",
        "INTPTLON": "-119.6725326",
        "LSADC": "25",
        "MTFCC": "G4110",
        "NAME": "Bridgeport city",
        "NECTAPCI": "N",
        "OBJECTID": 12049,
        "OID": "27890484276428",
        "PLACE": "07870",
        "PLACECC": "C1",
        "PLACENS": "02409908",
        "STATE": "53",
        "DISP_CLR": 5,
        "slug": "bridgeport",
        "jurisdiction_key": "bridgeport_city",
        "county_fips": [
          "53017"
        ]
      }
    }
  ]
}
