{"type":"FeatureCollection","features":[{"type":"Feature","geometry":{"type":"Polygon","coordinates":[[[-122.35708700010534,48.472620000237384],[-122.35708299990736,48.472157000177766],[-122.35708299990736,48.472090999818825],[-122.35707899970942,48.472023000044956],[-122.3570779998845,48.47197899989753],[-122.35669499956987,48.47197400008138],[-122.35554600042258,48.47196099996153],[-122.35516399993283,48.47195700010726],[-122.3545000003091,48.47194699987459],[-122.35385800042668,48.47193800019951],[-122.35251100001435,48.471916999760346],[-122.35184800021551,48.471907000115344],[-122.3516690001154,48.47190400022149],[-122.35113400036309,48.471894999943196],[-122.35095600008786,48.471893000013495],[-122.35090199966118,48.47189200004863],[-122.35074199982762,48.47188900015385],[-122.35068900012416,48.47188900015385],[-122.35059000038997,48.47188800018886],[-122.35058899966674,48.471540999841544],[-122.35058899966674,48.47145899970463],[-122.35058700001692,48.47107600009915],[-122.35066499983472,48.471077000080136],[-122.35077000031501,48.471077000080136],[-122.35108599978419,48.47108000002293],[-122.35119200008941,48.47108100000379],[-122.35119200008941,48.4710140000498],[-122.35119299991433,48.47081700019708],[-122.35119399973922,48.470750999881865],[-122.35119399973922,48.470714999727896],[-122.35058700001692,48.470704999846056],[-122.35058299981895,48.46885100020543],[-122.34864999960068,48.46883399978063],[-122.34835699969773,48.46892999972232],[-122.34819500021433,48.46898199971417],[-122.34770899996752,48.46913899998479],[-122.34754800030906,48.46919199978056],[-122.34745799989736,48.46922000027966],[-122.34745200004959,48.46891800003732],[-122.34744700002672,48.46880999976683],[-122.34701299965842,48.468221999754704],[-122.34646799986041,48.46822099971746],[-122.34644199992114,48.466478000182875],[-122.34644299974606,48.466100999790896],[-122.34644600011909,48.465496000203636],[-122.34645000031706,48.46497199988396],[-122.34645199996689,48.46472999981986],[-122.34646000036281,48.464599000056964],[-122.34646600021057,48.46387699989828],[-122.34646600021057,48.46384699977836],[-122.34646600021057,48.46376999974674],[-122.34665100015853,48.4637770000252],[-122.3470880000015,48.46378300017799],[-122.3470880000015,48.463509999952734],[-122.34665100015853,48.46350399976767],[-122.34646600021057,48.46349899971216],[-122.34646600021057,48.46282000022799],[-122.34646600021057,48.46240100025419],[-122.34664100011277,48.46240500026605],[-122.34774099975458,48.46242899973476],[-122.34774099975458,48.46237899988565],[-122.34774099975458,48.462173000249834],[-122.34774099975458,48.46214600018933],[-122.34765299989103,48.46215000022124],[-122.3466360000899,48.462128999901175],[-122.34646600021057,48.462128999901175],[-122.34646600021057,48.461740999941085],[-122.34646500038568,48.46135199982102],[-122.34646500038568,48.46104200017583],[-122.34648600030206,48.46104200017583],[-122.34661699982331,48.46104399993747],[-122.34692099959692,48.46104999981769],[-122.34735400014029,48.461056999875574],[-122.34759699981454,48.461060999993315],[-122.34761199988317,48.461060999993315],[-122.34773800027985,48.4610639999325],[-122.34773800027985,48.46088900000673],[-122.3477369995566,48.46041600001699],[-122.34760799968521,48.46041600001699],[-122.3475929996166,48.46041600001699],[-122.34753200041551,48.46041600001699],[-122.34749700025543,48.46041600001699],[-122.34746799994312,48.46041600001699],[-122.34712399998654,48.460417000208025],[-122.34701400038166,48.460417000208025],[-122.34695800030518,48.460417000208025],[-122.34665100015853,48.460417000208025],[-122.34653700035571,48.460417000208025],[-122.34648899977681,48.460417000208025],[-122.34646500038568,48.460417000208025],[-122.34646500038568,48.46032199984414],[-122.34646299983754,48.45866999982963],[-122.34646299983754,48.45773000023372],[-122.34646500038568,48.45758499980171],[-122.34657300034071,48.457565000223184],[-122.3475380002633,48.45748300014126],[-122.34761799973094,48.457483999794334],[-122.34773800027985,48.45748699994492],[-122.34781600009767,48.45748800019363],[-122.34773300025698,48.45395600028695],[-122.34769700027198,48.45037699976328],[-122.3476980000969,48.450347000006225],[-122.34687200009144,48.45033099973134],[-122.34686899971841,48.44703500007307],[-122.34686799989349,48.44663799975992],[-122.34686799989349,48.44627700015223],[-122.34686799989349,48.44579299997445],[-122.34686799989349,48.4455659997512],[-122.34660699977758,48.44553299987052],[-122.34642199982964,48.445509000160534],[-122.34590499962071,48.44543499999017],[-122.34520500001194,48.445330000078776],[-122.34483400029119,48.44527199973385],[-122.34311000031032,48.44500599995422],[-122.34112299966539,48.44481999997511],[-122.34102999977897,48.444812000159345],[-122.34002499967339,48.44471800029324],[-122.33691200034569,48.44464599997386],[-122.33554099964388,48.44470899996097],[-122.33516800027333,48.44472700002807],[-122.33380400014254,48.44478999991467],[-122.33081800013811,48.44513999991428],[-122.33073699994726,48.4451500000661],[-122.33065499993153,48.4451550001413],[-122.32702600021976,48.44535999982021],[-122.32496300030516,48.44547600024281],[-122.32475800026575,48.44548800010704],[-122.32357099968698,48.445554999793366],[-122.3222080002794,48.44571099994784],[-122.32211200001996,48.445767000023935],[-122.32179800020062,48.445948999993774],[-122.32138300009889,48.44618899986708],[-122.32098499971566,48.4464210002357],[-122.32059200025358,48.44738699979776],[-122.32045199961317,48.44879599974441],[-122.32055700009347,48.44917099973702],[-122.32072600014787,48.449771000042716],[-122.32107099992938,48.45099699990961],[-122.3211439997243,48.45311600001691],[-122.319919000409,48.45556999984577],[-122.31942399994136,48.45603600015389],[-122.31712900022316,48.458201999995886],[-122.31643299991408,48.4588600000099],[-122.31258699956905,48.460969000183816],[-122.31202000002972,48.463818999888645],[-122.31195999975526,48.464119999977974],[-122.31189199998317,48.46430600015008],[-122.31146099998796,48.46547500007664],[-122.31029100002593,48.466633999792904],[-122.30883200035893,48.467020999813485],[-122.30831099995203,48.46715900028443],[-122.30837000040158,48.46781999987904],[-122.30839700016574,48.46831100001075],[-122.30839999964047,48.46859499975739],[-122.30841200023437,48.46944700018189],[-122.30841600043232,48.469731000122586],[-122.30841700025722,48.469788999927616],[-122.30842399992993,48.47010599975472],[-122.30844200037158,48.47092499976962],[-122.3084499998692,48.47123199986909],[-122.30845900009001,48.47160800029086],[-122.30825200040078,48.47160900026136],[-122.30766800024469,48.471615000083816],[-122.30755799974152,48.47169100015586],[-122.30713000011936,48.47200899997512],[-122.30679200001055,48.47225900013056],[-122.30651099980315,48.472466999830964],[-122.30647999984102,48.47250699974433],[-122.30641999956657,48.4725980001295],[-122.30685399993484,48.47259900008049],[-122.30685800013279,48.47354199986389],[-122.30684800008704,48.473733000285705],[-122.30685499975974,48.4739860000555],[-122.30685300010991,48.47432900009458],[-122.30698799982913,48.47433000001145],[-122.30786999991106,48.47432499983141],[-122.30787199956089,48.47444200010315],[-122.30787800030699,48.47466000008325],[-122.30833500024147,48.47466399972445],[-122.3083660002036,48.47466399972445],[-122.30845999991493,48.47466399972445],[-122.30849199970199,48.474665000230225],[-122.30849199970199,48.474499999883335],[-122.30849199970199,48.474004999791916],[-122.30849300042522,48.47384100020287],[-122.30863499981713,48.47384100020287],[-122.3090630003376,48.47384100020287],[-122.30910299962227,48.47384100020287],[-122.30910199979735,48.47375000026036],[-122.30909599994958,48.473416999825325],[-122.31119400002429,48.473414000020696],[-122.31118099960547,48.47356699995374],[-122.31120999991779,48.47386099991971],[-122.31119800022223,48.47417400023736],[-122.31116300006215,48.47511500012727],[-122.3111549996662,48.47533200029621],[-122.3111520001915,48.47542899975048],[-122.31096800006846,48.47542899975048],[-122.31069199988393,48.47542899975048],[-122.3104149998745,48.475431000136346],[-122.31023199957643,48.47543200003146],[-122.31017800004805,48.47543000024117],[-122.31001800021447,48.475426999960064],[-122.30996499961272,48.47542600006486],[-122.3096759999077,48.47542000009749],[-122.30851500016654,48.47540499987821],[-122.30851599999146,48.47587499987656],[-122.30851599999146,48.47610699978864],[-122.30851400034162,48.47615199981046],[-122.30851400034162,48.47640199980032],[-122.30851199979348,48.47717099986182],[-122.30851199979348,48.47724699994899],[-122.30853000023514,48.478147999812634],[-122.30854600012867,48.47858200007405],[-122.30855000032662,48.47875199999046],[-122.30853600008294,48.478807000121634],[-122.30853799973275,48.47884399972164],[-122.30856500039522,48.479589999820554],[-122.308575000441,48.47975600009689],[-122.30854600012867,48.48028199980256],[-122.30854799977848,48.48044399982013],[-122.30855399962628,48.4809299997459],[-122.30855500034949,48.480986000278676],[-122.30855000032662,48.48109200007584],[-122.30854699995359,48.48121200016311],[-122.30854299975562,48.48147899999373],[-122.30854299975562,48.481573000282054],[-122.30854299975562,48.48169400019405],[-122.30854299975562,48.48182299975768],[-122.30854299975562,48.48190199991934],[-122.30854500030375,48.4819800001919],[-122.30855199997643,48.482210000052945],[-122.3085560001744,48.482319000143235],[-122.30855500034949,48.48233999984963],[-122.30855000032662,48.48249999973747],[-122.30853500025802,48.482982999779864],[-122.30853100006004,48.4831439997643],[-122.30852600003718,48.483272000067764],[-122.30852000018938,48.48349599982157],[-122.30852600003718,48.48365600023092],[-122.30853299970988,48.48384099992616],[-122.30861499972562,48.48384000019678],[-122.30865300025879,48.4838389998719],[-122.30900800008602,48.483831999979124],[-122.30949699980758,48.48383499976319],[-122.30994600024445,48.4838389998719],[-122.31084800041786,48.48392899985336],[-122.31124500007789,48.48396900025697],[-122.31139200039101,48.48396700020775],[-122.31178300020325,48.48396100005965],[-122.3120529996417,48.48395699996057],[-122.31254100043662,48.4838389998719],[-122.31261699970626,48.48382099997552],[-122.31275499979856,48.48378799995045],[-122.3128850003932,48.48375600023045],[-122.31366299981973,48.4833189997632],[-122.31378500001847,48.48324999981532],[-122.31378599984338,48.48315299983342],[-122.31379000004135,48.48299100013139],[-122.31379099986627,48.482937999862976],[-122.31378800039153,48.482802000122824],[-122.31378099982052,48.48239600001667],[-122.3137799999956,48.482329999877116],[-122.3137799999956,48.482260999774745],[-122.3137799999956,48.48221799993099],[-122.3137799999956,48.4820920000681],[-122.31378099982052,48.48204999984579],[-122.31378300036866,48.48179199975861],[-122.31379199969116,48.481017999959924],[-122.31379500006423,48.480760999772926],[-122.31379500006423,48.48072800013883],[-122.31379599988914,48.48066999973748],[-122.31505000041504,48.48066800015366],[-122.31731599982092,48.480666999766264],[-122.31730999997315,48.48092399983405],[-122.31812599993285,48.48092699979006],[-122.31907099976394,48.480926000003244],[-122.31906800028923,48.48085500020091],[-122.31918200009203,48.48085300002891],[-122.3195949996456,48.48084900028014],[-122.31956200003363,48.48153400014559],[-122.31992299970867,48.481534999920406],[-122.31983300019529,48.48172999970368],[-122.31972699989007,48.48195899974095],[-122.31964099967635,48.482145999792465],[-122.31956799988143,48.48230499993717],[-122.31931799963617,48.482408999844594],[-122.31915399960462,48.48247999985355],[-122.319150000305,48.48263600028737],[-122.31913600006129,48.483413000214235],[-122.31908300035784,48.486105999727684],[-122.3187770000361,48.488825999904876],[-122.31871799958654,48.48935599989186],[-122.31872000013468,48.48939499996755],[-122.31869500002033,48.48952100014442],[-122.31867699957867,48.489682999826805],[-122.31926199955966,48.489685000245935],[-122.31958899979779,48.48968599986014],[-122.319947999823,48.489693999749704],[-122.32008699974017,48.48970700008853],[-122.32028599993181,48.48976100004055],[-122.32046900022993,48.48983999974545],[-122.32059300007847,48.48991200027364],[-122.32082099968412,48.490000999991466],[-122.32115799996801,48.49006600006798],[-122.32156499967378,48.490126000247855],[-122.32175999966745,48.49008700013901],[-122.32190799980543,48.489993999758454],[-122.32224400026443,48.48953399993222],[-122.3236350001594,48.48953899980392],[-122.32401900029896,48.48954699971669],[-122.3243049996309,48.489540000016376],[-122.32414899999529,48.49097600013019],[-122.32404900043618,48.49187499989295],[-122.32391899984152,48.49300800009593],[-122.3241359995765,48.49300999978859],[-122.32533800022387,48.4930240000163],[-122.32959600029756,48.49307199974708],[-122.33101599960652,48.49308899978968],[-122.33142599968534,48.49308599995767],[-122.33240999987451,48.49307800000789],[-122.33265799957164,48.493076999865266],[-122.3330690003737,48.493075000175246],[-122.33310899965836,48.493075000175246],[-122.33334600038314,48.49309100007448],[-122.33343599989651,48.4930969997377],[-122.33349799982078,48.49310099971123],[-122.33358599968432,48.49310699996862],[-122.33361599982155,48.49310999979937],[-122.33466899960771,48.493102999995564],[-122.33505399957215,48.493031999974555],[-122.33505899959505,48.49276199979176],[-122.3350770000367,48.49195399987643],[-122.3350839997094,48.49168500007677],[-122.33510200015108,48.49085599992493],[-122.33510600034903,48.49067899995217],[-122.33516200042553,48.48885699977242],[-122.33517300029617,48.48837300006261],[-122.33519400021258,48.487545000196],[-122.33518400016682,48.487024999978395],[-122.33515700040266,48.48546799976924],[-122.33514800018182,48.48494899999312],[-122.33512200024256,48.484731000164416],[-122.33509499958005,48.48454600014291],[-122.33507299983874,48.48422299991033],[-122.33506299979302,48.484022999769316],[-122.33506799981586,48.4839630001091],[-122.33508500043263,48.48389399984648],[-122.3351199996944,48.48384000019678],[-122.33517999996887,48.483796999905294],[-122.33525799978669,48.483759000018985],[-122.33533899997755,48.48373999976742],[-122.33538900020623,48.48373499991941],[-122.33542600001616,48.48372100010419],[-122.3355840001999,48.48358999994456],[-122.33563500025355,48.483674999918506],[-122.33564600012417,48.48369499992667],[-122.33568499958395,48.48376899970977],[-122.33570100037578,48.483801000017046],[-122.33575099970618,48.483875000240886],[-122.33585500036156,48.483993999972164],[-122.33593700037733,48.48408700004314],[-122.33597800038523,48.484121000192964],[-122.33608399979212,48.48420799991224],[-122.33610600043174,48.48422200018844],[-122.33615199956418,48.48425200017195],[-122.33622299970926,48.484301999906556],[-122.336308999923,48.484361999761134],[-122.33634800028106,48.484388000192126],[-122.33639500013673,48.48442099982681],[-122.33654800029761,48.48452599987484],[-122.33686799996474,48.4847469997194],[-122.33690499977466,48.484768000206806],[-122.33693900010988,48.4847919998176],[-122.33701899957748,48.484850999978455],[-122.33709100044584,48.4847749999704],[-122.33748700028094,48.48436100004203],[-122.33875500015228,48.483343000059605],[-122.33967700041715,48.48262299992218],[-122.33994600003068,48.48242799999929],[-122.34093799971745,48.48148400006412],[-122.34104400002268,48.48140100014168],[-122.3411729998941,48.48126600022885],[-122.34128900024506,48.48113399990049],[-122.34135799984202,48.48103999998958],[-122.34139499965197,48.48098900023107],[-122.34163300020164,48.480631999890306],[-122.34184699956357,48.48024500006047],[-122.34203099968659,48.47984600017745],[-122.3421739998017,48.479454000035894],[-122.34228099993184,48.47910299973878],[-122.34236499959742,48.47881100003141],[-122.34241200035137,48.47855600023979],[-122.34246000003199,48.478299999923244],[-122.34247799957534,48.4780499997584],[-122.34247799957534,48.477805999833876],[-122.34247199972754,48.47761000000125],[-122.34230500022129,48.47534199986173],[-122.3424480003364,48.47533800027398],[-122.34252799980405,48.47533599988444],[-122.34276700017864,48.47533200029621],[-122.34284800036949,48.47533099980359],[-122.34354299995536,48.47533200029621],[-122.34500900019339,48.475336999781476],[-122.34562799961127,48.47534600004471],[-122.34632300009545,48.47535700009964],[-122.34683199990846,48.4753610002814],[-122.34835900024586,48.475375999918164],[-122.3488680000589,48.475380999994584],[-122.35016500024253,48.47539299993782],[-122.35162899993239,48.47540700026502],[-122.35193799972889,48.475410999847334],[-122.351972999889,48.472524000129724],[-122.35708700010534,48.472620000237384]]]},"properties":{"AREALAND":"11087343","AREAWATER":"408791","BASENAME":"Burlington","CBSAPCI":"N","CENTLAT":"+48.4676360","CENTLON":"-122.3297984","FUNCSTAT":"A","GEOID":"5308920","INTPTLAT":"+48.4644235","INTPTLON":"-122.3313283","LSADC":"25","MTFCC":"G4110","NAME":"Burlington city","NECTAPCI":"N","OBJECTID":23551,"OID":"27890481269321","PLACE":"08920","PLACECC":"C1","PLACENS":"02409947","STATE":"53","DISP_CLR":4,"slug":"burlington","jurisdiction_key":"burlington_city","county_fips":["53057"]}}]}
