{
  "type": "FeatureCollection",
  "features": [
    {
      "type": "Feature",
      "geometry": {
        "type": "Polygon",
        "coordinates": [
          [
            [
              -122.05919700021681,
              47.1571739998484
            ],
            [
              -122.05922999982876,
              47.15632699969586
            ],
            [
              -122.05879899983357,
              47.15633899993583
            ],
            [
              -122.05749499997724,
              47.15635500004795
            ],
            [
              -122.05587599957833,
              47.156374000060296
            ],
            [
              -122.05449100042946,
              47.1563750000286
            ],
            [
              -122.05420400037428,
              47.1563750000286
            ],
            [
              -122.05375199956435,
              47.1563750000286
            ],
            [
              -122.05353800020242,
              47.15637599999688
            ],
            [
              -122.05349999966928,
              47.15448600006407
            ],
            [
              -122.05086400036754,
              47.15452100018725
            ],
            [
              -122.0508740004133,
              47.15639200009787
            ],
            [
              -122.05076700028316,
              47.15639300006584
            ],
            [
              -122.04895899973837,
              47.15640700022635
            ],
            [
              -122.0468060003104,
              47.156409000161695
            ],
            [
              -122.04660600029386,
              47.156409000161695
            ],
            [
              -122.04426399982171,
              47.1564189998374
            ],
            [
              -122.04264799979583,
              47.15641300003219
            ],
            [
              -122.04200400026357,
              47.15641000012935
            ],
            [
              -122.03857800004315,
              47.15640700022635
            ],
            [
              -122.03788599993199,
              47.15642800015473
            ],
            [
              -122.03987600005169,
              47.154579999731915
            ],
            [
              -122.03989399959501,
              47.15456300030467
            ],
            [
              -122.04177599975964,
              47.15280700006441
            ],
            [
              -122.04191899987478,
              47.15267400007101
            ],
            [
              -122.04151299999394,
              47.152676000146855
            ],
            [
              -122.0408850003552,
              47.152678000222636
            ],
            [
              -122.04010700003036,
              47.15268199976309
            ],
            [
              -122.03938899997993,
              47.153336999713
            ],
            [
              -122.03849299965432,
              47.15415400019236
            ],
            [
              -122.03820499977422,
              47.15441699975364
            ],
            [
              -122.03704700040609,
              47.154413999738075
            ],
            [
              -122.03704700040609,
              47.15458599974404
            ],
            [
              -122.03559399968856,
              47.15458999975175
            ],
            [
              -122.03468400001752,
              47.15459199975554
            ],
            [
              -122.03155999992084,
              47.15460999978586
            ],
            [
              -122.0315630002939,
              47.154205000071975
            ],
            [
              -122.03159500008096,
              47.15027699983982
            ],
            [
              -122.03159799955569,
              47.14950300017846
            ],
            [
              -122.03160000010382,
              47.14912399970876
            ],
            [
              -122.03160099992874,
              47.14892599998287
            ],
            [
              -122.03153300015666,
              47.14891399990174
            ],
            [
              -122.03147700008017,
              47.14892100005123
            ],
            [
              -122.0314090003081,
              47.14892100005123
            ],
            [
              -122.02694100017214,
              47.14887999986075
            ],
            [
              -122.02666699963746,
              47.148877000143614
            ],
            [
              -122.02616000037256,
              47.14887299970586
            ],
            [
              -122.02611199979366,
              47.148872000207334
            ],
            [
              -122.02561700022433,
              47.148876000034214
            ],
            [
              -122.02538000039786,
              47.148878000253
            ],
            [
              -122.02515899956661,
              47.14887999986075
            ],
            [
              -122.02504999978669,
              47.14888099997008
            ],
            [
              -122.02503600044129,
              47.14888099997008
            ],
            [
              -122.02474799966288,
              47.148883000188675
            ],
            [
              -122.02427499983486,
              47.14888700001473
            ],
            [
              -122.02425200026865,
              47.14888700001473
            ],
            [
              -122.02399000032784,
              47.1488890002331
            ],
            [
              -122.0237690003949,
              47.14889099984044
            ],
            [
              -122.02344200015675,
              47.148894000167786
            ],
            [
              -122.02336799963858,
              47.148894000167786
            ],
            [
              -122.02334199969933,
              47.148894000167786
            ],
            [
              -122.02223299983666,
              47.14890299992681
            ],
            [
              -122.02096699961517,
              47.14891299979303
            ],
            [
              -122.02083899956867,
              47.14891399990174
            ],
            [
              -122.02075599972798,
              47.14891500001042
            ],
            [
              -122.02071999974298,
              47.14891500001042
            ],
            [
              -122.02071999974298,
              47.14893599984477
            ],
            [
              -122.01723199959822,
              47.149024000136855
            ],
            [
              -122.01682499989245,
              47.149040000007695
            ],
            [
              -122.01664699961721,
              47.1490080002612
            ],
            [
              -122.01623599971349,
              47.148934999736476
            ],
            [
              -122.01568400024276,
              47.14893699995308
            ],
            [
              -122.01532000019469,
              47.14893900016957
            ],
            [
              -122.01476799982565,
              47.14894199988321
            ],
            [
              -122.01400700011752,
              47.14894699981291
            ],
            [
              -122.01396600010963,
              47.14894699981291
            ],
            [
              -122.0137860001846,
              47.14894900002902
            ],
            [
              -122.01327599964833,
              47.14895199974209
            ],
            [
              -122.01274699974381,
              47.148955000065996
            ],
            [
              -122.01265800005538,
              47.14895600017391
            ],
            [
              -122.01221799983931,
              47.14895899988659
            ],
            [
              -122.01174500001129,
              47.14896200021005
            ],
            [
              -122.01134900017618,
              47.1489639998147
            ],
            [
              -122.0111600000303,
              47.148966000030164
            ],
            [
              -122.0104140003908,
              47.148969999849925
            ],
            [
              -122.01007999958165,
              47.148973000172816
            ],
            [
              -122.00870399975531,
              47.14896800024556
            ],
            [
              -122.00740400009695,
              47.1489639998147
            ],
            [
              -122.0060990004157,
              47.14895999999443
            ],
            [
              -122.00596200014834,
              47.14895999999443
            ],
            [
              -122.00570600005533,
              47.14895899988659
            ],
            [
              -122.00496700008851,
              47.14895600017391
            ],
            [
              -122.0048459997147,
              47.148955000065996
            ],
            [
              -122.00482899999626,
              47.148955000065996
            ],
            [
              -122.0047250002392,
              47.14895299985006
            ],
            [
              -122.00464300022341,
              47.14895199974209
            ],
            [
              -122.00212000000127,
              47.14890600025343
            ],
            [
              -122.00180299980889,
              47.14890000021092
            ],
            [
              -122.00150400005812,
              47.148895000276845
            ],
            [
              -121.99938400024213,
              47.14885600028592
            ],
            [
              -121.99934300023426,
              47.14885500017613
            ],
            [
              -121.99824500024225,
              47.14883099997905
            ],
            [
              -121.9980169997383,
              47.148826000038476
            ],
            [
              -121.99686299966982,
              47.1488009997175
            ],
            [
              -121.99670899968402,
              47.14879799999591
            ],
            [
              -121.99669000031575,
              47.14879799999591
            ],
            [
              -121.99537100039083,
              47.14876899982711
            ],
            [
              -121.99403099965119,
              47.148740000253504
            ],
            [
              -121.99400800008497,
              47.14899100027354
            ],
            [
              -121.99385800029712,
              47.15055300005212
            ],
            [
              -121.99382800015991,
              47.15086199999706
            ],
            [
              -121.99378700015204,
              47.15129999981243
            ],
            [
              -121.99378499960388,
              47.151315000156416
            ],
            [
              -121.99378399977896,
              47.151329999885284
            ],
            [
              -121.99377899975609,
              47.15137599971976
            ],
            [
              -121.99377600028137,
              47.15140699981148
            ],
            [
              -121.99368500004479,
              47.1523659997087
            ],
            [
              -121.99368199967171,
              47.152393999704294
            ],
            [
              -121.993679000197,
              47.15242100025341
            ],
            [
              -121.99367099980105,
              47.15251499990851
            ],
            [
              -121.99360100037919,
              47.15327499993029
            ],
            [
              -121.9935040002948,
              47.154343999938554
            ],
            [
              -121.99342999977664,
              47.155146999719456
            ],
            [
              -121.99339299996672,
              47.155547000276165
            ],
            [
              -121.99335299978374,
              47.15598399998855
            ],
            [
              -121.99337899972303,
              47.15625400006113
            ],
            [
              -121.99335399960866,
              47.156515000293275
            ],
            [
              -121.99340300001245,
              47.157247000051754
            ],
            [
              -121.99349800044702,
              47.158147999767756
            ],
            [
              -121.99363399999116,
              47.159363000281346
            ],
            [
              -121.99390299960467,
              47.16207200026022
            ],
            [
              -121.99400899990987,
              47.16313800029048
            ],
            [
              -121.99403300019932,
              47.1632570001733
            ],
            [
              -121.99408000005498,
              47.16334800008354
            ],
            [
              -121.99409099992563,
              47.16354599982609
            ],
            [
              -121.99412500026082,
              47.16443000028574
            ],
            [
              -121.99412000023796,
              47.164573000145424
            ],
            [
              -121.99412500026082,
              47.16461799969708
            ],
            [
              -121.99412899956049,
              47.16465899996114
            ],
            [
              -121.99416200007074,
              47.16498100026444
            ],
            [
              -121.9941650004438,
              47.165013000165246
            ],
            [
              -121.99418499963696,
              47.16521399982635
            ],
            [
              -121.9941870001851,
              47.165234999938505
            ],
            [
              -121.99421399994931,
              47.16549699982536
            ],
            [
              -121.99426800037594,
              47.16603899982087
            ],
            [
              -121.99435700006443,
              47.1669210001747
            ],
            [
              -121.99450600002733,
              47.168909999810914
            ],
            [
              -121.99458399984515,
              47.16995499996405
            ],
            [
              -121.9946030001117,
              47.17020300020172
            ],
            [
              -121.99460700030967,
              47.17088700007635
            ],
            [
              -121.99460700030967,
              47.17091999977787
            ],
            [
              -121.99460800013458,
              47.17112399997609
            ],
            [
              -121.99460800013458,
              47.17120699988937
            ],
            [
              -121.99461300015744,
              47.17206899975136
            ],
            [
              -121.99461399998236,
              47.17218599982741
            ],
            [
              -121.99461399998236,
              47.17225700021764
            ],
            [
              -121.99461300015744,
              47.172344000084756
            ],
            [
              -121.9946109996093,
              47.17267500022087
            ],
            [
              -121.99464199957144,
              47.17269199995999
            ],
            [
              -121.99466199966294,
              47.172699000030605
            ],
            [
              -121.99468500012748,
              47.17269700009776
            ],
            [
              -121.99503400010691,
              47.17266100007241
            ],
            [
              -121.9954690003001,
              47.17259999990587
            ],
            [
              -121.99656100044434,
              47.17242100009393
            ],
            [
              -121.99745100002386,
              47.17219200029414
            ],
            [
              -121.99810600032508,
              47.17187499994972
            ],
            [
              -121.99862699983365,
              47.17157900020266
            ],
            [
              -121.99951499976338,
              47.17107499984133
            ],
            [
              -122.00012200038402,
              47.1706280002262
            ],
            [
              -122.00059699986184,
              47.17019599980215
            ],
            [
              -122.00172800036411,
              47.17003500012783
            ],
            [
              -122.0023889996148,
              47.17001499979284
            ],
            [
              -122.00294799965651,
              47.17002200021627
            ],
            [
              -122.00371099991278,
              47.17010700005011
            ],
            [
              -122.00385400002793,
              47.170121000261126
            ],
            [
              -122.00400700018878,
              47.17013800020707
            ],
            [
              -122.00408199963356,
              47.170145999712744
            ],
            [
              -122.00453299972024,
              47.170195000093905
            ],
            [
              -122.00485599976045,
              47.170282999991954
            ],
            [
              -122.00501099957114,
              47.17032099981959
            ],
            [
              -122.0056190000167,
              47.170483000161795
            ],
            [
              -122.0064719997863,
              47.17083799972292
            ],
            [
              -122.00677399991008,
              47.17096399975521
            ],
            [
              -122.00672700005443,
              47.171098000072234
            ],
            [
              -122.00667099997793,
              47.17126900012253
            ],
            [
              -122.00662199957412,
              47.171413000187826
            ],
            [
              -122.00655899982492,
              47.17204000006843
            ],
            [
              -122.00658899996215,
              47.1725560000626
            ],
            [
              -122.00669500026734,
              47.17287699985853
            ],
            [
              -122.00703000000313,
              47.17323199990544
            ],
            [
              -122.00707199983593,
              47.173275999799316
            ],
            [
              -122.00763500007562,
              47.173583999867496
            ],
            [
              -122.00789700001643,
              47.17375600010373
            ],
            [
              -122.00813600039103,
              47.17392099987426
            ],
            [
              -122.00822300042967,
              47.17401999997904
            ],
            [
              -122.00845600005819,
              47.17428300013195
            ],
            [
              -122.00857400005896,
              47.17436599999341
            ],
            [
              -122.00911999968191,
              47.17474900028548
            ],
            [
              -122.00940000006442,
              47.17510799971561
            ],
            [
              -122.00975800026467,
              47.1754029997237
            ],
            [
              -122.01101400044043,
              47.17573999978913
            ],
            [
              -122.01176699975261,
              47.17593799974881
            ],
            [
              -122.01188499975338,
              47.17597299978521
            ],
            [
              -122.01236199977934,
              47.176047000012936
            ],
            [
              -122.0127240001776,
              47.176050000028255
            ],
            [
              -122.01347400001505,
              47.17596099970556
            ],
            [
              -122.01426099966243,
              47.17578800029124
            ],
            [
              -122.0147579997799,
              47.1756060001932
            ],
            [
              -122.01518499957714,
              47.17544999969987
            ],
            [
              -122.01566199960311,
              47.175275000006295
            ],
            [
              -122.01628400029236,
              47.17504699991724
            ],
            [
              -122.0171019999019,
              47.174699000207994
            ],
            [
              -122.01873299999636,
              47.174554000266674
            ],
            [
              -122.01881800038515,
              47.17454600020366
            ],
            [
              -122.01903000009727,
              47.17452699997278
            ],
            [
              -122.01909100019664,
              47.17452200000735
            ],
            [
              -122.01926699992373,
              47.17457499973944
            ],
            [
              -122.01940400019109,
              47.174616000256336
            ],
            [
              -122.01943699980303,
              47.17460599973106
            ],
            [
              -122.02020900028012,
              47.17437700019338
            ],
            [
              -122.02102600006474,
              47.174235000101355
            ],
            [
              -122.0211420004157,
              47.17421500012669
            ],
            [
              -122.0213680003715,
              47.174123000268374
            ],
            [
              -122.0215309996798,
              47.174056999939936
            ],
            [
              -122.02206600033041,
              47.17401199983553
            ],
            [
              -122.02230599963158,
              47.17397400020617
            ],
            [
              -122.022883000115,
              47.1740510002946
            ],
            [
              -122.02319799975926,
              47.174048999802054
            ],
            [
              -122.02324999963781,
              47.17404800016639
            ],
            [
              -122.0234809996165,
              47.174046999920044
            ],
            [
              -122.02358500027186,
              47.17407500009316
            ],
            [
              -122.02423499965188,
              47.1741130002609
            ],
            [
              -122.02513199980243,
              47.174088000233944
            ],
            [
              -122.025776000233,
              47.174133000273955
            ],
            [
              -122.02606999996087,
              47.17418099978612
            ],
            [
              -122.02732000028885,
              47.17438599991117
            ],
            [
              -122.02888299971293,
              47.174918999952425
            ],
            [
              -122.02963500009852,
              47.175056999748875
            ],
            [
              -122.0297759996655,
              47.17506100004734
            ],
            [
              -122.03072999971747,
              47.17508900029646
            ],
            [
              -122.03130300000291,
              47.175048999761586
            ],
            [
              -122.03193400001466,
              47.1750069999614
            ],
            [
              -122.03236099981193,
              47.174931999886596
            ],
            [
              -122.03252499984346,
              47.17487800028012
            ],
            [
              -122.03254699958475,
              47.17486799980418
            ],
            [
              -122.03258000009502,
              47.17482200015526
            ],
            [
              -122.03264399966913,
              47.17476499973853
            ],
            [
              -122.03273599973063,
              47.17471099996218
            ],
            [
              -122.03297199973218,
              47.17464700022403
            ],
            [
              -122.03370700039935,
              47.174487999863295
            ],
            [
              -122.03399799975418,
              47.17440500019251
            ],
            [
              -122.03438899956642,
              47.1742319999835
            ],
            [
              -122.03479500034561,
              47.17395499977068
            ],
            [
              -122.03495799965391,
              47.17380599984777
            ],
            [
              -122.03574400037468,
              47.17307500011201
            ],
            [
              -122.0358220001925,
              47.1730029999387
            ],
            [
              -122.03592199975161,
              47.172942999821466
            ],
            [
              -122.03643300011278,
              47.17279400011248
            ],
            [
              -122.03671199977204,
              47.17276399994431
            ],
            [
              -122.03706699959928,
              47.17272600003262
            ],
            [
              -122.03743900004326,
              47.172686999821785
            ],
            [
              -122.03746499998253,
              47.17268400022714
            ],
            [
              -122.03764099970962,
              47.17267500022087
            ],
            [
              -122.03801999982629,
              47.172657000203785
            ],
            [
              -122.03823800028451,
              47.172644999985465
            ],
            [
              -122.03865500003602,
              47.17262399974951
            ],
            [
              -122.03897200022841,
              47.1726309998291
            ],
            [
              -122.0410409999908,
              47.17267900008814
            ],
            [
              -122.04146399959012,
              47.17272499976137
            ],
            [
              -122.04170299996471,
              47.17265500026936
            ],
            [
              -122.04171499966027,
              47.17249999993178
            ],
            [
              -122.04179900022419,
              47.17248599973719
            ],
            [
              -122.04199500004276,
              47.172588999948495
            ],
            [
              -122.04215499987633,
              47.172556999726346
            ],
            [
              -122.04237300033455,
              47.17244199979947
            ],
            [
              -122.04283600011682,
              47.172062000208385
            ],
            [
              -122.04290100041415,
              47.17203000027937
            ],
            [
              -122.04301699986678,
              47.171972000244445
            ],
            [
              -122.04300599999613,
              47.17188000016443
            ],
            [
              -122.04296499998823,
              47.17143299999636
            ],
            [
              -122.0429840002548,
              47.17080000026519
            ],
            [
              -122.0429979996002,
              47.17017699984699
            ],
            [
              -122.04287700012469,
              47.16841600024317
            ],
            [
              -122.04275599975087,
              47.166590000211045
            ],
            [
              -122.04273999985735,
              47.166306999927585
            ],
            [
              -122.04270399987234,
              47.16564700025591
            ],
            [
              -122.04269800002454,
              47.16553100022881
            ],
            [
              -122.04268899980373,
              47.165371000260215
            ],
            [
              -122.04267299991018,
              47.16507699990893
            ],
            [
              -122.0426589996665,
              47.164814999782784
            ],
            [
              -122.04261000016102,
              47.16405400007781
            ],
            [
              -122.04260500013812,
              47.16391999970161
            ],
            [
              -122.04260299958999,
              47.16387800026161
            ],
            [
              -122.04258900024459,
              47.16353099988069
            ],
            [
              -122.0425880004197,
              47.16347800012108
            ],
            [
              -122.04258699969647,
              47.16342499969786
            ],
            [
              -122.04258599987156,
              47.16339900030061
            ],
            [
              -122.04258400022172,
              47.163189999938474
            ],
            [
              -122.0425830003968,
              47.163161000293734
            ],
            [
              -122.0425830003968,
              47.16314399994706
            ],
            [
              -122.04257900019888,
              47.16287300022493
            ],
            [
              -122.04257599982583,
              47.16264999989229
            ],
            [
              -122.0425730003511,
              47.162471999993066
            ],
            [
              -122.04259699974223,
              47.16225500017732
            ],
            [
              -122.04263699992518,
              47.161840000220174
            ],
            [
              -122.04263199990231,
              47.16145400005678
            ],
            [
              -122.04288899982028,
              47.16144199975041
            ],
            [
              -122.04487300009215,
              47.16145900003097
            ],
            [
              -122.0488209996461,
              47.161478999922856
            ],
            [
              -122.05273599958812,
              47.16151100010076
            ],
            [
              -122.05471599966204,
              47.16153500006884
            ],
            [
              -122.05838499955678,
              47.161555999802935
            ],
            [
              -122.05904499988085,
              47.161568999954106
            ],
            [
              -122.05910000013243,
              47.16033599988346
            ],
            [
              -122.0591339995693,
              47.160077999791454
            ],
            [
              -122.05914100014033,
              47.159729999728235
            ],
            [
              -122.05915200001098,
              47.15806099985953
            ],
            [
              -122.05919700021681,
              47.1571739998484
            ]
          ]
        ]
      },
      "properties": {
        "AREALAND": "9997403",
        "AREAWATER": "294285",
        "BASENAME": "Buckley",
        "CBSAPCI": "N",
        "CENTLAT": "+47.1615381",
        "CENTLON": "-122.0200382",
        "FUNCSTAT": "A",
        "GEOID": "5308570",
        "INTPTLAT": "+47.1622395",
        "INTPTLON": "-122.0202720",
        "LSADC": "25",
        "MTFCC": "G4110",
        "NAME": "Buckley city",
        "NECTAPCI": "N",
        "OBJECTID": 22890,
        "OID": "278901445839828",
        "PLACE": "08570",
        "PLACECC": "C1",
        "PLACENS": "02409929",
        "STATE": "53",
        "DISP_CLR": 5,
        "slug": "buckley",
        "jurisdiction_key": "buckley_city",
        "county_fips": [
          "53053"
        ]
      }
    }
  ]
}
