{
  "type": "FeatureCollection",
  "features": [
    {
      "type": "Feature",
      "geometry": {
        "type": "Polygon",
        "coordinates": [
          [
            [
              -122.92886800041732,
              46.2843710001586
            ],
            [
              -122.9288650000443,
              46.28385600016163
            ],
            [
              -122.92886300039446,
              46.283550999996436
            ],
            [
              -122.9224029995907,
              46.28359199995458
            ],
            [
              -122.92224199993221,
              46.28359300008947
            ],
            [
              -122.92223600008442,
              46.28332099998022
            ],
            [
              -122.92394800036976,
              46.28322900007586
            ],
            [
              -122.92393900014892,
              46.28141399999217
            ],
            [
              -122.9197480000224,
              46.281641000052794
            ],
            [
              -122.92000499994033,
              46.280992999971936
            ],
            [
              -122.92053899986774,
              46.279642999815465
            ],
            [
              -122.9208669999308,
              46.27881599997485
            ],
            [
              -122.9213470003298,
              46.27760700003148
            ],
            [
              -122.92187200003637,
              46.27628099988492
            ],
            [
              -122.92342299976488,
              46.276445000184715
            ],
            [
              -122.92426300001402,
              46.275515999748116
            ],
            [
              -122.92438900041074,
              46.27535300005792
            ],
            [
              -122.92449800019067,
              46.27518400001568
            ],
            [
              -122.92456500013783,
              46.275062000091125
            ],
            [
              -122.92463200008497,
              46.27490399989722
            ],
            [
              -122.92467499974268,
              46.27474100024936
            ],
            [
              -122.92469300018433,
              46.27457699981727
            ],
            [
              -122.92469200035941,
              46.27449399973712
            ],
            [
              -122.92467899994062,
              46.274366000182546
            ],
            [
              -122.92462200003922,
              46.27394199971671
            ],
            [
              -122.92461500036654,
              46.27389099997417
            ],
            [
              -122.92461100016857,
              46.273812999801336
            ],
            [
              -122.92459399955183,
              46.273444000272924
            ],
            [
              -122.9245860000542,
              46.273278000280584
            ],
            [
              -122.92455199971904,
              46.27302899997031
            ],
            [
              -122.92452599977975,
              46.272905999885815
            ],
            [
              -122.92449599964253,
              46.2728049999988
            ],
            [
              -122.92445399980974,
              46.272660000130635
            ],
            [
              -122.92440299975611,
              46.27252300009118
            ],
            [
              -122.92432800031136,
              46.27232200030182
            ],
            [
              -122.92425899981608,
              46.27218999989084
            ],
            [
              -122.92395500004244,
              46.27176100008519
            ],
            [
              -122.92388700027038,
              46.27166400011965
            ],
            [
              -122.92382299979796,
              46.27161199976653
            ],
            [
              -122.92373199956137,
              46.27158399979479
            ],
            [
              -122.92384000041473,
              46.27130899984446
            ],
            [
              -122.92416599992964,
              46.27048700028836
            ],
            [
              -122.92427499970957,
              46.270213000180625
            ],
            [
              -122.92455000006919,
              46.269515999774725
            ],
            [
              -122.92537699989954,
              46.26742700026332
            ],
            [
              -122.92565300008407,
              46.266731000269885
            ],
            [
              -122.92572400022918,
              46.26655099978623
            ],
            [
              -122.92576400041216,
              46.26638199992581
            ],
            [
              -122.92579100017633,
              46.26618199980366
            ],
            [
              -122.92579799984902,
              46.26599400007922
            ],
            [
              -122.92579899967392,
              46.26598200019383
            ],
            [
              -122.92578699997837,
              46.26578999980741
            ],
            [
              -122.92500700000367,
              46.26585400001092
            ],
            [
              -122.92487399993429,
              46.26584299993276
            ],
            [
              -122.92476599997926,
              46.26588999974328
            ],
            [
              -122.9246210002143,
              46.265876999997914
            ],
            [
              -122.92452400012994,
              46.2658690000575
            ],
            [
              -122.92444700013704,
              46.265861999953465
            ],
            [
              -122.92417099995251,
              46.265888000069246
            ],
            [
              -122.92372800026172,
              46.265761000127206
            ],
            [
              -122.92365899976645,
              46.26572500031019
            ],
            [
              -122.92330300011429,
              46.26554299994173
            ],
            [
              -122.92294599973891,
              46.26536900022554
            ],
            [
              -122.92287700014194,
              46.265333000151095
            ],
            [
              -122.9224090003368,
              46.26508600008935
            ],
            [
              -122.92234200038963,
              46.26505100030238
            ],
            [
              -122.92214800022089,
              46.264989999963646
            ],
            [
              -122.92212800012939,
              46.2649840002219
            ],
            [
              -122.92200299955762,
              46.26494399985678
            ],
            [
              -122.92165199992833,
              46.264835000110985
            ],
            [
              -122.92162699981395,
              46.264822999971884
            ],
            [
              -122.92124100002461,
              46.264657999811405
            ],
            [
              -122.92108100019102,
              46.26455499990735
            ],
            [
              -122.92090700011374,
              46.26436899992189
            ],
            [
              -122.92079900015871,
              46.264253999832235
            ],
            [
              -122.9207280000136,
              46.264237000230544
            ],
            [
              -122.92060699963977,
              46.26420599999346
            ],
            [
              -122.92045100000416,
              46.26425299996542
            ],
            [
              -122.92013399981177,
              46.26423599974236
            ],
            [
              -122.91981300031972,
              46.2641459998254
            ],
            [
              -122.91941300028664,
              46.26408100024198
            ],
            [
              -122.91936399988285,
              46.26402099993712
            ],
            [
              -122.91934799998931,
              46.26400100002787
            ],
            [
              -122.9192769998442,
              46.26391399996529
            ],
            [
              -122.91918200030796,
              46.263877000303715
            ],
            [
              -122.91899300016208,
              46.26380300028462
            ],
            [
              -122.9187270000233,
              46.263830999883986
            ],
            [
              -122.91856100034194,
              46.26383300025405
            ],
            [
              -122.91840599963294,
              46.26375599992691
            ],
            [
              -122.91833000036324,
              46.26375599992691
            ],
            [
              -122.91806300039957,
              46.263756999802794
            ],
            [
              -122.91782200037512,
              46.263830999883986
            ],
            [
              -122.91743099966457,
              46.263966000169226
            ],
            [
              -122.9172139999296,
              46.26414499995656
            ],
            [
              -122.91684700040679,
              46.264263999741615
            ],
            [
              -122.91645700041944,
              46.264504999986634
            ],
            [
              -122.91631199975618,
              46.264674000044415
            ],
            [
              -122.91624499980904,
              46.26481499987771
            ],
            [
              -122.91628800036504,
              46.26499999973878
            ],
            [
              -122.91610599989184,
              46.26519499995711
            ],
            [
              -122.91582499968446,
              46.26554799977904
            ],
            [
              -122.91563899991162,
              46.26578100001535
            ],
            [
              -122.91558500038327,
              46.265792000105996
            ],
            [
              -122.91548099972788,
              46.26579500024322
            ],
            [
              -122.91537100012303,
              46.26580800000802
            ],
            [
              -122.91516100006072,
              46.26605700021064
            ],
            [
              -122.9141729996736,
              46.26605899987851
            ],
            [
              -122.91345299997339,
              46.266157000280465
            ],
            [
              -122.91296300042693,
              46.2661439999774
            ],
            [
              -122.91291300019822,
              46.26619400026625
            ],
            [
              -122.9127990003954,
              46.26630800018301
            ],
            [
              -122.91155599974014,
              46.26658400020897
            ],
            [
              -122.9107719995675,
              46.26669799993565
            ],
            [
              -122.91025600008179,
              46.266791000092724
            ],
            [
              -122.91018199956362,
              46.26680500006264
            ],
            [
              -122.90999400014095,
              46.266839999971786
            ],
            [
              -122.9093999999391,
              46.26682800027164
            ],
            [
              -122.90912200010476,
              46.266822999930014
            ],
            [
              -122.9090540003327,
              46.26683500025232
            ],
            [
              -122.9088500001182,
              46.266859000268
            ],
            [
              -122.90812600022002,
              46.26683699989176
            ],
            [
              -122.90786799957884,
              46.26682200011005
            ],
            [
              -122.90709299962703,
              46.266792999733816
            ],
            [
              -122.90688599993777,
              46.266792999733816
            ],
            [
              -122.90642099960738,
              46.26677499985659
            ],
            [
              -122.90595899965003,
              46.2667350001773
            ],
            [
              -122.90581300006015,
              46.26669899975787
            ],
            [
              -122.90561100039382,
              46.26666699984824
            ],
            [
              -122.90545599968478,
              46.266655999933185
            ],
            [
              -122.90530099987409,
              46.26665699975617
            ],
            [
              -122.90360100018265,
              46.26531799995784
            ],
            [
              -122.90201199992097,
              46.264468999965786
            ],
            [
              -122.90200100005032,
              46.26444900022003
            ],
            [
              -122.90037499997872,
              46.26281499994361
            ],
            [
              -122.89919099977298,
              46.260768999828464
            ],
            [
              -122.89819200041352,
              46.25832300003946
            ],
            [
              -122.89728799969197,
              46.25638099993762
            ],
            [
              -122.89703099977403,
              46.25590399973269
            ],
            [
              -122.89677200020625,
              46.25542400026419
            ],
            [
              -122.89595100022366,
              46.253950000266634
            ],
            [
              -122.89555100019061,
              46.25323600001845
            ],
            [
              -122.8950940002561,
              46.25276200001789
            ],
            [
              -122.89464200034449,
              46.25200400022835
            ],
            [
              -122.89312599987774,
              46.249829000024306
            ],
            [
              -122.89197799965703,
              46.24845100003743
            ],
            [
              -122.89090599960431,
              46.24724099978493
            ],
            [
              -122.89059299960985,
              46.24666300000198
            ],
            [
              -122.8902510002014,
              46.245968000018955
            ],
            [
              -122.88999000008549,
              46.246476000010716
            ],
            [
              -122.88982000020619,
              46.2465810000876
            ],
            [
              -122.88952700030322,
              46.24676199984888
            ],
            [
              -122.88907299984348,
              46.246875000227625
            ],
            [
              -122.88884000021498,
              46.246912999741944
            ],
            [
              -122.88864600004624,
              46.246944999999165
            ],
            [
              -122.88860300038853,
              46.24695300021585
            ],
            [
              -122.8885179999997,
              46.24696600009953
            ],
            [
              -122.8883420002726,
              46.247342999735594
            ],
            [
              -122.88814599955572,
              46.247729000158635
            ],
            [
              -122.88793700021665,
              46.24806199986036
            ],
            [
              -122.88790000040673,
              46.248118999752215
            ],
            [
              -122.88779099972847,
              46.248294999861756
            ],
            [
              -122.88768699997141,
              46.248455000036095
            ],
            [
              -122.8874069995889,
              46.248885999892046
            ],
            [
              -122.8870750002262,
              46.24926299999876
            ],
            [
              -122.88689600012606,
              46.24949300008146
            ],
            [
              -122.88673899976723,
              46.24968700003336
            ],
            [
              -122.88666799962212,
              46.24982600025577
            ],
            [
              -122.88667099999515,
              46.249935000022894
            ],
            [
              -122.88630199992423,
              46.24993100013215
            ],
            [
              -122.88588599999761,
              46.24993200026015
            ],
            [
              -122.88577300001971,
              46.250079000243694
            ],
            [
              -122.88567299956229,
              46.25019800011926
            ],
            [
              -122.8854280002382,
              46.25051599984585
            ],
            [
              -122.88522200037389,
              46.25099800024898
            ],
            [
              -122.88495399968697,
              46.25191300001801
            ],
            [
              -122.88490799965622,
              46.25226500017153
            ],
            [
              -122.88493399959546,
              46.2524909997639
            ],
            [
              -122.88502599965697,
              46.2532000000521
            ],
            [
              -122.88509099995431,
              46.25354400014506
            ],
            [
              -122.88516899977213,
              46.253739000113484
            ],
            [
              -122.88565199964589,
              46.25440899986549
            ],
            [
              -122.88572000031625,
              46.25450399983989
            ],
            [
              -122.88579700030915,
              46.25461300024851
            ],
            [
              -122.8863139996198,
              46.25534499987009
            ],
            [
              -122.88648400039742,
              46.2555850001647
            ],
            [
              -122.8859539997697,
              46.25559499979189
            ],
            [
              -122.88567599993533,
              46.25559999991534
            ],
            [
              -122.88470500016493,
              46.25561799973489
            ],
            [
              -122.88464900008844,
              46.25561899975919
            ],
            [
              -122.88416200001673,
              46.25562799997715
            ],
            [
              -122.88365099965556,
              46.255637000193644
            ],
            [
              -122.88319299989615,
              46.2556469998113
            ],
            [
              -122.88207499981267,
              46.255668000306834
            ],
            [
              -122.88170400009191,
              46.2551540001532
            ],
            [
              -122.88073599979626,
              46.25516299982633
            ],
            [
              -122.88074300036726,
              46.256019999962525
            ],
            [
              -122.88075500006285,
              46.25702399975187
            ],
            [
              -122.88079600007072,
              46.260533000223894
            ],
            [
              -122.88079600007072,
              46.260729000114374
            ],
            [
              -122.88209300025434,
              46.26070499989926
            ],
            [
              -122.88407400015319,
              46.260668999867406
            ],
            [
              -122.88433000024624,
              46.26066099978813
            ],
            [
              -122.88582400007331,
              46.26138500006305
            ],
            [
              -122.88580200033203,
              46.26401599996049
            ],
            [
              -122.88582599972317,
              46.264337999759455
            ],
            [
              -122.88920599991287,
              46.26435800016675
            ],
            [
              -122.88939300040892,
              46.26435900003171
            ],
            [
              -122.88952599958002,
              46.2643599998966
            ],
            [
              -122.89002299969746,
              46.26436300011219
            ],
            [
              -122.89017400020853,
              46.26436399997701
            ],
            [
              -122.89075900018952,
              46.26436700019243
            ],
            [
              -122.89089599955858,
              46.26436800005717
            ],
            [
              -122.89129099956877,
              46.2643699997866
            ],
            [
              -122.89041600005784,
              46.26287399981327
            ],
            [
              -122.8901230001549,
              46.26196299996821
            ],
            [
              -122.88997699966673,
              46.261507000000236
            ],
            [
              -122.88993099963596,
              46.261429000214235
            ],
            [
              -122.88989499965096,
              46.26140800006182
            ],
            [
              -122.88978400022118,
              46.261329000214786
            ],
            [
              -122.8896310000603,
              46.26117900018417
            ],
            [
              -122.88955499989233,
              46.261082000123935
            ],
            [
              -122.88920000006509,
              46.26048999991019
            ],
            [
              -122.88919099984425,
              46.26047700012651
            ],
            [
              -122.88895900004066,
              46.260098000204145
            ],
            [
              -122.88915999988211,
              46.26012000017949
            ],
            [
              -122.8897630003048,
              46.260186000052585
            ],
            [
              -122.88996400014622,
              46.26020799999262
            ],
            [
              -122.89003699994117,
              46.26030199991926
            ],
            [
              -122.89015099974401,
              46.260449000056305
            ],
            [
              -122.8902560002243,
              46.26058499990823
            ],
            [
              -122.89032900001922,
              46.26067999974162
            ],
            [
              -122.89189900001432,
              46.262667000043805
            ],
            [
              -122.8920239996878,
              46.26283199998626
            ],
            [
              -122.89296400039437,
              46.26398799983456
            ],
            [
              -122.89343100037459,
              46.26456200017828
            ],
            [
              -122.89382300001175,
              46.26453299984846
            ],
            [
              -122.89404099957166,
              46.26451800005734
            ],
            [
              -122.89514000028687,
              46.2644379998599
            ],
            [
              -122.89529099989959,
              46.26442700011861
            ],
            [
              -122.89535199999897,
              46.26442200017902
            ],
            [
              -122.89569900032862,
              46.26439699985323
            ],
            [
              -122.89636200012743,
              46.26440099993094
            ],
            [
              -122.89640399996023,
              46.26440099993094
            ],
            [
              -122.89652100013608,
              46.26440199979506
            ],
            [
              -122.89655399974805,
              46.26439900020264
            ],
            [
              -122.89658999973305,
              46.26439599998897
            ],
            [
              -122.89662900009114,
              46.26439299977518
            ],
            [
              -122.8970170004286,
              46.26435800016675
            ],
            [
              -122.89717399988915,
              46.264344000192935
            ],
            [
              -122.8972900002401,
              46.26440699973649
            ],
            [
              -122.89805699979597,
              46.26441200029849
            ],
            [
              -122.89824599994186,
              46.26451899991934
            ],
            [
              -122.89883599994575,
              46.26485100029238
            ],
            [
              -122.89889399967208,
              46.26488399987541
            ],
            [
              -122.89910100025963,
              46.26460899984498
            ],
            [
              -122.89912700019889,
              46.26466400020986
            ],
            [
              -122.8993940001626,
              46.264852000148295
            ],
            [
              -122.90000400025795,
              46.26528000015369
            ],
            [
              -122.90003199984704,
              46.265300000217316
            ],
            [
              -122.90043899955283,
              46.26553400010912
            ],
            [
              -122.90148200019156,
              46.26612900000606
            ],
            [
              -122.90263299988699,
              46.266769000310205
            ],
            [
              -122.90269300016145,
              46.26680299980102
            ],
            [
              -122.9027530004359,
              46.266836000072054
            ],
            [
              -122.90290900007152,
              46.26693599996278
            ],
            [
              -122.90317799968503,
              46.26705100001525
            ],
            [
              -122.90364399984036,
              46.2672410000864
            ],
            [
              -122.90390999997913,
              46.267344999722205
            ],
            [
              -122.9040420002236,
              46.26739900001661
            ],
            [
              -122.9041619998742,
              46.26744199987948
            ],
            [
              -122.9040210003072,
              46.26744000026206
            ],
            [
              -122.90327999979228,
              46.26743700021487
            ],
            [
              -122.90329499986088,
              46.26797600005951
            ],
            [
              -122.90341700005963,
              46.271662999767024
            ],
            [
              -122.90122699992341,
              46.2716730001877
            ],
            [
              -122.90074099967659,
              46.27167100010372
            ],
            [
              -122.89991700021932,
              46.271668000288045
            ],
            [
              -122.89918099972724,
              46.271664999851296
            ],
            [
              -122.89967100017202,
              46.27226999995204
            ],
            [
              -122.90117800041791,
              46.27413000012302
            ],
            [
              -122.90126299990844,
              46.27423500003296
            ],
            [
              -122.9013800000843,
              46.27437899977746
            ],
            [
              -122.90155900018442,
              46.27459900019145
            ],
            [
              -122.9017819997672,
              46.27487300010438
            ],
            [
              -122.90208800008895,
              46.275238999704534
            ],
            [
              -122.9021900001962,
              46.275360999855906
            ],
            [
              -122.90191400001167,
              46.27536000019168
            ],
            [
              -122.90173599973643,
              46.27535500000752
            ],
            [
              -122.90160100001724,
              46.27535100010819
            ],
            [
              -122.90129499969548,
              46.27533200027207
            ],
            [
              -122.90080099995107,
              46.27530100010041
            ],
            [
              -122.90068100030045,
              46.27528099996032
            ],
            [
              -122.90043500025317,
              46.2752679999585
            ],
            [
              -122.90023500023663,
              46.27527500010318
            ],
            [
              -122.89989899977766,
              46.27532199989813
            ],
            [
              -122.89960900024775,
              46.2753770000694
            ],
            [
              -122.89933899991101,
              46.27541999988258
            ],
            [
              -122.89906600009952,
              46.275449000040815
            ],
            [
              -122.898789999915,
              46.27546500022858
            ],
            [
              -122.89770699999163,
              46.27547400029335
            ],
            [
              -122.89930799994887,
              46.278267999715126
            ],
            [
              -122.89974700034001,
              46.27903499974228
            ],
            [
              -122.89932600039052,
              46.27913199969978
            ],
            [
              -122.89846100002703,
              46.27933199975497
            ],
            [
              -122.89811700007046,
              46.2794070001307
            ],
            [
              -122.8962960000052,
              46.27935400008278
            ],
            [
              -122.89626199967,
              46.27975699969895
            ],
            [
              -122.89632199994443,
              46.27975699969895
            ],
            [
              -122.8963250003175,
              46.280719999804774
            ],
            [
              -122.89632899961717,
              46.28428699989161
            ],
            [
              -122.8963319999902,
              46.28457199983117
            ],
            [
              -122.89746799961704,
              46.28456500025342
            ],
            [
              -122.89747600001293,
              46.285703000036975
            ],
            [
              -122.89634000038612,
              46.285711000186346
            ],
            [
              -122.89634399968574,
              46.28628699980038
            ],
            [
              -122.89395699990604,
              46.286297000035496
            ],
            [
              -122.89373699979802,
              46.28629900020646
            ],
            [
              -122.89373900034616,
              46.28661300006871
            ],
            [
              -122.89376699993527,
              46.28897699972458
            ],
            [
              -122.89332599989429,
              46.288979999834204
            ],
            [
              -122.8931290002508,
              46.28898299994368
            ],
            [
              -122.89116500007039,
              46.28899499975913
            ],
            [
              -122.89117500011614,
              46.28981100028593
            ],
            [
              -122.89117699976597,
              46.289924000098175
            ],
            [
              -122.89281500043144,
              46.28990799978734
            ],
            [
              -122.89288800022636,
              46.289906999767766
            ],
            [
              -122.89292300038647,
              46.289906999767766
            ],
            [
              -122.89296799969402,
              46.28990599974816
            ],
            [
              -122.89303200016643,
              46.28990599974816
            ],
            [
              -122.89313099990062,
              46.289903999708905
            ],
            [
              -122.89501800008811,
              46.28988599997307
            ],
            [
              -122.89587699970552,
              46.28987599977241
            ],
            [
              -122.89618800005013,
              46.289877999812695
            ],
            [
              -122.89651000026541,
              46.28987100029215
            ],
            [
              -122.8975010001273,
              46.28986700021101
            ],
            [
              -122.89758999981575,
              46.28984299971808
            ],
            [
              -122.89767000018168,
              46.28982800002538
            ],
            [
              -122.89770699999163,
              46.28982199989885
            ],
            [
              -122.89780300025109,
              46.289798000006904
            ],
            [
              -122.89789600013752,
              46.28976799997206
            ],
            [
              -122.89790700000815,
              46.28976299986118
            ],
            [
              -122.89798400000105,
              46.28973199978433
            ],
            [
              -122.89806799966664,
              46.28969200009978
            ],
            [
              -122.89814700020767,
              46.28964600024025
            ],
            [
              -122.89821900017769,
              46.28959600024111
            ],
            [
              -122.89828500029994,
              46.2895420000915
            ],
            [
              -122.89830100019344,
              46.28952699969562
            ],
            [
              -122.89914399991734,
              46.288763000171116
            ],
            [
              -122.89928500038265,
              46.28863599984936
            ],
            [
              -122.89942900032268,
              46.28851199998914
            ],
            [
              -122.89949700009477,
              46.28845299978192
            ],
            [
              -122.89971800002768,
              46.28828100026696
            ],
            [
              -122.899739999769,
              46.28826400004737
            ],
            [
              -122.89979199964752,
              46.288224999961855
            ],
            [
              -122.89985399957182,
              46.288177000009505
            ],
            [
              -122.90020000007652,
              46.28838999994286
            ],
            [
              -122.90028899976501,
              46.28844500003296
            ],
            [
              -122.90031499970425,
              46.28844500003296
            ],
            [
              -122.90058900023895,
              46.28823900004351
            ],
            [
              -122.90073599965375,
              46.28812900001508
            ],
            [
              -122.90101000018842,
              46.28792300007873
            ],
            [
              -122.90114900010562,
              46.28781899976232
            ],
            [
              -122.90113200038718,
              46.28780799974716
            ],
            [
              -122.90091099955592,
              46.28765499998431
            ],
            [
              -122.90074800024762,
              46.28754199983644
            ],
            [
              -122.90072899998104,
              46.287529000260456
            ],
            [
              -122.90116699964896,
              46.28723600025982
            ],
            [
              -122.90160799968992,
              46.286941999859785
            ],
            [
              -122.90162899960632,
              46.286928000067434
            ],
            [
              -122.90175099980506,
              46.28701600029913
            ],
            [
              -122.90182600014812,
              46.28696699983487
            ],
            [
              -122.90213999996749,
              46.2867570001865
            ],
            [
              -122.90242799984756,
              46.28656299978412
            ],
            [
              -122.90235800042568,
              46.28649900017263
            ],
            [
              -122.90219400039418,
              46.286375999904315
            ],
            [
              -122.90210499980738,
              46.286319000049694
            ],
            [
              -122.90203399966227,
              46.28627999982096
            ],
            [
              -122.90198400033186,
              46.28625400006686
            ],
            [
              -122.90210999983027,
              46.28626100004961
            ],
            [
              -122.9025989995518,
              46.286258999877305
            ],
            [
              -122.90341799988455,
              46.286257999791104
            ],
            [
              -122.9038870004129,
              46.28625699970488
            ],
            [
              -122.90436100006583,
              46.28625600023939
            ],
            [
              -122.90491799955942,
              46.28625500015313
            ],
            [
              -122.90490400021405,
              46.286229999853155
            ],
            [
              -122.90472299956575,
              46.285803999741844
            ],
            [
              -122.90452500009737,
              46.285706999801405
            ],
            [
              -122.90450199963284,
              46.285694999886395
            ],
            [
              -122.90444800010447,
              46.285668999854686
            ],
            [
              -122.90482600039626,
              46.28532400008009
            ],
            [
              -122.90484999978736,
              46.28530200028707
            ],
            [
              -122.90511500010123,
              46.285002000027035
            ],
            [
              -122.90514900043644,
              46.28495700006361
            ],
            [
              -122.90520700016276,
              46.2848620000884
            ],
            [
              -122.9052380001249,
              46.284797999731204
            ],
            [
              -122.9054630002558,
              46.28434399999817
            ],
            [
              -122.90552799965481,
              46.2842519999493
            ],
            [
              -122.9056900000365,
              46.28306500021413
            ],
            [
              -122.90578399974785,
              46.28237799968974
            ],
            [
              -122.90586400011378,
              46.282334000212074
            ],
            [
              -122.90585599971786,
              46.28215599976345
            ],
            [
              -122.90584900004518,
              46.28197799997809
            ],
            [
              -122.9058440000223,
              46.281874000170724
            ],
            [
              -122.90582200028099,
              46.281616000130505
            ],
            [
              -122.90577600025024,
              46.28132700025021
            ],
            [
              -122.90573299969422,
              46.28113999988058
            ],
            [
              -122.90566499992217,
              46.280840999985315
            ],
            [
              -122.9056180000665,
              46.28067500004913
            ],
            [
              -122.90558299990637,
              46.280575999959986
            ],
            [
              -122.9055050000886,
              46.280389000131386
            ],
            [
              -122.90549400021794,
              46.28036499983162
            ],
            [
              -122.90548199962404,
              46.28033800018023
            ],
            [
              -122.90564200035595,
              46.28033800018023
            ],
            [
              -122.90566099972419,
              46.28033800018023
            ],
            [
              -122.90600999970366,
              46.28033699998594
            ],
            [
              -122.90613799975017,
              46.28033699998594
            ],
            [
              -122.90619300000175,
              46.28033699998594
            ],
            [
              -122.90643099965314,
              46.28033699998594
            ],
            [
              -122.90644300024701,
              46.280367000219165
            ],
            [
              -122.90645499994258,
              46.28039800000826
            ],
            [
              -122.90649699977538,
              46.28050699984855
            ],
            [
              -122.90653199993547,
              46.28060600006235
            ],
            [
              -122.90656399972252,
              46.28070399990969
            ],
            [
              -122.90659499968467,
              46.28080699988973
            ],
            [
              -122.90662099962394,
              46.28090200006733
            ],
            [
              -122.90663300021781,
              46.280953000114366
            ],
            [
              -122.90664499991338,
              46.28100199974959
            ],
            [
              -122.90665900015708,
              46.28106799993657
            ],
            [
              -122.90668000007346,
              46.281162000103286
            ],
            [
              -122.90669799961681,
              46.2812619999318
            ],
            [
              -122.90671400040866,
              46.28136299975344
            ],
            [
              -122.90672699992913,
              46.28146299983595
            ],
            [
              -122.9067369999749,
              46.28156399990792
            ],
            [
              -122.90674100017284,
              46.28160699983286
            ],
            [
              -122.90674399964757,
              46.28164800000419
            ],
            [
              -122.90674500037079,
              46.281664999793634
            ],
            [
              -122.90683800025722,
              46.28164699983382
            ],
            [
              -122.90758700026974,
              46.28150800018606
            ],
            [
              -122.90771899961591,
              46.2814839997556
            ],
            [
              -122.9082860000536,
              46.28137799990164
            ],
            [
              -122.90848199987215,
              46.28134199978742
            ],
            [
              -122.90850799981145,
              46.28130699982615
            ],
            [
              -122.9086099999187,
              46.28134800022198
            ],
            [
              -122.90850299978855,
              46.281725000031024
            ],
            [
              -122.90842999999363,
              46.28200799993363
            ],
            [
              -122.90874600036112,
              46.2823309997385
            ],
            [
              -122.90993499969139,
              46.28363100023457
            ],
            [
              -122.91003199977577,
              46.28368700026971
            ],
            [
              -122.91256500004367,
              46.28515099994562
            ],
            [
              -122.91298099997027,
              46.28548499970727
            ],
            [
              -122.9140050003424,
              46.28548300012739
            ],
            [
              -122.91408399998514,
              46.28548300012739
            ],
            [
              -122.91552299956066,
              46.285480999926634
            ],
            [
              -122.91556399956856,
              46.28548300012739
            ],
            [
              -122.91561399979729,
              46.28548400022774
            ],
            [
              -122.91822900008091,
              46.28547999982623
            ],
            [
              -122.92144299969094,
              46.28547399984421
            ],
            [
              -122.9218319998534,
              46.285472999743675
            ],
            [
              -122.92252800016247,
              46.28547100016336
            ],
            [
              -122.92834000033774,
              46.285466000281
            ],
            [
              -122.9284220003535,
              46.28522099990076
            ],
            [
              -122.9284490001177,
              46.28512799997628
            ],
            [
              -122.92845599979037,
              46.28505699979418
            ],
            [
              -122.92848299955456,
              46.28491900021745
            ],
            [
              -122.92851600006485,
              46.284845000049295
            ],
            [
              -122.92854500037714,
              46.28479899984405
            ],
            [
              -122.9285620000956,
              46.28477400012122
            ],
            [
              -122.92878300002853,
              46.28448199978173
            ],
            [
              -122.92886800041732,
              46.2843710001586
            ]
          ]
        ]
      },
      "properties": {
        "AREALAND": "5424883",
        "AREAWATER": "588946",
        "BASENAME": "Castle Rock",
        "CBSAPCI": "N",
        "CENTLAT": "+46.2707751",
        "CENTLON": "-122.9050819",
        "FUNCSTAT": "A",
        "GEOID": "5310565",
        "INTPTLAT": "+46.2719179",
        "INTPTLON": "-122.9037177",
        "LSADC": "25",
        "MTFCC": "G4110",
        "NAME": "Castle Rock city",
        "NECTAPCI": "N",
        "OBJECTID": 18422,
        "OID": "27890853993594",
        "PLACE": "10565",
        "PLACECC": "C1",
        "PLACENS": "02409409",
        "STATE": "53",
        "DISP_CLR": 4,
        "slug": "castle_rock",
        "jurisdiction_key": "castle_rock_city",
        "county_fips": [
          "53015"
        ]
      }
    }
  ]
}
