{"type":"FeatureCollection","features":[{"type":"Feature","geometry":{"type":"Polygon","coordinates":[[[-123.01984500029249,46.73539099973283],[-123.02018699970091,46.73537299979226],[-123.01917900012062,46.73328600029045],[-123.01842199971215,46.73205599998277],[-123.01769500033924,46.73174500008719],[-123.01722800035901,46.730987999924054],[-123.01669600008144,46.73040099975535],[-123.0165889999513,46.73016300013137],[-123.01664900022578,46.72996399977157],[-123.01676999970128,46.729785999765184],[-123.01763800043783,46.72868100030601],[-123.01725099992522,46.727952000182476],[-123.01695200017448,46.72738899980694],[-123.01658599957827,46.72650600022964],[-123.01654799994343,46.726157999837724],[-123.01641499987406,46.72588199984156],[-123.01610600007756,46.725548999753606],[-123.01545800034735,46.724783000181034],[-123.01508199970543,46.72426900015643],[-123.01485400009977,46.72391699982306],[-123.01435399960927,46.72333099976134],[-123.01379999959042,46.722901999884066],[-123.01336299974739,46.72281800015895],[-123.01307300021749,46.72284300001017],[-123.01306999984442,46.72297499972218],[-123.01258399959764,46.72329699999746],[-123.01164499961429,46.72391899996789],[-123.01157699984222,46.72396199998496],[-123.01031700036684,46.72415499991158],[-123.00898699967293,46.72377800004378],[-123.0090129996122,46.72706499991279],[-123.00786699993964,46.7263969999184],[-123.00731799994365,46.72565100026522],[-123.00731600029381,46.72722600009205],[-123.00655800006044,46.727222000047526],[-123.00655600041063,46.72850900029999],[-123.00655499968738,46.728852999763554],[-123.00655499968738,46.72921099975389],[-123.00643599986172,46.729208999805266],[-123.00643099983883,46.73202400002084],[-123.00543400012917,46.732018999794185],[-123.00543300030428,46.732060000284534],[-123.00540599964178,46.732060000284534],[-123.00526900027273,46.73205899974733],[-123.00513299983031,46.73205799982583],[-123.00173199972417,46.73204099992602],[-123.00123899980468,46.73203800016046],[-123.0005149999065,46.73203499977901],[-122.99967899985533,46.73203000016909],[-122.99849999967249,46.73202400002084],[-122.99786199998802,46.73202100025434],[-122.99675999979807,46.73201500010511],[-122.99676599964586,46.73015499986188],[-122.9952700001689,46.73015299994825],[-122.99491699999149,46.73015199999142],[-122.99469699988347,46.73015199999142],[-122.99455700014138,46.73015299994825],[-122.9945579999663,46.7300730002638],[-122.99457399985982,46.72861400009682],[-122.99593399979264,46.728610000155214],[-122.99592899976975,46.72722000002515],[-122.99592999959467,46.7271370002627],[-122.99584199973113,46.7271370002627],[-122.99484099982351,46.72713600024995],[-122.99354899966275,46.72713400022439],[-122.99338999965408,46.72713400022439],[-122.99338700017937,46.726413999749795],[-122.99338700017937,46.72617399971385],[-122.99322700034578,46.726173000299035],[-122.99058299974983,46.72615100023677],[-122.9905819999249,46.726004999820184],[-122.99058000027509,46.72522099969894],[-122.99061200006214,46.72522099969894],[-122.99098000030817,46.725220000266475],[-122.99097899958495,46.72515899974991],[-122.99097399956207,46.723161000111816],[-122.98861799974452,46.72316399975526],[-122.98861799974452,46.72322099972328],[-122.98795999996858,46.723221999808615],[-122.98796300034164,46.72395999984171],[-122.98736599976675,46.723960999913345],[-122.98736300029199,46.72359899986693],[-122.98733700035275,46.72027300013861],[-122.98733300015478,46.71972799992131],[-122.98727299988032,46.719726999771225],[-122.98726500038272,46.71870899994276],[-122.98726299983458,46.71843000011394],[-122.98765500037004,46.71834200011369],[-122.988165000008,46.718113000021226],[-122.98909700031864,46.71791800028436],[-122.9906920004281,46.71751399971788],[-122.99152500010621,46.717324000021584],[-122.9921949995777,46.71717100020124],[-122.994023000214,46.717047000205724],[-122.9955360003077,46.717008999991116],[-122.995594000034,46.71701699974678],[-122.99658099969793,46.71714000022907],[-122.99734899997704,46.717177000154074],[-122.99818900022618,46.71720900030177],[-122.99872599962829,46.71720900030177],[-122.99913900008016,46.71720900030177],[-122.99982699999332,46.71710600025901],[-123.00021000030797,46.71688599982612],[-123.00056900033319,46.71639100003782],[-123.00079500028899,46.716319000127086],[-123.00106100042777,46.71609699974618],[-123.0012260002842,46.715983000094575],[-123.00180700006725,46.715992999825126],[-123.00268699960105,46.71616499970463],[-123.00335699997086,46.716348999742294],[-123.00382800014906,46.71652000012526],[-123.00450400036665,46.71676799978986],[-123.00557300004634,46.71715099994313],[-123.0067229999169,46.71751399971788],[-123.00687899955251,46.717527999928336],[-123.00758499990732,46.71769999984221],[-123.0076950004105,46.71773400005389],[-123.00769399968729,46.71742000014621],[-123.00769399968729,46.71443799975484],[-123.0077949999696,46.714435999874404],[-123.00781199968806,46.714450999899555],[-123.00802199975031,46.7143709997173],[-123.00837400010283,46.714264000027214],[-123.0088729998701,46.714114999938445],[-123.00883000021243,46.71395999974435],[-123.00880300044824,46.71389299972928],[-123.00878900020453,46.71387399974666],[-123.00875900006731,46.71383199995575],[-123.00869899979286,46.71377499992333],[-123.00862799964774,46.713727999980975],[-123.00854499980706,46.713689000246774],[-123.00847299983705,46.713667000021],[-123.00851499966981,46.71358899982021],[-123.008809000296,46.713584999996414],[-123.00877800033386,46.70993399991559],[-123.0079289998639,46.70994699991335],[-123.0066950003278,46.7099660000466],[-123.00668000025918,46.70996699976164],[-123.00361700026188,46.710015999943835],[-123.00358100027688,46.706367999863026],[-122.99829700018121,46.70645400011727],[-122.99830899987676,46.707420000207016],[-122.9964300000852,46.70744999984121],[-122.99634999971924,46.70745100021885],[-122.996247999612,46.70820700014294],[-122.99621800037308,46.708341999785176],[-122.99617700036521,46.70847599996307],[-122.99614399985492,46.70856499977786],[-122.99608699995352,46.70869600018652],[-122.99604299957257,46.70878300016467],[-122.99596899995275,46.708909999873924],[-122.99588600011205,46.709034999819764],[-122.99565299958525,46.709359000199484],[-122.99552200006397,46.70955100028244],[-122.99545199974379,46.70966499997001],[-122.99424699962167,46.70968400020253],[-122.99306199959103,46.709706999923874],[-122.99306199959103,46.71015799981821],[-122.99105800012596,46.71016800001215],[-122.99104300005739,46.70772899976778],[-122.98954099983433,46.707718999737956],[-122.98953499998655,46.70768400023486],[-122.98867800001898,46.707679000216],[-122.98868300004185,46.706538000061386],[-122.98868200021695,46.70645600029344],[-122.98739699972889,46.70645400011727],[-122.98700900028967,46.70646899989684],[-122.9868350002124,46.70647699998297],[-122.9868150001209,46.70625100002058],[-122.9866030004088,46.70624700026898],[-122.98540699960918,46.706228999842914],[-122.98174000026263,46.70617000021806],[-122.98175600015615,46.70741800006656],[-122.981765000377,46.70814999971353],[-122.9819229996624,46.708195999837805],[-122.98203599964033,46.70822499990942],[-122.9819639996703,46.708506999984444],[-122.98189400024843,46.708748000119506],[-122.98183099960093,46.708925000203024],[-122.98174000026263,46.70914100029117],[-122.98163499978233,46.70936199999431],[-122.98155600013962,46.709505999804534],[-122.98145400003237,46.709691999812115],[-122.98058600019412,46.70968200014591],[-122.98058399964599,46.70977999975129],[-122.98058000034636,46.70995700014644],[-122.9785049998379,46.70993300019994],[-122.97810800017784,46.7099400000571],[-122.97770999979457,46.70994600019794],[-122.97735900016528,46.709951999722136],[-122.9761690001118,46.710005000007364],[-122.97601699977584,46.71000099991791],[-122.975690000436,46.70969100009197],[-122.97558999997858,46.70959100026508],[-122.97552300003144,46.709518000182044],[-122.97564500023016,46.70950500008096],[-122.9758660001631,46.70948399972153],[-122.97576999990365,46.7093919997811],[-122.97534999977906,46.70899799985613],[-122.97482900027046,46.70709200020313],[-122.97472700016323,46.7067509999058],[-122.97460400013958,46.706339000025764],[-122.97416899994639,46.70633300009997],[-122.9739370001428,46.70633099991919],[-122.97387299967038,46.70633000013681],[-122.97369100009551,46.70632799995596],[-122.97316999968858,46.70632100024635],[-122.97275700013503,46.70631699988391],[-122.97276399980774,46.70524799988549],[-122.97279599959477,46.70524799988549],[-122.97267199974623,46.704885000150455],[-122.97098399975035,46.704866000076755],[-122.97098399975035,46.704660000112675],[-122.97098600029848,46.704208000044446],[-122.97098999959813,46.70269099970633],[-122.97094199991756,46.70269200017217],[-122.97087099977244,46.702689000006714],[-122.97080200017547,46.70268400014123],[-122.97072600000749,46.702689000006714],[-122.97065200038763,46.70269300002199],[-122.97058200006742,46.702681999825245],[-122.96749200030595,46.70263999994969],[-122.96725399975625,46.70415699987277],[-122.96700199986118,46.70415299996597],[-122.96457400007358,46.70412000026162],[-122.96371700010603,46.70410899973964],[-122.96365799965646,46.704107999916054],[-122.96346500021093,46.70410099991863],[-122.96328000026303,46.704085000273096],[-122.96336700030166,46.701144999702365],[-122.96400800035917,46.7011529999614],[-122.964743000128,46.70116200009737],[-122.96474700032597,46.701051999838654],[-122.96400699963594,46.70104300030042],[-122.9633709996013,46.70103500002508],[-122.96408100015411,46.69897900024663],[-122.96763399969784,46.6990310002987],[-122.96874400028373,46.692284999985986],[-122.96587499955686,46.692240999946335],[-122.96587600028008,46.692056000241635],[-122.96587499955686,46.69192600016999],[-122.96587600028008,46.6917879999885],[-122.96482599996868,46.69177299982697],[-122.96454899995925,46.69176900023508],[-122.96401500003186,46.691760999818],[-122.96376800015966,46.6917570002252],[-122.95992199981464,46.69170000029591],[-122.9598149996845,46.69191699972688],[-122.95856699990468,46.691678999787946],[-122.95844499970593,46.691677000296615],[-122.95840100022332,46.691786999936795],[-122.95715500009331,46.69176800018301],[-122.95719000025342,46.6944649999705],[-122.95529600039323,46.694465999972614],[-122.95529600039323,46.69449900003251],[-122.95529600039323,46.69452100006118],[-122.95529600039323,46.6948450000621],[-122.95514599970706,46.69484600005719],[-122.95502799970632,46.69484600005719],[-122.95270700004883,46.694856000007064],[-122.95270799987375,46.693861000230704],[-122.9527100004219,46.69167600024286],[-122.95313399984612,46.69159800030476],[-122.95008400026761,46.691553000265564],[-122.95009000011537,46.69881700026105],[-122.95009099994027,46.69944800005436],[-122.95009099994027,46.69980200025367],[-122.95003900006174,46.69988600007509],[-122.95000499972654,46.69996500026465],[-122.94998100033544,46.70005900005107],[-122.94997299993952,46.70014499988268],[-122.94996999956645,46.70049299986592],[-122.94999399985589,46.701885000163244],[-122.95269899965294,46.70190099984472],[-122.95269899965294,46.701931000081814],[-122.952697999828,46.70326200025164],[-122.9526960001782,46.70450799993423],[-122.9526960001782,46.70462700010221],[-122.95269500035327,46.705944999992],[-122.95269500035327,46.70602699992015],[-122.95162999997325,46.70601200001771],[-122.9500859999174,46.705989999742634],[-122.95009599996317,46.70607399979276],[-122.95009799961295,46.70957600012103],[-122.94257400005073,46.70960999990766],[-122.94254700028654,46.70960999990766],[-122.9425880002944,46.711923999799346],[-122.94257999989848,46.71222100028778],[-122.94257599970054,46.71319900020499],[-122.9423289998283,46.713199999860144],[-122.94142800037814,46.713204999983525],[-122.94130299980637,46.713206000254516],[-122.94129899960839,46.712918000283054],[-122.9412929997606,46.712435999835144],[-122.94076700022914,46.71243700012038],[-122.94076600040422,46.71239099991482],[-122.93960800013777,46.71240099969506],[-122.93960599958963,46.71213300001692],[-122.93960099956676,46.711619999886004],[-122.9380540000362,46.711627999824614],[-122.93726800021375,46.71163199979349],[-122.93707400004497,46.711633000093634],[-122.93700299989986,46.711633000093634],[-122.93700700009784,46.7121440001356],[-122.93700899974766,46.712370000062336],[-122.93582799991499,46.712364999861634],[-122.93582100024229,46.71173099985224],[-122.93496400027472,46.71173099985224],[-122.93440900043095,46.711547999769174],[-122.93431700036943,46.71143500005088],[-122.93409300006344,46.71118400020634],[-122.93401100004768,46.71109099977369],[-122.93385600023699,46.7111520001815],[-122.93368800000749,46.711202999904124],[-122.9335130001053,46.71124099989555],[-122.93333300018026,46.711266999874304],[-122.93319799956272,46.711278000169486],[-122.93305799982066,46.711280999857664],[-122.93305899964555,46.71136399999238],[-122.93307299988926,46.71269699974187],[-122.93432800024009,46.712690000242226],[-122.93442600014936,46.712692000187374],[-122.93442699997428,46.71324000021813],[-122.93443000034733,46.71414500016297],[-122.93443199999716,46.715049999713266],[-122.93443299982208,46.71539200016329],[-122.9344350003702,46.71595399988004],[-122.93437900029373,46.716377999744545],[-122.93431800019435,46.71684800011401],[-122.9318100000408,46.71685800030017],[-122.93137300019782,46.717050000189104],[-122.93093299998176,46.716861000294045],[-122.92922200041967,46.716867999868576],[-122.92399600005031,46.71685800030017],[-122.92399600005031,46.717078999814625],[-122.92399500022542,46.717357999854286],[-122.92399400040053,46.71755800010318],[-122.92399299967728,46.71803399990637],[-122.92399100002747,46.718660999816706],[-122.9239869998295,46.72046299992027],[-122.92558600013693,46.72046500019317],[-122.92656299975508,46.72046699985013],[-122.92656299975508,46.72052199993348],[-122.92669800037261,46.72052199993348],[-122.92668599977873,46.722078999792814],[-122.92667499990806,46.7222669997827],[-122.92918399988653,46.72226899998871],[-122.92918800008448,46.72407900023026],[-122.9318379996299,46.724073999882854],[-122.93181699971352,46.72590199994225],[-122.93181599988861,46.72593499987674],[-122.93192499966855,46.72593599991176],[-122.93443899966987,46.72594400019124],[-122.93597500022808,46.72594899974951],[-122.9360739999623,46.72594999978427],[-122.93627399997884,46.72594999978427],[-122.93637299971303,46.72595099981901],[-122.93707099967195,46.72595299988848],[-122.93707099967195,46.725889000093176],[-122.93707400004497,46.7254870001815],[-122.93953399961963,46.72549499991176],[-122.93970000019928,46.72549499991176],[-122.9397010000242,46.72625899978455],[-122.9397010000242,46.72631800023305],[-122.93970400039724,46.727489999912],[-122.93970400039724,46.72761299991867],[-122.93870500013946,46.727614999926516],[-122.93792900036274,46.727615999930386],[-122.93766300022396,46.727536000177615],[-122.93726300019088,46.727537000182956],[-122.93671599984471,46.727539000193566],[-122.93671699966963,46.72774500027467],[-122.93641600026906,46.72775700029101],[-122.93647700036841,46.72779799971097],[-122.93653000007185,46.72784999971141],[-122.93656699988178,46.72790700027006],[-122.93658699997326,46.7279700001369],[-122.93659500036918,46.728136000049346],[-122.93660399969171,46.72838099992523],[-122.93661399973747,46.72843299997945],[-122.93663800002689,46.728483999995724],[-122.93667499983681,46.72853000002942],[-122.93671900021776,46.728566000162296],[-122.93678500033998,46.728603000256676],[-122.93692799955681,46.72864300028027],[-122.93683499967038,46.72863199983032],[-122.9368070000813,46.728628999875156],[-122.93672000004265,46.728628999875156],[-122.93664399987468,46.72864099969482],[-122.93654000011762,46.72866699991075],[-122.93641600026906,46.7287029999522],[-122.93630999996384,46.72872000028837],[-122.93614099990944,46.728732000087795],[-122.93595400031168,46.72873100010461],[-122.93583499958768,46.72873000012141],[-122.93504600029048,46.728726000188416],[-122.9344350003702,46.72874099993561],[-122.93443700002003,46.727779999699116],[-122.93443700002003,46.727697000182616],[-122.93317499999651,46.727735000259024],[-122.93303799972915,46.72773900026551],[-122.93303699990423,46.72782299971741],[-122.93301900036089,46.729652000161515],[-122.93300099991923,46.72973599971304],[-122.93297400015507,46.72979699997979],[-122.93296599975912,46.72981499993426],[-122.93291499970549,46.7298910001548],[-122.93272399990981,46.73009200008414],[-122.93192499966855,46.73093000021596],[-122.93182599993433,46.731049000006294],[-122.93173600042095,46.731170999963695],[-122.93165500023011,46.73129700000354],[-122.93158400008502,46.73142500023124],[-122.93154200025221,46.73151199989512],[-122.9314560000385,46.7317360001249],[-122.93138400006848,46.73195800019336],[-122.93134300006058,46.73205699990431],[-122.93127799976327,46.732187000013745],[-122.93119900012053,46.7323130001428],[-122.93108299976957,46.73246400029579],[-122.93091899973805,46.732636000003886],[-122.93082699967655,46.732717000106014],[-122.93069600015531,46.73282099980788],[-122.93051000038247,46.732943000066896],[-122.93053999962137,46.73303700030028],[-122.9310979998382,46.73492799989799],[-122.93117400000618,46.735184999916875],[-122.93570599971628,46.73520299992023],[-122.93574099987636,46.73520299992023],[-122.93574199970128,46.73502599983167],[-122.9357440002494,46.73460600009335],[-122.93574599989923,46.73438700009337],[-122.93574699972412,46.73416799981964],[-122.93574800044736,46.73404099982984],[-122.93575299957193,46.73394200006669],[-122.93762100039118,46.733548000215826],[-122.93767999994242,46.73337599972212],[-122.9376869996151,46.733128999950836],[-122.93768999998812,46.73299500003287],[-122.93769900020897,46.73293899983063],[-122.9377219997752,46.73288499999834],[-122.93775399956223,46.73284199970559],[-122.93780799998892,46.732790000207814],[-122.9379629997996,46.73266699969247],[-122.93798500043923,46.73264700025294],[-122.93803499976963,46.73264299999471],[-122.9381379997018,46.73264299999471],[-122.93839999964263,46.732636999914675],[-122.93840100036584,46.73302099999702],[-122.93971600009283,46.733018000285966],[-122.93971699991772,46.733528999765824],[-122.94126000014865,46.733534999746624],[-122.94300599987086,46.73353999983273],[-122.94423000025952,46.73354400002442],[-122.94524200003781,46.73355900027886],[-122.94492599967032,46.734336000117466],[-122.94455699959937,46.73524200011209],[-122.94445600021535,46.73523599970551],[-122.94423000025952,46.73571999998271],[-122.94389299997563,46.73644700009723],[-122.94352999975247,46.73722500001551],[-122.94303600000806,46.73814700012736],[-122.94263900034804,46.738844000131245],[-122.94311499965079,46.738845999722585],[-122.94353499977537,46.73884799992949],[-122.94436199960569,46.738851999727416],[-122.94501500025709,46.73769199971341],[-122.94501500025709,46.73785099994131],[-122.94654500006922,46.73826900003479],[-122.94659799977268,46.73795999988478],[-122.94660600016859,46.73792300005291],[-122.94663299993276,46.73792500029407],[-122.94737500027263,46.73802400013297],[-122.94736500022685,46.73818200018958],[-122.9488330001147,46.73839899994526],[-122.94905400004767,46.73843099981834],[-122.94906599974323,46.73839100028189],[-122.94914399956104,46.738298999757816],[-122.94933400043014,46.73819500015412],[-122.94943200033943,46.73809099973423],[-122.9496979995799,46.737834999835066],[-122.94979399983936,46.73773099995209],[-122.94992199988586,46.73750300009875],[-122.95001499977232,46.73727400007222],[-122.95005800032831,46.737003000080215],[-122.95006900019898,46.736799999766475],[-122.9500499999324,46.736705999935516],[-122.94999700022895,46.736581999894774],[-122.94991500021318,46.736432000030426],[-122.94982200032678,46.73630300014582],[-122.94968000003655,46.73620400022553],[-122.94949799956336,46.73611099981768],[-122.94928500002634,46.73605099976735],[-122.94921700025427,46.73599799982125],[-122.94918499956891,46.7359500003014],[-122.94915600015489,46.735927000067406],[-122.949119000345,46.73590799983996],[-122.94894199989466,46.735848000179395],[-122.94882999974168,46.735715999952426],[-122.94876500034265,46.73562900029779],[-122.9487410000532,46.735549000116436],[-122.9486759997559,46.73540299989512],[-122.94865800021253,46.735358000042396],[-122.94863399992309,46.735252999829584],[-122.94859799993809,46.735142000226624],[-122.94856699997595,46.73496300020259],[-122.94854100003668,46.73476000021302],[-122.94853099999095,46.734549999716954],[-122.94857399964863,46.734399999741434],[-122.94897299985679,46.73417399972934],[-122.94928699967616,46.73406600002117],[-122.94971400037174,46.73401299997125],[-122.94992400043402,46.73397699977982],[-122.9500440000846,46.73395700021038],[-122.95014100016898,46.7339410001801],[-122.95028299956091,46.73389200017318],[-122.95028400028413,46.73396800018998],[-122.95028799958378,46.73421200016811],[-122.95030699985034,46.73539499978722],[-122.95117700023671,46.73539099973283],[-122.95117700023671,46.735306999753455],[-122.95188000021851,46.73530500003087],[-122.95231100021373,46.735304000169556],[-122.95237700033596,46.735304000169556],[-122.95255800008593,46.7354930001036],[-122.95249799981147,46.73654600018702],[-122.95250100018453,46.736771000274935],[-122.95195300001343,46.73677500022696],[-122.9513100003061,46.73678000001267],[-122.95119599960498,46.73678000001267],[-122.95121200039682,46.73816499975763],[-122.95121200039682,46.738179999957964],[-122.95118800010738,46.73824600017428],[-122.95115999961997,46.73833399972138],[-122.951127000008,46.73840499999987],[-122.95094399970988,46.73888300015234],[-122.95094299988499,46.739185999971035],[-122.95114000042679,46.73918699976037],[-122.95113899970356,46.73927699980961],[-122.95113600022881,46.74015599992339],[-122.95113399968069,46.74070199975655],[-122.9523949998793,46.74070500027143],[-122.95240900012301,46.7425109998153],[-122.95029900035276,46.74249400013265],[-122.94884999983316,46.74248799991751],[-122.94759100018267,46.74248199970164],[-122.94514999997631,46.7424710002276],[-122.94501899955671,46.742469999883554],[-122.94502199992979,46.74608399990931],[-122.94506299993766,46.74616500012471],[-122.94504399967109,46.74617999994608],[-122.94501799973182,46.746214000059176],[-122.94500100001338,46.74625099974144],[-122.9449959999905,46.74634000003776],[-122.94503899964822,46.75241499980026],[-122.94504399967109,46.753338000021806],[-122.94504600021922,46.75612399970019],[-122.94657900040441,46.75612900015333],[-122.94637799966463,46.75643499992271],[-122.94704800003444,46.756641999867405],[-122.94714400029392,46.75667099974862],[-122.94748200040272,46.75616699988931],[-122.94757600011405,46.755983000270504],[-122.94781899978831,46.7554090002857],[-122.947901999629,46.755226000032344],[-122.94794000016213,46.75516199989463],[-122.94803200022365,46.75503899994537],[-122.94808699957692,46.75498000014533],[-122.9482110003238,46.754871000146565],[-122.94895600013837,46.75435599994316],[-122.94960100039381,46.753902999953844],[-122.95009599996317,46.753492999710396],[-122.95050400039217,46.753017000138556],[-122.95056999961609,46.75296700008433],[-122.9506409997612,46.75290600017695],[-122.95070600005852,46.75284199974584],[-122.95092199996859,46.7525709998382],[-122.95109600004587,46.752348000150405],[-122.95295200027124,46.74996800016346],[-122.95299400010403,46.74991599994635],[-122.95304199978462,46.749855000278814],[-122.95311999960241,46.749756000005405],[-122.95361599989495,46.749098000133124],[-122.95368600021514,46.74899699987004],[-122.95374599959129,46.74889400019907],[-122.95379699964494,46.74878899987771],[-122.9538379996528,46.74868000028326],[-122.9538660001402,46.74858199992892],[-122.95388500040679,46.74848500024436],[-122.95389700010233,46.7483859999167],[-122.9538999995771,46.74828599978667],[-122.95389200007946,46.747226000051484],[-122.95388100020881,46.746518000189575],[-122.95388100020881,46.74614900002343],[-122.95401099990517,46.746152000235156],[-122.95521799967709,46.7461769997359],[-122.95588800004693,46.74619200016949],[-122.95630200032372,46.74619499976327],[-122.95688399993169,46.746199000247266],[-122.95806399993943,46.74620800025801],[-122.9588220001728,46.746259000085324],[-122.95885300013494,46.74626200029093],[-122.95900999959547,46.74627500015395],[-122.95895299969405,46.746199999906565],[-122.95894099999849,46.746176000076176],[-122.95886099963253,46.74601299989398],[-122.95881600032503,46.745742000120224],[-122.9588299996704,46.745255999959674],[-122.95886099963253,46.74496799994005],[-122.95889699961756,46.74487899984079],[-122.95890599983838,46.744808000085065],[-122.95899799989989,46.744544999776394],[-122.95912599994642,46.74429299975149],[-122.95925399999294,46.74412300030043],[-122.95946800025318,46.74390699989149],[-122.95965999987381,46.74374899999049],[-122.95992900038561,46.74352099973008],[-122.95998100026418,46.743479000241116],[-122.9602800000149,46.74324999974039],[-122.9604909999021,46.743078000028376],[-122.96108199973088,46.74258099979187],[-122.96213799989009,46.74258999979104],[-122.96214299991297,46.74136600026823],[-122.96214399973789,46.741144000144935],[-122.96214499956281,46.74102900010432],[-122.96214600028601,46.74090099989378],[-122.96214700011093,46.740630000277726],[-122.96215499960854,46.73898500007418],[-122.96181800022296,46.738982000079226],[-122.95901999964121,46.738958000113634],[-122.95901799999137,46.73863199993348],[-122.95897000031081,46.73860099997989],[-122.95896699993776,46.73816499975763],[-122.95895900044015,46.73689000010603],[-122.95895299969405,46.73604500006648],[-122.9580689999623,46.73604699976162],[-122.95807300016027,46.73650500002887],[-122.95588800004693,46.73655099999396],[-122.95584799986395,46.73537199993221],[-122.95587600035138,46.73537199993221],[-122.95808099965788,46.73535999976301],[-122.95809300025175,46.735277000212875],[-122.95810300029751,46.735202000057015],[-122.95813000006167,46.73492799989799],[-122.95814400030538,46.734654000193856],[-122.95813900028249,46.73439100022219],[-122.95781899971705,46.734373999826424],[-122.95625999959259,46.73429400024601],[-122.9562589997677,46.73425400010347],[-122.9562589997677,46.734201000238315],[-122.95625700011787,46.73401999978335],[-122.95596900023777,46.73400600015825],[-122.95390299995013,46.73390099977569],[-122.95376300020804,46.73389399994815],[-122.95370899978136,46.730884999709424],[-122.9537039997585,46.73065100016454],[-122.95384400039889,46.73063199992538],[-122.95412600043119,46.7305859998371],[-122.95465399961249,46.7303469998448],[-122.95541100002097,46.72997200006939],[-122.95592499985685,46.7297829998742],[-122.95638500016439,46.729762000016855],[-122.95659900042463,46.72976899976495],[-122.95687399988591,46.729836999733635],[-122.95709399999394,46.72989200011647],[-122.95738100004911,46.73007099973139],[-122.95765300003569,46.73041399974854],[-122.95780799984638,46.7305859998371],[-122.95796100000726,46.730725999876626],[-122.95829499991811,46.73107999999134],[-122.95849599975956,46.73125199980317],[-122.9586809997075,46.73146899973908],[-122.95888300027217,46.73166299982784],[-122.95924800014515,46.731944999956596],[-122.95969500003389,46.73219799973866],[-122.96012500020421,46.73236899976363],[-122.96037600027438,46.732409000072906],[-122.96078899982794,46.73232700020739],[-122.9611319999596,46.73227000000971],[-122.96132600012838,46.73220299994873],[-122.96169500019933,46.73205699990431],[-122.96190199988855,46.73184099979694],[-122.9621579999816,46.73172000005137],[-122.9623560003483,46.731666000229986],[-122.96279400001622,46.731533000302534],[-122.96315700023938,46.73143799997762],[-122.96325699979849,46.73143600011157],[-122.96352999960996,46.731448999855296],[-122.96405400038992,46.731401999914475],[-122.9644059998441,46.73131400013787],[-122.9646169997313,46.73127400024788],[-122.96480000002941,46.73128400022314],[-122.96501900031251,46.731265000206974],[-122.96538400018551,46.73118700020009],[-122.96560699976827,46.73111199989763],[-122.96577499999775,46.731049000006294],[-122.9659320003566,46.730967999861896],[-122.96601000017438,46.730951000234256],[-122.96598300041022,46.73100400021473],[-122.96596699961837,46.731036000166114],[-122.96589999967124,46.73126600014317],[-122.96588700015073,46.73130999978076],[-122.96585600018861,46.73140900006547],[-122.96589200017362,46.731967000118615],[-122.96592899998353,46.73219799973866],[-122.96594900007503,46.73232800012391],[-122.96599299955767,46.73250800018743],[-122.96603799976349,46.732805999963894],[-122.9660310000908,46.73317600023378],[-122.96602799971775,46.733362999827165],[-122.96598000003716,46.733550000003554],[-122.9658489996176,46.73381099998879],[-122.96563000023279,46.73410100026952],[-122.96532800010901,46.73436999969629],[-122.96508399971155,46.734548999841635],[-122.96501900031251,46.734544999724484],[-122.9650050000688,46.73454399984907],[-122.96473899993005,46.734526000241445],[-122.96435599961539,46.734501000263364],[-122.96435700033862,46.73465900017617],[-122.96436099963829,46.73498600023208],[-122.96436400001132,46.73527999979827],[-122.96436400001132,46.73529000026213],[-122.96436400001132,46.73532200013319],[-122.96436400001132,46.7353350001716],[-122.96504400042689,46.73534999992782],[-122.9660870001673,46.73537299979226],[-122.9660870001673,46.73541900010736],[-122.9660870001673,46.73542899992972],[-122.9660879999922,46.73643999998448],[-122.96854000006924,46.736481000192065],[-122.96853199967332,46.737217000177914],[-122.97125699956182,46.7372320000263],[-122.97127099980553,46.7372320000263],[-122.97133500027795,46.7372320000263],[-122.97133399955472,46.73682899985808],[-122.97136100021721,46.73682899985808],[-122.97139999967695,46.736830000306796],[-122.97141399992067,46.736830000306796],[-122.97236200012482,46.736836999753244],[-122.97427799972633,46.736850000042054],[-122.97429299979495,46.73685099987471],[-122.97435800009228,46.73685099987471],[-122.97433600035099,46.73666899985887],[-122.97432200010728,46.73648699984443],[-122.9743179999093,46.736303999988614],[-122.9743229999322,46.73612100012743],[-122.97437300016088,46.7354930001036],[-122.97437700035886,46.73544799971029],[-122.97460099976652,46.73545499995181],[-122.97463099990374,46.73546799995812],[-122.97481400020183,46.735545000073465],[-122.9749010002405,46.73557999997765],[-122.97509899970888,46.73565900025823],[-122.97532200018998,46.73575499977326],[-122.97535800017498,46.73578399981119],[-122.97611700023324,46.736424999915734],[-122.97669299999345,46.73693700018942],[-122.97740600002098,46.73758599991665],[-122.97897500019117,46.73893799992894],[-122.98118299987073,46.74080800019951],[-122.98180300001182,46.74137100024385],[-122.9818070002098,46.74116600024785],[-122.98180800003469,46.740228999805204],[-122.98196299984538,46.740230999960815],[-122.9838159996977,46.740259000284624],[-122.98579599977164,46.740289000131675],[-122.9858760001376,46.74028999990056],[-122.98597900006973,46.73594700013763],[-122.98598099971957,46.735865000110536],[-122.98598200044277,46.73581600000478],[-122.98598599974241,46.73566500000205],[-122.98854499994957,46.735824000050236],[-122.98854199957653,46.735961999723614],[-122.98853999992673,46.736040000212626],[-122.98853800027689,46.736130999819615],[-122.98850899996457,46.737585000097624],[-122.98850099956864,46.73795999988478],[-122.98847700017751,46.739177000019225],[-122.98847499962939,46.73923500009261],[-122.98858599995746,46.739237000285094],[-122.99285999992468,46.73930100024886],[-122.99300300003979,46.73930100024886],[-122.99275799981743,46.739042999738466],[-122.99151699971031,46.73773099995209],[-122.99228099979145,46.73741000008429],[-122.99211199973705,46.73723299985192],[-122.9924330001274,46.73709600018096],[-122.99168300028998,46.73624400015303],[-122.99163300006124,46.7361880002462],[-122.99149900016694,46.73603700005383],[-122.99197600019293,46.73606999994442],[-122.99223399993576,46.73609499981077],[-122.9922409996085,46.73553899970065],[-122.99340899992066,46.735545000073465],[-122.99347400021801,46.735545000073465],[-122.99381899999949,46.73554699978715],[-122.99474700011218,46.73554999997321],[-122.9948740003338,46.73555099982996],[-122.9952910000853,46.735553000159115],[-122.99799699970724,46.73556500028536],[-122.99846899971035,46.7355669999983],[-122.99845000034209,46.73659299995462],[-122.99844799979395,46.73668600014686],[-122.99844100012126,46.73708999998074],[-122.99842199985468,46.73805700003889],[-122.99840799961098,46.738871000148826],[-122.99838400021984,46.740136999954785],[-122.99837499999903,46.740657999778655],[-122.99940400039405,46.74095399994569],[-122.99940799969367,46.74084900016392],[-122.99941199989163,46.740451999768254],[-122.99988300006981,46.74045399991559],[-122.99991900005485,46.73929000012579],[-123.00570100009287,46.739267999873036],[-123.00572700003214,46.738485000253654],[-123.00692799995628,46.73849299990314],[-123.00707799974411,46.73849399970532],[-123.00707600009432,46.739247000015126],[-123.00707299972125,46.73964600022631],[-123.00706000020077,46.73986499979998],[-123.00703599991131,46.74008399971539],[-123.00700199957616,46.74029499997598],[-123.00697900000992,46.74041100011758],[-123.00692799995628,46.740626999758675],[-123.0068650002071,46.740842000007056],[-123.00679099968893,46.741056000259],[-123.00618200031681,46.742698000279695],[-123.00616399987514,46.74273000006375],[-123.00613799993589,46.74275900004401],[-123.00610000030103,46.74278599994792],[-123.00604400022453,46.74280700027422],[-123.00600800023953,46.74281699995769],[-123.00595700018592,46.74282199979875],[-123.0059069999572,46.74281900001729],[-123.0058569997285,46.74280899971859],[-123.00363499980523,46.742169999869674],[-123.0036110004141,46.742302000303056],[-123.00307699958837,46.745345000052104],[-123.0030420003266,46.74600599979205],[-123.00481200033826,46.74601000029008],[-123.0049069998745,46.74601000029008],[-123.00532899964888,46.74601200023122],[-123.00534999956527,46.74601200023122],[-123.00604699969927,46.74601299989398],[-123.00612399969219,46.74563600014469],[-123.00692200010852,46.745206999770026],[-123.00912700031334,46.7446399997878],[-123.01099400040934,46.74446200020607],[-123.01282299997224,46.744408999909275],[-123.01423300013376,46.74411799996444],[-123.01424099963137,46.743614999992054],[-123.01432799967,46.73786099992837],[-123.01436100018027,46.735646000297976],[-123.0163909995846,46.73558300016183],[-123.01742699965232,46.73555200030239],[-123.01772600030138,46.73554800025964],[-123.01812399978634,46.73555999977131],[-123.01832299997795,46.73557299975236],[-123.01871799998817,46.73561300014791],[-123.01872399983596,46.73543899975026],[-123.01953099957481,46.73540200003562],[-123.01984500029249,46.73539099973283]],[[-122.981837000347,46.71908099993392],[-122.98183999982174,46.71935300022464],[-122.98091699973193,46.71920100015874],[-122.98005499974148,46.71899699980251],[-122.9791130002834,46.7186249998481],[-122.97845700015729,46.718186999743224],[-122.97794699962104,46.717721000084126],[-122.97756699967945,46.717178999932884],[-122.97736699966292,46.7167389999972],[-122.97729100039325,46.71656899990098],[-122.97719500013378,46.71597899983226],[-122.97732900002806,46.71525100012689],[-122.97755699963369,46.71469899983411],[-122.97777199971884,46.714143000271726],[-122.97796900026067,46.71365499995004],[-122.97829499977558,46.713658999768704],[-122.9808449997619,46.713687999984735],[-122.98085499980765,46.714368000200864],[-122.98165200039907,46.71437699998142],[-122.9817119997752,46.71437699998142],[-122.98171900034623,46.71489100001404],[-122.9817240003691,46.71523800017486],[-122.98176100017902,46.71788300000434],[-122.98176299982887,46.718059000126765],[-122.98179299996607,46.718059000126765],[-122.98183499979888,46.71806200005387],[-122.981837000347,46.71908099993392]],[[-122.94502600012774,46.72394700014043],[-122.94502699995263,46.72404799991631],[-122.9417990000989,46.72405499979009],[-122.94180400012176,46.7231509998622],[-122.93969500017643,46.723156000295155],[-122.93969500017643,46.723098000170836],[-122.9384619995669,46.72309900025845],[-122.93760399977441,46.72309999973026],[-122.93760399977441,46.72304599990022],[-122.93707800024295,46.723046999988796],[-122.93707400004497,46.722471000091886],[-122.93707300022008,46.72227899978598],[-122.93698899965618,46.72227899978598],[-122.93444500041595,46.722278000299006],[-122.93444700006579,46.72039999990799],[-122.93706800019721,46.72039399969772],[-122.93951600007627,46.720388000102595],[-122.93968599995559,46.720398999770346],[-122.9396800001078,46.71953699986117],[-122.94156899994515,46.71952799970944],[-122.94228799982044,46.71998699999008],[-122.94229200001841,46.72043099985478],[-122.94500400038642,46.72042000019354],[-122.94501799973182,46.72261500002682],[-122.94502500030285,46.7238329998309],[-122.94502600012774,46.72394700014043]]]},"properties":{"AREALAND":"20227607","AREAWATER":"491641","BASENAME":"Centralia","CBSAPCI":"Y","CENTLAT":"+46.7226068","CENTLON":"-122.9695769","FUNCSTAT":"A","GEOID":"5311160","INTPTLAT":"+46.7253575","INTPTLON":"-122.9748150","LSADC":"25","MTFCC":"G4110","NAME":"Centralia city","NECTAPCI":"N","OBJECTID":27480,"OID":"27890932748902","PLACE":"11160","PLACECC":"C1","PLACENS":"02409429","STATE":"53","DISP_CLR":2,"slug":"centralia","jurisdiction_key":"centralia_city","county_fips":["53041"]}}]}
