{"type":"FeatureCollection","features":[{"type":"Feature","geometry":{"type":"Polygon","coordinates":[[[-122.99811399988312,46.66686599987929],[-122.99815700043912,46.666458999734175],[-122.99805699998171,46.66613099996979],[-122.99766500034453,46.66581000009468],[-122.99718599977044,46.66565300008384],[-122.99662900027683,46.66556700019481],[-122.99620099975634,46.66538099983785],[-122.99583699970826,46.66508900025352],[-122.99558700036133,46.664939000140976],[-122.99479499979276,46.66473200020218],[-122.99424499997185,46.6646820002917],[-122.99357399977713,46.6648100000935],[-122.99247199958715,46.66506400016093],[-122.99188499995631,46.6653659997414],[-122.99164700030495,46.66567099985691],[-122.99161399979467,46.66598499993454],[-122.99174299966612,46.66646600029573],[-122.99179999956749,46.66673200000325],[-122.99170900022922,46.666955999747564],[-122.99153299960382,46.66725100001184],[-122.99137600014328,46.66749399973911],[-122.99113400029397,46.66765500009583],[-122.99068800023012,46.667737000223326],[-122.99039299977902,46.66766400026626],[-122.99019799978535,46.667571000076755],[-122.99014900027987,46.66754800028362],[-122.9900460003477,46.66747400018588],[-122.98994300041554,46.66739900010009],[-122.9898200003919,46.667299000234806],[-122.98954900023026,46.66688000027961],[-122.98925899980202,46.666365999937334],[-122.98893800030997,46.66574499995699],[-122.98885899976894,46.66557700001691],[-122.98876199968456,46.66540300001287],[-122.98853599972875,46.66503800012633],[-122.9885039999417,46.66486300030318],[-122.98848600039835,46.66468600003965],[-122.98856699969089,46.66446400001834],[-122.98870899998111,46.66429599979612],[-122.98886999963959,46.664136999809436],[-122.98906499963327,46.66402799991677],[-122.98956799959852,46.6638669998542],[-122.98995299956299,46.663776999774946],[-122.99033099985475,46.66357300019142],[-122.99106899999663,46.66321100017177],[-122.9914539999611,46.662839999838575],[-122.99150400018982,46.662232999797006],[-122.99145800015907,46.66171700029146],[-122.99143800006757,46.66161199981056],[-122.99126200034048,46.66128800022945],[-122.9906720003366,46.66108299988167],[-122.99002899973094,46.66096399993978],[-122.98965800001018,46.66095999991646],[-122.98832599966647,46.661274000230414],[-122.98777800039367,46.661487999819634],[-122.98623699981259,46.66181600001203],[-122.98549399964784,46.661807000100985],[-122.98501800034511,46.66174000009948],[-122.98449500028836,46.661578000010365],[-122.98425199971581,46.66139700009782],[-122.9842090000581,46.66113100003278],[-122.98426599995952,46.66077899978454],[-122.98452799990034,46.660192999840355],[-122.98483300039717,46.65947999995365],[-122.98500499992629,46.65903499997702],[-122.98518499985138,46.65843300002137],[-122.98538099966994,46.65785399975697],[-122.98545099999014,46.657471000046975],[-122.98556599961788,46.656747999807216],[-122.98592899984104,46.65633000017067],[-122.98610799994115,46.65595200002425],[-122.98624299966038,46.655602000181744],[-122.98656300022584,46.65539500025525],[-122.9867859998086,46.655222999767204],[-122.98680000005231,46.65498099987493],[-122.9867430001509,46.65481700025976],[-122.98653599956334,46.65458800016053],[-122.98623599998767,46.654244999799964],[-122.98601500005475,46.65390299986668],[-122.9853070000501,46.65369299979868],[-122.98487299968183,46.65354599994418],[-122.98434899980019,46.653299999973314],[-122.98405699972214,46.65315700026803],[-122.9837789998878,46.65299099974786],[-122.98365500003922,46.65289899975276],[-122.98351000027428,46.65285800016693],[-122.983111999891,46.65280300020759],[-122.98254100015369,46.65271499990956],[-122.98226800034224,46.65259600004964],[-122.98223400000704,46.65258600029305],[-122.98179899981388,46.65245799991527],[-122.98133900040465,46.65222599980734],[-122.98130300041963,46.65220799987431],[-122.9812599998636,46.6521859998795],[-122.98121300000793,46.65205600006387],[-122.9809429996712,46.65205799978829],[-122.97903000044275,46.65206800025919],[-122.9790620002298,46.65201400028434],[-122.97950999994346,46.65136000021384],[-122.97918899955307,46.651526000190565],[-122.97885299999241,46.65169999984205],[-122.97872999996878,46.65176200030557],[-122.97837900033952,46.65192599993576],[-122.97838400036235,46.65176400004085],[-122.97838500018727,46.65158999997861],[-122.97834800037735,46.65160800011729],[-122.97765600026622,46.651995000109096],[-122.97752599967156,46.652075000217685],[-122.97749499970942,46.652093999748224],[-122.97652300011411,46.65209899998057],[-122.97191500023607,46.652104000212425],[-122.97163400002869,46.65210599993506],[-122.9706559996873,46.652109999996746],[-122.97036000030958,46.6521119997192],[-122.97026099967708,46.6521119997192],[-122.97023599956273,46.65193699998717],[-122.97016799979065,46.65138000017859],[-122.97014199985139,46.65122200000888],[-122.97006099966055,46.650528999888984],[-122.96980200009276,46.64849099974696],[-122.96960999957382,46.648488000270795],[-122.96840000032715,46.64848700003429],[-122.96824600034135,46.647157999877905],[-122.96800600014184,46.644904000160395],[-122.96790900005746,46.643108999783735],[-122.96791900010322,46.64131299992099],[-122.96812400014264,46.641315999795],[-122.96853300039653,46.64132200015928],[-122.96849999988626,46.639966000216425],[-122.96849400003848,46.63971400023207],[-122.96845700022855,46.638194000019524],[-122.96839199993123,46.63703499986954],[-122.96825800003694,46.63594200030486],[-122.96814699970885,46.63534300009121],[-122.96802299986028,46.634735999807376],[-122.96789599963867,46.63415699997912],[-122.96810099967809,46.63415399970819],[-122.96820799980821,46.63415100005394],[-122.96808300013474,46.6337669997577],[-122.96794900024044,46.63377400023402],[-122.96774500002593,46.63378000020099],[-122.96760600010876,46.63378700005884],[-122.96752900011589,46.63399800019498],[-122.96739199984853,46.63416299990363],[-122.9673190000536,46.63427800007601],[-122.96711200036435,46.634485000017115],[-122.96678599995111,46.63468000005092],[-122.96656400019326,46.63476099973504],[-122.96644399964435,46.63479600023117],[-122.96626000041965,46.634849000252025],[-122.96576599977693,46.634936000138794],[-122.96559000004984,46.634942999847105],[-122.96512700026754,46.635014999702165],[-122.9649399997715,46.63505599985952],[-122.96476099967137,46.635095000251134],[-122.96466399958696,46.63512999991441],[-122.96446299974552,46.63520300000281],[-122.96426500027712,46.6353619999475],[-122.96410999956811,46.635495999848445],[-122.96391799994748,46.635566999725945],[-122.96368399959576,46.635644999744585],[-122.96356399994517,46.63581800004903],[-122.96339300024093,46.636225000152805],[-122.96339999991363,46.63646300009539],[-122.96348600012735,46.63665900024172],[-122.96351700008948,46.63688399981456],[-122.96349399962496,46.63712299977259],[-122.96337599962419,46.637322999917195],[-122.96315899988919,46.63761399974484],[-122.96294200015423,46.63793400004838],[-122.96255899983957,46.63859800011475],[-122.96227299960931,46.63917099993315],[-122.96213799989009,46.639320000195326],[-122.96196700018587,46.63943900027559],[-122.96169900039727,46.63956700000753],[-122.9613429998468,46.639701999762956],[-122.96119899990674,46.639768999932265],[-122.96075700004089,46.6397790002082],[-122.96075200001802,46.641327000153936],[-122.96075200001802,46.64143300030215],[-122.96075000036821,46.642477000220254],[-122.96074600017023,46.64370999978705],[-122.96074299979718,46.64386200023337],[-122.96071400038318,46.6440439999544],[-122.96068000004799,46.644163999828606],[-122.96063599966706,46.64426900027111],[-122.9583569998424,46.644517000001926],[-122.95775400031802,46.64424199978913],[-122.95761200002782,46.64437300019716],[-122.9575569997762,46.64442600008852],[-122.95729700038353,46.64467100002853],[-122.95495400008646,46.643513000183916],[-122.95505600019371,46.64342799994579],[-122.9541339999288,46.64290999977978],[-122.95403000017174,46.64298600025509],[-122.95338999993913,46.64258999991818],[-122.95332200016708,46.64254499976659],[-122.95256499975864,46.642040999828566],[-122.9523510003967,46.64189200027538],[-122.95210100015144,46.64171900027111],[-122.95191799985332,46.64157600016723],[-122.95157999974454,46.641310000046815],[-122.95116600036606,46.64096100018679],[-122.95088699980849,46.640731000248294],[-122.95067199972334,46.640553000166456],[-122.95045400016345,46.640372999959396],[-122.95029400032986,46.64024099996145],[-122.95015100021475,46.64012300018598],[-122.95014000034409,46.64058599985161],[-122.95013500032123,46.64077100001286],[-122.95012199990242,46.641265000064045],[-122.94883499976454,46.64019199999712],[-122.94803300004857,46.64017000004901],[-122.94780399971968,46.64016599972104],[-122.94372300009633,46.640017999714686],[-122.94196300013044,46.639698999799506],[-122.94175499971797,46.639709000088345],[-122.94175700026611,46.63962799979255],[-122.94176700031187,46.639335000116176],[-122.94183199971087,46.63752399976181],[-122.93747400007808,46.6369099998173],[-122.93725399997004,46.63687900002612],[-122.9371529996877,46.636867000161864],[-122.93735600007729,46.63684999988702],[-122.9374969996443,46.636819999896964],[-122.93768300031545,46.636755999903635],[-122.93780600033908,46.63669300028926],[-122.93789099982959,46.636649000005995],[-122.93796899964738,46.63659000024283],[-122.93804599964028,46.636533999937726],[-122.93809800041713,46.63650900021238],[-122.93825999990054,46.63643100020547],[-122.93838399974909,46.636390999699664],[-122.93835799980981,46.635036999895746],[-122.93835699998492,46.635026999977065],[-122.93817799988477,46.635026999977065],[-122.93817100021205,46.634099999737785],[-122.93622999959791,46.63410499978303],[-122.93336300031747,46.63411200021564],[-122.93306700004148,46.63411300010114],[-122.93180099981998,46.63411599975749],[-122.93166600010076,46.63411599975749],[-122.92901499983212,46.63412300018872],[-122.92903699957341,46.63522900019645],[-122.92909799967279,46.63820900025253],[-122.92910100004585,46.638357000272855],[-122.92910100004585,46.63839300009991],[-122.92910199987077,46.638413999730936],[-122.92910100004585,46.63844000023211],[-122.92910000022093,46.63845900023459],[-122.92909900039601,46.63847200016751],[-122.92909799967279,46.6384810002616],[-122.92909400037315,46.638530999729],[-122.929091999825,46.63856300022738],[-122.92908000012945,46.63873400023766],[-122.92909900039601,46.639933999931024],[-122.93139699958896,46.639934999708956],[-122.93140599980977,46.64116999997754],[-122.93286899967478,46.64115599970397],[-122.9345950002038,46.641159000203444],[-122.93471099965642,46.64115599970397],[-122.9346820002424,46.642616000262834],[-122.93356499998386,46.6426169999912],[-122.933595999946,46.64349000002387],[-122.93321600000438,46.64324800005272],[-122.93193899991226,46.64381800022925],[-122.93222299959439,46.643998999778816],[-122.93314999988216,46.64459300006983],[-122.9336179996873,46.644892999912074],[-122.93400799967465,46.64514299984592],[-122.93509999981883,46.64433799972844],[-122.935278999919,46.644206000153396],[-122.93804399999047,46.645976999898174],[-122.93817000038716,46.646059999885324],[-122.93816399964106,46.64638900020138],[-122.93814100007485,46.64751199988599],[-122.93789400020265,46.647419999821],[-122.93765099963007,46.64732199990138],[-122.93741399980361,46.64721800009457],[-122.93718200000004,46.64710900001128],[-122.93684700026428,46.64693499977397],[-122.93674400033211,46.64701100014496],[-122.93646999979741,46.64721499993117],[-122.93617199987158,46.64743699985821],[-122.93590800028092,46.647280999787974],[-122.93576199979275,46.64739799972863],[-122.93531099970606,46.64770199981987],[-122.9337669996502,46.648690000187884],[-122.93339400027963,46.64893499993281],[-122.93229600028764,46.649655999985185],[-122.93191299997297,46.649399000254604],[-122.9300760000142,46.65059500001866],[-122.92950799975164,46.65096400012882],[-122.9295050002769,46.65104399991259],[-122.92949799970587,46.651246000150245],[-122.93106900042422,46.65125300021518],[-122.93380699983318,46.65126300021824],[-122.93668599970748,46.64879400024789],[-122.93784499979886,46.6477700001988],[-122.93788900017978,46.647783999994125],[-122.93805599968603,46.64763500022444],[-122.93824800020498,46.64754900004228],[-122.93838200009928,46.64759399973158],[-122.93862800014657,46.64767200029664],[-122.94021300021028,46.64814699994167],[-122.93914000033263,46.64911500001984],[-122.93843800017576,46.648748999706854],[-122.93809800041713,46.649075000257845],[-122.93870599996436,46.6494010000773],[-122.93877600028458,46.64944199981712],[-122.93883400001087,46.649390000126736],[-122.93965699964328,46.649834999927855],[-122.94050000026546,46.64909799989337],[-122.94052899967947,46.64907200019741],[-122.94064199965734,46.64897400018751],[-122.94040499983087,46.648847000124455],[-122.94039200031042,46.64883999974813],[-122.94050000026546,46.64873099984999],[-122.94056399983957,46.6486640002958],[-122.94061200041844,46.6484829997046],[-122.94063499998465,46.64839600001581],[-122.94073700009193,46.64830400022098],[-122.94081099971177,46.64832599994486],[-122.94115399984344,46.64843000008804],[-122.94117499975985,46.648436000279936],[-122.94142500000511,46.648516999722204],[-122.94166799967934,46.64860899977138],[-122.94164099991515,46.651864000276895],[-122.9416369997172,46.65234199998573],[-122.94367700006559,46.65233799994115],[-122.94416199958916,46.65233699977584],[-122.94424699997798,46.65233799994115],[-122.94464100016329,46.652336000227095],[-122.9449449999369,46.65233500006175],[-122.94492900004336,46.65328299992899],[-122.94656299961257,46.65324999997274],[-122.948458000196,46.65321300001654],[-122.94903399995617,46.65320100007534],[-122.94735500018112,46.65496999982611],[-122.95008199971946,46.655022999816744],[-122.95016499956014,46.65502399993238],[-122.95013699997104,46.65557300021297],[-122.95011799970446,46.65593600029576],[-122.94910099990332,46.655927000022544],[-122.94821999964631,46.65591899984687],[-122.94802100035298,46.65591399996775],[-122.94782299998626,46.65590200000928],[-122.94761299992398,46.65588000028398],[-122.9474310003491,46.65585599973269],[-122.94731300034833,46.655843000277414],[-122.94719399962432,46.65583999997578],[-122.94707499979866,46.65584399976134],[-122.94681299985781,46.65587800008429],[-122.94660699999352,46.65589499992947],[-122.94636199977113,46.65590300010865],[-122.94613499999038,46.65589499992947],[-122.94602600021045,46.65588500016629],[-122.94533999994711,46.65582099991157],[-122.94524200003781,46.65581700012431],[-122.94504700004414,46.65582200001245],[-122.94488999968532,46.655838999875236],[-122.94488999968532,46.65570300020673],[-122.94489600043138,46.65530900007961],[-122.94347899969887,46.65530099981255],[-122.94346700000328,46.65587800008429],[-122.94345000028487,46.65587800008429],[-122.94328200005538,46.65587599988454],[-122.94315900003171,46.655838999875236],[-122.94303600000806,46.65581800022531],[-122.94290899978645,46.655812000235755],[-122.942820000098,46.655816000023336],[-122.94267500033304,46.65583000020243],[-122.94253300004284,46.65585199994806],[-122.94245199985197,46.65586899980143],[-122.94225799968322,46.655919999945986],[-122.94212600033705,46.65586700021788],[-122.93966800041224,46.65584499986179],[-122.93967500008493,46.65626499973331],[-122.93972600013856,46.65936499970792],[-122.94490800012697,46.659391000004696],[-122.94488999968532,46.65856600007221],[-122.94525999958115,46.658550999934526],[-122.94964900007439,46.65855500013602],[-122.95020200026836,46.65855500013602],[-122.95021300013902,46.66289799998045],[-122.95620400041443,46.662897000010446],[-122.95783399978568,46.663876000038826],[-122.9586260003542,46.664351999722676],[-122.96065499993364,46.665570999877275],[-122.96062099959843,46.67123799989723],[-122.96061399992574,46.67237999994336],[-122.96058700016158,46.67672400018291],[-122.96058399978854,46.67732199981194],[-122.95598199975828,46.6772929997827],[-122.95574300028197,46.67729200007893],[-122.95544000033327,46.67729000005504],[-122.9502959999797,46.67725800027919],[-122.95023099968236,46.68053099985986],[-122.95022499983457,46.68080799971467],[-122.95015500041269,46.684362000230806],[-122.95010900038196,46.68902199995095],[-122.95008400026761,46.691553000265564],[-122.95313399984612,46.69159800030476],[-122.9527100004219,46.69167600024286],[-122.95270799987375,46.693861000230704],[-122.95488299994136,46.69385200011003],[-122.95530200024102,46.693838999933114],[-122.95529600039323,46.694465999972614],[-122.95719000025342,46.6944649999705],[-122.95715500009331,46.69176800018301],[-122.95840100022332,46.691786999936795],[-122.95844499970593,46.691677000296615],[-122.95856699990468,46.691678999787946],[-122.9598149996845,46.69191699972688],[-122.95992199981464,46.69170000029591],[-122.96376800015966,46.6917570002252],[-122.96401500003186,46.691760999818],[-122.96454899995925,46.69176900023508],[-122.96482599996868,46.69177299982697],[-122.96564000027854,46.689859000122325],[-122.96788999979088,46.684560999924074],[-122.96993400033725,46.684585000057425],[-122.97035199991366,46.684589999750024],[-122.97088099981818,46.684596000243346],[-122.9710570004436,46.68459699981197],[-122.97110699977401,46.684597999996804],[-122.97127400017858,46.68459900018161],[-122.97111099997193,46.68571500017171],[-122.97112699986549,46.687603999919446],[-122.97112699986549,46.68823699972036],[-122.97191799971081,46.68823699972036],[-122.9721210001004,46.68823899995526],[-122.97223999992609,46.6877919998452],[-122.97248299960035,46.68778299994564],[-122.9726209996926,46.68777299991851],[-122.9728390001508,46.68776400001575],[-122.97323900018388,46.687698000272235],[-122.9738240001649,46.687625000163216],[-122.97411299986989,46.68760700030686],[-122.97453999966716,46.68757999989489],[-122.97559400017653,46.68757800025187],[-122.9757680002538,46.68757200008979],[-122.97591999969144,46.68755199995554],[-122.97606700000453,46.687520000095084],[-122.97620799957154,46.68747499973934],[-122.97628499956444,46.68744500009752],[-122.97639300041779,46.68739199984748],[-122.97650899987043,46.687321000210055],[-122.97656900014488,46.68727699982371],[-122.97666500040434,46.687189999696656],[-122.97711999979069,46.686721000033245],[-122.97720900037748,46.68663800021535],[-122.97730999976149,46.68656300022562],[-122.9774219999145,46.68649499994775],[-122.97756500002961,46.68642600004955],[-122.97769700027412,46.686378000175544],[-122.97783500036634,46.68633899978434],[-122.97797799958317,46.68631000028105],[-122.97805100027644,46.68629899982789],[-122.97857500015809,46.686255999995694],[-122.98054299963812,46.68610200007232],[-122.98079999955608,46.68608300016739],[-122.98440800024972,46.685801000046865],[-122.98457300010618,46.685776999837486],[-122.9846440002513,46.68575899998164],[-122.98471399967316,46.68573599991737],[-122.98484300044291,46.68567999996119],[-122.98490199999412,46.6856459998934],[-122.98495600042081,46.68560899992221],[-122.98500499992629,46.68556799987462],[-122.98508799976698,46.68547999990779],[-122.98511999955403,46.68543199980941],[-122.9851659995848,46.68533099986117],[-122.98518599967628,46.68522500009074],[-122.98534200021018,46.68255700016857],[-122.98546000021098,46.68051399974909],[-122.98554600042469,46.679051000124666],[-122.98555999977006,46.67892700007528],[-122.98559199955714,46.67879200022482],[-122.98564199978586,46.678659000010356],[-122.98569299983947,46.6785550000687],[-122.98573100037262,46.67849199982889],[-122.98611799998692,46.67846099983069],[-122.98632899987409,46.6786059997688],[-122.98683000018953,46.67894999995681],[-122.98760400031642,46.679234999713266],[-122.98789700021939,46.67927300001915],[-122.98807700014443,46.67928799995417],[-122.98822100008447,46.679306000117165],[-122.98833800026034,46.67931199996477],[-122.9889120003707,46.67940400000927],[-122.98912699955754,46.67940500029029],[-122.9893419996427,46.679405999954916],[-122.98996500015686,46.67934899993451],[-122.99047099959684,46.67925000027511],[-122.99119299984518,46.679610000184056],[-122.99135400040198,46.67969200004705],[-122.99156299974103,46.679793999718015],[-122.9918620003901,46.679448000028806],[-122.99226099969998,46.67906699979223],[-122.99266099973303,46.67881999977411],[-122.99328000004924,46.6784299998147],[-122.99390799968796,46.67808699970311],[-122.99438399988902,46.67777799998982],[-122.99454600027072,46.67761599988891],[-122.99480200036376,46.677445000145674],[-122.99497300006799,46.677273999861356],[-122.99501599972568,46.67697400028246],[-122.99501599972568,46.67653100013103],[-122.99493799990788,46.6758100003],[-122.99494399975568,46.67512000017812],[-122.9949449995806,46.674960999978346],[-122.99487299961056,46.67423299998536],[-122.99465900024862,46.67388300013686],[-122.99431699994186,46.67374000000788],[-122.9939169999088,46.673726000151674],[-122.99321700030005,46.67390499993347],[-122.99256799984663,46.674051999913495],[-122.99196199994924,46.67418499975632],[-122.99150900021269,46.67409000016617],[-122.99119500039335,46.673865999783565],[-122.9911719999288,46.67361399993843],[-122.99129999997533,46.67337099998755],[-122.99166700039643,46.672970999847344],[-122.99199000043662,46.672652000105344],[-122.99247099976223,46.672157000284976],[-122.99276100019048,46.67179600022816],[-122.99310400032215,46.671238999712955],[-122.99328900027008,46.67080600009871],[-122.99339399985206,46.670198000285936],[-122.99358899984573,46.66904999999686],[-122.9936270003789,46.668402999763394],[-122.99378899986228,46.66810800023808],[-122.99406500004679,46.66792699999573],[-122.9943549995767,46.6678510000436],[-122.99534499961368,46.668079000195775],[-122.9957429999969,46.66815399995447],[-122.99583699970826,46.6681960001438],[-122.99595300005922,46.668238000300455],[-122.99600699958756,46.66826300015806],[-122.99617900001502,46.668340999886034],[-122.9962059997792,46.66836200022034],[-122.99626600005367,46.66839299984761],[-122.99647799976576,46.66846199996838],[-122.99668100015535,46.66849499988778],[-122.9967909997602,46.668502000185654],[-122.99689000039274,46.668458999750555],[-122.99704400037851,46.66831500019467],[-122.99722199975544,46.66826499989959],[-122.99762900035952,46.667936999997664],[-122.99790700019386,46.667387000224664],[-122.99811399988312,46.66686599987929]]]},"properties":{"AREALAND":"15040731","AREAWATER":"193105","BASENAME":"Chehalis","CBSAPCI":"N","CENTLAT":"+46.6637758","CENTLON":"-122.9649579","FUNCSTAT":"A","GEOID":"5311475","INTPTLAT":"+46.6641763","INTPTLON":"-122.9654252","LSADC":"25","MTFCC":"G4110","NAME":"Chehalis city","NECTAPCI":"N","OBJECTID":25663,"OID":"27890932748903","PLACE":"11475","PLACECC":"C1","PLACENS":"02409439","STATE":"53","DISP_CLR":3,"slug":"chehalis","jurisdiction_key":"chehalis_city","county_fips":["53041"]}}]}
