{"type":"FeatureCollection","features":[{"type":"Feature","geometry":{"type":"MultiPolygon","coordinates":[[[[-117.74265700011618,48.276915000039004],[-117.74265399974313,48.276570000236],[-117.7426450004206,48.274786999885286],[-117.74263700002467,48.27345599986405],[-117.74263600019978,48.27308399998813],[-117.74174700044514,48.27306299988544],[-117.738779999809,48.27299499986382],[-117.73717899985175,48.272957999840436],[-117.73495299973054,48.27303199986045],[-117.73430400017541,48.27304500004681],[-117.7324370000794,48.27312200020894],[-117.73227200022298,48.27312899983743],[-117.7320639998105,48.27313099981653],[-117.73174499996829,48.27314199999911],[-117.73151399998957,48.27314900022278],[-117.72930100028715,48.27322200027736],[-117.72930499958682,48.27336299985003],[-117.72915700034712,48.27336200016398],[-117.72908000035422,48.273360999880005],[-117.72824299957982,48.2733540002833],[-117.72796399992056,48.27335199971502],[-117.72768000023844,48.27335299999917],[-117.72682999994358,48.273358000223794],[-117.72654700008633,48.273360000193925],[-117.72649299965968,48.27335699993974],[-117.7263320000012,48.27335100002876],[-117.7262779995745,48.273349000058275],[-117.72627400027486,48.27288199972454],[-117.72627299955164,48.27277000022879],[-117.72627199972672,48.272192000124434],[-117.72627099990183,48.271667000153194],[-117.72634799989473,48.27159400026875],[-117.72634899971962,48.27114799974177],[-117.7263529999176,48.26986300008962],[-117.72627400027486,48.26986699970544],[-117.72111700040082,48.27002399977672],[-117.72102500033931,48.2700270002266],[-117.72100699989765,48.27002799997789],[-117.72098900035428,48.27002799997789],[-117.72089399991975,48.27003099982959],[-117.72089200026993,48.26999800025526],[-117.72057500007752,48.26999900000712],[-117.72043000031256,48.27000100010872],[-117.72013700040962,48.27000499971374],[-117.71954499985758,48.27001100001762],[-117.71788100015117,48.27003700013041],[-117.717878999603,48.269624999961025],[-117.71787199993034,48.269412999752234],[-117.71786600008252,48.26921300005772],[-117.71647500018759,48.269238000211836],[-117.71631199998097,48.269238999978555],[-117.71616300001806,48.269243000241175],[-117.71599599961347,48.269244999774415],[-117.71599899998652,48.26988399971362],[-117.71599899998652,48.270039999981584],[-117.71599899998652,48.270068999929094],[-117.71582599973416,48.270073000126736],[-117.7157510002894,48.27007399987713],[-117.71540300013486,48.270078000074385],[-117.71525400017194,48.2700800001729],[-117.71171800034664,48.270102000055516],[-117.70814900001103,48.27011899998547],[-117.70696900000326,48.27012100008237],[-117.70499599960202,48.270142000198305],[-117.7046419995997,48.27014599979229],[-117.70464400014782,48.2706880001827],[-117.70465199964544,48.273118000249966],[-117.70465300036867,48.27365300005477],[-117.70414000035765,48.273655000013356],[-117.70223399990357,48.27366699976322],[-117.70195100004639,48.273668000041205],[-117.7019450001986,48.273791000003065],[-117.70195199987128,48.27420100012907],[-117.70195100004639,48.274748999706986],[-117.70211000005504,48.27475599971049],[-117.70209400016151,48.275533999760576],[-117.70188499992413,48.27553300011701],[-117.70188699957397,48.27566200001258],[-117.70191300041155,48.27724599998404],[-117.70191099986339,48.277386000204096],[-117.70175799970251,48.277386000204096],[-117.7014310003627,48.277386000204096],[-117.70100000036749,48.2773849999989],[-117.6997070003818,48.277383999793685],[-117.6994040004331,48.277383999793685],[-117.69924100022651,48.277383999793685],[-117.69924200005141,48.27749199972263],[-117.69925200009715,48.280915999892876],[-117.69925100027223,48.28106900015667],[-117.70001799982812,48.28108499989213],[-117.70015699974529,48.28107700002502],[-117.70090499993293,48.28106699989052],[-117.70147099964736,48.2810590000206],[-117.70357000044528,48.2810340002696],[-117.70428599994754,48.28102599979673],[-117.704458000375,48.281030999868264],[-117.70448500013919,48.28102699993064],[-117.70456600033003,48.28101600025001],[-117.70459399991911,48.28101399998178],[-117.7046779995847,48.28101500011589],[-117.7046779995847,48.281119999744256],[-117.70467400028507,48.28259999981203],[-117.70467299956184,48.28288499970578],[-117.70467299956184,48.28465399990542],[-117.70714399990545,48.284656000031106],[-117.71006700016068,48.28465800015676],[-117.71005600029001,48.28646000024257],[-117.71027200020005,48.28645300004943],[-117.71071900008883,48.28645099999411],[-117.71094099984668,48.28645099999411],[-117.71109200035772,48.28644999996639],[-117.71107300009116,48.285345999876604],[-117.71333400037246,48.285347999975244],[-117.71339600029673,48.28534699992594],[-117.71349599985587,48.28535100012305],[-117.71349599985587,48.2854610000405],[-117.71349599985587,48.28551600020926],[-117.71349500003095,48.285693000274314],[-117.71349199965789,48.28622299974571],[-117.71349099983297,48.2862390002578],[-117.71349099983297,48.28640099978029],[-117.71388199964524,48.286398999722934],[-117.7150540001554,48.286393000148024],[-117.71544599979254,48.28639200011918],[-117.7154480003407,48.28621500008557],[-117.71545199964032,48.28601699987826],[-117.71547400027998,48.28489199997025],[-117.71547799957962,48.284626999993776],[-117.71559599958039,48.284624999866914],[-117.71634200011817,48.28461399976556],[-117.71657100044706,48.28461100017224],[-117.71665799958737,48.28468800023876],[-117.71685000010632,48.28483999990507],[-117.71691500040362,48.28489199997025],[-117.71694399981762,48.28491199993521],[-117.7171389998113,48.28504500028024],[-117.71731500043673,48.28516500019097],[-117.71776700034833,48.285369999859434],[-117.71796599964165,48.2854610000405],[-117.7179830002584,48.28546899981874],[-117.71855900001859,48.28568099976249],[-117.71906899965651,48.285869000284684],[-117.72029700024318,48.28628699997062],[-117.72054300029046,48.28637100010674],[-117.72013599968638,48.28637799971337],[-117.71817599970394,48.28642299980866],[-117.71809299986326,48.28643200006206],[-117.71824699984903,48.28675300029238],[-117.71858999998071,48.28746400007129],[-117.7187220002252,48.287767999763005],[-117.7187919996471,48.287985999713726],[-117.71891499967073,48.28848299970861],[-117.7189680002725,48.28869500029138],[-117.71911700023541,48.288696000275124],[-117.72090899998835,48.28868699982302],[-117.7209049997904,48.28826400009407],[-117.72090800016343,48.28742599975845],[-117.72091099963818,48.28649700005188],[-117.72099699985192,48.286526000222956],[-117.72113999996704,48.28657500028913],[-117.72170300020676,48.28676699999769],[-117.7233259999053,48.28732099994249],[-117.72337299976095,48.28733700011054],[-117.72337199993603,48.287219999961344],[-117.72337600013401,48.28636900004816],[-117.7236770004329,48.28636499993083],[-117.72376299974827,48.28636699998956],[-117.72492000018984,48.28635899975417],[-117.72522999981122,48.28635500023381],[-117.72521999976549,48.28682299997599],[-117.72519700019927,48.28795599977571],[-117.72540200023869,48.288026000201384],[-117.72550299962269,48.28806000008317],[-117.7255949996842,48.288090999955685],[-117.7258740002418,48.28818500005176],[-117.7259670001282,48.28821699984149],[-117.7261219999389,48.28826900005479],[-117.7263959995753,48.288360999842716],[-117.72658800009422,48.28842699975735],[-117.72674399972983,48.28847999974484],[-117.72695700016517,48.288551000036556],[-117.72759800022268,48.28876700026655],[-117.7278119995846,48.28883900014021],[-117.72797999981411,48.288895000237424],[-117.7284879998022,48.28906600009018],[-117.72865699985661,48.28912299991383],[-117.7292619999291,48.28932599989113],[-117.72929399971618,48.28933700017304],[-117.72929299989126,48.289248000269154],[-117.72929299989126,48.28809399994232],[-117.72976900009232,48.2880849999818],[-117.7313459997601,48.2880570000945],[-117.73367300016366,48.28801900022288],[-117.73429900015257,48.28801000024915],[-117.73730799972319,48.28797399974063],[-117.73734200005838,48.28533299983139],[-117.73715600028554,48.285126999960816],[-117.73710600005683,48.28507199997092],[-117.73688900032187,48.28484699972152],[-117.73657700015231,48.28456799980512],[-117.73655899971065,48.28455300002997],[-117.73640899992283,48.28443399994409],[-117.73628699972409,48.28443199980968],[-117.73217299959045,48.284449999821085],[-117.7318589997711,48.28445099988795],[-117.73183600020486,48.28265999998474],[-117.73183299983181,48.2818519997134],[-117.73183500037995,48.28172600026522],[-117.73183899967962,48.28143599985146],[-117.73210700036651,48.28159399976981],[-117.73293800039484,48.28208099986003],[-117.73543399995447,48.28354500002462],[-117.73626599980769,48.28403300012021],[-117.73682800022249,48.284362999906506],[-117.73706099985098,48.28433799997923],[-117.73723999995113,48.28431999992834],[-117.73727000008834,48.28427200016022],[-117.73727900030919,48.28425899984164],[-117.73727699976105,48.28410299994507],[-117.73727699976105,48.28404699997331],[-117.73727199973818,48.28342399980754],[-117.73725699966957,48.28155699999545],[-117.73725300036992,48.28093500008341],[-117.73722200040775,48.278958000232514],[-117.73721599966167,48.27684999981235],[-117.74265700011618,48.276915000039004]]],[[[-117.76961700036962,48.307056999931014],[-117.77005900023546,48.30576700002103],[-117.76877100027271,48.3054489999723],[-117.76810199972778,48.30528899984493],[-117.76758799989189,48.30506800008395],[-117.76588300017758,48.30534999990782],[-117.76284000027175,48.30533099983728],[-117.76081099979403,48.30531699984366],[-117.75999400000941,48.30555999987057],[-117.75915200011046,48.305858999951205],[-117.75531300033644,48.30589600004523],[-117.75335500000382,48.30591999993042],[-117.7521840002169,48.305933999758594],[-117.75216599977524,48.30726299976738],[-117.75213300016327,48.30852500008819],[-117.74578899971046,48.30853899979933],[-117.74545800017265,48.30853899979933],[-117.74219299961067,48.3085479997396],[-117.74196400018013,48.30854899993205],[-117.73936300014017,48.30855300010409],[-117.73932600033025,48.30958900004956],[-117.73931999958414,48.3096499997529],[-117.73929299981998,48.310495999854176],[-117.73923300044385,48.312398999825284],[-117.73917599964413,48.31413199983521],[-117.73914899987993,48.31492300020914],[-117.73921900020014,48.315019000026524],[-117.74002799958883,48.316128999843734],[-117.74068999956272,48.31703799994658],[-117.7409199997165,48.317354000026654],[-117.7416110000027,48.31830299987448],[-117.74184199998139,48.31861999988],[-117.74186700009572,48.31864899972754],[-117.74188600036231,48.318671000198215],[-117.74193599969273,48.318742999717315],[-117.74195900015727,48.3187760000603],[-117.74208499965563,48.31895700007755],[-117.74246399977233,48.31950299979359],[-117.74259099999391,48.31968600016651],[-117.74282500034566,48.31997900010823],[-117.74321199995993,48.32046199987575],[-117.74332499993785,48.3206969998353],[-117.74341299980142,48.320930000007486],[-117.74353300035033,48.321251000188546],[-117.74354400022098,48.32128300016097],[-117.74363000043469,48.32158200010955],[-117.74369200035896,48.3220010000513],[-117.74368899998593,48.32237099982416],[-117.74369499983372,48.3225250000461],[-117.74370900007742,48.3228400002737],[-117.74373500001668,48.32283899976409],[-117.74381299983447,48.32283899976409],[-117.74383999959869,48.32283899976409],[-117.74425300005053,48.32283500011462],[-117.74549499998257,48.32282200005712],[-117.74590900025936,48.32281899972174],[-117.74608499998645,48.32281799980904],[-117.74662800013468,48.32282299996979],[-117.74878300011078,48.32284399992277],[-117.74880099965412,48.32284399992277],[-117.74913499956497,48.32286200013159],[-117.74954999966668,48.322868000199804],[-117.74969600015486,48.32290200017474],[-117.75017400000576,48.32292100027383],[-117.75024199977781,48.322922000184505],[-117.7505170001374,48.32291999976576],[-117.75080500001748,48.32291799994427],[-117.75103900036923,48.32291700003347],[-117.75137900012787,48.322916000122696],[-117.75146100014364,48.322916000122696],[-117.75174099962778,48.322913999703665],[-117.75196900013175,48.32291299979284],[-117.75233700037778,48.32291099997102],[-117.75244500033281,48.32291199988194],[-117.75280799965766,48.322909000149174],[-117.75316800040608,48.322906999729916],[-117.75329499972938,48.32290599981891],[-117.753678000044,48.322906999729916],[-117.75401600015282,48.322903000085795],[-117.75432199957623,48.32290200017474],[-117.75442500040674,48.32290100026363],[-117.75449300017881,48.32290100026363],[-117.75458100004234,48.322899999755215],[-117.75482000041694,48.32290200017474],[-117.75779700020053,48.32288100024558],[-117.75811000019496,48.32287999973678],[-117.76049899962447,48.322871999846676],[-117.76049299977672,48.3218350002594],[-117.76049100012688,48.32164099994031],[-117.76121599984998,48.32167999981121],[-117.76210899980256,48.321428999967274],[-117.76259400022445,48.32092800010797],[-117.76390099955549,48.32060099994959],[-117.76426999962646,48.3203139997676],[-117.76465799996397,48.32001200024905],[-117.76577799969729,48.31914000001968],[-117.7657450000853,48.31367200020806],[-117.76217199955175,48.312307999854404],[-117.76043099985242,48.3116439997307],[-117.76041900015687,48.309698999736],[-117.76041199958584,48.308498999846286],[-117.76100699961259,48.308501000233036],[-117.76325799984818,48.30851300016202],[-117.76341400038211,48.30851300016202],[-117.76371200030795,48.30851499995077],[-117.7634560002149,48.30805900008616],[-117.76563399975723,48.30802899999155],[-117.76662100031947,48.307549000261574],[-117.76747999993685,48.30716799991712],[-117.76896799991617,48.30729800020223],[-117.76961700036962,48.307056999931014]]]]},"properties":{"AREALAND":"7649269","AREAWATER":"0","BASENAME":"Chewelah","CBSAPCI":"N","CENTLAT":"+48.2930230","CENTLON":"-117.7336307","FUNCSTAT":"A","GEOID":"5312140","INTPTLAT":"+48.2826400","INTPTLON":"-117.7169453","LSADC":"25","MTFCC":"G4110","NAME":"Chewelah city","NECTAPCI":"N","OBJECTID":20743,"OID":"27890481818964","PLACE":"12140","PLACECC":"C1","PLACENS":"02409444","STATE":"53","DISP_CLR":3,"slug":"chewelah","jurisdiction_key":"chewelah_city","county_fips":["53065"]}}]}
