{
  "type": "FeatureCollection",
  "features": [
    {
      "type": "Feature",
      "geometry": {
        "type": "MultiPolygon",
        "coordinates": [
          [
            [
              [
                -117.3883720000775,
                46.894266000144576
              ],
              [
                -117.38863499984323,
                46.89365400003482
              ],
              [
                -117.38800200018166,
                46.89360199987204
              ],
              [
                -117.38776899965482,
                46.8935830000243
              ],
              [
                -117.38763200028579,
                46.893579000055524
              ],
              [
                -117.38739899975899,
                46.893573000101775
              ],
              [
                -117.38679700005952,
                46.893461000227745
              ],
              [
                -117.38477199977977,
                46.893068999747506
              ],
              [
                -117.38259500006234,
                46.892558000103136
              ],
              [
                -117.38174499976743,
                46.89235799993051
              ],
              [
                -117.38174800014052,
                46.8922600002121
              ],
              [
                -117.3817759997296,
                46.8913760001464
              ],
              [
                -117.38177699955452,
                46.89119700002308
              ],
              [
                -117.38204000021857,
                46.89117100029159
              ],
              [
                -117.3824100001144,
                46.89115699976981
              ],
              [
                -117.38311999976888,
                46.89121900021105
              ],
              [
                -117.38339099993054,
                46.89124199981193
              ],
              [
                -117.38439100001327,
                46.89136599981231
              ],
              [
                -117.38461500031923,
                46.89088199983011
              ],
              [
                -117.38466200017488,
                46.8908210002708
              ],
              [
                -117.38470900003058,
                46.89072000006287
              ],
              [
                -117.38476900030503,
                46.89035800015615
              ],
              [
                -117.38474599984048,
                46.89011900001658
              ],
              [
                -117.38468100044147,
                46.88989300022011
              ],
              [
                -117.38451700040993,
                46.88962799998462
              ],
              [
                -117.38435400020332,
                46.88946199983736
              ],
              [
                -117.38427200018755,
                46.88952599991802
              ],
              [
                -117.3841900001718,
                46.88958999992228
              ],
              [
                -117.38413999994309,
                46.889630000116405
              ],
              [
                -117.38363000030513,
                46.88993000000747
              ],
              [
                -117.38311999976888,
                46.89015999987216
              ],
              [
                -117.38304000030128,
                46.89020000025511
              ],
              [
                -117.38278000001026,
                46.89030000016106
              ],
              [
                -117.38248000043463,
                46.890389999978396
              ],
              [
                -117.38223000018937,
                46.89045999986834
              ],
              [
                -117.38198999998986,
                46.89050999990917
              ],
              [
                -117.38138999994023,
                46.89061999971219
              ],
              [
                -117.38108000031885,
                46.89065999975208
              ],
              [
                -117.38045000013197,
                46.89072000006287
              ],
              [
                -117.37953999956262,
                46.890760000028145
              ],
              [
                -117.37675000027512,
                46.890809999789354
              ],
              [
                -117.37670300041947,
                46.890809999789354
              ],
              [
                -117.37657899967259,
                46.890810999833214
              ],
              [
                -117.37657700002278,
                46.890588000027165
              ],
              [
                -117.37652099994625,
                46.890583999834966
              ],
              [
                -117.37626200037849,
                46.8905540002258
              ],
              [
                -117.37601299995815,
                46.89050699976069
              ],
              [
                -117.37594400036117,
                46.890483999844655
              ],
              [
                -117.37562299997082,
                46.89037200027254
              ],
              [
                -117.37540000038805,
                46.890314999731835
              ],
              [
                -117.37437199981792,
                46.88995200010128
              ],
              [
                -117.37431400009163,
                46.8898549997316
              ],
              [
                -117.3737779996161,
                46.88959699977425
              ],
              [
                -117.37334400014615,
                46.889388000205265
              ],
              [
                -117.37314999997737,
                46.889313999857166
              ],
              [
                -117.37304000037251,
                46.88929699986235
              ],
              [
                -117.37292800021953,
                46.88928899989905
              ],
              [
                -117.37281600006655,
                46.88928799982681
              ],
              [
                -117.37270399991354,
                46.889295999790264
              ],
              [
                -117.37263199994351,
                46.889306999968305
              ],
              [
                -117.3725940003087,
                46.88931199971364
              ],
              [
                -117.3724839998055,
                46.8893379997324
              ],
              [
                -117.37240299961465,
                46.889360000069004
              ],
              [
                -117.3722980000327,
                46.88940699969746
              ],
              [
                -117.37206399968095,
                46.889397000224044
              ],
              [
                -117.37142199979853,
                46.88941599971304
              ],
              [
                -117.37138400016372,
                46.88943100014497
              ],
              [
                -117.37140300043026,
                46.889354999714215
              ],
              [
                -117.37151700023308,
                46.88893400009517
              ],
              [
                -117.37152700027883,
                46.88889799970022
              ],
              [
                -117.3724179996833,
                46.88559100007193
              ],
              [
                -117.37238400024641,
                46.88308599990303
              ],
              [
                -117.37237800039863,
                46.88294899977596
              ],
              [
                -117.372467999912,
                46.882947000009054
              ],
              [
                -117.37263399959336,
                46.88294500024206
              ],
              [
                -117.37338199978099,
                46.88224499985261
              ],
              [
                -117.37430999989367,
                46.88170899981481
              ],
              [
                -117.3745529995679,
                46.88156800021887
              ],
              [
                -117.37456000013891,
                46.88146000009488
              ],
              [
                -117.3745669998116,
                46.88132000006531
              ],
              [
                -117.37464899982737,
                46.881321000286114
              ],
              [
                -117.3748060001862,
                46.88101500000799
              ],
              [
                -117.37490999994328,
                46.8807279999369
              ],
              [
                -117.37496900039281,
                46.88044199979582
              ],
              [
                -117.37498500028637,
                46.88013900014512
              ],
              [
                -117.374960000172,
                46.879884999883444
              ],
              [
                -117.37487700033131,
                46.87993300007822
              ],
              [
                -117.37487099958523,
                46.87988999989295
              ],
              [
                -117.3748680001105,
                46.879879000239846
              ],
              [
                -117.37485800006475,
                46.879847000287256
              ],
              [
                -117.37483799997325,
                46.87980599991714
              ],
              [
                -117.37481200003398,
                46.87976599976543
              ],
              [
                -117.37478100007185,
                46.87972899972141
              ],
              [
                -117.37474400026193,
                46.8796940001541
              ],
              [
                -117.37470200042914,
                46.87966200009118
              ],
              [
                -117.37465499967516,
                46.87963300015195
              ],
              [
                -117.37460399962153,
                46.87960799998006
              ],
              [
                -117.37454900026826,
                46.87958599994194
              ],
              [
                -117.37448800016888,
                46.87956800029479
              ],
              [
                -117.37443100026749,
                46.87955500006828
              ],
              [
                -117.3743690003432,
                46.87954600024031
              ],
              [
                -117.3743059996957,
                46.87954100019875
              ],
              [
                -117.3742429999465,
                46.87954100019875
              ],
              [
                -117.37232999981973,
                46.87977700005574
              ],
              [
                -117.37232899999483,
                46.879721999809775
              ],
              [
                -117.37232200032213,
                46.87924700025175
              ],
              [
                -117.37227999959102,
                46.87631700006185
              ],
              [
                -117.37227700011627,
                46.87624999985548
              ],
              [
                -117.3733759999332,
                46.876243000104054
              ],
              [
                -117.37334400014615,
                46.87501399994135
              ],
              [
                -117.37304600022031,
                46.87497899975489
              ],
              [
                -117.37251499976766,
                46.87491500012677
              ],
              [
                -117.3724329997519,
                46.874886999804936
              ],
              [
                -117.37235800030713,
                46.87487400028658
              ],
              [
                -117.37225399965175,
                46.87485799974133
              ],
              [
                -117.3722500003521,
                46.87475000023469
              ],
              [
                -117.37224600015415,
                46.87457500005522
              ],
              [
                -117.37303899964931,
                46.87459199980294
              ],
              [
                -117.37350499980462,
                46.874602000193846
              ],
              [
                -117.37410400002933,
                46.87460999989114
              ],
              [
                -117.37419199989289,
                46.87292100011679
              ],
              [
                -117.3736029997139,
                46.87289899979336
              ],
              [
                -117.3736029997139,
                46.872874999932705
              ],
              [
                -117.3735950002163,
                46.87279499970562
              ],
              [
                -117.37351599967529,
                46.872793000174354
              ],
              [
                -117.37357000010195,
                46.87256000022953
              ],
              [
                -117.37359100001835,
                46.87247299990378
              ],
              [
                -117.37368800010272,
                46.87209299998297
              ],
              [
                -117.3736999997983,
                46.87205000027011
              ],
              [
                -117.37376199972257,
                46.871757999994884
              ],
              [
                -117.37383500041581,
                46.87175500002588
              ],
              [
                -117.3739109996855,
                46.871961000169485
              ],
              [
                -117.3746299995608,
                46.87194899972372
              ],
              [
                -117.3746799997895,
                46.87191999991477
              ],
              [
                -117.37526599959541,
                46.87157999990578
              ],
              [
                -117.37467800013968,
                46.87159000024388
              ],
              [
                -117.37385999963186,
                46.87160399973141
              ],
              [
                -117.37388499974621,
                46.871527999837326
              ],
              [
                -117.37396500011216,
                46.87152600025887
              ],
              [
                -117.37405299997572,
                46.87152000029476
              ],
              [
                -117.37416199975566,
                46.87150499976737
              ],
              [
                -117.37426800006087,
                46.87148300009173
              ],
              [
                -117.3743690003432,
                46.87145199983562
              ],
              [
                -117.37446600042759,
                46.87141500019985
              ],
              [
                -117.37455599994094,
                46.871371000151704
              ],
              [
                -117.37463899978164,
                46.871321000081075
              ],
              [
                -117.37463100028403,
                46.87091200024771
              ],
              [
                -117.3808750002794,
                46.8708459998504
              ],
              [
                -117.38120599981721,
                46.87084299983042
              ],
              [
                -117.38259599988724,
                46.87082799972795
              ],
              [
                -117.38251999971926,
                46.86715600021955
              ],
              [
                -117.37949799972984,
                46.86718600001602
              ],
              [
                -117.3794249999349,
                46.867158999831425
              ],
              [
                -117.37935299996487,
                46.86713200024744
              ],
              [
                -117.37832699994293,
                46.86674899972701
              ],
              [
                -117.37792699990982,
                46.867509999943316
              ],
              [
                -117.37656399960396,
                46.86712999989101
              ],
              [
                -117.37648999998412,
                46.867109000136146
              ],
              [
                -117.37633000015057,
                46.86738000026048
              ],
              [
                -117.3761510000504,
                46.867651000244976
              ],
              [
                -117.37605999981382,
                46.86778999984439
              ],
              [
                -117.37590900020106,
                46.867986999928185
              ],
              [
                -117.37560299987933,
                46.86807199983456
              ],
              [
                -117.37506800012703,
                46.868216000055234
              ],
              [
                -117.37425299999227,
                46.86829999974968
              ],
              [
                -117.37397699980772,
                46.868551000042004
              ],
              [
                -117.37336500006253,
                46.86952799969324
              ],
              [
                -117.3732579999324,
                46.86931299972147
              ],
              [
                -117.37298500012093,
                46.86883599985136
              ],
              [
                -117.37294199956493,
                46.86876100017757
              ],
              [
                -117.37154900002014,
                46.86915300019762
              ],
              [
                -117.37190300002248,
                46.869347999918396
              ],
              [
                -117.37080199965743,
                46.869569999758546
              ],
              [
                -117.37039900014962,
                46.86965500022883
              ],
              [
                -117.36966900040366,
                46.870962000085235
              ],
              [
                -117.3696319996954,
                46.87102900013842
              ],
              [
                -117.36802499989038,
                46.87105100000014
              ],
              [
                -117.36800200032418,
                46.87096899991141
              ],
              [
                -117.36781200035337,
                46.87031099998046
              ],
              [
                -117.36757800000164,
                46.870311999792335
              ],
              [
                -117.36678799998121,
                46.87031600026794
              ],
              [
                -117.36678499960817,
                46.87023100023032
              ],
              [
                -117.36677600028564,
                46.86970700026957
              ],
              [
                -117.36502700019041,
                46.86973900012788
              ],
              [
                -117.36434199975196,
                46.86975200027594
              ],
              [
                -117.36434000010217,
                46.86976199972635
              ],
              [
                -117.36407800016134,
                46.86976099990423
              ],
              [
                -117.36408400000913,
                46.86996599989921
              ],
              [
                -117.36408800020708,
                46.87009999995203
              ],
              [
                -117.36408999985689,
                46.87015999992226
              ],
              [
                -117.36408999985689,
                46.87017399978285
              ],
              [
                -117.36403100030567,
                46.8701729999684
              ],
              [
                -117.36318799968348,
                46.870175000211425
              ],
              [
                -117.36318199983569,
                46.870308999742505
              ],
              [
                -117.36318000018588,
                46.87035999995276
              ],
              [
                -117.36317400033809,
                46.8704419997437
              ],
              [
                -117.3631600000944,
                46.870660000136446
              ],
              [
                -117.36315199969847,
                46.87068800020727
              ],
              [
                -117.3631330003302,
                46.870768999693745
              ],
              [
                -117.36312999995717,
                46.87077900018291
              ],
              [
                -117.36312199956124,
                46.870808999796864
              ],
              [
                -117.3631199999114,
                46.87082000008104
              ],
              [
                -117.3631140000636,
                46.87092899992749
              ],
              [
                -117.36310499984279,
                46.87109200030463
              ],
              [
                -117.36302200000213,
                46.871093999899266
              ],
              [
                -117.35607000000206,
                46.8712400001994
              ],
              [
                -117.35588699970397,
                46.871243999991705
              ],
              [
                -117.35589199972685,
                46.8720810001808
              ],
              [
                -117.35578600031997,
                46.87208299973864
              ],
              [
                -117.35511500012521,
                46.87208799986103
              ],
              [
                -117.35340200001498,
                46.87210900012437
              ],
              [
                -117.35181399957823,
                46.87212399986882
              ],
              [
                -117.35163200000332,
                46.87212500026105
              ],
              [
                -117.35162699998048,
                46.87132700006743
              ],
              [
                -117.34567699971296,
                46.8713910002897
              ],
              [
                -117.34565499997166,
                46.8713910002897
              ],
              [
                -117.34581800017827,
                46.8714920000439
              ],
              [
                -117.34655899979488,
                46.87195300007731
              ],
              [
                -117.3506710002787,
                46.87450899986392
              ],
              [
                -117.35068999964695,
                46.87485200014968
              ],
              [
                -117.35072499980707,
                46.8748860000783
              ],
              [
                -117.35072200033231,
                46.87494099975462
              ],
              [
                -117.35071499976131,
                46.875107999732734
              ],
              [
                -117.3507130001115,
                46.87516499985268
              ],
              [
                -117.3508689997471,
                46.8751640001312
              ],
              [
                -117.35191300021074,
                46.875155000180726
              ],
              [
                -117.35196900028724,
                46.875199000197014
              ],
              [
                -117.35334400028869,
                46.876296000216946
              ],
              [
                -117.35378100013166,
                46.87664500013979
              ],
              [
                -117.35394500016321,
                46.87662999981677
              ],
              [
                -117.35437899963316,
                46.87657799972888
              ],
              [
                -117.35600300005493,
                46.8763940002415
              ],
              [
                -117.3560289999942,
                46.877369999904516
              ],
              [
                -117.35589299955177,
                46.87739499989108
              ],
              [
                -117.3557760002742,
                46.877417000213505
              ],
              [
                -117.35570099993114,
                46.87744000020599
              ],
              [
                -117.35537299986807,
                46.87746900010237
              ],
              [
                -117.3552959998752,
                46.877476999986335
              ],
              [
                -117.35523499977582,
                46.87748299989852
              ],
              [
                -117.35472500013786,
                46.877528999817066
              ],
              [
                -117.35455699990838,
                46.87753499972343
              ],
              [
                -117.3543619999147,
                46.87754199992038
              ],
              [
                -117.35431199968599,
                46.877770999806955
              ],
              [
                -117.35431000003618,
                46.87783700028467
              ],
              [
                -117.35445399997622,
                46.87790100011215
              ],
              [
                -117.35459299989341,
                46.87792900008942
              ],
              [
                -117.35471400026724,
                46.87794000014229
              ],
              [
                -117.35490000004006,
                46.87795399981555
              ],
              [
                -117.355156999958,
                46.87796499986329
              ],
              [
                -117.35563999983178,
                46.877949999909276
              ],
              [
                -117.35571799964957,
                46.87794700028637
              ],
              [
                -117.3559520000013,
                46.877931999713304
              ],
              [
                -117.3560430002379,
                46.87791899970446
              ],
              [
                -117.3560499999106,
                46.878094000031545
              ],
              [
                -117.35605599975835,
                46.87834899983729
              ],
              [
                -117.35605900013141,
                46.87849399977632
              ],
              [
                -117.35606099978125,
                46.87856199990918
              ],
              [
                -117.3585289997518,
                46.87855499984529
              ],
              [
                -117.36134200040216,
                46.878547999780494
              ],
              [
                -117.3613239999605,
                46.879756999972805
              ],
              [
                -117.36132300013558,
                46.8799449999667
              ],
              [
                -117.36131999976256,
                46.88000600022817
              ],
              [
                -117.36131899993764,
                46.88003800008593
              ],
              [
                -117.36131100044003,
                46.880322000059756
              ],
              [
                -117.3611749999976,
                46.880369999863575
              ],
              [
                -117.36086000035331,
                46.880480000198666
              ],
              [
                -117.36068000042827,
                46.88055000012699
              ],
              [
                -117.36057499994797,
                46.8805989999611
              ],
              [
                -117.36047000036599,
                46.88065000021709
              ],
              [
                -117.36028000039519,
                46.88075999997812
              ],
              [
                -117.35987000031638,
                46.88104000013835
              ],
              [
                -117.35977999990467,
                46.881100000157986
              ],
              [
                -117.35963000011685,
                46.881190000061665
              ],
              [
                -117.35946000023753,
                46.88127000005397
              ],
              [
                -117.35927000026675,
                46.881349999927004
              ],
              [
                -117.35898999988426,
                46.88144999975401
              ],
              [
                -117.35893600035588,
                46.88147200025581
              ],
              [
                -117.35887699990636,
                46.881494999738166
              ],
              [
                -117.35832000041276,
                46.88171999970675
              ],
              [
                -117.3582819998796,
                46.881736000047944
              ],
              [
                -117.35754999958549,
                46.882049999714
              ],
              [
                -117.3573389996983,
                46.882126000056964
              ],
              [
                -117.35709000017627,
                46.882214999877405
              ],
              [
                -117.35701999985606,
                46.8822400000626
              ],
              [
                -117.35699100044205,
                46.882249000052695
              ],
              [
                -117.35680999979378,
                46.88231000015066
              ],
              [
                -117.35668000009743,
                46.88234000007272
              ],
              [
                -117.35658700021102,
                46.88235699981648
              ],
              [
                -117.35657299996731,
                46.882359000219346
              ],
              [
                -117.35653299978436,
                46.88236699998824
              ],
              [
                -117.35652000026387,
                46.882369999978025
              ],
              [
                -117.35634000033882,
                46.88239999986654
              ],
              [
                -117.35632600009511,
                46.88240100006722
              ],
              [
                -117.35574500031207,
                46.88248400007915
              ],
              [
                -117.35571000015196,
                46.882490000045465
              ],
              [
                -117.3555500003184,
                46.882500000192486
              ],
              [
                -117.35516899965359,
                46.88257499970058
              ],
              [
                -117.35488999999433,
                46.88263000009189
              ],
              [
                -117.35471099989415,
                46.882668999754706
              ],
              [
                -117.35476799979558,
                46.88277699990096
              ],
              [
                -117.35477799984132,
                46.8827970000861
              ],
              [
                -117.35479200008503,
                46.88282399977163
              ],
              [
                -117.35480899980348,
                46.88285500021247
              ],
              [
                -117.35488800034449,
                46.88283699982
              ],
              [
                -117.35517700004951,
                46.88276999977298
              ],
              [
                -117.35561700026557,
                46.882696999699796
              ],
              [
                -117.35602999981911,
                46.88264600016163
              ],
              [
                -117.35615899969052,
                46.882618000189915
              ],
              [
                -117.35637799997365,
                46.882762000064176
              ],
              [
                -117.35650900039323,
                46.882848000094675
              ],
              [
                -117.35664699958717,
                46.88283600024147
              ],
              [
                -117.35742499991201,
                46.882824999964384
              ],
              [
                -117.35877300014927,
                46.8828059999828
              ],
              [
                -117.35879200041585,
                46.88328500008288
              ],
              [
                -117.35874200018714,
                46.88574799990454
              ],
              [
                -117.35624999992713,
                46.88576999987176
              ],
              [
                -117.35594500032862,
                46.8857689997339
              ],
              [
                -117.35594199995556,
                46.885794000104745
              ],
              [
                -117.3559369999327,
                46.88583500019659
              ],
              [
                -117.35592799971185,
                46.8859329999896
              ],
              [
                -117.35553400042487,
                46.890031999919735
              ],
              [
                -117.35522800010311,
                46.89319699981847
              ],
              [
                -117.35520700018674,
                46.8934550002608
              ],
              [
                -117.35519999961572,
                46.89353399977205
              ],
              [
                -117.35522100043043,
                46.89441899984806
              ],
              [
                -117.35524599964646,
                46.89615800028082
              ],
              [
                -117.35526099971509,
                46.8968860001024
              ],
              [
                -117.35525999989017,
                46.89715299992912
              ],
              [
                -117.35507300029242,
                46.8971609999471
              ],
              [
                -117.3503409996675,
                46.89720199994374
              ],
              [
                -117.35019000005477,
                46.89720299986841
              ],
              [
                -117.35019099987967,
                46.897225999972164
              ],
              [
                -117.35016199956735,
                46.89776500000572
              ],
              [
                -117.34881800042638,
                46.8982710002301
              ],
              [
                -117.34761999997696,
                46.89885100015743
              ],
              [
                -117.34649900041875,
                46.89929399982863
              ],
              [
                -117.34643400012142,
                46.89737199976011
              ],
              [
                -117.33926200001335,
                46.89740399969412
              ],
              [
                -117.33925399961743,
                46.90115900029703
              ],
              [
                -117.33398100029072,
                46.90495699976044
              ],
              [
                -117.33376799985541,
                46.90474499993884
              ],
              [
                -117.33368699966454,
                46.90463099989077
              ],
              [
                -117.33356000034124,
                46.90450999985453
              ],
              [
                -117.33345999988381,
                46.90459000005112
              ],
              [
                -117.33246999984688,
                46.90513000009657
              ],
              [
                -117.33232000005904,
                46.90522000018905
              ],
              [
                -117.33201000043765,
                46.9053899997469
              ],
              [
                -117.33154000008436,
                46.90566000010264
              ],
              [
                -117.3312699997476,
                46.9058500002879
              ],
              [
                -117.33083999957731,
                46.90619999980302
              ],
              [
                -117.33082799988173,
                46.906207999698566
              ],
              [
                -117.33011099965623,
                46.906741999694376
              ],
              [
                -117.33026899984,
                46.906858000265856
              ],
              [
                -117.33100699998187,
                46.90723800006247
              ],
              [
                -117.3309099998975,
                46.90772199971413
              ],
              [
                -117.3304809995521,
                46.90795199998472
              ],
              [
                -117.33077299963014,
                46.90814400007913
              ],
              [
                -117.3302610003424,
                46.90852500029174
              ],
              [
                -117.32987999967756,
                46.908683999917805
              ],
              [
                -117.32983600019494,
                46.90831800028026
              ],
              [
                -117.32972099966891,
                46.90822000027174
              ],
              [
                -117.32927299995525,
                46.90783700027964
              ],
              [
                -117.3292219999016,
                46.90777999989144
              ],
              [
                -117.32904399962639,
                46.90762199976896
              ],
              [
                -117.32897000000656,
                46.907689999801086
              ],
              [
                -117.3288400003102,
                46.90777000016162
              ],
              [
                -117.32872999980705,
                46.907820000019484
              ],
              [
                -117.32856999997345,
                46.90788000015555
              ],
              [
                -117.32841000013993,
                46.90792000020893
              ],
              [
                -117.32833499979684,
                46.90794999992255
              ],
              [
                -117.32821400032132,
                46.91226199979546
              ],
              [
                -117.32694399990187,
                46.91212499993974
              ],
              [
                -117.32467900032091,
                46.9118850002039
              ],
              [
                -117.32395500042273,
                46.91180600011456
              ],
              [
                -117.31832300017253,
                46.910747999758925
              ],
              [
                -117.31832099962439,
                46.91283100029041
              ],
              [
                -117.31852900003686,
                46.913598000037005
              ],
              [
                -117.31855599980102,
                46.91551299997558
              ],
              [
                -117.31858599993824,
                46.917645999893736
              ],
              [
                -117.30880199991957,
                46.91763600016382
              ],
              [
                -117.30870200036048,
                46.919988999842
              ],
              [
                -117.30738900028331,
                46.92000999976165
              ],
              [
                -117.2981879996975,
                46.92015899980253
              ],
              [
                -117.29829800020067,
                46.92200800022574
              ],
              [
                -117.29835000007922,
                46.92280199972518
              ],
              [
                -117.29835599992701,
                46.922977999694645
              ],
              [
                -117.29834000003346,
                46.923849999743034
              ],
              [
                -117.29804999960525,
                46.923899999937525
              ],
              [
                -117.29777000012108,
                46.923980000028905
              ],
              [
                -117.29753999996733,
                46.92408000012855
              ],
              [
                -117.297370000088,
                46.924180000041524
              ],
              [
                -117.29725000043742,
                46.924279999767776
              ],
              [
                -117.29705999956829,
                46.92445999990906
              ],
              [
                -117.29694999996345,
                46.92460000021428
              ],
              [
                -117.2966799996267,
                46.92506000030639
              ],
              [
                -117.29628999963937,
                46.925920000179225
              ],
              [
                -117.29613999985153,
                46.92616000024771
              ],
              [
                -117.29589999965202,
                46.926510000260635
              ],
              [
                -117.29563000021358,
                46.92688999998157
              ],
              [
                -117.29533999978537,
                46.92726000030003
              ],
              [
                -117.2950600003012,
                46.9276600002398
              ],
              [
                -117.29492999970653,
                46.92787999994572
              ],
              [
                -117.29486000028466,
                46.92801999990158
              ],
              [
                -117.29458999994793,
                46.92867999984785
              ],
              [
                -117.29450999958198,
                46.928980000258086
              ],
              [
                -117.29450000043455,
                46.92913999987163
              ],
              [
                -117.29450999958198,
                46.929390000228054
              ],
              [
                -117.29454999976495,
                46.929710000208395
              ],
              [
                -117.29459999999366,
                46.93000999975727
              ],
              [
                -117.29459999999366,
                46.93060000018432
              ],
              [
                -117.29457999990218,
                46.930840000141224
              ],
              [
                -117.29453999971919,
                46.93104999998807
              ],
              [
                -117.29431999961118,
                46.931580000088175
              ],
              [
                -117.29414999973184,
                46.931859999921876
              ],
              [
                -117.29400999998978,
                46.93197000015707
              ],
              [
                -117.29384000011045,
                46.932070000063355
              ],
              [
                -117.2936300000482,
                46.93214000013198
              ],
              [
                -117.29405900039357,
                46.93212699976685
              ],
              [
                -117.2992980002834,
                46.93210700018991
              ],
              [
                -117.3018480002697,
                46.932175999711035
              ],
              [
                -117.30365900028924,
                46.93222600010862
              ],
              [
                -117.30819000017439,
                46.93234999978899
              ],
              [
                -117.30838299961994,
                46.93235800007512
              ],
              [
                -117.31153400037908,
                46.932327999916104
              ],
              [
                -117.31201899990268,
                46.932322999887965
              ],
              [
                -117.3139970003268,
                46.932306000034174
              ],
              [
                -117.31493100028726,
                46.9323019998874
              ],
              [
                -117.31797500001798,
                46.932288000291386
              ],
              [
                -117.31916199969842,
                46.932283000259524
              ],
              [
                -117.3192239996227,
                46.930416000143424
              ],
              [
                -117.31941500031671,
                46.924296999714976
              ],
              [
                -117.31944999957852,
                46.92132000027419
              ],
              [
                -117.31945399977647,
                46.92121400000272
              ],
              [
                -117.33075300043696,
                46.921123000291196
              ],
              [
                -117.33247599969467,
                46.92110999970623
              ],
              [
                -117.33339299993668,
                46.921101000101714
              ],
              [
                -117.3348230001897,
                46.9210909997895
              ],
              [
                -117.33496299993176,
                46.92108900021771
              ],
              [
                -117.33496100028195,
                46.92164499979346
              ],
              [
                -117.33493899964232,
                46.922430999837296
              ],
              [
                -117.33631600019189,
                46.9222719998877
              ],
              [
                -117.33672000042291,
                46.92227899976807
              ],
              [
                -117.33692700011217,
                46.92243899976444
              ],
              [
                -117.33693600033301,
                46.92274100028062
              ],
              [
                -117.33709899964131,
                46.923337000095174
              ],
              [
                -117.33699900008217,
                46.92374500022569
              ],
              [
                -117.33699999990709,
                46.92395899982476
              ],
              [
                -117.33721400016735,
                46.92428099980093
              ],
              [
                -117.33723599990864,
                46.92374600026882
              ],
              [
                -117.33782599991252,
                46.92243899976444
              ],
              [
                -117.33759999995672,
                46.92172099986104
              ],
              [
                -117.33767000027694,
                46.921591999698705
              ],
              [
                -117.33847799984068,
                46.921424000163086
              ],
              [
                -117.33874099960643,
                46.921562000258476
              ],
              [
                -117.33891399985879,
                46.92149899984556
              ],
              [
                -117.33877999996449,
                46.921382000196836
              ],
              [
                -117.33829299989277,
                46.92108499984671
              ],
              [
                -117.33806899958678,
                46.920861000069785
              ],
              [
                -117.33846500032023,
                46.92013400011284
              ],
              [
                -117.33684699974621,
                46.91964500027851
              ],
              [
                -117.33680699956327,
                46.919629000202264
              ],
              [
                -117.33661499994263,
                46.91952200014471
              ],
              [
                -117.33617700027472,
                46.91928600029459
              ],
              [
                -117.33604199965718,
                46.918885000276624
              ],
              [
                -117.33615100033546,
                46.91822600005567
              ],
              [
                -117.33662099979041,
                46.91771000008435
              ],
              [
                -117.33713999964918,
                46.917645999893736
              ],
              [
                -117.33725199980218,
                46.917633000305855
              ],
              [
                -117.33784299963098,
                46.917653999921754
              ],
              [
                -117.33891899988166,
                46.91767600029938
              ],
              [
                -117.33890399981303,
                46.9163839998485
              ],
              [
                -117.3387790001396,
                46.91604100003074
              ],
              [
                -117.33873399993372,
                46.9153179999053
              ],
              [
                -117.33867200000945,
                46.91477399979104
              ],
              [
                -117.33860099986434,
                46.914554000261134
              ],
              [
                -117.33847199999292,
                46.9142690002943
              ],
              [
                -117.33840400022086,
                46.91398500026433
              ],
              [
                -117.33825799973266,
                46.913689000256134
              ],
              [
                -117.33821500007498,
                46.913426999888294
              ],
              [
                -117.3382860002201,
                46.91318999995344
              ],
              [
                -117.33800699966251,
                46.91275900026507
              ],
              [
                -117.33791100030135,
                46.9124310000846
              ],
              [
                -117.3383659996877,
                46.911737999781266
              ],
              [
                -117.33871100036751,
                46.91158099993659
              ],
              [
                -117.33884899956146,
                46.9115149998607
              ],
              [
                -117.33915900008118,
                46.91140600023609
              ],
              [
                -117.33941900037219,
                46.91108499986817
              ],
              [
                -117.3403919997924,
                46.91007300024934
              ],
              [
                -117.34077400028211,
                46.90979500005628
              ],
              [
                -117.34128599956989,
                46.909421999695375
              ],
              [
                -117.34134599984434,
                46.909386000166506
              ],
              [
                -117.3413929997,
                46.90935800003889
              ],
              [
                -117.34210499990263,
                46.9089349997068
              ],
              [
                -117.34262399976137,
                46.90851000029109
              ],
              [
                -117.34460899985818,
                46.908526999718696
              ],
              [
                -117.34460700020837,
                46.906493999937275
              ],
              [
                -117.34460800003326,
                46.90605999990298
              ],
              [
                -117.34460499966023,
                46.90561700028704
              ],
              [
                -117.34491299963179,
                46.905407000164
              ],
              [
                -117.345347999825,
                46.905166000028984
              ],
              [
                -117.34543099966564,
                46.90511999987239
              ],
              [
                -117.34551299968143,
                46.905080999962266
              ],
              [
                -117.34557600032893,
                46.905050999870454
              ],
              [
                -117.34565499997166,
                46.90501199991009
              ],
              [
                -117.34573799981234,
                46.90501100013104
              ],
              [
                -117.3459470000497,
                46.90500800018009
              ],
              [
                -117.34730199995964,
                46.90499799993315
              ],
              [
                -117.34734700016548,
                46.90499700015385
              ],
              [
                -117.34775999971905,
                46.904980000220434
              ],
              [
                -117.34774999967328,
                46.904800000306
              ],
              [
                -117.34775200022143,
                46.90476100016306
              ],
              [
                -117.34775999971905,
                46.904630000104625
              ],
              [
                -117.34780400009997,
                46.9044229997814
              ],
              [
                -117.34781999999349,
                46.90434999971695
              ],
              [
                -117.34789000031371,
                46.904179999929774
              ],
              [
                -117.34792600029871,
                46.904101000144884
              ],
              [
                -117.34795999973558,
                46.90402999985041
              ],
              [
                -117.34804000010153,
                46.903889999806836
              ],
              [
                -117.34813999966062,
                46.903759999877344
              ],
              [
                -117.34831000043826,
                46.9035800001628
              ],
              [
                -117.3484600002261,
                46.903450000095354
              ],
              [
                -117.34858999992242,
                46.90335000015945
              ],
              [
                -117.34894999977253,
                46.90314999972807
              ],
              [
                -117.34912999969761,
                46.9030699998376
              ],
              [
                -117.3493199996684,
                46.902979999818136
              ],
              [
                -117.34949999959346,
                46.90290999969856
              ],
              [
                -117.3495370003017,
                46.90290100010617
              ],
              [
                -117.3498899995808,
                46.90282000002422
              ],
              [
                -117.34999099986312,
                46.902803000014224
              ],
              [
                -117.35011700025984,
                46.902782000102754
              ],
              [
                -117.35011700025984,
                46.9027270001202
              ],
              [
                -117.35011899990964,
                46.90162300029975
              ],
              [
                -117.35011800008473,
                46.901016999800554
              ],
              [
                -117.35069899986779,
                46.901011999918865
              ],
              [
                -117.35057599984414,
                46.90107700018588
              ],
              [
                -117.35051499974477,
                46.90110700004651
              ],
              [
                -117.35070899991352,
                46.9012479998416
              ],
              [
                -117.35075800031734,
                46.901283999925745
              ],
              [
                -117.35105000039539,
                46.9014969997755
              ],
              [
                -117.35171400001909,
                46.90115600013053
              ],
              [
                -117.35201799979272,
                46.900999999832635
              ],
              [
                -117.35343299997712,
                46.9009879997437
              ],
              [
                -117.35349400007648,
                46.90099099991966
              ],
              [
                -117.35445599962603,
                46.90097799997446
              ],
              [
                -117.3545589995582,
                46.901103999877044
              ],
              [
                -117.35435299969389,
                46.901185999946904
              ],
              [
                -117.35454799968757,
                46.90142400002314
              ],
              [
                -117.3548950000172,
                46.9012849997743
              ],
              [
                -117.35496799981212,
                46.901256999711435
              ],
              [
                -117.354860999682,
                46.90112899985175
              ],
              [
                -117.3547410000314,
                46.900980000296705
              ],
              [
                -117.35594100013064,
                46.90096400017159
              ],
              [
                -117.35635500040743,
                46.90082400010055
              ],
              [
                -117.35676200011319,
                46.900650000125275
              ],
              [
                -117.35714000040498,
                46.900446999849585
              ],
              [
                -117.35720999982686,
                46.900408000222626
              ],
              [
                -117.35775999964777,
                46.90006099994762
              ],
              [
                -117.35795899983941,
                46.89990699989497
              ],
              [
                -117.35825400029049,
                46.89967499972188
              ],
              [
                -117.35868600011062,
                46.89925699974956
              ],
              [
                -117.35900900015083,
                46.898863000110836
              ],
              [
                -117.35905299963345,
                46.898809000299316
              ],
              [
                -117.35913100034955,
                46.89883500001079
              ],
              [
                -117.3593229999702,
                46.89889999984802
              ],
              [
                -117.35953200020755,
                46.89897000029285
              ],
              [
                -117.3595499997509,
                46.89897600025661
              ],
              [
                -117.3597459995695,
                46.89868200001672
              ],
              [
                -117.36039900022085,
                46.89758499980558
              ],
              [
                -117.36092999977521,
                46.89678099992357
              ],
              [
                -117.36137199964108,
                46.89607699983297
              ],
              [
                -117.36170700027513,
                46.895524000023904
              ],
              [
                -117.36199699980506,
                46.89476099995395
              ],
              [
                -117.36212499985159,
                46.89444299989433
              ],
              [
                -117.36217900027827,
                46.894180000003246
              ],
              [
                -117.36224500040049,
                46.89386600012924
              ],
              [
                -117.36257599993829,
                46.893109999803514
              ],
              [
                -117.36283500040435,
                46.89261800013227
              ],
              [
                -117.36303500042092,
                46.89223799983729
              ],
              [
                -117.363323000301,
                46.891855999870515
              ],
              [
                -117.36344100030179,
                46.891700000139814
              ],
              [
                -117.36369999986957,
                46.891334999992566
              ],
              [
                -117.36393800041925,
                46.891074999709865
              ],
              [
                -117.36422899977406,
                46.890928999966604
              ],
              [
                -117.36480399970934,
                46.890735000130114
              ],
              [
                -117.36519799989465,
                46.890647999804635
              ],
              [
                -117.3652749998875,
                46.8906310002326
              ],
              [
                -117.36590300042455,
                46.89060400017904
              ],
              [
                -117.3663979999939,
                46.89060699970814
              ],
              [
                -117.36648199965948,
                46.89060699970814
              ],
              [
                -117.36656000037557,
                46.89062900013814
              ],
              [
                -117.36677999958529,
                46.890688999869745
              ],
              [
                -117.3675179997272,
                46.890890000169726
              ],
              [
                -117.36866199974993,
                46.89121299999327
              ],
              [
                -117.36954999967963,
                46.891705000275934
              ],
              [
                -117.36999999994143,
                46.891983999767135
              ],
              [
                -117.37034700027105,
                46.892197999746536
              ],
              [
                -117.3705959997931,
                46.89235199984016
              ],
              [
                -117.37063400032623,
                46.89223499978547
              ],
              [
                -117.37066299974023,
                46.89214700003262
              ],
              [
                -117.37085100006122,
                46.8921449999947
              ],
              [
                -117.37135800022442,
                46.89213799986141
              ],
              [
                -117.3715759997843,
                46.89213799986141
              ],
              [
                -117.37241699985836,
                46.892129999707954
              ],
              [
                -117.37287899981571,
                46.89212500022531
              ],
              [
                -117.37293099969428,
                46.89212600024465
              ],
              [
                -117.37387300005064,
                46.89211500003088
              ],
              [
                -117.37396599993708,
                46.891719000040766
              ],
              [
                -117.37306799996162,
                46.89172899969515
              ],
              [
                -117.37075800017482,
                46.891751000278745
              ],
              [
                -117.37083900036568,
                46.8914530002009
              ],
              [
                -117.37090899978757,
                46.89118899972925
              ],
              [
                -117.37097599973471,
                46.890940999851175
              ],
              [
                -117.37098999997839,
                46.89093999980973
              ],
              [
                -117.37102000011564,
                46.89093999980973
              ],
              [
                -117.37110999962901,
                46.89093999980973
              ],
              [
                -117.37113999976621,
                46.89093999980973
              ],
              [
                -117.3715470003703,
                46.890932000091446
              ],
              [
                -117.37216999998617,
                46.89092000020486
              ],
              [
                -117.37277000003579,
                46.89089699985203
              ],
              [
                -117.37317799956648,
                46.89088299987263
              ],
              [
                -117.37324600023685,
                46.89087999974501
              ],
              [
                -117.37327499965085,
                46.89142399988243
              ],
              [
                -117.37387300005064,
                46.89139700022803
              ],
              [
                -117.37522499958754,
                46.89133600002664
              ],
              [
                -117.3757419997965,
                46.89132799975355
              ],
              [
                -117.37607700043056,
                46.89132200016183
              ],
              [
                -117.37616799976882,
                46.8914009997457
              ],
              [
                -117.37643999975539,
                46.89149699974389
              ],
              [
                -117.37656799980194,
                46.89152700005341
              ],
              [
                -117.37656299977904,
                46.891683999701
              ],
              [
                -117.37658500041867,
                46.89344700030376
              ],
              [
                -117.3842320000046,
                46.893436999741986
              ],
              [
                -117.38667800023383,
                46.8943000000482
              ],
              [
                -117.3883720000775,
                46.894266000144576
              ]
            ],
            [
              [
                -117.37336000003967,
                46.881100000157986
              ],
              [
                -117.37339000017688,
                46.881399999863774
              ],
              [
                -117.37316699969581,
                46.881419999948285
              ],
              [
                -117.3730599995657,
                46.881430000294706
              ],
              [
                -117.37275999999005,
                46.88148000015698
              ],
              [
                -117.37250600044514,
                46.88153199979239
              ],
              [
                -117.3723700000027,
                46.88155999971686
              ],
              [
                -117.37234999991121,
                46.88156500018428
              ],
              [
                -117.37234700043649,
                46.88091600021257
              ],
              [
                -117.37242899955395,
                46.88090099985548
              ],
              [
                -117.37331099963585,
                46.88074099987919
              ],
              [
                -117.37332999990244,
                46.88075999997812
              ],
              [
                -117.37334999999393,
                46.88080999985072
              ],
              [
                -117.37335800038983,
                46.881053000005004
              ],
              [
                -117.37336000003967,
                46.881100000157986
              ]
            ],
            [
              [
                -117.36226700014181,
                46.8812079997787
              ],
              [
                -117.36199500015523,
                46.88584800012931
              ],
              [
                -117.36109200015692,
                46.885867000261456
              ],
              [
                -117.36042099996217,
                46.88588900017988
              ],
              [
                -117.36119599991399,
                46.88492699984003
              ],
              [
                -117.36122100002834,
                46.88302099993116
              ],
              [
                -117.36122100002834,
                46.88280899994798
              ],
              [
                -117.36123100007407,
                46.88238000014742
              ],
              [
                -117.36122799970104,
                46.88131399996821
              ],
              [
                -117.35995499980687,
                46.881218999773324
              ],
              [
                -117.36004199984549,
                46.88115700005313
              ],
              [
                -117.36022000012073,
                46.88103400000988
              ],
              [
                -117.36034099959622,
                46.88094999998304
              ],
              [
                -117.36051899987147,
                46.88082700007927
              ],
              [
                -117.36051800004655,
                46.880868999898404
              ],
              [
                -117.36051700022166,
                46.881097999708125
              ],
              [
                -117.36226700014181,
                46.8812079997787
              ]
            ]
          ],
          [
            [
              [
                -117.28487600024945,
                46.93068899992059
              ],
              [
                -117.2848600003559,
                46.930681999912245
              ],
              [
                -117.28262500001385,
                46.92978699980715
              ],
              [
                -117.28264500010535,
                46.9292920001047
              ],
              [
                -117.27911099992986,
                46.929309000301714
              ],
              [
                -117.27910400025716,
                46.92940399996812
              ],
              [
                -117.27909699968615,
                46.92951800008154
              ],
              [
                -117.27909099983837,
                46.929599000305245
              ],
              [
                -117.27908900018853,
                46.92984200024147
              ],
              [
                -117.28002399997392,
                46.92984400010004
              ],
              [
                -117.28261400014321,
                46.92984799981699
              ],
              [
                -117.28359300030952,
                46.930245000295464
              ],
              [
                -117.28457900014851,
                46.93064400011379
              ],
              [
                -117.28477800034015,
                46.93072399994873
              ],
              [
                -117.28483000021866,
                46.9307599998661
              ],
              [
                -117.2848369998914,
                46.93074900021766
              ],
              [
                -117.28487600024945,
                46.93068899992059
              ]
            ]
          ],
          [
            [
              [
                -117.34699200033825,
                46.87100899986548
              ],
              [
                -117.34697399989659,
                46.87068500017845
              ],
              [
                -117.34637399984695,
                46.87069599987385
              ],
              [
                -117.34638899991558,
                46.871023999917355
              ],
              [
                -117.34699200033825,
                46.87100899986548
              ]
            ]
          ]
        ]
      },
      "properties": {
        "AREALAND": "9798059",
        "AREAWATER": "5684",
        "BASENAME": "Colfax",
        "CBSAPCI": "N",
        "CENTLAT": "+46.9028398",
        "CENTLON": "-117.3400951",
        "FUNCSTAT": "A",
        "GEOID": "5313785",
        "INTPTLAT": "+46.9108389",
        "INTPTLON": "-117.3289628",
        "LSADC": "25",
        "MTFCC": "G4110",
        "NAME": "Colfax city",
        "NECTAPCI": "N",
        "OBJECTID": 22829,
        "OID": "27890256943245",
        "PLACE": "13785",
        "PLACECC": "C1",
        "PLACENS": "02410191",
        "STATE": "53",
        "DISP_CLR": 4,
        "slug": "colfax",
        "jurisdiction_key": "colfax_city",
        "county_fips": [
          "53075"
        ]
      }
    }
  ]
}
