{
  "type": "FeatureCollection",
  "features": [
    {
      "type": "Feature",
      "geometry": {
        "type": "MultiPolygon",
        "coordinates": [
          [
            [
              [
                -118.43014900043552,
                46.04201300029678
              ],
              [
                -118.42495400002832,
                46.04198600002818
              ],
              [
                -118.4239099995647,
                46.04198899992011
              ],
              [
                -118.42356999980606,
                46.04199100026367
              ],
              [
                -118.42321800035188,
                46.041991999811884
              ],
              [
                -118.42269600012006,
                46.04199400015533
              ],
              [
                -118.42197800006966,
                46.04199400015533
              ],
              [
                -118.42145500001294,
                46.04199499970344
              ],
              [
                -118.42062099961159,
                46.0419929999836
              ],
              [
                -118.41526500044422,
                46.042020999796456
              ],
              [
                -118.409449000071,
                46.04206099977172
              ],
              [
                -118.40432399998399,
                46.04205699971317
              ],
              [
                -118.40418099986887,
                46.04399100017849
              ],
              [
                -118.40417199964804,
                46.044126000231365
              ],
              [
                -118.40368499957633,
                46.04426599998393
              ],
              [
                -118.40339000002355,
                46.04449399997953
              ],
              [
                -118.4027480001411,
                46.044407000133255
              ],
              [
                -118.40267500034618,
                46.04441200014962
              ],
              [
                -118.40141499997247,
                46.044503999996074
              ],
              [
                -118.4014169996223,
                46.04402099987235
              ],
              [
                -118.4014219996452,
                46.04317200031033
              ],
              [
                -118.40005599986456,
                46.04317000000948
              ],
              [
                -118.39951699991434,
                46.04316899985908
              ],
              [
                -118.39942200037807,
                46.043167999708615
              ],
              [
                -118.39913899962255,
                46.043167999708615
              ],
              [
                -118.3990449999112,
                46.043167999708615
              ],
              [
                -118.39896600026849,
                46.04317100015991
              ],
              [
                -118.39879300001616,
                46.04317799996519
              ],
              [
                -118.39857100025827,
                46.043188000219985
              ],
              [
                -118.39839299998305,
                46.04321300022542
              ],
              [
                -118.39826999995941,
                46.043263000202444
              ],
              [
                -118.39810699975278,
                46.04341000004723
              ],
              [
                -118.39792199980485,
                46.043580000300516
              ],
              [
                -118.39770500006989,
                46.043778000200184
              ],
              [
                -118.39769000000129,
                46.04378600006784
              ],
              [
                -118.3976349997497,
                46.04381900028908
              ],
              [
                -118.39753699984041,
                46.04386199999989
              ],
              [
                -118.39742600041063,
                46.04387700019563
              ],
              [
                -118.397339000372,
                46.04389000011256
              ],
              [
                -118.39677699995723,
                46.04388600018643
              ],
              [
                -118.39646700033583,
                46.043885000048945
              ],
              [
                -118.39629200043363,
                46.04388399991149
              ],
              [
                -118.39610499993756,
                46.04388299977396
              ],
              [
                -118.3961140001584,
                46.04311099983279
              ],
              [
                -118.39625200025066,
                46.04311000030482
              ],
              [
                -118.3962560004486,
                46.04273999975068
              ],
              [
                -118.39723700026472,
                46.04205900005426
              ],
              [
                -118.39741299999181,
                46.042057999883696
              ],
              [
                -118.39771900031357,
                46.041846000109736
              ],
              [
                -118.3990440000863,
                46.04092299979868
              ],
              [
                -118.39904300026141,
                46.04031200000746
              ],
              [
                -118.39904699956104,
                46.040135999690825
              ],
              [
                -118.39906199962965,
                46.039610000171855
              ],
              [
                -118.39906599982763,
                46.039457000135165
              ],
              [
                -118.3982709997843,
                46.03993799983366
              ],
              [
                -118.39762100040429,
                46.04033400008561
              ],
              [
                -118.39745700037277,
                46.040093999780424
              ],
              [
                -118.39698199999663,
                46.039397000139616
              ],
              [
                -118.39693799961567,
                46.03931899986091
              ],
              [
                -118.39680299989645,
                46.0393389998949
              ],
              [
                -118.39671300038312,
                46.039377999722085
              ],
              [
                -118.3967200000558,
                46.03932999978696
              ],
              [
                -118.39674400034524,
                46.03915100003787
              ],
              [
                -118.39676199988858,
                46.039016000299895
              ],
              [
                -118.39669699959127,
                46.0388240002984
              ],
              [
                -118.39654900035157,
                46.03838500025024
              ],
              [
                -118.39654099995565,
                46.038358999693415
              ],
              [
                -118.39646599961259,
                46.038076999966975
              ],
              [
                -118.39644200022146,
                46.037760000097556
              ],
              [
                -118.39637600009921,
                46.03757899974796
              ],
              [
                -118.3959819999139,
                46.036567999883154
              ],
              [
                -118.39576400035402,
                46.035996999952054
              ],
              [
                -118.3957009997065,
                46.03583499983534
              ],
              [
                -118.39552099978147,
                46.03594200010041
              ],
              [
                -118.39532199958983,
                46.03611800005663
              ],
              [
                -118.39501000031862,
                46.03631200003209
              ],
              [
                -118.39431200035969,
                46.03663499984324
              ],
              [
                -118.39414800032819,
                46.03648100002784
              ],
              [
                -118.39358400026354,
                46.036835000218176
              ],
              [
                -118.39323699993393,
                46.03690199985454
              ],
              [
                -118.39273599961848,
                46.03699899979843
              ],
              [
                -118.3923559996769,
                46.037091999777616
              ],
              [
                -118.39222099995767,
                46.037123999995764
              ],
              [
                -118.39192800005473,
                46.037221000173574
              ],
              [
                -118.39178999996248,
                46.03726500028808
              ],
              [
                -118.39151499960286,
                46.03692900011318
              ],
              [
                -118.3910660000643,
                46.036440999754504
              ],
              [
                -118.39081199962105,
                46.03620400020696
              ],
              [
                -118.39058300019053,
                46.0360429997293
              ],
              [
                -118.3904259998317,
                46.035964999704895
              ],
              [
                -118.39002800034676,
                46.03583699977811
              ],
              [
                -118.38963800035941,
                46.03576800015254
              ],
              [
                -118.38920999983891,
                46.03572799998672
              ],
              [
                -118.38860999978928,
                46.035716000305506
              ],
              [
                -118.38862900005586,
                46.03533699999032
              ],
              [
                -118.38863300025383,
                46.03527699988637
              ],
              [
                -118.38863599972858,
                46.03519100016429
              ],
              [
                -118.38864300029957,
                46.03493900012091
              ],
              [
                -118.38864699959923,
                46.03485299987282
              ],
              [
                -118.3886809999344,
                46.03485200019546
              ],
              [
                -118.38878700023962,
                46.03484899991603
              ],
              [
                -118.38882200039971,
                46.03484899991603
              ],
              [
                -118.38903599976166,
                46.03484499995894
              ],
              [
                -118.38960599967403,
                46.034827999826355
              ],
              [
                -118.39025000010461,
                46.03480899970863
              ],
              [
                -118.39055399987821,
                46.034806999728694
              ],
              [
                -118.39077099961318,
                46.034806999728694
              ],
              [
                -118.39195900001687,
                46.03481000001041
              ],
              [
                -118.39274400001443,
                46.03481300029196
              ],
              [
                -118.39350800009558,
                46.03481300029196
              ],
              [
                -118.39580299981378,
                46.034815999949714
              ],
              [
                -118.39656799971984,
                46.03481700025132
              ],
              [
                -118.39779399975835,
                46.03481700025132
              ],
              [
                -118.39807300031592,
                46.034806999728694
              ],
              [
                -118.39825300024096,
                46.03480200009031
              ],
              [
                -118.39874600016047,
                46.03474299970848
              ],
              [
                -118.39911000020855,
                46.03466899969019
              ],
              [
                -118.39952100011229,
                46.034552000133246
              ],
              [
                -118.40164500012624,
                46.03380300003263
              ],
              [
                -118.40163699973034,
                46.03308100002695
              ],
              [
                -118.4015720003313,
                46.03236799993977
              ],
              [
                -118.40117800014602,
                46.032367000217455
              ],
              [
                -118.40117899997094,
                46.03127099995034
              ],
              [
                -118.40117999979583,
                46.03116100014029
              ],
              [
                -118.40154499966883,
                46.03107599999539
              ],
              [
                -118.40193200018142,
                46.03105800020472
              ],
              [
                -118.40208199996927,
                46.03109599989448
              ],
              [
                -118.40217800022874,
                46.03113999989651
              ],
              [
                -118.40236200035176,
                46.03115900002833
              ],
              [
                -118.40253999972866,
                46.03113200006887
              ],
              [
                -118.40261599989664,
                46.03108300008563
              ],
              [
                -118.4024939996979,
                46.03090700030952
              ],
              [
                -118.40253399988087,
                46.03089699970299
              ],
              [
                -118.40257900008672,
                46.03087599998259
              ],
              [
                -118.40261000004885,
                46.03084899988488
              ],
              [
                -118.4026970000875,
                46.03077699976772
              ],
              [
                -118.40278400012613,
                46.030672999987274
              ],
              [
                -118.40288600023338,
                46.030602000018774
              ],
              [
                -118.40299599983823,
                46.03054699978722
              ],
              [
                -118.40311499966391,
                46.03050899972001
              ],
              [
                -118.40331899987841,
                46.03046499983934
              ],
              [
                -118.4034369998792,
                46.030415999888454
              ],
              [
                -118.40352399991784,
                46.03037699997286
              ],
              [
                -118.40365799981214,
                46.03035000025507
              ],
              [
                -118.40392999979872,
                46.03032700018479
              ],
              [
                -118.40409100035552,
                46.03032799994401
              ],
              [
                -118.40419400028767,
                46.0303220001411
              ],
              [
                -118.4043039998925,
                46.03030600024782
              ],
              [
                -118.4043449999004,
                46.030280000255395
              ],
              [
                -118.4043459997253,
                46.03023900009859
              ],
              [
                -118.40438699973319,
                46.02810699993108
              ],
              [
                -118.40450200025923,
                46.02810600013169
              ],
              [
                -118.40628499979135,
                46.02810799973045
              ],
              [
                -118.4063879997235,
                46.02810900015348
              ],
              [
                -118.4063879997235,
                46.02801600002598
              ],
              [
                -118.4063819998757,
                46.02702700023723
              ],
              [
                -118.40638100005081,
                46.02687999984283
              ],
              [
                -118.40613099980555,
                46.0268720000223
              ],
              [
                -118.40440400034993,
                46.026840000104905
              ],
              [
                -118.40439900032706,
                46.02740300009946
              ],
              [
                -118.40439900032706,
                46.02751399971414
              ],
              [
                -118.39921499979053,
                46.027508000229496
              ],
              [
                -118.39922700038443,
                46.02665600006431
              ],
              [
                -118.39780899982695,
                46.026630000226135
              ],
              [
                -118.397303000387,
                46.026565000265336
              ],
              [
                -118.39498199983119,
                46.026562000159764
              ],
              [
                -118.39450499980524,
                46.02654199986752
              ],
              [
                -118.39418000011521,
                46.02660100027229
              ],
              [
                -118.39367200012713,
                46.02665799971552
              ],
              [
                -118.39274999986222,
                46.02667099994144
              ],
              [
                -118.3889060000653,
                46.026623000195656
              ],
              [
                -118.38877100034611,
                46.02663700025574
              ],
              [
                -118.38874200003376,
                46.02745999996311
              ],
              [
                -118.38874299985869,
                46.027528000172275
              ],
              [
                -118.38862099965993,
                46.02751999982179
              ],
              [
                -118.38824300026648,
                46.027521000255504
              ],
              [
                -118.38797600030279,
                46.027521000255504
              ],
              [
                -118.38777499956304,
                46.027516999768046
              ],
              [
                -118.38757399972157,
                46.02751500014791
              ],
              [
                -118.38740300001736,
                46.02751299990402
              ],
              [
                -118.3872230000923,
                46.02751299990402
              ],
              [
                -118.38721999971924,
                46.027676999705136
              ],
              [
                -118.38721800006944,
                46.0278510001792
              ],
              [
                -118.3866180000198,
                46.0283289998524
              ],
              [
                -118.38600799992443,
                46.02872000015851
              ],
              [
                -118.38561700011219,
                46.02894599987325
              ],
              [
                -118.38513500006334,
                46.02922099971769
              ],
              [
                -118.38352300023546,
                46.0301299998685
              ],
              [
                -118.38244899963459,
                46.03069200027963
              ],
              [
                -118.38195300024034,
                46.030972000153916
              ],
              [
                -118.38154700035948,
                46.03120099986973
              ],
              [
                -118.38136200041157,
                46.03118699971828
              ],
              [
                -118.38113899993047,
                46.03117399993079
              ],
              [
                -118.38089299988319,
                46.03116100014029
              ],
              [
                -118.37846099989764,
                46.03116600010808
              ],
              [
                -118.37758899986144,
                46.03118300011983
              ],
              [
                -118.37495100001158,
                46.031171999819314
              ],
              [
                -118.37395400030192,
                46.03116800021977
              ],
              [
                -118.37364600033037,
                46.03116699985212
              ],
              [
                -118.37296400026499,
                46.03116399999626
              ],
              [
                -118.37296400026499,
                46.03129000003708
              ],
              [
                -118.37296300044007,
                46.03146700020323
              ],
              [
                -118.37296400026499,
                46.031751000074614
              ],
              [
                -118.37296500008988,
                46.03218000006458
              ],
              [
                -118.37296599991477,
                46.03246800014356
              ],
              [
                -118.37296500008988,
                46.03251999992861
              ],
              [
                -118.37297299958749,
                46.03284799989157
              ],
              [
                -118.37296799956461,
                46.03299200024909
              ],
              [
                -118.3734809995756,
                46.0329900002034
              ],
              [
                -118.3734809995756,
                46.03379699998335
              ],
              [
                -118.3729580004172,
                46.033788999916645
              ],
              [
                -118.37296300044007,
                46.03361599974949
              ],
              [
                -118.37181500021934,
                46.0336210001188
              ],
              [
                -118.37183100011288,
                46.03487900020846
              ],
              [
                -118.37177599986128,
                46.03487799990798
              ],
              [
                -118.37161100000486,
                46.03487799990798
              ],
              [
                -118.37155699957817,
                46.03487799990798
              ],
              [
                -118.37097699962004,
                46.03487599993055
              ],
              [
                -118.37073099957271,
                46.0348750002536
              ],
              [
                -118.37067700004437,
                46.0348750002536
              ],
              [
                -118.37005500025346,
                46.03487300027601
              ],
              [
                -118.36939400010446,
                46.03486999999772
              ],
              [
                -118.36926400040811,
                46.03487700023107
              ],
              [
                -118.36923799957053,
                46.03487799990798
              ],
              [
                -118.36897700035296,
                46.03489300004836
              ],
              [
                -118.36866400035848,
                46.03494799969682
              ],
              [
                -118.36846299961873,
                46.035004000212396
              ],
              [
                -118.36831899967866,
                46.03504699992386
              ],
              [
                -118.36817700028676,
                46.03510700027748
              ],
              [
                -118.36798800014088,
                46.035187000231964
              ],
              [
                -118.36788799968346,
                46.0352420002114
              ],
              [
                -118.36770699993349,
                46.03534499983293
              ],
              [
                -118.36770699993349,
                46.035368000309525
              ],
              [
                -118.36770699993349,
                46.03543800010127
              ],
              [
                -118.36770699993349,
                46.03546200020546
              ],
              [
                -118.36770699993349,
                46.03565700027587
              ],
              [
                -118.36770699993349,
                46.035969999861656
              ],
              [
                -118.36770699993349,
                46.036245000303985
              ],
              [
                -118.36770799975841,
                46.036440999754504
              ],
              [
                -118.36770799975841,
                46.03657800008709
              ],
              [
                -118.36770799975841,
                46.036989999932956
              ],
              [
                -118.36770799975841,
                46.037127999787884
              ],
              [
                -118.36771399960618,
                46.03818300001527
              ],
              [
                -118.36771000030654,
                46.0387239997476
              ],
              [
                -118.36770899958331,
                46.03887000021666
              ],
              [
                -118.36768799966691,
                46.0388780001714
              ],
              [
                -118.36749799969611,
                46.03898299970407
              ],
              [
                -118.36687199970723,
                46.039327999970645
              ],
              [
                -118.36394599997728,
                46.04094400006638
              ],
              [
                -118.36381600028092,
                46.04101300008796
              ],
              [
                -118.36310300025339,
                46.041400999905996
              ],
              [
                -118.3630050003441,
                46.04145300001526
              ],
              [
                -118.36296400033623,
                46.04147400008147
              ],
              [
                -118.3628420001375,
                46.04153899996865
              ],
              [
                -118.36280199995453,
                46.04156100018175
              ],
              [
                -118.36300100014616,
                46.04172399990043
              ],
              [
                -118.36331900016349,
                46.04198400030796
              ],
              [
                -118.36356600003569,
                46.04225200020528
              ],
              [
                -118.36367800018867,
                46.04237399987218
              ],
              [
                -118.3637379995648,
                46.042445999845654
              ],
              [
                -118.363848000068,
                46.04257900023399
              ],
              [
                -118.36405499975723,
                46.042830000197775
              ],
              [
                -118.36417500030613,
                46.04298300024728
              ],
              [
                -118.36428200043628,
                46.04311999994834
              ],
              [
                -118.36430099980451,
                46.043143999833696
              ],
              [
                -118.36435900042915,
                46.043217999726366
              ],
              [
                -118.3643789996223,
                46.04324299971822
              ],
              [
                -118.3644049995616,
                46.043280999759055
              ],
              [
                -118.36443399987391,
                46.04332900000299
              ],
              [
                -118.3644840001026,
                46.04341299986185
              ],
              [
                -118.36459799990543,
                46.043592000144606
              ],
              [
                -118.36465399998193,
                46.04367900002729
              ],
              [
                -118.3647300001499,
                46.04379699972811
              ],
              [
                -118.3648139998155,
                46.043910999876054
              ],
              [
                -118.36487699956469,
                46.04399600023251
              ],
              [
                -118.36520499962776,
                46.044407000133255
              ],
              [
                -118.36533100002443,
                46.04458099968876
              ],
              [
                -118.36535799978864,
                46.04461799993212
              ],
              [
                -118.36544200035252,
                46.04472700026903
              ],
              [
                -118.36549900025393,
                46.044808000134125
              ],
              [
                -118.36550799957644,
                46.04482099983199
              ],
              [
                -118.36559399979018,
                46.0449349997374
              ],
              [
                -118.3656570004377,
                46.045017000038015
              ],
              [
                -118.36568599985169,
                46.04506200029576
              ],
              [
                -118.36576899969235,
                46.04518600022046
              ],
              [
                -118.3662480002665,
                46.045826000213275
              ],
              [
                -118.36643800023727,
                46.04608000005876
              ],
              [
                -118.36664900012447,
                46.04636300018278
              ],
              [
                -118.3671289996252,
                46.04700499979488
              ],
              [
                -118.36728099996115,
                46.047216999723695
              ],
              [
                -118.3673200003192,
                46.047271000122564
              ],
              [
                -118.36749299967325,
                46.047534000202155
              ],
              [
                -118.36771299978129,
                46.04749000015991
              ],
              [
                -118.36814700014955,
                46.04740199997027
              ],
              [
                -118.36840999991529,
                46.04731200011307
              ],
              [
                -118.36860300025911,
                46.04724700015965
              ],
              [
                -118.36895100041366,
                46.04712800026732
              ],
              [
                -118.36956599963361,
                46.04691900024468
              ],
              [
                -118.3698050000082,
                46.04671100014107
              ],
              [
                -118.36996800021481,
                46.04657000026091
              ],
              [
                -118.37028399968399,
                46.04671399977643
              ],
              [
                -118.37077999997653,
                46.04672400001463
              ],
              [
                -118.3712429997588,
                46.046552999994574
              ],
              [
                -118.37133800019339,
                46.04637899979174
              ],
              [
                -118.37141500018626,
                46.04623700021626
              ],
              [
                -118.37269800012618,
                46.04623600012138
              ],
              [
                -118.37313099977123,
                46.04623500002644
              ],
              [
                -118.37356500013951,
                46.04623500002644
              ],
              [
                -118.37356299959137,
                46.04677899973353
              ],
              [
                -118.37356199976645,
                46.047328000070664
              ],
              [
                -118.37356000011663,
                46.04786200020626
              ],
              [
                -118.37356000011663,
                46.0480190002869
              ],
              [
                -118.37356000011663,
                46.048122999844445
              ],
              [
                -118.37314099981697,
                46.04797999970092
              ],
              [
                -118.37311700042586,
                46.04797999970092
              ],
              [
                -118.37292300025709,
                46.047979000261094
              ],
              [
                -118.372375000086,
                46.04803399997738
              ],
              [
                -118.37217000004658,
                46.04805399997401
              ],
              [
                -118.37206200009157,
                46.04806399996961
              ],
              [
                -118.37196699965699,
                46.048176999981095
              ],
              [
                -118.37179599995277,
                46.04838200000776
              ],
              [
                -118.37148899980612,
                46.04838200000776
              ],
              [
                -118.37130800005615,
                46.048209000014076
              ],
              [
                -118.37085100012168,
                46.048112999859526
              ],
              [
                -118.37054899999787,
                46.048103999933915
              ],
              [
                -118.370030999964,
                46.04803299991504
              ],
              [
                -118.37000699967456,
                46.048029000288835
              ],
              [
                -118.36926699988287,
                46.048284000038244
              ],
              [
                -118.36891000040579,
                46.048407000156615
              ],
              [
                -118.36860999993182,
                46.048453000201526
              ],
              [
                -118.36856700027411,
                46.048453000201526
              ],
              [
                -118.36846199979381,
                46.048454000256264
              ],
              [
                -118.36801499990507,
                46.048452000146725
              ],
              [
                -118.36806299958563,
                46.048534000214495
              ],
              [
                -118.36820800024893,
                46.0487579998553
              ],
              [
                -118.36826799962506,
                46.04884999994559
              ],
              [
                -118.36878499983402,
                46.04952699995669
              ],
              [
                -118.36897999982769,
                46.04978200027202
              ],
              [
                -118.36899099969833,
                46.04979700010722
              ],
              [
                -118.36902699968333,
                46.049844000271015
              ],
              [
                -118.36904000010215,
                46.049860000118706
              ],
              [
                -118.36913200016365,
                46.04997999976365
              ],
              [
                -118.36946199987652,
                46.050429000143644
              ],
              [
                -118.36957200037968,
                46.0505780002796
              ],
              [
                -118.37040599988275,
                46.05169099972631
              ],
              [
                -118.370728000098,
                46.05212000014864
              ],
              [
                -118.37073800014375,
                46.05213200000792
              ],
              [
                -118.3710729998795,
                46.052538999925346
              ],
              [
                -118.37118099983454,
                46.052686000023705
              ],
              [
                -118.37124399958373,
                46.0527809997349
              ],
              [
                -118.37139900029274,
                46.05299000002064
              ],
              [
                -118.37147100026277,
                46.05309000031011
              ],
              [
                -118.37159099991335,
                46.05325700017162
              ],
              [
                -118.37249399991168,
                46.054311999757225
              ],
              [
                -118.37252400004893,
                46.05435300013204
              ],
              [
                -118.3726439996995,
                46.05433299992261
              ],
              [
                -118.3729969998769,
                46.05427499977303
              ],
              [
                -118.37337599999361,
                46.0542129997607
              ],
              [
                -118.37337299962057,
                46.054571000199516
              ],
              [
                -118.37306499964902,
                46.05456900031148
              ],
              [
                -118.37273800030916,
                46.05463299980987
              ],
              [
                -118.37302299981623,
                46.055020000037665
              ],
              [
                -118.37329999982563,
                46.05539399972349
              ],
              [
                -118.37371499992733,
                46.05594700013798
              ],
              [
                -118.37388700035476,
                46.05617699975073
              ],
              [
                -118.37417699988468,
                46.05656199994001
              ],
              [
                -118.3741979998011,
                46.056589999849116
              ],
              [
                -118.3742050003721,
                46.05660100007663
              ],
              [
                -118.37428800021276,
                46.056721000036525
              ],
              [
                -118.37431599980187,
                46.05676099996518
              ],
              [
                -118.37432300037287,
                46.05677399996693
              ],
              [
                -118.374346999764,
                46.05681499976059
              ],
              [
                -118.37437799972614,
                46.05687000002899
              ],
              [
                -118.37273400011121,
                46.0571999998654
              ],
              [
                -118.37266600033915,
                46.05721400028332
              ],
              [
                -118.37255699966087,
                46.057223999867254
              ],
              [
                -118.3724670001475,
                46.05724400027639
              ],
              [
                -118.37234699959859,
                46.05726800025912
              ],
              [
                -118.37235199962146,
                46.057317000087565
              ],
              [
                -118.37235800036754,
                46.0573640000857
              ],
              [
                -118.37236699969007,
                46.057543000043935
              ],
              [
                -118.37236500004026,
                46.05762000026185
              ],
              [
                -118.3723609998423,
                46.05806699985955
              ],
              [
                -118.37236699969007,
                46.05841899975589
              ],
              [
                -118.37236300039044,
                46.05860700012001
              ],
              [
                -118.3723609998423,
                46.05936700026702
              ],
              [
                -118.37235199962146,
                46.059767000276544
              ],
              [
                -118.37235099979654,
                46.059883000198504
              ],
              [
                -118.37235099979654,
                46.059961999962894
              ],
              [
                -118.37234999997165,
                46.060074000097956
              ],
              [
                -118.37234999997165,
                46.06017300018401
              ],
              [
                -118.37234999997165,
                46.06020900011459
              ],
              [
                -118.37236699969007,
                46.0602080002727
              ],
              [
                -118.37243199998741,
                46.0602080002727
              ],
              [
                -118.37261399956228,
                46.06020900011459
              ],
              [
                -118.37269499975315,
                46.0602080002727
              ],
              [
                -118.37289200029495,
                46.06020900011459
              ],
              [
                -118.37300699992267,
                46.06020999995651
              ],
              [
                -118.3730589998012,
                46.06021099979837
              ],
              [
                -118.37308899993845,
                46.06020999995651
              ],
              [
                -118.37328599958192,
                46.06021099979837
              ],
              [
                -118.37348200029884,
                46.06021099979837
              ],
              [
                -118.37368099959214,
                46.06021200026361
              ],
              [
                -118.37377400037688,
                46.06021200026361
              ],
              [
                -118.37390499989813,
                46.06021200026361
              ],
              [
                -118.37430900012919,
                46.06021499978907
              ],
              [
                -118.37491000000371,
                46.0602040002815
              ],
              [
                -118.37506399998951,
                46.06020900011459
              ],
              [
                -118.3751209998909,
                46.06020999995651
              ],
              [
                -118.37536600011326,
                46.060218999779515
              ],
              [
                -118.3753600002655,
                46.06005800009258
              ],
              [
                -118.37535500024264,
                46.05990499996278
              ],
              [
                -118.37535500024264,
                46.059883000198504
              ],
              [
                -118.37535600006755,
                46.05976099993003
              ],
              [
                -118.37535600006755,
                46.059742000282924
              ],
              [
                -118.37545700034987,
                46.05974300013326
              ],
              [
                -118.37550500003046,
                46.05974300013326
              ],
              [
                -118.37656000036475,
                46.05974800000814
              ],
              [
                -118.37656000036475,
                46.05964499975171
              ],
              [
                -118.37810199987246,
                46.05964600022716
              ],
              [
                -118.37810299969736,
                46.05979499980711
              ],
              [
                -118.37810100004754,
                46.05989500024104
              ],
              [
                -118.37809799967447,
                46.06022699975945
              ],
              [
                -118.37874299992995,
                46.060228000224356
              ],
              [
                -118.37879300015867,
                46.06022900006593
              ],
              [
                -118.37886199975564,
                46.06022900006593
              ],
              [
                -118.37886699977852,
                46.05929199970892
              ],
              [
                -118.37886699977852,
                46.05920400024565
              ],
              [
                -118.37818899991107,
                46.05920199990204
              ],
              [
                -118.37811000026836,
                46.05920199990204
              ],
              [
                -118.37811299974312,
                46.057349999705814
              ],
              [
                -118.37811399956801,
                46.05708300001872
              ],
              [
                -118.3778600000231,
                46.057079999699695
              ],
              [
                -118.37779700027392,
                46.057079999699695
              ],
              [
                -118.37780599959642,
                46.056491000196026
              ],
              [
                -118.37784999997737,
                46.05649200010527
              ],
              [
                -118.3779860004198,
                46.056493999923674
              ],
              [
                -118.37814799990318,
                46.05649599974199
              ],
              [
                -118.37824499998757,
                46.0564970002745
              ],
              [
                -118.37908900043466,
                46.05650899980613
              ],
              [
                -118.37909000025958,
                46.05608500002059
              ],
              [
                -118.37909000025958,
                46.055959999708016
              ],
              [
                -118.37909399955925,
                46.05586599977528
              ],
              [
                -118.37922199960576,
                46.05584099988558
              ],
              [
                -118.37945699978238,
                46.05579600030504
              ],
              [
                -118.37949000029266,
                46.055790000150346
              ],
              [
                -118.38237599983967,
                46.05523199975052
              ],
              [
                -118.38334999998308,
                46.05504399974022
              ],
              [
                -118.38353099973304,
                46.055008000182525
              ],
              [
                -118.38407499970619,
                46.05490299993586
              ],
              [
                -118.38425700017939,
                46.054869000163535
              ],
              [
                -118.38441700001295,
                46.05483700024863
              ],
              [
                -118.38489800023687,
                46.0547450001563
              ],
              [
                -118.38505899989534,
                46.054714000110984
              ],
              [
                -118.38539199998128,
                46.05464900014046
              ],
              [
                -118.38628800030693,
                46.05447599982694
              ],
              [
                -118.38639399971383,
                46.05445600028543
              ],
              [
                -118.38672799962467,
                46.0543919999585
              ],
              [
                -118.38753400043691,
                46.0542359998639
              ],
              [
                -118.38753400043691,
                46.05427000002599
              ],
              [
                -118.3875329997137,
                46.05435200018406
              ],
              [
                -118.3875329997137,
                46.0543790000194
              ],
              [
                -118.3875329997137,
                46.05440499989452
              ],
              [
                -118.38753000023897,
                46.0547220002651
              ],
              [
                -118.38833100013002,
                46.05472999979464
              ],
              [
                -118.38846599984925,
                46.05472999979464
              ],
              [
                -118.3884690002223,
                46.054612999701845
              ],
              [
                -118.3885100002302,
                46.05461199975862
              ],
              [
                -118.38863400007875,
                46.05461199975862
              ],
              [
                -118.38867599991153,
                46.05461199975862
              ],
              [
                -118.3888290000724,
                46.05460999987202
              ],
              [
                -118.38929000020485,
                46.0546079999854
              ],
              [
                -118.38944400019064,
                46.0546079999854
              ],
              [
                -118.38947099995484,
                46.05460700004209
              ],
              [
                -118.38955600034366,
                46.05460700004209
              ],
              [
                -118.38958399993275,
                46.05460700004209
              ],
              [
                -118.38980599969058,
                46.0546060000987
              ],
              [
                -118.39013999960142,
                46.05460400021194
              ],
              [
                -118.39076700031355,
                46.05460199970168
              ],
              [
                -118.39133999970066,
                46.05459899987127
              ],
              [
                -118.39133700022593,
                46.05515100020918
              ],
              [
                -118.39179499998534,
                46.05514799978523
              ],
              [
                -118.3917990001833,
                46.05462700015228
              ],
              [
                -118.3917990001833,
                46.05459699998424
              ],
              [
                -118.39267700006727,
                46.054592000266354
              ],
              [
                -118.39269100031098,
                46.054592000266354
              ],
              [
                -118.39272599957276,
                46.054592000266354
              ],
              [
                -118.39285899964214,
                46.054590999699336
              ],
              [
                -118.39292999978726,
                46.054590999699336
              ],
              [
                -118.39294300020605,
                46.054590999699336
              ],
              [
                -118.39293999983302,
                46.05422399983835
              ],
              [
                -118.39293800018318,
                46.05413100001966
              ],
              [
                -118.39303899956721,
                46.05413100001966
              ],
              [
                -118.39423899966646,
                46.05413000006766
              ],
              [
                -118.39424700006235,
                46.053644000067365
              ],
              [
                -118.39425399973506,
                46.053145999894355
              ],
              [
                -118.39425399973506,
                46.05307800003555
              ],
              [
                -118.3952129998099,
                46.05289100014794
              ],
              [
                -118.39521199998498,
                46.05292799981256
              ],
              [
                -118.39521199998498,
                46.05297399983283
              ],
              [
                -118.395207999787,
                46.053295000181606
              ],
              [
                -118.39520199993923,
                46.053732000287035
              ],
              [
                -118.39520000028942,
                46.0538899998478
              ],
              [
                -118.39712099991377,
                46.05389299971673
              ],
              [
                -118.39713500015748,
                46.053440000209044
              ],
              [
                -118.39716100009677,
                46.05256999994474
              ],
              [
                -118.39716100009677,
                46.05251299979511
              ],
              [
                -118.39733000015116,
                46.05247999978009
              ],
              [
                -118.39901899997196,
                46.05215299975538
              ],
              [
                -118.39901899997196,
                46.052128000055134
              ],
              [
                -118.39901899997196,
                46.05206300015808
              ],
              [
                -118.39762600042718,
                46.05232299991071
              ],
              [
                -118.3976299997268,
                46.05226800010108
              ],
              [
                -118.39763300009986,
                46.05218000004236
              ],
              [
                -118.39763200027494,
                46.05188099991464
              ],
              [
                -118.39608900004404,
                46.051868000007914
              ],
              [
                -118.39609300024199,
                46.05158800002693
              ],
              [
                -118.39542700007011,
                46.05158600003087
              ],
              [
                -118.39531999994001,
                46.05158700002894
              ],
              [
                -118.39522500040378,
                46.05158800002693
              ],
              [
                -118.3952279998785,
                46.05115099978959
              ],
              [
                -118.3952279998785,
                46.051130000284566
              ],
              [
                -118.39528099958193,
                46.051130000284566
              ],
              [
                -118.3954250004203,
                46.051130000284566
              ],
              [
                -118.39609800026486,
                46.051130000284566
              ],
              [
                -118.39609700043997,
                46.05086099980347
              ],
              [
                -118.3954250004203,
                46.05086299982579
              ],
              [
                -118.39526999971129,
                46.05086399983693
              ],
              [
                -118.39523000042664,
                46.05086099980347
              ],
              [
                -118.39523799992423,
                46.04976899987125
              ],
              [
                -118.39542100022236,
                46.04976899987125
              ],
              [
                -118.39610300028775,
                46.049766999809314
              ],
              [
                -118.39610300028775,
                46.04997400022399
              ],
              [
                -118.39610099973959,
                46.050177999792375
              ],
              [
                -118.39638899961969,
                46.050177999792375
              ],
              [
                -118.3963900003429,
                46.04997600027843
              ],
              [
                -118.39639199999274,
                46.04939700019859
              ],
              [
                -118.39639299981766,
                46.04933100016591
              ],
              [
                -118.39903300021565,
                46.04932599997128
              ],
              [
                -118.40158999987464,
                46.04932199981528
              ],
              [
                -118.40167299971534,
                46.04932199981528
              ],
              [
                -118.40168000028636,
                46.04848400002039
              ],
              [
                -118.40168199993619,
                46.0482990002802
              ],
              [
                -118.40168199993619,
                46.04819000013313
              ],
              [
                -118.40197099964118,
                46.04818900007357
              ],
              [
                -118.40234300008518,
                46.04818699995443
              ],
              [
                -118.40300199968601,
                46.04818900007357
              ],
              [
                -118.40310600034142,
                46.048185999894855
              ],
              [
                -118.40334900001565,
                46.048185999894855
              ],
              [
                -118.40425600021194,
                46.04818299971594
              ],
              [
                -118.40472099964404,
                46.04818200027973
              ],
              [
                -118.40480299965981,
                46.04818200027973
              ],
              [
                -118.40480299965981,
                46.04827099990833
              ],
              [
                -118.40480299965981,
                46.048306000059256
              ],
              [
                -118.40480100000997,
                46.049201999987744
              ],
              [
                -118.40480100000997,
                46.049311000008174
              ],
              [
                -118.40794799967287,
                46.04930399973305
              ],
              [
                -118.40803800008455,
                46.04930399973305
              ],
              [
                -118.40877600022644,
                46.04930100023833
              ],
              [
                -118.40945499991878,
                46.04929900015946
              ],
              [
                -118.4104340000851,
                46.0492929999224
              ],
              [
                -118.4122509999524,
                46.04928400018906
              ],
              [
                -118.4129060002536,
                46.049256999733224
              ],
              [
                -118.41332499965495,
                46.049215999939484
              ],
              [
                -118.41336900003587,
                46.049208000234685
              ],
              [
                -118.41403400038284,
                46.04909900001094
              ],
              [
                -118.41433499978339,
                46.04904200001995
              ],
              [
                -118.41551399996624,
                46.048814000091156
              ],
              [
                -118.41840000041155,
                46.04825799977536
              ],
              [
                -118.41892900031607,
                46.04815599996888
              ],
              [
                -118.41905200033972,
                46.04812099972291
              ],
              [
                -118.41970900029074,
                46.047937000078086
              ],
              [
                -118.42003999982852,
                46.047805000185704
              ],
              [
                -118.4201929999894,
                46.04774800010631
              ],
              [
                -118.42124800032369,
                46.047353000073095
              ],
              [
                -118.42200999985671,
                46.04706699979353
              ],
              [
                -118.4221710004135,
                46.04700699995682
              ],
              [
                -118.42245900029359,
                46.046899999920015
              ],
              [
                -118.4281040000643,
                46.04477399975874
              ],
              [
                -118.42918699998766,
                46.044366999985925
              ],
              [
                -118.4299150000838,
                46.044129000007096
              ],
              [
                -118.43009599983375,
                46.044070999741585
              ],
              [
                -118.43011099990238,
                46.04350699979004
              ],
              [
                -118.43014900043552,
                46.04201300029678
              ]
            ],
            [
              [
                -118.39424700006235,
                46.05176100003582
              ],
              [
                -118.39424100021459,
                46.05216000029286
              ],
              [
                -118.39394099974062,
                46.052161000280485
              ],
              [
                -118.39386700012076,
                46.052161000280485
              ],
              [
                -118.39386999959551,
                46.0519589999143
              ],
              [
                -118.39387399979346,
                46.05176100003582
              ],
              [
                -118.39394599976349,
                46.05176100003582
              ],
              [
                -118.39424700006235,
                46.05176100003582
              ]
            ],
            [
              [
                -118.37533000012829,
                46.05296400010273
              ],
              [
                -118.37532699975523,
                46.053392000022825
              ],
              [
                -118.37532400028047,
                46.05377499976245
              ],
              [
                -118.37484600042961,
                46.05377299984559
              ],
              [
                -118.37484899990433,
                46.052963000129644
              ],
              [
                -118.37524800011252,
                46.05296400010273
              ],
              [
                -118.37533000012829,
                46.05296400010273
              ]
            ],
            [
              [
                -118.37851100012637,
                46.055230999818455
              ],
              [
                -118.37849799970758,
                46.055620000069396
              ],
              [
                -118.37849500023283,
                46.05569200023358
              ],
              [
                -118.37848600001202,
                46.05591099992219
              ],
              [
                -118.37801999985666,
                46.05569100030985
              ],
              [
                -118.37802099968158,
                46.05565499992716
              ],
              [
                -118.37802700042766,
                46.055404000260374
              ],
              [
                -118.37749799962486,
                46.05540899990475
              ],
              [
                -118.37749699979994,
                46.055506999700384
              ],
              [
                -118.37759899990719,
                46.05555100021357
              ],
              [
                -118.3779999997652,
                46.055722999729895
              ],
              [
                -118.377901000031,
                46.05582300005775
              ],
              [
                -118.37749599997503,
                46.05582599982167
              ],
              [
                -118.37749699979994,
                46.05571999996037
              ],
              [
                -118.37702300014702,
                46.05571900003719
              ],
              [
                -118.37702399997194,
                46.05565400000276
              ],
              [
                -118.37702499979686,
                46.05558899989187
              ],
              [
                -118.377027000345,
                46.05526400005989
              ],
              [
                -118.37702800016989,
                46.055198000180695
              ],
              [
                -118.37683099962808,
                46.055198000180695
              ],
              [
                -118.37683200035131,
                46.05506099988683
              ],
              [
                -118.37701300010127,
                46.05506099988683
              ],
              [
                -118.3774220003552,
                46.055061999821966
              ],
              [
                -118.37750099999792,
                46.05506299975705
              ],
              [
                -118.377500000173,
                46.055125000061864
              ],
              [
                -118.3780290000775,
                46.05512999973149
              ],
              [
                -118.37803099972733,
                46.055238999897675
              ],
              [
                -118.37851100012637,
                46.055230999818455
              ]
            ],
            [
              [
                -118.37582700024575,
                46.038701000044306
              ],
              [
                -118.37528499992241,
                46.03913899985279
              ],
              [
                -118.37400299980743,
                46.03954900012647
              ],
              [
                -118.37389200037765,
                46.039055999956396
              ],
              [
                -118.37377799967655,
                46.03854900021896
              ],
              [
                -118.37389800022542,
                46.03854499990614
              ],
              [
                -118.37404800001327,
                46.03858900021351
              ],
              [
                -118.37408900002114,
                46.03861500003861
              ],
              [
                -118.37415099994544,
                46.03865499998539
              ],
              [
                -118.37428499983973,
                46.038720000071
              ],
              [
                -118.37430900012919,
                46.038732999954256
              ],
              [
                -118.37438699994698,
                46.038775000275606
              ],
              [
                -118.3744659995897,
                46.038775000275606
              ],
              [
                -118.37479899967562,
                46.038704999722285
              ],
              [
                -118.37553699981751,
                46.03854900021896
              ],
              [
                -118.3756640000391,
                46.03851499973312
              ],
              [
                -118.37582700024575,
                46.038701000044306
              ]
            ],
            [
              [
                -118.36770899958331,
                46.04019999970076
              ],
              [
                -118.36770899958331,
                46.040231999989736
              ],
              [
                -118.36770699993349,
                46.0409359997872
              ],
              [
                -118.36770699993349,
                46.04099700017198
              ],
              [
                -118.36770699993349,
                46.04142600009656
              ],
              [
                -118.36746300043431,
                46.0415449998009
              ],
              [
                -118.3673699996496,
                46.04159099994803
              ],
              [
                -118.36734899973321,
                46.04170599983653
              ],
              [
                -118.36735200010625,
                46.04204599970646
              ],
              [
                -118.36735299993117,
                46.04210400022726
              ],
              [
                -118.36735299993117,
                46.04211400005292
              ],
              [
                -118.36675299988156,
                46.04234200020029
              ],
              [
                -118.36675100023172,
                46.04222500005349
              ],
              [
                -118.36674000036106,
                46.041568000191006
              ],
              [
                -118.36673799981293,
                46.041444000251666
              ],
              [
                -118.3667360001631,
                46.041318000289735
              ],
              [
                -118.36622499980194,
                46.04132100021794
              ],
              [
                -118.36613299974043,
                46.04132000003402
              ],
              [
                -118.36613299974043,
                46.04130400020694
              ],
              [
                -118.36613299974043,
                46.041260000190874
              ],
              [
                -118.36613299974043,
                46.04076799989222
              ],
              [
                -118.36613299974043,
                46.040734999719206
              ],
              [
                -118.36613299974043,
                46.040680999790375
              ],
              [
                -118.36613199991554,
                46.0406559998863
              ],
              [
                -118.36617399974833,
                46.04062900020164
              ],
              [
                -118.36620999973333,
                46.04060600004419
              ],
              [
                -118.36645999997859,
                46.040459000221375
              ],
              [
                -118.36650000016154,
                46.04043599999313
              ],
              [
                -118.36690900041546,
                46.040359999713075
              ],
              [
                -118.36747199975684,
                46.040246999923916
              ],
              [
                -118.36770899958331,
                46.04019999970076
              ]
            ],
            [
              [
                -118.3782609998811,
                46.05458599998091
              ],
              [
                -118.37826300042924,
                46.05498399984095
              ],
              [
                -118.37802700042766,
                46.05498399984095
              ],
              [
                -118.37802300022972,
                46.05490900018692
              ],
              [
                -118.37750299964773,
                46.054903999873865
              ],
              [
                -118.37750299964773,
                46.05485900015314
              ],
              [
                -118.37750299964773,
                46.05474300027453
              ],
              [
                -118.37750500019587,
                46.05458300014961
              ],
              [
                -118.37703099964462,
                46.05458500003719
              ],
              [
                -118.37698799998694,
                46.05458500003719
              ],
              [
                -118.37697200009337,
                46.05458500003719
              ],
              [
                -118.37676000038128,
                46.05458500003719
              ],
              [
                -118.37676000038128,
                46.05404399976593
              ],
              [
                -118.37644599966363,
                46.054044999719444
              ],
              [
                -118.37644300018887,
                46.05458599998091
              ],
              [
                -118.37646900012815,
                46.05458599998091
              ],
              [
                -118.37673500026695,
                46.05458500003719
              ],
              [
                -118.37673699991676,
                46.05464700025524
              ],
              [
                -118.37673600009184,
                46.05492299993886
              ],
              [
                -118.3766359996344,
                46.05492299993886
              ],
              [
                -118.37663399998462,
                46.05519700024802
              ],
              [
                -118.3764370003411,
                46.05519700024802
              ],
              [
                -118.37644099964074,
                46.05505999995167
              ],
              [
                -118.37596199996494,
                46.05505700014618
              ],
              [
                -118.37596100014004,
                46.054587999868325
              ],
              [
                -118.3758740001014,
                46.05458899981203
              ],
              [
                -118.3758809997741,
                46.054262999755956
              ],
              [
                -118.37589699966762,
                46.05353299994456
              ],
              [
                -118.37589900021578,
                46.05328599985349
              ],
              [
                -118.37590199969048,
                46.05298100026626
              ],
              [
                -118.37589199964475,
                46.05296400010273
              ],
              [
                -118.37625300021809,
                46.052965000075844
              ],
              [
                -118.37651299961077,
                46.052965000075844
              ],
              [
                -118.37685099971958,
                46.05296600004888
              ],
              [
                -118.37692600006264,
                46.0529620001565
              ],
              [
                -118.37692400041283,
                46.05319099976409
              ],
              [
                -118.37692299968958,
                46.05326499991341
              ],
              [
                -118.37751299969347,
                46.05326599988102
              ],
              [
                -118.37751000021873,
                46.053520999766256
              ],
              [
                -118.37692400041283,
                46.05351999980321
              ],
              [
                -118.37692299968958,
                46.05351100013519
              ],
              [
                -118.37644999986158,
                46.05351000017201
              ],
              [
                -118.37644700038685,
                46.05389900007748
              ],
              [
                -118.3769570000248,
                46.05390099998977
              ],
              [
                -118.37750699984568,
                46.05390399985811
              ],
              [
                -118.37750600002079,
                46.054075000187346
              ],
              [
                -118.37750500019587,
                46.05431900002105
              ],
              [
                -118.37750500019587,
                46.05458300014961
              ],
              [
                -118.3782609998811,
                46.05458599998091
              ]
            ],
            [
              [
                -118.39585800006536,
                46.040246999923916
              ],
              [
                -118.39581000038478,
                46.040737000108166
              ],
              [
                -118.39549200036747,
                46.04093100007975
              ],
              [
                -118.39513300034226,
                46.04095800024041
              ],
              [
                -118.39513199961904,
                46.04099700017198
              ],
              [
                -118.39513199961904,
                46.0410300001885
              ],
              [
                -118.39512599977125,
                46.04153600005229
              ],
              [
                -118.39512300029652,
                46.04179899999967
              ],
              [
                -118.39512099974839,
                46.04190300004362
              ],
              [
                -118.39509300015928,
                46.04190899983633
              ],
              [
                -118.39506399984697,
                46.04191400007878
              ],
              [
                -118.39503000041012,
                46.041915000251954
              ],
              [
                -118.39500600012067,
                46.04192299976583
              ],
              [
                -118.39497699980832,
                46.04192600028474
              ],
              [
                -118.3949469996711,
                46.041929000179884
              ],
              [
                -118.39491700043219,
                46.04193099990209
              ],
              [
                -118.39488800011988,
                46.041932000074915
              ],
              [
                -118.39485799998266,
                46.041933000247745
              ],
              [
                -118.39482799984542,
                46.041932000074915
              ],
              [
                -118.39479900043142,
                46.04193099990209
              ],
              [
                -118.3947690002942,
                46.04192999972921
              ],
              [
                -118.39473999998187,
                46.04192999972921
              ],
              [
                -118.39470999984465,
                46.041929000179884
              ],
              [
                -118.39468100043062,
                46.04192699983409
              ],
              [
                -118.39465200011833,
                46.041925000111775
              ],
              [
                -118.39462199998108,
                46.04192200021636
              ],
              [
                -118.39459299966877,
                46.041918000147696
              ],
              [
                -118.3945650000797,
                46.041912999905605
              ],
              [
                -118.39454099979024,
                46.0419159998015
              ],
              [
                -118.39450800017826,
                46.041901999870234
              ],
              [
                -118.39447999969089,
                46.041896000076804
              ],
              [
                -118.39445200010178,
                46.04188900010905
              ],
              [
                -118.3944250003376,
                46.0418809999667
              ],
              [
                -118.39439799967509,
                46.04187200027283
              ],
              [
                -118.39437199973584,
                46.04186299995397
              ],
              [
                -118.3943459997966,
                46.04185400025716
              ],
              [
                -118.3943199998573,
                46.04184300021004
              ],
              [
                -118.39429599956786,
                46.04183200016073
              ],
              [
                -118.39427100035182,
                46.04182100010923
              ],
              [
                -118.39424700006235,
                46.04180799970544
              ],
              [
                -118.39422399959784,
                46.04179600009742
              ],
              [
                -118.39420199985653,
                46.04178200013575
              ],
              [
                -118.39418000011521,
                46.04176899972277
              ],
              [
                -118.39415900019884,
                46.041754000201756
              ],
              [
                -118.39413900010734,
                46.04173900005314
              ],
              [
                -118.39411900001583,
                46.04172399990043
              ],
              [
                -118.39409999974926,
                46.04170800019034
              ],
              [
                -118.39408200020591,
                46.041691999852056
              ],
              [
                -118.39406499958918,
                46.04167499995521
              ],
              [
                -118.39404799987075,
                46.04165800005313
              ],
              [
                -118.39403299980212,
                46.04164100014587
              ],
              [
                -118.39401799973352,
                46.04162300005489
              ],
              [
                -118.39400400038812,
                46.041604999958096
              ],
              [
                -118.39399199979425,
                46.0415869998554
              ],
              [
                -118.39398000009868,
                46.041568000191006
              ],
              [
                -118.39398799959628,
                46.0413580001504
              ],
              [
                -118.39397699972562,
                46.04134999993115
              ],
              [
                -118.39379500015076,
                46.04135400004094
              ],
              [
                -118.3937979996255,
                46.041241999975774
              ],
              [
                -118.39379900034871,
                46.04120099984506
              ],
              [
                -118.39380199982342,
                46.04109200003395
              ],
              [
                -118.39381900044022,
                46.04023699976039
              ],
              [
                -118.39383100013576,
                46.03969200026984
              ],
              [
                -118.39392300019728,
                46.03992200022991
              ],
              [
                -118.39396900022801,
                46.040231999989736
              ],
              [
                -118.39569300020892,
                46.040248999707
              ],
              [
                -118.39577100002673,
                46.04024999991027
              ],
              [
                -118.39585800006536,
                46.040246999923916
              ]
            ]
          ],
          [
            [
              [
                -118.43027099973595,
                46.034703999728016
              ],
              [
                -118.4298160003496,
                46.034701999744286
              ],
              [
                -118.42085199959027,
                46.034718000235884
              ],
              [
                -118.42013799973782,
                46.034718999915675
              ],
              [
                -118.42013899956274,
                46.034063999986955
              ],
              [
                -118.42018899979145,
                46.03148499986065
              ],
              [
                -118.42018700014164,
                46.03138600011299
              ],
              [
                -118.42009000005723,
                46.03004500000905
              ],
              [
                -118.41994799976702,
                46.03008999998761
              ],
              [
                -118.41964900001628,
                46.03017699992541
              ],
              [
                -118.41622299979582,
                46.03117500029837
              ],
              [
                -118.41487600028178,
                46.03118000026489
              ],
              [
                -118.40974399962377,
                46.031202999980216
              ],
              [
                -118.40962399997318,
                46.03120399972359
              ],
              [
                -118.40958799998818,
                46.032439999855285
              ],
              [
                -118.40957600029263,
                46.03289599984455
              ],
              [
                -118.40957200009466,
                46.03319899991086
              ],
              [
                -118.40956200004891,
                46.034110999816676
              ],
              [
                -118.40955899967587,
                46.03441499976685
              ],
              [
                -118.40955799985095,
                46.03445300026668
              ],
              [
                -118.40955700002604,
                46.034568000044644
              ],
              [
                -118.40955700002604,
                46.034607000121035
              ],
              [
                -118.4095479998052,
                46.03841600010674
              ],
              [
                -118.4198409996369,
                46.038358999693415
              ],
              [
                -118.42013500026307,
                46.03835800007948
              ],
              [
                -118.42457300026183,
                46.03833500022384
              ],
              [
                -118.42485199992109,
                46.038333999985866
              ],
              [
                -118.42911199964458,
                46.03838099992555
              ],
              [
                -118.43024700034482,
                46.03839399988851
              ],
              [
                -118.43027099973595,
                46.034703999728016
              ]
            ]
          ]
        ]
      },
      "properties": {
        "AREALAND": "9186256",
        "AREAWATER": "0",
        "BASENAME": "College Place",
        "CBSAPCI": "N",
        "CENTLAT": "+46.0417504",
        "CENTLON": "-118.3924402",
        "FUNCSTAT": "A",
        "GEOID": "5313855",
        "INTPTLAT": "+46.0417504",
        "INTPTLON": "-118.3924402",
        "LSADC": "25",
        "MTFCC": "G4110",
        "NAME": "College Place city",
        "NECTAPCI": "N",
        "OBJECTID": 22610,
        "OID": "27890255516764",
        "PLACE": "13855",
        "PLACECC": "C1",
        "PLACENS": "02410192",
        "STATE": "53",
        "DISP_CLR": 3,
        "slug": "college_place",
        "jurisdiction_key": "college_place_city",
        "county_fips": [
          "53071"
        ]
      }
    }
  ]
}
