{"type":"FeatureCollection","features":[{"type":"Feature","geometry":{"type":"Polygon","coordinates":[[[-117.13733900036772,46.564451999979006],[-117.13740200011691,46.563826000255254],[-117.13689400012879,46.56380700000268],[-117.13685999979361,46.56384000014453],[-117.13669699958699,46.56398700030788],[-117.13671599985355,46.56368499997785],[-117.13681999961064,46.561756000251044],[-117.12277699969337,46.56168299996987],[-117.12220500013117,46.56167900001929],[-117.12075999980954,46.56167200010512],[-117.1206660000982,46.562226999763254],[-117.12064900037974,46.562323999972016],[-117.120559999793,46.56372100004409],[-117.12016300013295,46.56371900014399],[-117.12014800006433,46.56396700016621],[-117.12014600041452,46.56399100008829],[-117.1204629997086,46.564124000030105],[-117.1205320002039,46.56415400015302],[-117.12052800000595,46.56420999996749],[-117.12030899972282,46.56764200028626],[-117.1202869999815,46.56787499971407],[-117.12020800033879,46.56921199995877],[-117.12016499978276,46.56988399981044],[-117.11995300007067,46.57321799984016],[-117.12204100009963,46.573206999844246],[-117.1253059997633,46.57319500007067],[-117.12733199986796,46.573225000117155],[-117.1278699999933,46.57323000022619],[-117.12827400022435,46.57323100000093],[-117.12914700008547,46.573234999717286],[-117.13429800011174,46.573261999801716],[-117.13623399980472,46.57327100023857],[-117.13628599968328,46.572209999927495],[-117.1363950003615,46.569912999999865],[-117.13644899988986,46.56872200018338],[-117.13651199963905,46.56749900028492],[-117.1365579996698,46.566754000278145],[-117.13656199986777,46.56662500019439],[-117.13665300010439,46.56484700004204],[-117.13707599970368,46.56486200021448],[-117.13729800035985,46.564866999859255],[-117.13731900027625,46.56465800010805],[-117.13733099997181,46.56453700007908],[-117.13733900036772,46.564451999979006]]]},"properties":{"AREALAND":"1596906","AREAWATER":"0","BASENAME":"Colton","CBSAPCI":"N","CENTLAT":"+46.5674673","CENTLON":"-117.1284451","FUNCSTAT":"A","GEOID":"5313890","INTPTLAT":"+46.5674673","INTPTLON":"-117.1284451","LSADC":"43","MTFCC":"G4110","NAME":"Colton town","NECTAPCI":"N","OBJECTID":6912,"OID":"27890256943246","PLACE":"13890","PLACECC":"C1","PLACENS":"02413231","STATE":"53","DISP_CLR":1,"slug":"colton","jurisdiction_key":"colton_city","county_fips":["53075"]}}]}
