{"type":"FeatureCollection","features":[{"type":"Feature","geometry":{"type":"Polygon","coordinates":[[[-121.76616999957612,48.5376879997624],[-121.76617200012429,48.53762300008215],[-121.76613000029148,48.53755400028446],[-121.76613699996417,48.537366000117125],[-121.76614100016212,48.53728700012956],[-121.76611900042083,48.5372189997404],[-121.76605499994841,48.53701800001532],[-121.76603400003201,48.536950999731395],[-121.76603900005487,48.53684000016661],[-121.76605599977333,48.53651000024836],[-121.76606199962109,48.53640000019415],[-121.76605800032145,48.53624200005495],[-121.76604699955249,48.53576800024762],[-121.76604400007774,48.53561099981872],[-121.76604400007774,48.535431999879876],[-121.76604400007774,48.53489599974743],[-121.76604400007774,48.534718000170656],[-121.76604800027572,48.53459099999315],[-121.76605999997128,48.53421400022677],[-121.76606499999417,48.534087999903015],[-121.76606900019212,48.53381999997504],[-121.7660830004358,48.533016999956864],[-121.76608599991054,48.53280600007492],[-121.76608799956038,48.5327500002631],[-121.76609099993341,48.532554999797654],[-121.7660959999563,48.53230300009713],[-121.7660959999563,48.531971999784076],[-121.7660969997812,48.531777999865454],[-121.76609799960612,48.53143299996158],[-121.76454500022777,48.53141900022967],[-121.7645479997025,48.530291000186914],[-121.76454699987761,48.529925000048586],[-121.76454699987761,48.529193000164305],[-121.75536100025873,48.529104000245205],[-121.75549599997792,48.526699999746725],[-121.75555999955203,48.52555000014082],[-121.75507900022642,48.525973000092456],[-121.75485999994329,48.52621199986594],[-121.75476100020909,48.52631399998347],[-121.75469500008687,48.52637300001599],[-121.75462700031478,48.52642500001794],[-121.75455799981948,48.52647300024692],[-121.75448500002456,48.5265170001194],[-121.7543689996736,48.52658199977992],[-121.75420499964207,48.52666500011295],[-121.75399200010507,48.52676300021642],[-121.75381899985273,48.52683600013376],[-121.75368800033145,48.5268839999732],[-121.7535999995696,48.526912000155995],[-121.75351300042925,48.52693700011491],[-121.75342600039065,48.52695799978527],[-121.75301200011384,48.52702799981347],[-121.75285599957994,48.527060000185074],[-121.75274699979998,48.527087000204034],[-121.75263499964697,48.527118999943475],[-121.75252199966907,48.527158000119066],[-121.75235799963757,48.527221000019004],[-121.75191999996963,48.52742799973328],[-121.75173199964865,48.5275040000569],[-121.75162500041685,48.52753999976337],[-121.75150800024097,48.527576000039126],[-121.75137900036957,48.52761100023315],[-121.75123600025441,48.527642000180805],[-121.75107499969762,48.527669999944514],[-121.75089399994764,48.52769099990584],[-121.75028200020249,48.52772700007426],[-121.74998500010155,48.527759000004174],[-121.74992900002506,48.52891400016857],[-121.74990499973562,48.53045599986203],[-121.74990200026086,48.530842000178154],[-121.74744199978791,48.53083200025331],[-121.74727600010657,48.53083200025331],[-121.74726799971066,48.532614000292256],[-121.74716099958053,48.532614000292256],[-121.7465880001934,48.53260999986769],[-121.74449400031665,48.53259499990858],[-121.74449400031665,48.532649999935174],[-121.74358399974732,48.532649999935174],[-121.74362499975521,48.53277800017677],[-121.74386499995474,48.533508000109585],[-121.74393299972677,48.53372700011904],[-121.74408800043578,48.53396500024759],[-121.74426199961474,48.534233999928304],[-121.74424499989631,48.53445999981353],[-121.73965100026197,48.53446699985438],[-121.73957799956871,48.53439299971325],[-121.7394489996973,48.534261000286115],[-121.73937300042762,48.53418400006484],[-121.7387669996319,48.533566000149975],[-121.73817499997821,48.5331449998655],[-121.73637800020236,48.53360500011926],[-121.73386199965293,48.53373999987249],[-121.73391799972943,48.534633000115214],[-121.73394600021685,48.535066999931104],[-121.73396899978306,48.5354249999724],[-121.73403200043057,48.53637400026537],[-121.73426699970891,48.53988599975867],[-121.7368230004413,48.53986899994795],[-121.7393790002754,48.53985099972229],[-121.73940000019181,48.5405320002312],[-121.73939799964367,48.54067899990909],[-121.7394439996744,48.5418709997705],[-121.73945399972015,48.54223199976883],[-121.73945799991812,48.542368000072514],[-121.73947200016181,48.542812999885406],[-121.7394920002533,48.54342399993173],[-121.73948200020757,48.54359099970536],[-121.7392949997115,48.54700000028575],[-121.73929200023677,48.54726600008952],[-121.73911599961136,48.55053100012501],[-121.73912700038034,48.5505869998917],[-121.73912900003015,48.55063700020442],[-121.74000299971617,48.55063499981232],[-121.74133300041008,48.55063700020442],[-121.74372400038773,48.550640999799164],[-121.74408800043578,48.55064199999513],[-121.74417200010139,48.55064199999513],[-121.74431000019366,48.55064199999513],[-121.74443599969204,48.54516899990006],[-121.74443999988999,48.54498100006231],[-121.74378600031201,48.54381099984453],[-121.74346699957147,48.5436150000157],[-121.74352900039405,48.54337599971327],[-121.74447699969991,48.543363999800206],[-121.74447699969991,48.5424690000004],[-121.74448199972278,48.54219700016511],[-121.74448300044601,48.542029000183796],[-121.74448400027092,48.54161800026854],[-121.74503200044201,48.54161699989422],[-121.7479759997153,48.54161600011464],[-121.7527839996099,48.54163500008664],[-121.75501300010417,48.541648999967556],[-121.75872899985455,48.54171099990332],[-121.7645069996946,48.541806999884344],[-121.76583599966528,48.541832999996515],[-121.76610099997917,48.5418370002871],[-121.7661310001164,48.54002799987891],[-121.76614199998704,48.539382999935434],[-121.76616999957612,48.5376879997624]]]},"properties":{"AREALAND":"3038112","AREAWATER":"89862","BASENAME":"Concrete","CBSAPCI":"N","CENTLAT":"+48.5370512","CENTLON":"-121.7509359","FUNCSTAT":"A","GEOID":"5314380","INTPTLAT":"+48.5328319","INTPTLON":"-121.7540634","LSADC":"43","MTFCC":"G4110","NAME":"Concrete town","NECTAPCI":"N","OBJECTID":12536,"OID":"27890481269323","PLACE":"14380","PLACECC":"C1","PLACENS":"02413237","STATE":"53","DISP_CLR":4,"slug":"concrete","jurisdiction_key":"concrete_city","county_fips":["53057"]}}]}
