{"type":"FeatureCollection","features":[{"type":"Feature","geometry":{"type":"Polygon","coordinates":[[[-119.76000199962789,48.55521699983098],[-119.75978599971782,48.554159999747434],[-119.75971899977066,48.55383099990095],[-119.75965199982352,48.55350500011711],[-119.7596300000822,48.55339600026981],[-119.75954899989135,48.553002000063536],[-119.75947899957116,48.55265699970566],[-119.75840900006656,48.55272299985781],[-119.75719700027176,48.55279800011549],[-119.75706400020236,48.55280399984586],[-119.75669900032938,48.55282900010229],[-119.75620800005969,48.552858999917966],[-119.75616700005182,48.553026000073274],[-119.75613500026476,48.55315900006973],[-119.756081999663,48.5535209999658],[-119.75619299999109,48.55351599986499],[-119.75633899958093,48.553510000219006],[-119.75635899967241,48.55359799991026],[-119.75644800025923,48.55403300018308],[-119.75651900040432,48.554384000215165],[-119.75662399998633,48.55489700013549],[-119.75668799956041,48.55521199989778],[-119.75670900037512,48.55531399986481],[-119.75637799993899,48.55544199988219],[-119.75635399964956,48.55544299998326],[-119.75620399986174,48.555452999803556],[-119.75603700035546,48.55546399972253],[-119.75556899965201,48.55549200015411],[-119.75557000037524,48.555619999721145],[-119.75551099992569,48.555623000013725],[-119.7536680001191,48.555720999959256],[-119.75073900001611,48.55587600026213],[-119.75019099984502,48.555904999963026],[-119.74966699996337,48.55593200005916],[-119.74884900035386,48.555975999898656],[-119.74813499960312,48.55601399975624],[-119.74805900033347,48.55614399996081],[-119.74796899992175,48.556300000241016],[-119.74777099955504,48.55664299998111],[-119.74774499961578,48.55669000002608],[-119.74757499973649,48.55698300015683],[-119.74737899991786,48.557324999958965],[-119.74734100028304,48.55739200003007],[-119.74731399962057,48.55743799991215],[-119.74724800039664,48.55755200026693],[-119.74665900021768,48.55857600014483],[-119.74656100030838,48.55874700000393],[-119.74632500030681,48.55915699991232],[-119.7466550000197,48.559137999978404],[-119.74667799958591,48.559289999844516],[-119.7462669996822,48.55931399984423],[-119.746316000086,48.55964100026627],[-119.74633500035257,48.55976399995976],[-119.74637399981229,48.560022999776784],[-119.74643999993455,48.56046000010232],[-119.74649600001104,48.56082600005618],[-119.74647099989669,48.560829000040016],[-119.74632799978154,48.56084499995061],[-119.74589900033446,48.56089500023322],[-119.74575700004425,48.56091300010887],[-119.74569799959471,48.56092000005877],[-119.74570099996777,48.56120400018175],[-119.74570199979266,48.5612530001233],[-119.74570299961755,48.56132700023631],[-119.7457040003408,48.56143700022022],[-119.74571000018858,48.56190400002324],[-119.74571699986127,48.56241799974998],[-119.74792500043917,48.56233800025603],[-119.74801400012761,48.56233399980241],[-119.74841699963544,48.56130999989853],[-119.74842800040439,48.561280999728886],[-119.74846000019144,48.56120200020738],[-119.74851700009285,48.561056000082154],[-119.74868699997216,48.561047000170575],[-119.74886199987436,48.56103700026699],[-119.74905699986802,48.561024999785516],[-119.7491399997087,48.56102099982254],[-119.74948100019054,48.56100100000305],[-119.74955900000833,48.56099700003823],[-119.74963000015347,48.56099400006437],[-119.74975599965185,48.5609850001418],[-119.74977300026859,48.56109400028563],[-119.74978900016211,48.56120300019458],[-119.74982699979697,48.56145399992078],[-119.74983099999491,48.5614750001375],[-119.74983900039084,48.56153000029569],[-119.74998199960766,48.56247400003389],[-119.75003000018653,48.56247699991994],[-119.75005100010296,48.56250899988258],[-119.75019300039314,48.56272100016407],[-119.75018499999724,48.56280000028563],[-119.75017400012659,48.56289999990894],[-119.75015499986002,48.563071000013494],[-119.75014399998935,48.56316400005709],[-119.75013200029377,48.563274000207535],[-119.75011999969993,48.56338500006281],[-119.75012399989788,48.56341300027168],[-119.75014900001221,48.563577000249616],[-119.75017499995148,48.563746999911935],[-119.7501969996928,48.563890000196],[-119.7504849995729,48.563874000059585],[-119.75051600043335,48.563872000190834],[-119.75060799959654,48.5638659999895],[-119.7510190003986,48.56384299970658],[-119.75110999973687,48.56383800003142],[-119.75130700027867,48.56382600021448],[-119.75200000021472,48.56378699974944],[-119.75213099973597,48.5637800001963],[-119.75211400001754,48.56367099989572],[-119.75205200009329,48.56326200025679],[-119.75201199991028,48.56299700007395],[-119.7520040004127,48.562946000132975],[-119.75195500000888,48.56262100018685],[-119.75343799996536,48.56252000005083],[-119.75435699985721,48.560192000080995],[-119.75574399955418,48.56013500023501],[-119.75763099974169,48.56005700012258],[-119.75742200040264,48.55846100027261],[-119.7556659997364,48.55855399987412],[-119.75521899984764,48.55857999970658],[-119.7548570003477,48.55860199996594],[-119.75440100023813,48.5586289998118],[-119.75466200035403,48.55819800000107],[-119.75474900039269,48.55805200012367],[-119.75498600021913,48.557660000021805],[-119.75505499981611,48.557545999910445],[-119.7551240003114,48.55743200013673],[-119.75533000017573,48.55708999986883],[-119.75546800026801,48.55686199979309],[-119.75557799987286,48.5566799998557],[-119.75557799987286,48.556664999893734],[-119.75570900029238,48.55648399992269],[-119.75573299968354,48.55645199971592],[-119.75575699997297,48.55641200002351],[-119.75581700024745,48.556310999975786],[-119.75585999990514,48.55624100000104],[-119.7559269998523,48.55627499991594],[-119.75625300026553,48.55578799977633],[-119.75637499956596,48.55560399994163],[-119.75648800044219,48.55543499976885],[-119.75670099997917,48.55542200023532],[-119.75673199994134,48.55542000003234],[-119.7569960004303,48.55540400018958],[-119.75829600008866,48.55532300020179],[-119.75882099979519,48.55528999975114],[-119.76000199962789,48.55521699983098]]]},"properties":{"AREALAND":"547327","AREAWATER":"0","BASENAME":"Conconully","CBSAPCI":"N","CENTLAT":"+48.5585534","CENTLON":"-119.7521288","FUNCSTAT":"A","GEOID":"5314310","INTPTLAT":"+48.5585534","INTPTLON":"-119.7521288","LSADC":"43","MTFCC":"G4110","NAME":"Conconully town","NECTAPCI":"N","OBJECTID":1290,"OID":"27890480662910","PLACE":"14310","PLACECC":"C1","PLACENS":"02413236","STATE":"53","DISP_CLR":1,"slug":"conconully","jurisdiction_key":"conconully_city","county_fips":["53047"]}}]}
