{"type":"FeatureCollection","features":[{"type":"Feature","geometry":{"type":"Polygon","coordinates":[[[-123.79016400003749,46.946205000075764],[-123.79017099971021,46.945372999989296],[-123.78962500008726,46.94537800002552],[-123.7890800002892,46.94538199980881],[-123.7890800002892,46.94446900012097],[-123.78688799960487,46.94445500002605],[-123.78398799981416,46.944444000124115],[-123.78252300029936,46.94443500014691],[-123.78023400042896,46.944426000168185],[-123.77846500024222,46.944419000115545],[-123.778467999717,46.94404799969595],[-123.7784490003487,46.94363300012421],[-123.7784209998613,46.943028000231315],[-123.77484499985302,46.943020999995866],[-123.7745839997371,46.94303099989383],[-123.77442200025372,46.94302299997561],[-123.7744210004288,46.94427500023155],[-123.77470699976074,46.94428800010069],[-123.77470699976074,46.944322000168114],[-123.77465099968427,46.94456500014767],[-123.77461600042247,46.944782000148535],[-123.77449199967559,46.9451959997564],[-123.77427099974265,46.94560299994432],[-123.77414199987122,46.94581100028457],[-123.77411799958178,46.945873999700375],[-123.77392799961098,46.94611800023284],[-123.77386999988465,46.946162999915465],[-123.77381399980816,46.94624499973054],[-123.77371199970091,46.9463439997288],[-123.77314799963631,46.94681599976145],[-123.77300100022151,46.94696099977902],[-123.77277500026571,46.947205999867826],[-123.77257500024916,46.94750100030146],[-123.77248800021053,46.947630000005134],[-123.77233400022475,46.94789199991531],[-123.77232599982884,46.947923000145146],[-123.77096699972094,46.94790200012989],[-123.76982799972104,46.94788499970264],[-123.76743300044373,46.94787500009813],[-123.76349900023516,46.94783499982161],[-123.7626430000925,46.947827000008026],[-123.76263700024471,46.94836399978943],[-123.76254099998525,46.948301999822526],[-123.76211900021084,46.947995000135],[-123.76162999959097,46.94833699999071],[-123.76222499961776,46.94873599992231],[-123.76240600026603,46.948858000243646],[-123.76250500000025,46.948923999698366],[-123.76263100039691,46.94900799994594],[-123.76262700019896,46.94939600028387],[-123.76268999994815,46.9494279998195],[-123.76199399963905,46.95011599992589],[-123.76200899970769,46.95012500017443],[-123.76236000023529,46.95027699971403],[-123.76252699974154,46.950349000216725],[-123.76262300000099,46.950391000158625],[-123.76262899984879,46.950886999987176],[-123.76262700019896,46.95100599986935],[-123.76263399987165,46.951472000272574],[-123.76119199992307,46.951454999752805],[-123.75854499985238,46.95142300020262],[-123.7583769996229,46.951420999923535],[-123.75752700022633,46.951406999807176],[-123.75732200018692,46.95140400000075],[-123.75724400036913,46.951406999807176],[-123.75724500019402,46.95144900014522],[-123.75724500019402,46.951719000217466],[-123.757249000392,46.95206100019317],[-123.75724600001891,46.953906000269306],[-123.75724500019402,46.95507999985901],[-123.75575300001672,46.95503699984583],[-123.75339200017629,46.95503499970177],[-123.75279799997446,46.955029999954505],[-123.75237000035227,46.95502300006222],[-123.75195100005263,46.95501799970066],[-123.75195000022771,46.955235000247136],[-123.75193699980889,46.95543999975449],[-123.75194199983179,46.955597999897726],[-123.75194400037992,46.95867800018547],[-123.75196299974819,46.95897399992587],[-123.75195799972532,46.95915399995328],[-123.75351400037503,46.959162999908095],[-123.75661599983208,46.959195999729516],[-123.75724600001891,46.95920099970067],[-123.75724600001891,46.95944100021944],[-123.75725500023975,46.960792999867785],[-123.75724699984383,46.96192199991219],[-123.75724699984383,46.962414999743736],[-123.76123700012892,46.96243299978093],[-123.76361499968777,46.962448999945195],[-123.76463300021216,46.96245600009219],[-123.76638300013232,46.9624609997587],[-123.77047799999939,46.9625020000719],[-123.77323300002513,46.962499000274306],[-123.77383100042492,46.96262899993045],[-123.77544099970466,46.962992000306535],[-123.77602999988363,46.96312499975344],[-123.77772100025257,46.96350199985052],[-123.77837900002851,46.963649999762495],[-123.77836499978483,46.962838000243444],[-123.77836099958685,46.96252100001199],[-123.77857099964913,46.96252800014952],[-123.77907000031472,46.962524999740346],[-123.7800200001687,46.962518000215475],[-123.78288099960133,46.96249599986351],[-123.78338899958945,46.962493000065635],[-123.783524000207,46.96248300012504],[-123.78353500007765,46.96227999988462],[-123.78360700004765,46.95889699999147],[-123.78360700004765,46.95884299997142],[-123.78142799978212,46.95886899998787],[-123.78120500019935,46.95886999998824],[-123.7812010000014,46.95579800017837],[-123.78141100006367,46.95579900023617],[-123.78509000000413,46.95574799971844],[-123.78513400038506,46.95518100021034],[-123.78900599977105,46.95517699993296],[-123.78903199971033,46.951628000209006],[-123.78903400025847,46.951327999738986],[-123.7890650002206,46.94808799997857],[-123.7890650002206,46.94732399974577],[-123.78906400039568,46.94622300004679],[-123.79016400003749,46.946205000075764]]]},"properties":{"AREALAND":"3604852","AREAWATER":"488836","BASENAME":"Cosmopolis","CBSAPCI":"N","CENTLAT":"+46.9540554","CENTLON":"-123.7726013","FUNCSTAT":"A","GEOID":"5314870","INTPTLAT":"+46.9541189","INTPTLON":"-123.7732421","LSADC":"25","MTFCC":"G4110","NAME":"Cosmopolis city","NECTAPCI":"N","OBJECTID":14403,"OID":"27890479425091","PLACE":"14870","PLACECC":"C1","PLACENS":"02410238","STATE":"53","DISP_CLR":5,"slug":"cosmopolis","jurisdiction_key":"cosmopolis_city","county_fips":["53027"]}}]}
