{
  "type": "FeatureCollection",
  "features": [
    {
      "type": "Feature",
      "geometry": {
        "type": "MultiPolygon",
        "coordinates": [
          [
            [
              [
                -117.93615400002611,
                48.567140000101226
              ],
              [
                -117.93615099965305,
                48.56706200009087
              ],
              [
                -117.93614999982813,
                48.567033000246894
              ],
              [
                -117.93614900000324,
                48.567005000258774
              ],
              [
                -117.93614499980526,
                48.566907000178176
              ],
              [
                -117.93613899995749,
                48.56677199971374
              ],
              [
                -117.93612200023905,
                48.566301000132725
              ],
              [
                -117.93574200029744,
                48.56580900013446
              ],
              [
                -117.93558800031167,
                48.565612999903884
              ],
              [
                -117.93511399976042,
                48.56501000013944
              ],
              [
                -117.93473899984171,
                48.56455600004646
              ],
              [
                -117.93453999965007,
                48.56434999987267
              ],
              [
                -117.93429000030312,
                48.56411399979092
              ],
              [
                -117.93391399966117,
                48.56380399984914
              ],
              [
                -117.93317100039475,
                48.563288999993354
              ],
              [
                -117.93231400042717,
                48.56272499999256
              ],
              [
                -117.93108900021357,
                48.56191900021535
              ],
              [
                -117.93100899984762,
                48.56186599983381
              ],
              [
                -117.9308309995724,
                48.561747999783144
              ],
              [
                -117.93005700034382,
                48.56123799973373
              ],
              [
                -117.92980000042586,
                48.56106899995159
              ],
              [
                -117.92957199992192,
                48.56091900006598
              ],
              [
                -117.92887599961284,
                48.56046100010418
              ],
              [
                -117.92610700024171,
                48.5586370001157
              ],
              [
                -117.9251849999768,
                48.55802900016973
              ],
              [
                -117.92563299969045,
                48.55796399985561
              ],
              [
                -117.92579699972198,
                48.55794099986165
              ],
              [
                -117.9266699995831,
                48.557919999961406
              ],
              [
                -117.93025900001018,
                48.55783400016586
              ],
              [
                -117.93051699975304,
                48.557826999788915
              ],
              [
                -117.92786600038268,
                48.55420200028228
              ],
              [
                -117.92805700017841,
                48.55420200028228
              ],
              [
                -117.92547299985691,
                48.55058300029269
              ],
              [
                -117.92500000002887,
                48.55058000029594
              ],
              [
                -117.9249239998609,
                48.55058399989514
              ],
              [
                -117.92257899991398,
                48.5505940000812
              ],
              [
                -117.91953099998528,
                48.55265200011406
              ],
              [
                -117.91862899981187,
                48.553267000283554
              ],
              [
                -117.91831599981744,
                48.55348099973992
              ],
              [
                -117.9182639999389,
                48.55344699973114
              ],
              [
                -117.91769599967634,
                48.55307100020957
              ],
              [
                -117.91703000040279,
                48.55262900008356
              ],
              [
                -117.91583500032641,
                48.55184800013379
              ],
              [
                -117.91569300003617,
                48.55175500009718
              ],
              [
                -117.91562899956374,
                48.55171299990954
              ],
              [
                -117.9152140003604,
                48.5514419999842
              ],
              [
                -117.91507600026812,
                48.55135199974721
              ],
              [
                -117.91466500036438,
                48.551083000046845
              ],
              [
                -117.91452800009702,
                48.55099399995494
              ],
              [
                -117.91439500002762,
                48.55090700008795
              ],
              [
                -117.91399400016965,
                48.55064499998824
              ],
              [
                -117.91386699994806,
                48.55055999991636
              ],
              [
                -117.91385299970435,
                48.55055200011913
              ],
              [
                -117.91382099991729,
                48.55052899972871
              ],
              [
                -117.91381000004664,
                48.550522000124886
              ],
              [
                -117.91381699971932,
                48.55013100015912
              ],
              [
                -117.91384100000877,
                48.548957999974185
              ],
              [
                -117.91384699985656,
                48.54856800005379
              ],
              [
                -117.91384799968148,
                48.54843900024659
              ],
              [
                -117.91384100000877,
                48.54770199974856
              ],
              [
                -117.9138300001381,
                48.54689899988449
              ],
              [
                -117.91382500011527,
                48.546451000072985
              ],
              [
                -117.91381800044253,
                48.54585699988138
              ],
              [
                -117.91381300041968,
                48.54545600013721
              ],
              [
                -117.91381199969645,
                48.545359999940665
              ],
              [
                -117.91380900022172,
                48.5450700000251
              ],
              [
                -117.91379800035105,
                48.544082000196376
              ],
              [
                -117.9137869995821,
                48.54331199994586
              ],
              [
                -117.91388100019175,
                48.54329799993017
              ],
              [
                -117.91393899991806,
                48.543300999763936
              ],
              [
                -117.91395800018465,
                48.54330200010497
              ],
              [
                -117.91493900000077,
                48.54330299985126
              ],
              [
                -117.9185450001463,
                48.54330999985889
              ],
              [
                -117.91934799968719,
                48.54331199994586
              ],
              [
                -117.91934699986227,
                48.5432780002409
              ],
              [
                -117.91933799964143,
                48.54280799991592
              ],
              [
                -117.91930500002948,
                48.54106599999358
              ],
              [
                -117.91927999991513,
                48.53967899982054
              ],
              [
                -117.91367100012944,
                48.53967199990553
              ],
              [
                -117.91270600020687,
                48.53968100005098
              ],
              [
                -117.91095700011161,
                48.539691999830104
              ],
              [
                -117.9109429998679,
                48.53965599984125
              ],
              [
                -117.91084099976065,
                48.53939800026261
              ],
              [
                -117.91080800014868,
                48.53931299973765
              ],
              [
                -117.91058399984271,
                48.538742999877115
              ],
              [
                -117.9104580003443,
                48.53842099980486
              ],
              [
                -117.90990599997527,
                48.53701399993872
              ],
              [
                -117.90982200030969,
                48.53661400019881
              ],
              [
                -117.90980999971582,
                48.53639500018601
              ],
              [
                -117.90982700033256,
                48.53623100012103
              ],
              [
                -117.90987699966296,
                48.5360249999975
              ],
              [
                -117.90998999964086,
                48.53568900014569
              ],
              [
                -117.9100759998546,
                48.53543400027814
              ],
              [
                -117.9101269999082,
                48.53530399980469
              ],
              [
                -117.90974000029394,
                48.53530800001641
              ],
              [
                -117.90810699965132,
                48.53532600007297
              ],
              [
                -117.90810500000148,
                48.53528599974026
              ],
              [
                -117.90808699955983,
                48.534797000003216
              ],
              [
                -117.90805300012298,
                48.53390199981507
              ],
              [
                -117.90805099957484,
                48.533847999891805
              ],
              [
                -117.90801600031303,
                48.5329139997071
              ],
              [
                -117.90800799991713,
                48.53268700010331
              ],
              [
                -117.90649200034868,
                48.53272600015483
              ],
              [
                -117.90647399990702,
                48.53217899970853
              ],
              [
                -117.90625700017206,
                48.532182000201246
              ],
              [
                -117.90425000033393,
                48.532210999799496
              ],
              [
                -117.9039449998371,
                48.53135900014504
              ],
              [
                -117.90383699988206,
                48.53105699986892
              ],
              [
                -117.90373099957685,
                48.530763000123294
              ],
              [
                -117.90341400028277,
                48.52988300018535
              ],
              [
                -117.90340699971176,
                48.52986299995493
              ],
              [
                -117.90330100030486,
                48.52959300023555
              ],
              [
                -117.90317699955799,
                48.52927499976414
              ],
              [
                -117.90313100042555,
                48.52915599982257
              ],
              [
                -117.90292300001308,
                48.52916400002735
              ],
              [
                -117.90242000004785,
                48.52917100020554
              ],
              [
                -117.90217900002342,
                48.52917499971199
              ],
              [
                -117.90218700041933,
                48.52938599985248
              ],
              [
                -117.89850000008296,
                48.529458000133424
              ],
              [
                -117.89838999957979,
                48.52945200001478
              ],
              [
                -117.8983960003259,
                48.529836000226254
              ],
              [
                -117.89839799997571,
                48.529978999991535
              ],
              [
                -117.8984049996484,
                48.53039199982113
              ],
              [
                -117.8984049996484,
                48.53040799983892
              ],
              [
                -117.89840800002146,
                48.53055099977356
              ],
              [
                -117.8984110003945,
                48.53076800009275
              ],
              [
                -117.89841300004433,
                48.53095199981579
              ],
              [
                -117.90036200015612,
                48.53090700023628
              ],
              [
                -117.90037600039983,
                48.53223800004645
              ],
              [
                -117.89843399996072,
                48.53224699972895
              ],
              [
                -117.89843700033377,
                48.53239099978567
              ],
              [
                -117.89843899998361,
                48.53256400001868
              ],
              [
                -117.89844800020444,
                48.53308699993771
              ],
              [
                -117.89845099967917,
                48.533261000116674
              ],
              [
                -117.89845599970204,
                48.53353299978646
              ],
              [
                -117.89847099977065,
                48.534351999910015
              ],
              [
                -117.89847599979352,
                48.53484799976947
              ],
              [
                -117.89840800002146,
                48.534834999705616
              ],
              [
                -117.89714299962489,
                48.5348440001162
              ],
              [
                -117.8971440003481,
                48.534886000028386
              ],
              [
                -117.89641100022911,
                48.53489100018556
              ],
              [
                -117.89581600020234,
                48.53489499983511
              ],
              [
                -117.89581100017948,
                48.53551699978351
              ],
              [
                -117.89559600009433,
                48.53566299985181
              ],
              [
                -117.89479900040122,
                48.535158999797936
              ],
              [
                -117.8945180001938,
                48.53498299977736
              ],
              [
                -117.8941929996055,
                48.53487000023589
              ],
              [
                -117.89416900021436,
                48.53433699987214
              ],
              [
                -117.8926100000899,
                48.53441499978259
              ],
              [
                -117.89250899980756,
                48.53441999998627
              ],
              [
                -117.89243400036281,
                48.534249999921784
              ],
              [
                -117.89242500014197,
                48.534228999706244
              ],
              [
                -117.89235999984464,
                48.53410900017703
              ],
              [
                -117.8922999995702,
                48.5340250002184
              ],
              [
                -117.89223099997322,
                48.533940000189205
              ],
              [
                -117.89220599985885,
                48.5339199997767
              ],
              [
                -117.89239800037781,
                48.5339199997767
              ],
              [
                -117.89338599986662,
                48.53391699998179
              ],
              [
                -117.89416800038944,
                48.53391400018674
              ],
              [
                -117.8941659998413,
                48.53291800010766
              ],
              [
                -117.89092999959165,
                48.53299900026907
              ],
              [
                -117.890954999706,
                48.533085999989645
              ],
              [
                -117.89093200013978,
                48.53307999970605
              ],
              [
                -117.89086799966735,
                48.533062999989134
              ],
              [
                -117.8908419997281,
                48.53305599975416
              ],
              [
                -117.89059400003097,
                48.533005999917066
              ],
              [
                -117.8884430002528,
                48.53295300017861
              ],
              [
                -117.88836999955957,
                48.53295100027718
              ],
              [
                -117.88812699988532,
                48.53294499997759
              ],
              [
                -117.88804599969447,
                48.532944000026724
              ],
              [
                -117.88751199976709,
                48.532939000272094
              ],
              [
                -117.88591300035799,
                48.532924999766884
              ],
              [
                -117.88538000025551,
                48.53292099996171
              ],
              [
                -117.88538000025551,
                48.53301899985568
              ],
              [
                -117.88538199990535,
                48.53331300018398
              ],
              [
                -117.88538299973024,
                48.533411999855716
              ],
              [
                -117.88538299973024,
                48.53345199988446
              ],
              [
                -117.88538399955516,
                48.533572999719624
              ],
              [
                -117.8853850002784,
                48.53361400015368
              ],
              [
                -117.8853860001033,
                48.533753000217494
              ],
              [
                -117.88538899957804,
                48.534173000278585
              ],
              [
                -117.88539100012616,
                48.534312999921276
              ],
              [
                -117.88539100012616,
                48.53439899984125
              ],
              [
                -117.88539100012616,
                48.534480999933244
              ],
              [
                -117.88539299977599,
                48.5346579998314
              ],
              [
                -117.88539399960091,
                48.534745000270355
              ],
              [
                -117.88539399960091,
                48.53475799976247
              ],
              [
                -117.88537199985959,
                48.53474399976021
              ],
              [
                -117.88403299984317,
                48.53468499996311
              ],
              [
                -117.88403200001828,
                48.53435999988872
              ],
              [
                -117.88403100019336,
                48.53389700015504
              ],
              [
                -117.88278699971319,
                48.53387800025283
              ],
              [
                -117.88272099959092,
                48.533876999725585
              ],
              [
                -117.88258400022191,
                48.53387399992812
              ],
              [
                -117.88257900019904,
                48.53363799984103
              ],
              [
                -117.88257300035124,
                48.53329899978219
              ],
              [
                -117.88122199974094,
                48.53344299982128
              ],
              [
                -117.88142900032848,
                48.533922000234696
              ],
              [
                -117.88148899970462,
                48.534061000047785
              ],
              [
                -117.88135499981031,
                48.534113999816086
              ],
              [
                -117.88131600035058,
                48.53412799999256
              ],
              [
                -117.88117700043341,
                48.534179999764326
              ],
              [
                -117.88099499996021,
                48.53424700014646
              ],
              [
                -117.8805770003838,
                48.53440300012447
              ],
              [
                -117.88032700013854,
                48.53449699984866
              ],
              [
                -117.87989799979313,
                48.5346579998314
              ],
              [
                -117.87966000014177,
                48.5347059999895
              ],
              [
                -117.87950299978291,
                48.53474299984488
              ],
              [
                -117.87936899988863,
                48.53477199976082
              ],
              [
                -117.87866000005907,
                48.534924000258826
              ],
              [
                -117.87813899965217,
                48.53505100019581
              ],
              [
                -117.87782599965772,
                48.53513700005188
              ],
              [
                -117.8767390004347,
                48.53523499982044
              ],
              [
                -117.87637299983848,
                48.535239999943144
              ],
              [
                -117.87619399973833,
                48.535239999943144
              ],
              [
                -117.87605200034643,
                48.535239999943144
              ],
              [
                -117.87562999967372,
                48.535240999848654
              ],
              [
                -117.87488599968405,
                48.53551599988345
              ],
              [
                -117.87436699982528,
                48.53604799984204
              ],
              [
                -117.87436199980242,
                48.53582000011945
              ],
              [
                -117.8743550001297,
                48.5355480002447
              ],
              [
                -117.87435199975666,
                48.535453000191225
              ],
              [
                -117.8743269996423,
                48.53546899979948
              ],
              [
                -117.87429800022831,
                48.5354880002943
              ],
              [
                -117.87425100037264,
                48.53548400009681
              ],
              [
                -117.87420199996882,
                48.535479999898996
              ],
              [
                -117.8741650001589,
                48.53547200009722
              ],
              [
                -117.87413500002168,
                48.535467999898465
              ],
              [
                -117.87409700038687,
                48.53548300019609
              ],
              [
                -117.87405800002878,
                48.535498999794825
              ],
              [
                -117.87404100031037,
                48.53551499998337
              ],
              [
                -117.87402600024173,
                48.53553000026704
              ],
              [
                -117.87398299968572,
                48.53553600026033
              ],
              [
                -117.8739049998679,
                48.535542000252875
              ],
              [
                -117.87382899969992,
                48.53556899991314
              ],
              [
                -117.87381199998148,
                48.53559500025534
              ],
              [
                -117.87378699986714,
                48.53563200005581
              ],
              [
                -117.87374199966129,
                48.5356540001816
              ],
              [
                -117.87370099965342,
                48.535674999806076
              ],
              [
                -117.87362399966052,
                48.53568200027378
              ],
              [
                -117.8735659999342,
                48.53568099978215
              ],
              [
                -117.8734889999413,
                48.535673000012174
              ],
              [
                -117.87342799984192,
                48.53563000026021
              ],
              [
                -117.87332499990976,
                48.535644999915014
              ],
              [
                -117.87329099957459,
                48.53566399974896
              ],
              [
                -117.87321799977967,
                48.535701999990245
              ],
              [
                -117.87315300038064,
                48.53573699992114
              ],
              [
                -117.87243000030738,
                48.53572800026414
              ],
              [
                -117.87245700007156,
                48.536323000251926
              ],
              [
                -117.8714100001332,
                48.53631199974075
              ],
              [
                -117.87055599964035,
                48.53630099982203
              ],
              [
                -117.86946900041733,
                48.53628900001614
              ],
              [
                -117.86883099983454,
                48.53628200022715
              ],
              [
                -117.86528900016144,
                48.536335999933655
              ],
              [
                -117.86311499991875,
                48.53636600001007
              ],
              [
                -117.86315299955359,
                48.5399389999716
              ],
              [
                -117.86316299959934,
                48.541034000146446
              ],
              [
                -117.86316900034541,
                48.54185100011213
              ],
              [
                -117.86318199986592,
                48.543215000097625
              ],
              [
                -117.86318699988875,
                48.54371099995387
              ],
              [
                -117.86636700006196,
                48.543685000211646
              ],
              [
                -117.8669339996013,
                48.54367999973356
              ],
              [
                -117.86697100030953,
                48.5423090002393
              ],
              [
                -117.8697999999551,
                48.54230799987863
              ],
              [
                -117.87416299961077,
                48.54230299985926
              ],
              [
                -117.87417699985448,
                48.54335499971486
              ],
              [
                -117.87417500020466,
                48.54357899984328
              ],
              [
                -117.87442100025194,
                48.54358099991961
              ],
              [
                -117.87450200044279,
                48.5436210002402
              ],
              [
                -117.87455400032135,
                48.543706000073094
              ],
              [
                -117.87455599997116,
                48.543819000112734
              ],
              [
                -117.87455699979608,
                48.54384400005055
              ],
              [
                -117.87457000021485,
                48.54445700018178
              ],
              [
                -117.87457400041282,
                48.54467100002565
              ],
              [
                -117.87457100003977,
                48.54486099985128
              ],
              [
                -117.87455599997116,
                48.54511999984198
              ],
              [
                -117.87455699979608,
                48.54571700004841
              ],
              [
                -117.87457699988757,
                48.54726499982682
              ],
              [
                -117.87458100008551,
                48.54739800009905
              ],
              [
                -117.87504600041594,
                48.54739199972768
              ],
              [
                -117.87545499977152,
                48.547387999876136
              ],
              [
                -117.8754740000381,
                48.547387000210556
              ],
              [
                -117.87644200033375,
                48.5473769999854
              ],
              [
                -117.87690799959076,
                48.54737199987214
              ],
              [
                -117.8770719996223,
                48.54736999994562
              ],
              [
                -117.87706999997245,
                48.54743999970552
              ],
              [
                -117.87708599986601,
                48.54816400024211
              ],
              [
                -117.87741599957887,
                48.54816299999717
              ],
              [
                -117.87776700010647,
                48.5481610001019
              ],
              [
                -117.8777479998399,
                48.547437000117085
              ],
              [
                -117.87774399964192,
                48.547362000238735
              ],
              [
                -117.87782599965772,
                48.54736099997794
              ],
              [
                -117.87823200043688,
                48.54735599986304
              ],
              [
                -117.87836799998102,
                48.54735500019682
              ],
              [
                -117.88005400032706,
                48.54733599999328
              ],
              [
                -117.88020300029,
                48.54733499973201
              ],
              [
                -117.88021099978758,
                48.54765200010385
              ],
              [
                -117.88023799955177,
                48.54860300000931
              ],
              [
                -117.88024699977258,
                48.548920999804324
              ],
              [
                -117.88024900032075,
                48.54895400024645
              ],
              [
                -117.88030500039724,
                48.54986799999281
              ],
              [
                -117.88032299994059,
                48.550438000046384
              ],
              [
                -117.88032100029075,
                48.55069800023362
              ],
              [
                -117.88042500004784,
                48.55085100008076
              ],
              [
                -117.88052499960695,
                48.55087399973016
              ],
              [
                -117.880712000103,
                48.550917000210134
              ],
              [
                -117.88206199999009,
                48.55090299991958
              ],
              [
                -117.88206100016517,
                48.55085800023368
              ],
              [
                -117.882062999815,
                48.55016600022292
              ],
              [
                -117.88207000038601,
                48.54851100019338
              ],
              [
                -117.88207200003582,
                48.54795799991498
              ],
              [
                -117.88207500040888,
                48.54722199981158
              ],
              [
                -117.88226700002949,
                48.5472010002196
              ],
              [
                -117.88370800015318,
                48.54704699977374
              ],
              [
                -117.88530300026261,
                48.54689199977854
              ],
              [
                -117.88584499968759,
                48.546852999935204
              ],
              [
                -117.88586399995417,
                48.54685200025905
              ],
              [
                -117.88635400039895,
                48.546843999875584
              ],
              [
                -117.88658700002743,
                48.54684599982289
              ],
              [
                -117.88686300021199,
                48.54686999977911
              ],
              [
                -117.88708900016779,
                48.54690299977469
              ],
              [
                -117.88736899965197,
                48.5469770000649
              ],
              [
                -117.88753199985855,
                48.54702899972193
              ],
              [
                -117.88768699966926,
                48.54708000024854
              ],
              [
                -117.88806199958799,
                48.54721999987913
              ],
              [
                -117.88805699956512,
                48.54738500028462
              ],
              [
                -117.8873999996141,
                48.54738500028462
              ],
              [
                -117.88739799996426,
                48.5481180002533
              ],
              [
                -117.88990699994271,
                48.54812599984067
              ],
              [
                -117.89020599969346,
                48.54829600028803
              ],
              [
                -117.89066799965082,
                48.548298999825555
              ],
              [
                -117.89139599974695,
                48.54816900027716
              ],
              [
                -117.89141199964047,
                48.548166999787455
              ],
              [
                -117.89163599994646,
                48.54841699973032
              ],
              [
                -117.89157099964915,
                48.54867299984774
              ],
              [
                -117.89157800022015,
                48.54898399998096
              ],
              [
                -117.89161300038025,
                48.55058500009223
              ],
              [
                -117.89161400020517,
                48.550643999792335
              ],
              [
                -117.89161699967988,
                48.55082199986153
              ],
              [
                -117.89161900022805,
                48.55088200007117
              ],
              [
                -117.89162199970278,
                48.55109499991364
              ],
              [
                -117.89163400029665,
                48.55173400000771
              ],
              [
                -117.89163799959628,
                48.551948000001644
              ],
              [
                -117.89164099996933,
                48.55214700016751
              ],
              [
                -117.89165199984,
                48.55274400013144
              ],
              [
                -117.89165600003797,
                48.552944000290225
              ],
              [
                -117.891659000411,
                48.553160000215925
              ],
              [
                -117.89166100006084,
                48.55323099984147
              ],
              [
                -117.89167199993149,
                48.55355700020154
              ],
              [
                -117.89168299980213,
                48.55402700000383
              ],
              [
                -117.89169000037313,
                48.55428700018213
              ],
              [
                -117.89169700004584,
                48.55430200025459
              ],
              [
                -117.89170100024378,
                48.55438999975751
              ],
              [
                -117.89170299989362,
                48.55449200019254
              ],
              [
                -117.89193200022248,
                48.55448799971302
              ],
              [
                -117.89304000026023,
                48.55446700016324
              ],
              [
                -117.89335099970651,
                48.554461000035424
              ],
              [
                -117.89862300010661,
                48.554360999782816
              ],
              [
                -117.89875000032822,
                48.554360999782816
              ],
              [
                -117.89908199969092,
                48.55435299999192
              ],
              [
                -117.89944499991408,
                48.55434500019971
              ],
              [
                -117.89945400013492,
                48.55481700004403
              ],
              [
                -117.89965699962617,
                48.55481499981714
              ],
              [
                -117.90014000039827,
                48.554808999730625
              ],
              [
                -117.90014100022316,
                48.5546759999093
              ],
              [
                -117.90013799985013,
                48.554435999990815
              ],
              [
                -117.90013799985013,
                48.55433299991451
              ],
              [
                -117.90035999960797,
                48.5543279998939
              ],
              [
                -117.9012979997664,
                48.55431100017699
              ],
              [
                -117.90189899964092,
                48.55426800020291
              ],
              [
                -117.90192499958022,
                48.55426599995436
              ],
              [
                -117.90206000019775,
                48.55425700002396
              ],
              [
                -117.90226199986411,
                48.55424300006294
              ],
              [
                -117.90240499997923,
                48.554249999746595
              ],
              [
                -117.90272499964638,
                48.554267000078625
              ],
              [
                -117.90283400032462,
                48.55427300022946
              ],
              [
                -117.90297800026465,
                48.554281000032994
              ],
              [
                -117.90297300024179,
                48.55475799985834
              ],
              [
                -117.90374499982056,
                48.554755000109076
              ],
              [
                -117.9041480002267,
                48.554755000109076
              ],
              [
                -117.90434200039545,
                48.55475799985834
              ],
              [
                -117.9043409996722,
                48.55488899983473
              ],
              [
                -117.9043409996722,
                48.555040999981394
              ],
              [
                -117.90433999984731,
                48.555115999775964
              ],
              [
                -117.9043380001975,
                48.55534399999082
              ],
              [
                -117.9043380001975,
                48.55542000003234
              ],
              [
                -117.90433499982444,
                48.5561239999968
              ],
              [
                -117.90557299955853,
                48.556116999977824
              ],
              [
                -117.90696799965146,
                48.55612199982163
              ],
              [
                -117.90697000019958,
                48.55622499982332
              ],
              [
                -117.90700399963646,
                48.557780000205696
              ],
              [
                -117.90700600018461,
                48.55791599975295
              ],
              [
                -117.9079290002744,
                48.55791100008644
              ],
              [
                -117.90822700020023,
                48.55790899998192
              ],
              [
                -117.90828499992655,
                48.55697300004436
              ],
              [
                -117.9084580001789,
                48.55426999985682
              ],
              [
                -117.9085560000882,
                48.55426999985682
              ],
              [
                -117.90861299998963,
                48.554311999705796
              ],
              [
                -117.9086899999825,
                48.5543569998875
              ],
              [
                -117.90948300037597,
                48.55482099990293
              ],
              [
                -117.91024400008408,
                48.555370999791755
              ],
              [
                -117.9102609998025,
                48.55538100022089
              ],
              [
                -117.91079599955481,
                48.55570599971295
              ],
              [
                -117.91080999979852,
                48.55572599984216
              ],
              [
                -117.91086099985213,
                48.5557459999635
              ],
              [
                -117.91087799957057,
                48.55575599972391
              ],
              [
                -117.91106300041683,
                48.55586900020883
              ],
              [
                -117.91112600016599,
                48.55590700014683
              ],
              [
                -117.91210600015722,
                48.55564099998155
              ],
              [
                -117.91319300027858,
                48.55535399983069
              ],
              [
                -117.91317999985978,
                48.55474100028591
              ],
              [
                -117.91462799965613,
                48.55472699986421
              ],
              [
                -117.91601199987839,
                48.55563000010106
              ],
              [
                -117.91780000033171,
                48.55443499986985
              ],
              [
                -117.91837100006902,
                48.55481700004403
              ],
              [
                -117.9184339998182,
                48.55485900003348
              ],
              [
                -117.91874799963757,
                48.55506900005248
              ],
              [
                -117.9178480000123,
                48.555672000010205
              ],
              [
                -117.91840000038134,
                48.55582500027628
              ],
              [
                -117.91895500022511,
                48.55591200001135
              ],
              [
                -117.91908999994433,
                48.55601700002545
              ],
              [
                -117.92007199958537,
                48.55668599972036
              ],
              [
                -117.92088900026828,
                48.558771000261224
              ],
              [
                -117.92090099996386,
                48.55937500011424
              ],
              [
                -117.91951900028974,
                48.559399000073626
              ],
              [
                -117.91953299963511,
                48.560233999769984
              ],
              [
                -117.91954799970374,
                48.56099500005567
              ],
              [
                -117.91955100007677,
                48.56132300029722
              ],
              [
                -117.91974500024554,
                48.561334000128916
              ],
              [
                -117.92001499968396,
                48.56138199996091
              ],
              [
                -117.92056600022809,
                48.5614929998067
              ],
              [
                -117.92088300042052,
                48.56156700016308
              ],
              [
                -117.92092299970516,
                48.5615769999619
              ],
              [
                -117.9212349998747,
                48.561664999890006
              ],
              [
                -117.92143499989125,
                48.56174199992438
              ],
              [
                -117.9218349999243,
                48.56189600023608
              ],
              [
                -117.92193600020667,
                48.56193499978117
              ],
              [
                -117.92239800016402,
                48.56207999977749
              ],
              [
                -117.9230509999171,
                48.5622350002159
              ],
              [
                -117.92307600003144,
                48.56223800011611
              ],
              [
                -117.92312999955979,
                48.562246999815784
              ],
              [
                -117.92323400021519,
                48.562802000196825
              ],
              [
                -117.92334499964495,
                48.563401999703125
              ],
              [
                -117.92503199981593,
                48.56336799982227
              ],
              [
                -117.92511600037983,
                48.56336699987787
              ],
              [
                -117.92510799998391,
                48.562959000111164
              ],
              [
                -117.92510100031122,
                48.56259500005341
              ],
              [
                -117.92510100031122,
                48.56238399980214
              ],
              [
                -117.92509999958801,
                48.56219599971304
              ],
              [
                -117.92512499970235,
                48.5621519999328
              ],
              [
                -117.92517400010614,
                48.56203599989634
              ],
              [
                -117.92517400010614,
                48.561780000207
              ],
              [
                -117.92517400010614,
                48.56170800011669
              ],
              [
                -117.92547600022993,
                48.5617199998416
              ],
              [
                -117.92559000003276,
                48.561729000227906
              ],
              [
                -117.92563000021573,
                48.56173400011159
              ],
              [
                -117.92567600024647,
                48.56174199992438
              ],
              [
                -117.9256999996376,
                48.56174399987739
              ],
              [
                -117.9258050001179,
                48.56175200028316
              ],
              [
                -117.92584299975275,
                48.561755000212024
              ],
              [
                -117.92587100024015,
                48.56175700016453
              ],
              [
                -117.92605600018805,
                48.56177900023122
              ],
              [
                -117.92613900002874,
                48.56179699979229
              ],
              [
                -117.92620500015099,
                48.56182500028574
              ],
              [
                -117.9262550003797,
                48.56186099996318
              ],
              [
                -117.9262960003876,
                48.56190799991639
              ],
              [
                -117.9263049997101,
                48.56192500005314
              ],
              [
                -117.92632700034973,
                48.56197399989075
              ],
              [
                -117.92633700039546,
                48.56204600019696
              ],
              [
                -117.92633599967223,
                48.56212300024589
              ],
              [
                -117.9263309996494,
                48.562203000079904
              ],
              [
                -117.92632399997667,
                48.562282999787385
              ],
              [
                -117.92631800012889,
                48.562361000034315
              ],
              [
                -117.9263120002811,
                48.56243299978962
              ],
              [
                -117.92630700025823,
                48.56250100019107
              ],
              [
                -117.92630200023538,
                48.56256600002594
              ],
              [
                -117.92629700021249,
                48.562627999900386
              ],
              [
                -117.92629100036473,
                48.562687999783215
              ],
              [
                -117.92628700016675,
                48.56274600027606
              ],
              [
                -117.92628499961862,
                48.562802000196825
              ],
              [
                -117.92628799999167,
                48.5628560001466
              ],
              [
                -117.92630899990807,
                48.56296000006362
              ],
              [
                -117.9263249998016,
                48.56301199994192
              ],
              [
                -117.92634700044121,
                48.56306099991553
              ],
              [
                -117.9263769996801,
                48.5631109997911
              ],
              [
                -117.92645399967303,
                48.56321000004102
              ],
              [
                -117.92649600040414,
                48.56325999976933
              ],
              [
                -117.9265359996888,
                48.56331499977004
              ],
              [
                -117.92658300044278,
                48.56336799982227
              ],
              [
                -117.9266289995752,
                48.56342299970559
              ],
              [
                -117.92667799997902,
                48.56347800012355
              ],
              [
                -117.92668800002473,
                48.56349000002305
              ],
              [
                -117.92672700038281,
                48.563533999828365
              ],
              [
                -117.92677699971321,
                48.563589000125624
              ],
              [
                -117.92682100009414,
                48.56364700017977
              ],
              [
                -117.92685799990406,
                48.56370700004281
              ],
              [
                -117.9268820001935,
                48.563771000174896
              ],
              [
                -117.92689399988906,
                48.56383299976126
              ],
              [
                -117.92689399988906,
                48.56389200006409
              ],
              [
                -117.92688499966825,
                48.563946999972046
              ],
              [
                -117.92686999959962,
                48.56400600014193
              ],
              [
                -117.92685399970611,
                48.56404499984361
              ],
              [
                -117.92684899968324,
                48.56406099992593
              ],
              [
                -117.92682299974395,
                48.56411399979092
              ],
              [
                -117.92679599997979,
                48.5641680001234
              ],
              [
                -117.92677000004052,
                48.56421100000569
              ],
              [
                -117.92674400010127,
                48.56425800015313
              ],
              [
                -117.92670999976605,
                48.56431899981142
              ],
              [
                -117.92745499958063,
                48.564487000107654
              ],
              [
                -117.92825200017205,
                48.563091000203485
              ],
              [
                -117.92837699984554,
                48.56313900015166
              ],
              [
                -117.92877799970354,
                48.563292999776934
              ],
              [
                -117.92917500026188,
                48.56344500023665
              ],
              [
                -117.9286630000758,
                48.56449600000165
              ],
              [
                -117.92916000019325,
                48.564788000184144
              ],
              [
                -117.93009699962845,
                48.5652270001769
              ],
              [
                -117.93064399997465,
                48.56523099980721
              ],
              [
                -117.93225900017558,
                48.56522800008451
              ],
              [
                -117.93225199960456,
                48.56571399980819
              ],
              [
                -117.93064700034768,
                48.56572399997609
              ],
              [
                -117.93070300042417,
                48.56876600003799
              ],
              [
                -117.93070599989892,
                48.56891500000049
              ],
              [
                -117.93228900031282,
                48.56890799996816
              ],
              [
                -117.93228599993977,
                48.56875500003935
              ],
              [
                -117.93226800039642,
                48.567747000056485
              ],
              [
                -117.93399700040018,
                48.56773300026201
              ],
              [
                -117.93416999975422,
                48.567727999782484
              ],
              [
                -117.93423599987646,
                48.56772600006609
              ],
              [
                -117.9342240001809,
                48.56797799996959
              ],
              [
                -117.93437700034177,
                48.56797700011635
              ],
              [
                -117.93614300015544,
                48.56796999995419
              ],
              [
                -117.93613800013257,
                48.567671999965846
              ],
              [
                -117.93613399993463,
                48.56744099984387
              ],
              [
                -117.93613599958445,
                48.56740800016493
              ],
              [
                -117.93614599963018,
                48.567253999991365
              ],
              [
                -117.93614700035342,
                48.56723900019257
              ],
              [
                -117.93615400002611,
                48.567140000101226
              ]
            ]
          ],
          [
            [
              [
                -117.87703499981237,
                48.554587000191255
              ],
              [
                -117.87688400019965,
                48.55398499991827
              ],
              [
                -117.87680200018386,
                48.55364199999576
              ],
              [
                -117.87670299955136,
                48.55331799987493
              ],
              [
                -117.87685900008528,
                48.553292999860105
              ],
              [
                -117.87674100008448,
                48.5531449998049
              ],
              [
                -117.87664800019809,
                48.55300300021279
              ],
              [
                -117.87660899984003,
                48.552944000290225
              ],
              [
                -117.87653400039525,
                48.55274599984558
              ],
              [
                -117.87650900028092,
                48.55266599992068
              ],
              [
                -117.8764580002273,
                48.552498000201766
              ],
              [
                -117.87640700017364,
                48.55233500014305
              ],
              [
                -117.87637100018864,
                48.552215000125436
              ],
              [
                -117.87629699967047,
                48.552079000118184
              ],
              [
                -117.8761500002557,
                48.55198000008411
              ],
              [
                -117.87598100020129,
                48.55192599982173
              ],
              [
                -117.87576600011614,
                48.55190300005585
              ],
              [
                -117.87557799979515,
                48.55190599997417
              ],
              [
                -117.87544200025107,
                48.551911000234135
              ],
              [
                -117.874961999852,
                48.55191599989895
              ],
              [
                -117.87476699985837,
                48.55186999975303
              ],
              [
                -117.8746920004136,
                48.55176500005176
              ],
              [
                -117.87465600042859,
                48.551653000090674
              ],
              [
                -117.87460500037496,
                48.548993999888495
              ],
              [
                -117.87458100008551,
                48.54739800009905
              ],
              [
                -117.8727149998144,
                48.54741299983511
              ],
              [
                -117.87282799979234,
                48.55168199983359
              ],
              [
                -117.87450200044279,
                48.551650000157316
              ],
              [
                -117.87459500032925,
                48.55164799980521
              ],
              [
                -117.87463700016204,
                48.55180400027206
              ],
              [
                -117.87444299999326,
                48.551807000196284
              ],
              [
                -117.87289100043984,
                48.5518380001956
              ],
              [
                -117.872982999603,
                48.55456999996675
              ],
              [
                -117.87298500015113,
                48.55461700015379
              ],
              [
                -117.87328999974967,
                48.554614999918996
              ],
              [
                -117.87703499981237,
                48.554587000191255
              ]
            ]
          ],
          [
            [
              [
                -117.91964999981099,
                48.565201000194115
              ],
              [
                -117.91964300013827,
                48.56493699997784
              ],
              [
                -117.91963399991745,
                48.56456300008669
              ],
              [
                -117.91959899975734,
                48.563253000143256
              ],
              [
                -117.9195889997116,
                48.56286299982761
              ],
              [
                -117.91955000025187,
                48.5614929998067
              ],
              [
                -117.91955100007677,
                48.56132300029722
              ],
              [
                -117.91947900010676,
                48.56131899976332
              ],
              [
                -117.91916899958704,
                48.5613250002668
              ],
              [
                -117.91897899961624,
                48.56133000019038
              ],
              [
                -117.91859000035214,
                48.5613390000516
              ],
              [
                -117.91845300008478,
                48.561341000020555
              ],
              [
                -117.91804499965578,
                48.56134999987978
              ],
              [
                -117.91790999993658,
                48.5613469999269
              ],
              [
                -117.91779100011087,
                48.561342999989385
              ],
              [
                -117.91758100004859,
                48.5613250002668
              ],
              [
                -117.91713199961171,
                48.56123699974723
              ],
              [
                -117.9170479999461,
                48.561220999960575
              ],
              [
                -117.91653300028531,
                48.56111600004619
              ],
              [
                -117.91655199965356,
                48.56149499976953
              ],
              [
                -117.91655300037681,
                48.56151300002619
              ],
              [
                -117.91660000023245,
                48.56257600022182
              ],
              [
                -117.91665600030898,
                48.56319700012733
              ],
              [
                -117.91668499972295,
                48.56414799976479
              ],
              [
                -117.91694300036413,
                48.564650000250985
              ],
              [
                -117.91700600011332,
                48.56477300024839
              ],
              [
                -117.91710099964958,
                48.564879000214034
              ],
              [
                -117.9173900002529,
                48.56520000028596
              ],
              [
                -117.91796799966288,
                48.565201000194115
              ],
              [
                -117.91858299978111,
                48.56520000028596
              ],
              [
                -117.91912500010442,
                48.565201000194115
              ],
              [
                -117.91964999981099,
                48.565201000194115
              ]
            ]
          ]
        ]
      },
      "properties": {
        "AREALAND": "7998401",
        "AREAWATER": "0",
        "BASENAME": "Colville",
        "CBSAPCI": "N",
        "CENTLAT": "+48.5454477",
        "CENTLON": "-117.8984792",
        "FUNCSTAT": "A",
        "GEOID": "5314170",
        "INTPTLAT": "+48.5454477",
        "INTPTLON": "-117.8984792",
        "LSADC": "25",
        "MTFCC": "G4110",
        "NAME": "Colville city",
        "NECTAPCI": "N",
        "OBJECTID": 21117,
        "OID": "27890481818965",
        "PLACE": "14170",
        "PLACECC": "C1",
        "PLACENS": "02410205",
        "STATE": "53",
        "DISP_CLR": 4,
        "slug": "colville",
        "jurisdiction_key": "colville_city",
        "county_fips": [
          "53065"
        ]
      }
    }
  ]
}
