{"type":"FeatureCollection","features":[{"type":"Feature","geometry":{"type":"Polygon","coordinates":[[[-118.99543499978367,47.964849999969694],[-118.99545700042327,47.964849999969694],[-118.99542300008811,47.96333400002026],[-118.994253999951,47.963344999966715],[-118.99133900009168,47.96337200026269],[-118.99085100019506,47.962307000009204],[-118.99080699981414,47.9622110000547],[-118.99079599994349,47.96212999970993],[-118.99023699990173,47.962121000198465],[-118.98964000022517,47.96211400017635],[-118.98935999984266,47.9621109997369],[-118.98960599988997,47.96118999975732],[-118.9887149995872,47.96106899998246],[-118.9886429996172,47.961317999981254],[-118.98843799957778,47.96128900029198],[-118.98836700033098,47.96127900027089],[-118.98800300028292,47.961227000009714],[-118.98729100008028,47.96112599982722],[-118.98723300035395,47.961058999918784],[-118.98745599993671,47.96037499975175],[-118.98725000007241,47.96033200020996],[-118.98682499992498,47.96023600019449],[-118.98636799999048,47.960134999879145],[-118.9863760003864,47.96045099974964],[-118.98643599976253,47.96055200004875],[-118.98668400035794,47.9610359998853],[-118.98654999956536,47.96111599977458],[-118.98629600002045,47.96126799988454],[-118.98618100039272,47.96132000010441],[-118.98613899966162,47.96133899976681],[-118.9859970002697,47.96140399979379],[-118.98585800035254,47.96146500010561],[-118.9855960004117,47.961581999930225],[-118.98554399963486,47.961611000056536],[-118.98545099974844,47.961665000041],[-118.98532100005208,47.96174200029992],[-118.98527199964832,47.961789999832945],[-118.98519499965539,47.96186900000748],[-118.98513299973112,47.96194300011467],[-118.98509000007343,47.96199699975205],[-118.98503900001977,47.96204300015615],[-118.98483900000326,47.96199699975205],[-118.98472400037554,47.96196700009415],[-118.98454299972724,47.96192400007286],[-118.98428499998438,47.96186199995122],[-118.98409199964054,47.9618150002363],[-118.98405499983062,47.96187899991436],[-118.98401399982272,47.962045999998004],[-118.98376100010273,47.96204300015615],[-118.982913000356,47.962033000281025],[-118.98223399976536,47.96202499989831],[-118.98223399976536,47.96209199975692],[-118.98223600031349,47.96226200018433],[-118.98223700013838,47.96227200001513],[-118.98218500025986,47.96229200027246],[-118.98050800013462,47.96292899981561],[-118.98005899969775,47.963100999948836],[-118.97983299974194,47.96309499978595],[-118.97658700034484,47.963103999729256],[-118.97538300004764,47.963109999891095],[-118.97528500013836,47.963109999891095],[-118.9745710002859,47.963109999891095],[-118.9716270001143,47.96311899983174],[-118.97095799956938,47.96312000015922],[-118.97096400031548,47.96320300020495],[-118.97103200008755,47.96409400015882],[-118.97104999963088,47.964322999948145],[-118.97096000011751,47.964469000242616],[-118.97084100029181,47.96465900000785],[-118.97048599956626,47.9652320001806],[-118.96985499955451,47.96609500029272],[-118.96984399968385,47.96611000012814],[-118.96945799989447,47.965986999905454],[-118.96906899973206,47.96585400025442],[-118.96946899976511,47.96526100006234],[-118.96887600028654,47.965121999817455],[-118.96741400024646,47.96477500012247],[-118.96646199984431,47.96624299972148],[-118.96542499995168,47.96782700017918],[-118.96487299958264,47.969136000025955],[-118.96478800009214,47.96933800014609],[-118.96485900023725,47.9694909997231],[-118.96532299984445,47.970466000059794],[-118.96628399956909,47.969964000270004],[-118.96715200030563,47.969614000021444],[-118.96771600037025,47.96960200000523],[-118.9678970001202,47.96957300015503],[-118.96859000005625,47.96970200025559],[-118.9691499999229,47.96984000000647],[-118.96957099987237,47.97016000021506],[-118.96978699978244,47.97060100022859],[-118.96984399968385,47.970757000211336],[-118.9698830000419,47.970861999714586],[-118.96997000008056,47.97109800017891],[-118.96982699996542,47.971537999836464],[-118.96980000020125,47.97162199974955],[-118.96913300020448,47.972195999808605],[-118.96845600016196,47.97247200004663],[-118.96765799974561,47.97269300004528],[-118.96465300037295,47.973526999945896],[-118.9630239999283,47.97409300016239],[-118.96150800035987,47.975718000241784],[-118.96225099962629,47.97690000000674],[-118.96230400022806,47.97698400021783],[-118.96243200027457,47.9771349998815],[-118.96249099982582,47.97715300028585],[-118.96369099992506,47.97752100022818],[-118.96396700010958,47.97752299972391],[-118.96459999977118,47.977524999820965],[-118.96471899959684,47.97756800008418],[-118.96578499980178,47.97758699978355],[-118.96683400028832,47.977603999983366],[-118.96781199973138,47.97760299993641],[-118.9692489996571,47.97759999979535],[-118.96971499981244,47.9775989997483],[-118.970030000355,47.9775989997483],[-118.97107999976812,47.97759500016125],[-118.97182399975779,47.97758699978355],[-118.9726840000984,47.976913000191516],[-118.97456799991288,47.975623000040336],[-118.97491799971722,47.97538400014053],[-118.97648000021472,47.97444800006375],[-118.97855300017507,47.97302099989988],[-118.98017900024665,47.9715749998938],[-118.98141000030803,47.97021400028404],[-118.98177500018103,47.96968799985931],[-118.98350199963666,47.969998000270834],[-118.98400799997496,47.97005799986391],[-118.98413600002146,47.97007200015988],[-118.9844909998487,47.969437000101045],[-118.98548000006078,47.96890599970736],[-118.98554399963486,47.96873699971214],[-118.98570400036674,47.96834599993092],[-118.98621400000468,47.967526999984855],[-118.9867350004116,47.96664700014868],[-118.98758099961019,47.965386999857216],[-118.9877360003192,47.96515900026103],[-118.98783400022847,47.964964999965105],[-118.98777999980182,47.964926000000624],[-118.9885599997765,47.964441000218116],[-118.988912000129,47.96421700007729],[-118.98930200011634,47.96430400018025],[-118.99207999970831,47.96486900013831],[-118.99331699961745,47.964861999887056],[-118.99543499978367,47.964849999969694]]]},"properties":{"AREALAND":"1853879","AREAWATER":"192661","BASENAME":"Coulee Dam","CBSAPCI":"N","CENTLAT":"+47.9688691","CENTLON":"-118.9760256","FUNCSTAT":"A","GEOID":"5315115","INTPTLAT":"+47.9685106","INTPTLON":"-118.9762797","LSADC":"43","MTFCC":"G4110","NAME":"Coulee Dam town","NECTAPCI":"N","OBJECTID":9054,"OID":"27890249576452","PLACE":"15115","PLACECC":"C1","PLACENS":"02413249","STATE":"53","DISP_CLR":3,"slug":"coulee_dam","jurisdiction_key":"coulee_dam_city","county_fips":["53017","53025","53047"]}}]}
