{
  "type": "FeatureCollection",
  "features": [
    {
      "type": "Feature",
      "geometry": {
        "type": "Polygon",
        "coordinates": [
          [
            [
              -118.52714600000007,
              47.75579000025866
            ],
            [
              -118.52714699982499,
              47.75541800028319
            ],
            [
              -118.52707900005294,
              47.75540799973088
            ],
            [
              -118.52093399979175,
              47.7545469998682
            ],
            [
              -118.52078200035407,
              47.754168999832615
            ],
            [
              -118.52058499981227,
              47.75367700012154
            ],
            [
              -118.52034700016088,
              47.752838000016546
            ],
            [
              -118.5200659999535,
              47.75190500006554
            ],
            [
              -118.51994100028001,
              47.75170900005748
            ],
            [
              -118.51984199964751,
              47.75155399986121
            ],
            [
              -118.51963499995828,
              47.751376999789436
            ],
            [
              -118.51884900013583,
              47.751875000001206
            ],
            [
              -118.51803599965088,
              47.75411500012105
            ],
            [
              -118.51625099957062,
              47.75385999988714
            ],
            [
              -118.51522999957152,
              47.75383499986802
            ],
            [
              -118.51517400039333,
              47.75383700015991
            ],
            [
              -118.51517799969298,
              47.755439999800515
            ],
            [
              -118.51517799969298,
              47.755549000154204
            ],
            [
              -118.51518000024112,
              47.75615599998655
            ],
            [
              -118.51518000024112,
              47.756342999880125
            ],
            [
              -118.51520199998241,
              47.7563410002885
            ],
            [
              -118.51520500035546,
              47.756659999704944
            ],
            [
              -118.51521700005101,
              47.758165999992045
            ],
            [
              -118.51522100024899,
              47.758668000063274
            ],
            [
              -118.51521600022612,
              47.759240000094316
            ],
            [
              -118.51523100029475,
              47.75967400023571
            ],
            [
              -118.51525300003604,
              47.76031799985143
            ],
            [
              -118.51520299980733,
              47.76031799985143
            ],
            [
              -118.51501600020958,
              47.760319999894065
            ],
            [
              -118.51443000040364,
              47.760323999979136
            ],
            [
              -118.51442600020569,
              47.760236999871076
            ],
            [
              -118.51441199996201,
              47.75982899979707
            ],
            [
              -118.51496400033105,
              47.759829999827765
            ],
            [
              -118.51497100000373,
              47.75867000016934
            ],
            [
              -118.5149550001102,
              47.75867000016934
            ],
            [
              -118.51437099995411,
              47.75867499983031
            ],
            [
              -118.51336599984853,
              47.758683999701965
            ],
            [
              -118.51342100010012,
              47.7603370002535
            ],
            [
              -118.51350700031387,
              47.76591499998494
            ],
            [
              -118.51377099990448,
              47.76591499998494
            ],
            [
              -118.51650800038686,
              47.765910999725946
            ],
            [
              -118.51650800038686,
              47.76478999970727
            ],
            [
              -118.52285500031444,
              47.76478599996559
            ],
            [
              -118.52329200015744,
              47.7647830001591
            ],
            [
              -118.5232829999366,
              47.762202999897454
            ],
            [
              -118.52215999983025,
              47.762206999837744
            ],
            [
              -118.52215499980736,
              47.76208199974673
            ],
            [
              -118.52211700017254,
              47.76065399989951
            ],
            [
              -118.52210499957864,
              47.76016800005671
            ],
            [
              -118.52247700002265,
              47.76016800005671
            ],
            [
              -118.52275200038227,
              47.76016800005671
            ],
            [
              -118.52286399963694,
              47.76016800005671
            ],
            [
              -118.52348299995315,
              47.76015100024594
            ],
            [
              -118.52348100030332,
              47.76064399974971
            ],
            [
              -118.52346600023469,
              47.762193000045414
            ],
            [
              -118.52363699993892,
              47.762193000045414
            ],
            [
              -118.52425799990493,
              47.762198999956865
            ],
            [
              -118.52524499956887,
              47.76218700013323
            ],
            [
              -118.5260279999166,
              47.762178000263674
            ],
            [
              -118.52601399967288,
              47.76331599980074
            ],
            [
              -118.52697699994566,
              47.76332999989471
            ],
            [
              -118.52698899964122,
              47.76217099976021
            ],
            [
              -118.52699100018937,
              47.76199000021734
            ],
            [
              -118.5270070000829,
              47.76073699986111
            ],
            [
              -118.5270220001515,
              47.75961500002422
            ],
            [
              -118.5270220001515,
              47.759438000196056
            ],
            [
              -118.52702100032658,
              47.75890700011789
            ],
            [
              -118.52701799995356,
              47.75873099974458
            ],
            [
              -118.52712099988572,
              47.75797699987463
            ],
            [
              -118.52713599995433,
              47.757416000093585
            ],
            [
              -118.52714299962702,
              47.75678999998346
            ],
            [
              -118.52714500017515,
              47.755867000091854
            ],
            [
              -118.52714600000007,
              47.75579000025866
            ]
          ]
        ]
      },
      "properties": {
        "AREALAND": "1071371",
        "AREAWATER": "0",
        "BASENAME": "Creston",
        "CBSAPCI": "N",
        "CENTLAT": "+47.7594154",
        "CENTLON": "-118.5199134",
        "FUNCSTAT": "A",
        "GEOID": "5315710",
        "INTPTLAT": "+47.7594154",
        "INTPTLON": "-118.5199134",
        "LSADC": "43",
        "MTFCC": "G4110",
        "NAME": "Creston town",
        "NECTAPCI": "N",
        "OBJECTID": 4562,
        "OID": "27890480264303",
        "PLACE": "15710",
        "PLACECC": "C1",
        "PLACENS": "02412386",
        "STATE": "53",
        "DISP_CLR": 5,
        "slug": "creston",
        "jurisdiction_key": "creston_city",
        "county_fips": [
          "53043"
        ]
      }
    }
  ]
}
