{
  "type": "FeatureCollection",
  "features": [
    {
      "type": "Feature",
      "geometry": {
        "type": "MultiPolygon",
        "coordinates": [
          [
            [
              [
                -119.29911699975597,
                47.616650000176264
              ],
              [
                -119.29912599997678,
                47.61609800030078
              ],
              [
                -119.29909500001465,
                47.6155270001153
              ],
              [
                -119.29909500001465,
                47.61524999974124
              ],
              [
                -119.29909400018975,
                47.614957999924606
              ],
              [
                -119.29909400018975,
                47.61474899975352
              ],
              [
                -119.29909400018975,
                47.614670999849366
              ],
              [
                -119.29912099995391,
                47.614160999751626
              ],
              [
                -119.29912099995391,
                47.613908999976076
              ],
              [
                -119.29912199977883,
                47.613572999799274
              ],
              [
                -119.29911799958089,
                47.6133429997925
              ],
              [
                -119.29910699971023,
                47.61265400019254
              ],
              [
                -119.29910400023546,
                47.61242500021579
              ],
              [
                -119.29910400023546,
                47.61235700003226
              ],
              [
                -119.29894299967869,
                47.61235700003226
              ],
              [
                -119.2985140002316,
                47.61235200025569
              ],
              [
                -119.29851199968344,
                47.61217299994722
              ],
              [
                -119.29850599983568,
                47.611770000231
              ],
              [
                -119.29843999971344,
                47.60652199980109
              ],
              [
                -119.29843899988852,
                47.60643099981859
              ],
              [
                -119.29842800001786,
                47.60557099979987
              ],
              [
                -119.29842700019297,
                47.60516800008735
              ],
              [
                -119.29734000007163,
                47.605176999830775
              ],
              [
                -119.29673699964894,
                47.60518200029328
              ],
              [
                -119.29547999964831,
                47.60518200029328
              ],
              [
                -119.28939899985951,
                47.60518200029328
              ],
              [
                -119.288693000403,
                47.60518300026454
              ],
              [
                -119.28779500042756,
                47.60518600017834
              ],
              [
                -119.28763600041889,
                47.60518300026454
              ],
              [
                -119.2875100000222,
                47.60518300026454
              ],
              [
                -119.2875100000222,
                47.60519599988972
              ],
              [
                -119.28749400012867,
                47.605779999705625
              ],
              [
                -119.2874179999607,
                47.60577399994604
              ],
              [
                -119.28741600031087,
                47.60590699990697
              ],
              [
                -119.287411000288,
                47.606309999982635
              ],
              [
                -119.28740999956477,
                47.60644399973925
              ],
              [
                -119.287411000288,
                47.60664700013131
              ],
              [
                -119.28741700013578,
                47.60725600021434
              ],
              [
                -119.28741999961053,
                47.607458999877664
              ],
              [
                -119.28742200015866,
                47.60762900004269
              ],
              [
                -119.28743100037948,
                47.608142999909724
              ],
              [
                -119.28743399985422,
                47.60831400018561
              ],
              [
                -119.28743100037948,
                47.608370000041084
              ],
              [
                -119.28742399980845,
                47.60854000027336
              ],
              [
                -119.28742200015866,
                47.608596999792894
              ],
              [
                -119.28741399976275,
                47.60872999984342
              ],
              [
                -119.28741299993781,
                47.608751000234875
              ],
              [
                -119.28741299993781,
                47.60880700022811
              ],
              [
                -119.2862570002195,
                47.608786999761556
              ],
              [
                -119.28604100030944,
                47.608785999859144
              ],
              [
                -119.28303400038864,
                47.608751000234875
              ],
              [
                -119.2830400002364,
                47.6090010002385
              ],
              [
                -119.28133600034701,
                47.60898799974208
              ],
              [
                -119.28134399984461,
                47.60857300022589
              ],
              [
                -119.28134999969241,
                47.60840800025498
              ],
              [
                -119.27972899964365,
                47.60839099997144
              ],
              [
                -119.2797229997959,
                47.608626999993234
              ],
              [
                -119.27971500029828,
                47.60899000014474
              ],
              [
                -119.27866699963668,
                47.60899100004325
              ],
              [
                -119.27794199991361,
                47.60899100004325
              ],
              [
                -119.27746900008557,
                47.60898699984351
              ],
              [
                -119.27677000030172,
                47.60899600014114
              ],
              [
                -119.2767729997765,
                47.609320000133394
              ],
              [
                -119.27678500037038,
                47.60983899975159
              ],
              [
                -119.27679600024102,
                47.610088000127675
              ],
              [
                -119.2767800003475,
                47.61067099996328
              ],
              [
                -119.27678700002018,
                47.61138200004789
              ],
              [
                -119.27679700006594,
                47.612342000095616
              ],
              [
                -119.27697299979303,
                47.612341000261175
              ],
              [
                -119.27750099987263,
                47.61233899998668
              ],
              [
                -119.27767800032292,
                47.61233899998668
              ],
              [
                -119.27783800015652,
                47.61233899998668
              ],
              [
                -119.27787400014155,
                47.61233899998668
              ],
              [
                -119.27870299962169,
                47.612341000261175
              ],
              [
                -119.28177800021288,
                47.61234799970741
              ],
              [
                -119.28218300026883,
                47.612349000147326
              ],
              [
                -119.28280400023485,
                47.61235099981588
              ],
              [
                -119.28279800038706,
                47.61253400004949
              ],
              [
                -119.28279699966386,
                47.61257099983023
              ],
              [
                -119.28279699966386,
                47.613086000002134
              ],
              [
                -119.28279800038706,
                47.61326999990272
              ],
              [
                -119.2828000000369,
                47.61344299999873
              ],
              [
                -119.2828059998847,
                47.61396599969998
              ],
              [
                -119.28280900025773,
                47.61413999971579
              ],
              [
                -119.28281099990754,
                47.61431299996152
              ],
              [
                -119.28282000012838,
                47.614836000045045
              ],
              [
                -119.28282299960311,
                47.615010000193784
              ],
              [
                -119.28282199977819,
                47.61508500024639
              ],
              [
                -119.28282199977819,
                47.615312999697274
              ],
              [
                -119.28282199977819,
                47.615389000302564
              ],
              [
                -119.28282199977819,
                47.615901000067446
              ],
              [
                -119.28281699975535,
                47.61935799981036
              ],
              [
                -119.28282000012838,
                47.61957499971623
              ],
              [
                -119.28450099955325,
                47.61956699972454
              ],
              [
                -119.2845030001014,
                47.62001000014683
              ],
              [
                -119.28282599997617,
                47.619998000258676
              ],
              [
                -119.28282599997617,
                47.62001499979667
              ],
              [
                -119.28284000021986,
                47.62090500008835
              ],
              [
                -119.28283900039496,
                47.62127899971871
              ],
              [
                -119.28283799967173,
                47.62445100001132
              ],
              [
                -119.28283799967173,
                47.62487399985053
              ],
              [
                -119.28284400041782,
                47.62579799992628
              ],
              [
                -119.28284100004478,
                47.62650900017941
              ],
              [
                -119.28285000026563,
                47.626770000037396
              ],
              [
                -119.28285899958814,
                47.62857800005396
              ],
              [
                -119.28298400015991,
                47.628531000006184
              ],
              [
                -119.28336300027661,
                47.62839099974217
              ],
              [
                -119.28348899977499,
                47.62834500026547
              ],
              [
                -119.2837730003554,
                47.62820299983556
              ],
              [
                -119.28462600012504,
                47.62778000029762
              ],
              [
                -119.28491099963206,
                47.627639000296284
              ],
              [
                -119.28495900021096,
                47.62760799995732
              ],
              [
                -119.28503899967859,
                47.62755799980149
              ],
              [
                -119.2852570001368,
                47.62681200024773
              ],
              [
                -119.2852720002054,
                47.62667900017227
              ],
              [
                -119.28557400032919,
                47.62639399999536
              ],
              [
                -119.28562000035998,
                47.626290999821066
              ],
              [
                -119.28558900039782,
                47.62617900028877
              ],
              [
                -119.28553400014624,
                47.62609799995314
              ],
              [
                -119.28540399955159,
                47.625993000048766
              ],
              [
                -119.28525799996171,
                47.62591099984993
              ],
              [
                -119.28516900027326,
                47.625817999941276
              ],
              [
                -119.28509599958,
                47.62569199984012
              ],
              [
                -119.28507999968647,
                47.62540699973064
              ],
              [
                -119.28510499980084,
                47.625083000114984
              ],
              [
                -119.28523200002243,
                47.62486700026465
              ],
              [
                -119.2853209997109,
                47.624795999914284
              ],
              [
                -119.2853910000311,
                47.6247700001115
              ],
              [
                -119.28575900027712,
                47.62463700028927
              ],
              [
                -119.28593800037727,
                47.62456600023195
              ],
              [
                -119.28623799995292,
                47.624429000266666
              ],
              [
                -119.28646499973365,
                47.624188000256325
              ],
              [
                -119.2865869999324,
                47.62399000001429
              ],
              [
                -119.28676500020762,
                47.623639000108895
              ],
              [
                -119.28690300029989,
                47.6233430002078
              ],
              [
                -119.28710599979114,
                47.623036000280464
              ],
              [
                -119.28735799968624,
                47.62275699984972
              ],
              [
                -119.28761399977928,
                47.62232100022921
              ],
              [
                -119.28769900016808,
                47.62213200003468
              ],
              [
                -119.28799100024612,
                47.62120499973866
              ],
              [
                -119.2880959998281,
                47.62101300013655
              ],
              [
                -119.28827499992825,
                47.620816000256596
              ],
              [
                -119.28863200030365,
                47.62055299977306
              ],
              [
                -119.28915100016242,
                47.62021800019278
              ],
              [
                -119.28935700002673,
                47.62002499970042
              ],
              [
                -119.28946400015684,
                47.61985200018765
              ],
              [
                -119.28957399976171,
                47.619588000002885
              ],
              [
                -119.28985699961892,
                47.61890800014038
              ],
              [
                -119.28995399970333,
                47.618616999878114
              ],
              [
                -119.29014100019936,
                47.618190000171545
              ],
              [
                -119.29018999970486,
                47.61812400027162
              ],
              [
                -119.29027900029163,
                47.618069000291385
              ],
              [
                -119.29054700008024,
                47.617964999730205
              ],
              [
                -119.29073100020325,
                47.61797099990791
              ],
              [
                -119.29086300044773,
                47.6179489998584
              ],
              [
                -119.29095999963378,
                47.61786100017319
              ],
              [
                -119.29108199983254,
                47.6178120001123
              ],
              [
                -119.2912850002221,
                47.61776799987015
              ],
              [
                -119.29156899990426,
                47.61771300012093
              ],
              [
                -119.29167400038455,
                47.617706999913615
              ],
              [
                -119.291763000073,
                47.61775100020705
              ],
              [
                -119.29182699964711,
                47.6178709998834
              ],
              [
                -119.29198200035613,
                47.61816299978218
              ],
              [
                -119.29209600015892,
                47.618305000238536
              ],
              [
                -119.29182099979933,
                47.618783000049284
              ],
              [
                -119.29188400044683,
                47.619213000077224
              ],
              [
                -119.29238999988682,
                47.61953099974673
              ],
              [
                -119.29346100011463,
                47.619609000272796
              ],
              [
                -119.29364400041273,
                47.619500999746265
              ],
              [
                -119.29382299961455,
                47.61944600000351
              ],
              [
                -119.29394399998837,
                47.61934700007855
              ],
              [
                -119.29395999988193,
                47.61925899971873
              ],
              [
                -119.29392600044503,
                47.61917699985566
              ],
              [
                -119.2938820000641,
                47.61906999995913
              ],
              [
                -119.29373300010117,
                47.61889800002297
              ],
              [
                -119.29355499982596,
                47.61878199973246
              ],
              [
                -119.29328799986224,
                47.6186730002063
              ],
              [
                -119.293085000371,
                47.61860100020582
              ],
              [
                -119.29293600040806,
                47.61848299982237
              ],
              [
                -119.29290600027083,
                47.61845899994784
              ],
              [
                -119.29258200040574,
                47.618234000058564
              ],
              [
                -119.29238800023697,
                47.61803600027547
              ],
              [
                -119.29225799964233,
                47.61788800011302
              ],
              [
                -119.29221699963446,
                47.61769099996286
              ],
              [
                -119.29225799964233,
                47.6175810002446
              ],
              [
                -119.29233100033558,
                47.617504999797596
              ],
              [
                -119.29290700009575,
                47.617142999753746
              ],
              [
                -119.29333700026606,
                47.616945999824296
              ],
              [
                -119.2940579997912,
                47.61670400008153
              ],
              [
                -119.29451300007587,
                47.61656499998812
              ],
              [
                -119.294544000038,
                47.61656099976215
              ],
              [
                -119.29528300000482,
                47.61652899975991
              ],
              [
                -119.29544500038651,
                47.61649599998313
              ],
              [
                -119.29556699968694,
                47.616446999854084
              ],
              [
                -119.29575400018298,
                47.616354000063694
              ],
              [
                -119.2958100002595,
                47.61632600017907
              ],
              [
                -119.2958529999172,
                47.61629199990968
              ],
              [
                -119.2957190000229,
                47.616759000286564
              ],
              [
                -119.29374499979676,
                47.61747600018753
              ],
              [
                -119.29341500008387,
                47.61724599978715
              ],
              [
                -119.29294800010362,
                47.61746799987466
              ],
              [
                -119.29354399995529,
                47.618232000009435
              ],
              [
                -119.29409499960113,
                47.618593999779954
              ],
              [
                -119.29418699966263,
                47.61865499991271
              ],
              [
                -119.29450999970281,
                47.620045000107666
              ],
              [
                -119.29534099973114,
                47.62050900002114
              ],
              [
                -119.29718100006295,
                47.6198330000033
              ],
              [
                -119.29817100009993,
                47.618923000010135
              ],
              [
                -119.2986899999587,
                47.618234999780334
              ],
              [
                -119.29805899994695,
                47.6176040001828
              ],
              [
                -119.29761000040838,
                47.61715500029717
              ],
              [
                -119.29743299995805,
                47.61697699982549
              ],
              [
                -119.29767499980738,
                47.616919000003584
              ],
              [
                -119.29809699958176,
                47.61686899991753
              ],
              [
                -119.2982670003594,
                47.61687500022105
              ],
              [
                -119.29851599988142,
                47.61695099976714
              ],
              [
                -119.29911400028122,
                47.617132000161476
              ],
              [
                -119.29911500010613,
                47.616981999765365
              ],
              [
                -119.29911699975597,
                47.616650000176264
              ]
            ]
          ],
          [
            [
              [
                -119.29551599963331,
                47.59950100018284
              ],
              [
                -119.29551999983128,
                47.599341999956586
              ],
              [
                -119.2953950001578,
                47.59936600012456
              ],
              [
                -119.29519699979107,
                47.599412999740174
              ],
              [
                -119.29381000009408,
                47.599782000075386
              ],
              [
                -119.29343299962721,
                47.59988300023714
              ],
              [
                -119.29328600021246,
                47.59991799973791
              ],
              [
                -119.29313600042461,
                47.599944999856014
              ],
              [
                -119.29298300026373,
                47.59996600014013
              ],
              [
                -119.29282799955475,
                47.59997899985028
              ],
              [
                -119.29267299974403,
                47.59998400020392
              ],
              [
                -119.2925170001084,
                47.599983000133236
              ],
              [
                -119.29236200029771,
                47.59997400010196
              ],
              [
                -119.29221699963446,
                47.5999590002483
              ],
              [
                -119.29211000040264,
                47.599944999856014
              ],
              [
                -119.2917489998293,
                47.59989900018491
              ],
              [
                -119.29164800044529,
                47.59989100021162
              ],
              [
                -119.2915589998585,
                47.59989200028407
              ],
              [
                -119.29141200044374,
                47.59990999976756
              ],
              [
                -119.29101499988538,
                47.59998799988074
              ],
              [
                -119.29098499974816,
                47.59999399969822
              ],
              [
                -119.29092799984676,
                47.6000129998225
              ],
              [
                -119.29084199963302,
                47.60006100013757
              ],
              [
                -119.29033299981998,
                47.600215999731105
              ],
              [
                -119.29014200002429,
                47.6003320000175
              ],
              [
                -119.28996200009922,
                47.600443999799346
              ],
              [
                -119.28963499986106,
                47.6006369998776
              ],
              [
                -119.28911699982721,
                47.600740999768924
              ],
              [
                -119.28624700017376,
                47.60111299997102
              ],
              [
                -119.28521000028114,
                47.601252999993825
              ],
              [
                -119.28460199983559,
                47.601334000056546
              ],
              [
                -119.28416900019056,
                47.601438999816644
              ],
              [
                -119.28354999987435,
                47.60164799987719
              ],
              [
                -119.28291200018988,
                47.60193399991402
              ],
              [
                -119.28237900008743,
                47.602281000055655
              ],
              [
                -119.28204199980351,
                47.60252399993835
              ],
              [
                -119.28148299976178,
                47.60299899980945
              ],
              [
                -119.28143000005836,
                47.60304699980768
              ],
              [
                -119.28184000013715,
                47.603242999999594
              ],
              [
                -119.28342699985072,
                47.604002000245494
              ],
              [
                -119.28360599995084,
                47.604088000253064
              ],
              [
                -119.28397300037196,
                47.603949999932865
              ],
              [
                -119.2845399999113,
                47.60378799990875
              ],
              [
                -119.28501000026459,
                47.60369900001478
              ],
              [
                -119.28583399972189,
                47.60363199999466
              ],
              [
                -119.28662700011535,
                47.60367100001682
              ],
              [
                -119.287439999702,
                47.603810999856755
              ],
              [
                -119.28812000011756,
                47.60400300023935
              ],
              [
                -119.2882919996467,
                47.604054999893606
              ],
              [
                -119.28846200042432,
                47.60411100006916
              ],
              [
                -119.28862700028075,
                47.604171000147446
              ],
              [
                -119.28878999958908,
                47.60423500011474
              ],
              [
                -119.28894899959775,
                47.604302999956346
              ],
              [
                -119.29279800031581,
                47.604345000045925
              ],
              [
                -119.293157000341,
                47.60434899999498
              ],
              [
                -119.29317900008232,
                47.603493000284985
              ],
              [
                -119.29321000004445,
                47.60206499988534
              ],
              [
                -119.29355200035121,
                47.60206900000874
              ],
              [
                -119.2954570000821,
                47.60211300013485
              ],
              [
                -119.29547600034864,
                47.60120300007194
              ],
              [
                -119.29551599963331,
                47.59950100018284
              ]
            ]
          ]
        ]
      },
      "properties": {
        "AREALAND": "2393735",
        "AREAWATER": "111047",
        "BASENAME": "Coulee City",
        "CBSAPCI": "N",
        "CENTLAT": "+47.6122294",
        "CENTLON": "-119.2894569",
        "FUNCSTAT": "A",
        "GEOID": "5315080",
        "INTPTLAT": "+47.6117329",
        "INTPTLON": "-119.2895286",
        "LSADC": "43",
        "MTFCC": "G4110",
        "NAME": "Coulee City town",
        "NECTAPCI": "N",
        "OBJECTID": 11069,
        "OID": "27890249576444",
        "PLACE": "15080",
        "PLACECC": "C1",
        "PLACENS": "02413248",
        "STATE": "53",
        "DISP_CLR": 1,
        "slug": "coulee_city",
        "jurisdiction_key": "coulee_city_city",
        "county_fips": [
          "53025"
        ]
      }
    }
  ]
}
