{
  "type": "FeatureCollection",
  "features": [
    {
      "type": "Feature",
      "geometry": {
        "type": "Polygon",
        "coordinates": [
          [
            [
              -121.61991700035756,
              48.26041900015039
            ],
            [
              -121.62006899979521,
              48.26015599989949
            ],
            [
              -121.61915999994912,
              48.259680000225295
            ],
            [
              -121.61885100015262,
              48.259525999944664
            ],
            [
              -121.61816599971418,
              48.25918399984487
            ],
            [
              -121.617702000107,
              48.258968000113875
            ],
            [
              -121.61735700032551,
              48.25881600002195
            ],
            [
              -121.61714499971507,
              48.25872199970741
            ],
            [
              -121.6169139997364,
              48.25863400026161
            ],
            [
              -121.61689399964492,
              48.25849200014322
            ],
            [
              -121.61687600010158,
              48.2579219999359
            ],
            [
              -121.61676099957552,
              48.25792399991205
            ],
            [
              -121.61613799995968,
              48.25793399979168
            ],
            [
              -121.61566599995658,
              48.25793899973078
            ],
            [
              -121.6156309997965,
              48.25666400002559
            ],
            [
              -121.61561499990296,
              48.25609199972489
            ],
            [
              -121.61558800013877,
              48.255128999942144
            ],
            [
              -121.61553600026025,
              48.252390999837466
            ],
            [
              -121.61552200001653,
              48.25148500028225
            ],
            [
              -121.61546500011511,
              48.247936000111785
            ],
            [
              -121.61543300032808,
              48.247943999783885
            ],
            [
              -121.6152230002658,
              48.247993999949244
            ],
            [
              -121.61518100043301,
              48.24800500015853
            ],
            [
              -121.61477800002687,
              48.24809499971551
            ],
            [
              -121.61409500013656,
              48.24823899975395
            ],
            [
              -121.61376399970045,
              48.24830399988357
            ],
            [
              -121.61373399956322,
              48.2483090001662
            ],
            [
              -121.61356399968392,
              48.24833900005721
            ],
            [
              -121.61338100028414,
              48.2483609997268
            ],
            [
              -121.61322800012326,
              48.248370000105545
            ],
            [
              -121.61292400034966,
              48.24837499978353
            ],
            [
              -121.61252000011861,
              48.24839400011073
            ],
            [
              -121.61231300042935,
              48.24840100013503
            ],
            [
              -121.61220600029924,
              48.24841100008267
            ],
            [
              -121.61216000026847,
              48.24841599975665
            ],
            [
              -121.61202300000114,
              48.24843600024229
            ],
            [
              -121.61189400012971,
              48.2484660000588
            ],
            [
              -121.61177100010605,
              48.24851299979574
            ],
            [
              -121.61164899990733,
              48.24857299991896
            ],
            [
              -121.61156600006665,
              48.24862700014914
            ],
            [
              -121.61150999999016,
              48.24866399984191
            ],
            [
              -121.61146300013448,
              48.248706999920074
            ],
            [
              -121.61142700014948,
              48.248754000033685
            ],
            [
              -121.61140000038529,
              48.24880800007275
            ],
            [
              -121.61138399959344,
              48.24886399978719
            ],
            [
              -121.61137000024807,
              48.24896100017284
            ],
            [
              -121.6113450001337,
              48.24913699990956
            ],
            [
              -121.61131900019444,
              48.24925600025836
            ],
            [
              -121.61127700036164,
              48.249340000267495
            ],
            [
              -121.61121600026227,
              48.24941200008009
            ],
            [
              -121.61115900036087,
              48.24946200000659
            ],
            [
              -121.61110499993418,
              48.249496999985865
            ],
            [
              -121.6110489998577,
              48.24952699977812
            ],
            [
              -121.6110489998577,
              48.249498000138736
            ],
            [
              -121.6110210002686,
              48.24787599983942
            ],
            [
              -121.61004100027736,
              48.247884000119065
            ],
            [
              -121.61002600020879,
              48.24744300003396
            ],
            [
              -121.61000299974424,
              48.2458859999753
            ],
            [
              -121.60993499997218,
              48.24057899999065
            ],
            [
              -121.60787799990534,
              48.24059800022272
            ],
            [
              -121.6069799999299,
              48.24060599984598
            ],
            [
              -121.60578999987638,
              48.240616999849436
            ],
            [
              -121.60445599988283,
              48.24062900017684
            ],
            [
              -121.59902700002222,
              48.24067899971581
            ],
            [
              -121.59696199955953,
              48.24071700009855
            ],
            [
              -121.59656900009743,
              48.2407230002509
            ],
            [
              -121.59595700035224,
              48.24073400022915
            ],
            [
              -121.59579499997054,
              48.24073700000527
            ],
            [
              -121.59574300009199,
              48.24073799973116
            ],
            [
              -121.59562300044139,
              48.24074100010534
            ],
            [
              -121.59552899983173,
              48.24074199983114
            ],
            [
              -121.59460800029008,
              48.24077100024753
            ],
            [
              -121.59436800009054,
              48.2407639997772
            ],
            [
              -121.5943420001513,
              48.2407639997772
            ],
            [
              -121.59362499992581,
              48.24077499974664
            ],
            [
              -121.59137299986533,
              48.240824000017014
            ],
            [
              -121.58988200041124,
              48.240845000203976
            ],
            [
              -121.58911599978195,
              48.240860000246805
            ],
            [
              -121.58873699966529,
              48.24086500006066
            ],
            [
              -121.58863399973312,
              48.24086999987407
            ],
            [
              -121.58848899996816,
              48.24086999987407
            ],
            [
              -121.58843799991453,
              48.24124300000936
            ],
            [
              -121.58814500001156,
              48.241742000056206
            ],
            [
              -121.58798099998005,
              48.24181700010765
            ],
            [
              -121.58781500029869,
              48.241958000169895
            ],
            [
              -121.5875759999241,
              48.24217100027791
            ],
            [
              -121.58739000015125,
              48.24237200018157
            ],
            [
              -121.58736300038709,
              48.242470000008915
            ],
            [
              -121.58741299971746,
              48.24260599982453
            ],
            [
              -121.5877580003973,
              48.24293799972072
            ],
            [
              -121.58808200026238,
              48.24325400024398
            ],
            [
              -121.5882310002253,
              48.243398000153014
            ],
            [
              -121.58843999956434,
              48.24360000028938
            ],
            [
              -121.58936600002723,
              48.24450100009455
            ],
            [
              -121.5904000004451,
              48.245505999776235
            ],
            [
              -121.59177999957109,
              48.24618800017913
            ],
            [
              -121.59263800026189,
              48.24661199975378
            ],
            [
              -121.59368699985009,
              48.24713099986623
            ],
            [
              -121.5936929996979,
              48.24726800004774
            ],
            [
              -121.59406599996679,
              48.24726200006495
            ],
            [
              -121.59409399955587,
              48.24768200015192
            ],
            [
              -121.59412000039345,
              48.248065999862256
            ],
            [
              -121.59473299996354,
              48.24805599984716
            ],
            [
              -121.59594999978121,
              48.24803599981116
            ],
            [
              -121.59595800017716,
              48.24825500019845
            ],
            [
              -121.59595900000208,
              48.24828200018946
            ],
            [
              -121.59595999982697,
              48.24830999974411
            ],
            [
              -121.59729499964541,
              48.2482860002977
            ],
            [
              -121.59738000003424,
              48.2482839999445
            ],
            [
              -121.59739699975269,
              48.2485780001753
            ],
            [
              -121.59740400032368,
              48.2487080000884
            ],
            [
              -121.59740900034657,
              48.248780999761244
            ],
            [
              -121.59744000030871,
              48.24934099982528
            ],
            [
              -121.59746799989779,
              48.249842000123465
            ],
            [
              -121.59750499970772,
              48.250480999785815
            ],
            [
              -121.59753800021798,
              48.251076999994005
            ],
            [
              -121.59510899970718,
              48.25111999983775
            ],
            [
              -121.59487100005582,
              48.251123999723966
            ],
            [
              -121.59493700017806,
              48.25136500021872
            ],
            [
              -121.59496399994222,
              48.25151899995995
            ],
            [
              -121.59496999979001,
              48.25155599995297
            ],
            [
              -121.59497700036101,
              48.25171099982675
            ],
            [
              -121.59496099956917,
              48.251910999818584
            ],
            [
              -121.59490799986571,
              48.25221100013409
            ],
            [
              -121.5948490003145,
              48.25245499997807
            ],
            [
              -121.59477399997141,
              48.252724999801536
            ],
            [
              -121.59470600019938,
              48.25289200016176
            ],
            [
              -121.59437999978613,
              48.25289599990941
            ],
            [
              -121.59436100041786,
              48.253091000236964
            ],
            [
              -121.59435499967178,
              48.25335100011502
            ],
            [
              -121.59435499967178,
              48.25352199992379
            ],
            [
              -121.59435200019703,
              48.253783000071905
            ],
            [
              -121.59435399984686,
              48.25399000019077
            ],
            [
              -121.59435200019703,
              48.25533499995613
            ],
            [
              -121.59426000013553,
              48.25533700003349
            ],
            [
              -121.59254700002528,
              48.25536800002645
            ],
            [
              -121.59246599983443,
              48.255478999943435
            ],
            [
              -121.59180600040867,
              48.25590699975438
            ],
            [
              -121.59083599956489,
              48.25645399991623
            ],
            [
              -121.590069000009,
              48.25700100020678
            ],
            [
              -121.58968800024249,
              48.257417999860216
            ],
            [
              -121.58967700037184,
              48.2574359998203
            ],
            [
              -121.58962799996804,
              48.25751100018391
            ],
            [
              -121.58956400039393,
              48.25760699972325
            ],
            [
              -121.58948599967782,
              48.25772400011425
            ],
            [
              -121.58957100006661,
              48.25793399979168
            ],
            [
              -121.5899490003584,
              48.25826100016091
            ],
            [
              -121.59026999985045,
              48.25839799983106
            ],
            [
              -121.59035500023926,
              48.25840500028022
            ],
            [
              -121.5906599998378,
              48.25843300027291
            ],
            [
              -121.59139100030698,
              48.25861600012523
            ],
            [
              -121.5915419999197,
              48.25864999984589
            ],
            [
              -121.59162399993549,
              48.2586679999703
            ],
            [
              -121.59168300038503,
              48.258682000195606
            ],
            [
              -121.59180600040867,
              48.258709000063895
            ],
            [
              -121.59232400044253,
              48.25891699994456
            ],
            [
              -121.59320200032651,
              48.25942300011165
            ],
            [
              -121.59410199995179,
              48.26005300013973
            ],
            [
              -121.59452499955108,
              48.26043399983514
            ],
            [
              -121.59467900043516,
              48.260886000151665
            ],
            [
              -121.59464900029796,
              48.26116000000676
            ],
            [
              -121.59444699973328,
              48.26136800008165
            ],
            [
              -121.59430500034138,
              48.2616430002587
            ],
            [
              -121.5942650001584,
              48.26171799983277
            ],
            [
              -121.59417800011977,
              48.26192500011948
            ],
            [
              -121.59415700020337,
              48.26197499977128
            ],
            [
              -121.59418800016553,
              48.262042000196764
            ],
            [
              -121.5947999999107,
              48.26332400010675
            ],
            [
              -121.59497900001085,
              48.26381300007929
            ],
            [
              -121.5950600002017,
              48.26418099981073
            ],
            [
              -121.59510399968431,
              48.26437600015454
            ],
            [
              -121.59559800032703,
              48.26485300020582
            ],
            [
              -121.59558400008333,
              48.26488900026595
            ],
            [
              -121.59552700018195,
              48.26504100024038
            ],
            [
              -121.59548000032626,
              48.2652830001639
            ],
            [
              -121.59550200006757,
              48.26574399977355
            ],
            [
              -121.59543099992246,
              48.26615200022982
            ],
            [
              -121.59544099996822,
              48.266650000206894
            ],
            [
              -121.59565199985538,
              48.267000000267394
            ],
            [
              -121.5956440003578,
              48.26721099991641
            ],
            [
              -121.59563799961168,
              48.26740699986414
            ],
            [
              -121.59535800012753,
              48.267851999761625
            ],
            [
              -121.59521500001239,
              48.267981999705846
            ],
            [
              -121.59505099998086,
              48.26812399977299
            ],
            [
              -121.59478099964413,
              48.268297999755255
            ],
            [
              -121.59478999986497,
              48.2685509997791
            ],
            [
              -121.59482300037523,
              48.26955299990976
            ],
            [
              -121.59482400020013,
              48.26957200014079
            ],
            [
              -121.59482900022303,
              48.26972699981018
            ],
            [
              -121.59483000004792,
              48.26975099995615
            ],
            [
              -121.59483099987284,
              48.26979999996998
            ],
            [
              -121.59483300042098,
              48.26983800024126
            ],
            [
              -121.59824399967451,
              48.26981999986454
            ],
            [
              -121.59915800044182,
              48.26981499989164
            ],
            [
              -121.59934099984159,
              48.26981400013619
            ],
            [
              -121.6009479996466,
              48.26979599975097
            ],
            [
              -121.60099100020263,
              48.269836999888305
            ],
            [
              -121.60190400024669,
              48.26981999986454
            ],
            [
              -121.60207699960077,
              48.26982800029851
            ],
            [
              -121.60252299966459,
              48.26980999991826
            ],
            [
              -121.60276399968902,
              48.269812000027265
            ],
            [
              -121.60286499997135,
              48.26980799980918
            ],
            [
              -121.60328000007306,
              48.26979099977573
            ],
            [
              -121.60335200004306,
              48.26978900026385
            ],
            [
              -121.6038819997725,
              48.269778999713566
            ],
            [
              -121.60481699955788,
              48.26976399978134
            ],
            [
              -121.60501800029763,
              48.269762000268415
            ],
            [
              -121.60530600017773,
              48.26974399986492
            ],
            [
              -121.60833700038798,
              48.26970800023478
            ],
            [
              -121.6085700000165,
              48.269748999844765
            ],
            [
              -121.60890399992734,
              48.26979099977573
            ],
            [
              -121.6092329998153,
              48.26984199985909
            ],
            [
              -121.6096339996733,
              48.26985399990645
            ],
            [
              -121.6103790003862,
              48.26986300008962
            ],
            [
              -121.61044399978522,
              48.269861999737145
            ],
            [
              -121.61056799963374,
              48.26986000022805
            ],
            [
              -121.61084700019134,
              48.26985699976837
            ],
            [
              -121.61116400038374,
              48.26984899993688
            ],
            [
              -121.61499200028713,
              48.269748999844765
            ],
            [
              -121.61609299975383,
              48.26971999971566
            ],
            [
              -121.6159970003927,
              48.26730299996107
            ],
            [
              -121.6148840003321,
              48.26696099986851
            ],
            [
              -121.61419999971856,
              48.26795700013324
            ],
            [
              -121.61047999977022,
              48.26681099985071
            ],
            [
              -121.61042899971658,
              48.265329999991465
            ],
            [
              -121.61041899967084,
              48.26500100029092
            ],
            [
              -121.61597300010325,
              48.26669200029287
            ],
            [
              -121.61580499987373,
              48.262527000283335
            ],
            [
              -121.6172739995865,
              48.262529000079326
            ],
            [
              -121.61724900037048,
              48.26106399996276
            ],
            [
              -121.61928200014783,
              48.261576999824854
            ],
            [
              -121.61991700035756,
              48.26041900015039
            ]
          ]
        ]
      },
      "properties": {
        "AREALAND": "4983927",
        "AREAWATER": "66291",
        "BASENAME": "Darrington",
        "CBSAPCI": "N",
        "CENTLAT": "+48.2554122",
        "CENTLON": "-121.6038930",
        "FUNCSTAT": "A",
        "GEOID": "5316690",
        "INTPTLAT": "+48.2608315",
        "INTPTLON": "-121.6071495",
        "LSADC": "43",
        "MTFCC": "G4110",
        "NAME": "Darrington town",
        "NECTAPCI": "N",
        "OBJECTID": 17540,
        "OID": "27890921610436",
        "PLACE": "16690",
        "PLACECC": "C1",
        "PLACENS": "02412405",
        "STATE": "53",
        "DISP_CLR": 5,
        "slug": "darrington",
        "jurisdiction_key": "darrington_city",
        "county_fips": [
          "53061"
        ]
      }
    }
  ]
}
