{
  "type": "FeatureCollection",
  "features": [
    {
      "type": "Feature",
      "geometry": {
        "type": "MultiPolygon",
        "coordinates": [
          [
            [
              [
                -117.9941590003543,
                46.31078399969585
              ],
              [
                -117.99475199983293,
                46.31041900017177
              ],
              [
                -117.99372400016114,
                46.30959400013317
              ],
              [
                -117.9931879996856,
                46.30916299973488
              ],
              [
                -117.99131300009199,
                46.307653999691276
              ],
              [
                -117.9913220003128,
                46.30960700005646
              ],
              [
                -117.98698800007115,
                46.312585000062505
              ],
              [
                -117.98589199972899,
                46.313339000185586
              ],
              [
                -117.98246800005664,
                46.313336999761184
              ],
              [
                -117.98170700034854,
                46.313336000169436
              ],
              [
                -117.98034499986758,
                46.31332799971203
              ],
              [
                -117.97938800034089,
                46.313324000103336
              ],
              [
                -117.97835599957284,
                46.31331900028186
              ],
              [
                -117.97780900012498,
                46.31331000022975
              ],
              [
                -117.97696899987584,
                46.313295000139554
              ],
              [
                -117.97566199964649,
                46.313293999926564
              ],
              [
                -117.97544400008657,
                46.313293999926564
              ],
              [
                -117.97542300017018,
                46.31270900001797
              ],
              [
                -117.97540800010157,
                46.31194899971807
              ],
              [
                -117.97540999975139,
                46.309616000097016
              ],
              [
                -117.97059099998617,
                46.30958700002999
              ],
              [
                -117.97032999987026,
                46.30958700002999
              ],
              [
                -117.97034400011394,
                46.30863800027134
              ],
              [
                -117.97034999996173,
                46.3061540002345
              ],
              [
                -117.96726500022311,
                46.306130000053074
              ],
              [
                -117.9668009997176,
                46.30612199978341
              ],
              [
                -117.96669799978544,
                46.30611999971584
              ],
              [
                -117.96633799993533,
                46.30611200006523
              ],
              [
                -117.96497200015476,
                46.30610100000083
              ],
              [
                -117.9649689997817,
                46.30471699975949
              ],
              [
                -117.96433399957195,
                46.30471000027379
              ],
              [
                -117.9635829999096,
                46.30469699980802
              ],
              [
                -117.9635829999096,
                46.304728000102045
              ],
              [
                -117.96359499960518,
                46.30609299972692
              ],
              [
                -117.96370099991037,
                46.30627700014588
              ],
              [
                -117.96331900031896,
                46.30628899989542
              ],
              [
                -117.96297700001219,
                46.305988000057155
              ],
              [
                -117.96275500025436,
                46.30600600008577
              ],
              [
                -117.96223399984743,
                46.30609100027882
              ],
              [
                -117.96223600039556,
                46.305518000249116
              ],
              [
                -117.96171900018663,
                46.30565600005405
              ],
              [
                -117.96142700010859,
                46.30489300001023
              ],
              [
                -117.96130999993272,
                46.30488700029309
              ],
              [
                -117.96107200028135,
                46.30396700030252
              ],
              [
                -117.9599159996647,
                46.3039689998282
              ],
              [
                -117.95973999993761,
                46.30397300012053
              ],
              [
                -117.95974499996048,
                46.30408899978199
              ],
              [
                -117.9598029996868,
                46.30415700021828
              ],
              [
                -117.95981399955747,
                46.3041700001917
              ],
              [
                -117.9597099998004,
                46.30426800008274
              ],
              [
                -117.9597099998004,
                46.30428500029929
              ],
              [
                -117.95976099985401,
                46.30584000008021
              ],
              [
                -117.9597669997018,
                46.30599999987005
              ],
              [
                -117.95817999998826,
                46.30625300001839
              ],
              [
                -117.95874999990065,
                46.307124999965225
              ],
              [
                -117.95886299987855,
                46.307441999914005
              ],
              [
                -117.95900099997083,
                46.30769999993848
              ],
              [
                -117.95973699956456,
                46.30741000021585
              ],
              [
                -117.95974199958744,
                46.307709000292604
              ],
              [
                -117.95920199981227,
                46.30792700028201
              ],
              [
                -117.95916900020033,
                46.3079410002915
              ],
              [
                -117.9597619996789,
                46.3087179998588
              ],
              [
                -117.95977199972467,
                46.30959999995494
              ],
              [
                -117.95976400022707,
                46.30966900002999
              ],
              [
                -117.95976300040215,
                46.312668000138856
              ],
              [
                -117.95979600001412,
                46.31320999996465
              ],
              [
                -117.96018600000146,
                46.31321100017913
              ],
              [
                -117.9650259996831,
                46.313225000078084
              ],
              [
                -117.96502499985819,
                46.31343000018255
              ],
              [
                -117.96502099966024,
                46.31414999995827
              ],
              [
                -117.96493199997175,
                46.31418699980198
              ],
              [
                -117.9648299998645,
                46.31423000017592
              ],
              [
                -117.96456999957351,
                46.314329999818135
              ],
              [
                -117.96447300038746,
                46.314358000280876
              ],
              [
                -117.9637739997053,
                46.313656999720145
              ],
              [
                -117.96297000033951,
                46.3139700001268
              ],
              [
                -117.96080500031763,
                46.31481300020822
              ],
              [
                -117.96083799992961,
                46.316738000279244
              ],
              [
                -117.96083700010472,
                46.31682999973614
              ],
              [
                -117.96084100030266,
                46.31692100013261
              ],
              [
                -117.9611600001449,
                46.31693999981446
              ],
              [
                -117.96166300011012,
                46.316956999818125
              ],
              [
                -117.96172000001155,
                46.31696000025617
              ],
              [
                -117.9625900003979,
                46.31696000025617
              ],
              [
                -117.96300999962416,
                46.31693999981446
              ],
              [
                -117.96419399982989,
                46.316860999983646
              ],
              [
                -117.96498700022335,
                46.316809999867374
              ],
              [
                -117.96503800027698,
                46.3168080001903
              ],
              [
                -117.96512199994255,
                46.31680499974392
              ],
              [
                -117.96529000017208,
                46.31680000024047
              ],
              [
                -117.96537499966256,
                46.31680499974392
              ],
              [
                -117.96546000005138,
                46.316809999867374
              ],
              [
                -117.96551000028009,
                46.316809999867374
              ],
              [
                -117.96567099993857,
                46.31682299993805
              ],
              [
                -117.96574999958129,
                46.31682999973614
              ],
              [
                -117.96590000026742,
                46.31685000021806
              ],
              [
                -117.9661100003297,
                46.31690000015001
              ],
              [
                -117.96613000042122,
                46.31695000003622
              ],
              [
                -117.9661449995915,
                46.317015999716816
              ],
              [
                -117.96614999961437,
                46.3170400000886
              ],
              [
                -117.96618999979735,
                46.31710000004125
              ],
              [
                -117.96623500000317,
                46.317083000082015
              ],
              [
                -117.96641400010331,
                46.31701900015167
              ],
              [
                -117.9674769999352,
                46.317044000046124
              ],
              [
                -117.96802299955816,
                46.31705400024887
              ],
              [
                -117.96916099973315,
                46.31709700023133
              ],
              [
                -117.96946899970472,
                46.31710799994727
              ],
              [
                -117.96964299978197,
                46.317163999876904
              ],
              [
                -117.96972899999571,
                46.31719200013044
              ],
              [
                -117.96967700011719,
                46.31722700011699
              ],
              [
                -117.96951899993341,
                46.31731399991571
              ],
              [
                -117.96928999960454,
                46.31729000028459
              ],
              [
                -117.96905000030337,
                46.317259999800214
              ],
              [
                -117.96895999989168,
                46.317259999800214
              ],
              [
                -117.96885500030967,
                46.31725300005707
              ],
              [
                -117.96879000001238,
                46.31725000025555
              ],
              [
                -117.96844000020799,
                46.31725000025555
              ],
              [
                -117.96852999972135,
                46.317400000058655
              ],
              [
                -117.96870399979863,
                46.317547999800546
              ],
              [
                -117.96893999980018,
                46.317750000068266
              ],
              [
                -117.9693699999705,
                46.31809000030926
              ],
              [
                -117.96965700002568,
                46.31829799992609
              ],
              [
                -117.96987999960844,
                46.31846000014182
              ],
              [
                -117.96997900024097,
                46.31854299999375
              ],
              [
                -117.97002100007376,
                46.31857799973662
              ],
              [
                -117.97014699957214,
                46.318684000186174
              ],
              [
                -117.97019000012817,
                46.31871999995269
              ],
              [
                -117.97011599961,
                46.31875099974989
              ],
              [
                -117.97011300013527,
                46.318903000002265
              ],
              [
                -117.97011800015814,
                46.31951199999066
              ],
              [
                -117.97005700005876,
                46.31947700022482
              ],
              [
                -117.97006499955637,
                46.32003499981605
              ],
              [
                -117.97007200012737,
                46.320632999987524
              ],
              [
                -117.97006799992943,
                46.32074199978868
              ],
              [
                -117.96969200018579,
                46.321203999847555
              ],
              [
                -117.96970499970627,
                46.3223420001113
              ],
              [
                -117.96972499979773,
                46.324137000303175
              ],
              [
                -117.97028700021254,
                46.32414499980067
              ],
              [
                -117.9715600001067,
                46.32419999995898
              ],
              [
                -117.97222299990555,
                46.324207000054095
              ],
              [
                -117.97253400025015,
                46.32419599990421
              ],
              [
                -117.97249700044023,
                46.32431000010964
              ],
              [
                -117.97248999986923,
                46.32432999971849
              ],
              [
                -117.97248300019652,
                46.324384000300874
              ],
              [
                -117.97247999982349,
                46.32440999994191
              ],
              [
                -117.9724739999757,
                46.324530999755105
              ],
              [
                -117.97247099960265,
                46.32461000029875
              ],
              [
                -117.97246999977773,
                46.32464999991019
              ],
              [
                -117.9724749998006,
                46.32468600009377
              ],
              [
                -117.9724890000443,
                46.32479799989304
              ],
              [
                -117.97249999991496,
                46.324880000054904
              ],
              [
                -117.9725669998621,
                46.32512999978971
              ],
              [
                -117.97257000023515,
                46.325139999755365
              ],
              [
                -117.97261799991574,
                46.32523199997373
              ],
              [
                -117.97261799991574,
                46.32525999982067
              ],
              [
                -117.9726210002888,
                46.32534399989587
              ],
              [
                -117.97262200011369,
                46.32537200030584
              ],
              [
                -117.97263100033453,
                46.325363999747054
              ],
              [
                -117.97266099957345,
                46.32534199991037
              ],
              [
                -117.97267099961918,
                46.32533499996048
              ],
              [
                -117.97267800019019,
                46.32534899985936
              ],
              [
                -117.97268999988577,
                46.32536999970102
              ],
              [
                -117.97270800032743,
                46.32538800017919
              ],
              [
                -117.97272000002299,
                46.325400000081125
              ],
              [
                -117.9727700002517,
                46.325489999882144
              ],
              [
                -117.97298399961363,
                46.325730000075055
              ],
              [
                -117.97305499975874,
                46.32581000011211
              ],
              [
                -117.97301299992596,
                46.325832999744456
              ],
              [
                -117.97288999990228,
                46.32590499977161
              ],
              [
                -117.97284999971933,
                46.32592999994839
              ],
              [
                -117.97280000038893,
                46.32596999983532
              ],
              [
                -117.97276000020595,
                46.326001999847875
              ],
              [
                -117.97276699987864,
                46.32782799991063
              ],
              [
                -117.9739090002516,
                46.327819999711046
              ],
              [
                -117.97430000006383,
                46.32782999980524
              ],
              [
                -117.97431400030754,
                46.32785900013017
              ],
              [
                -117.97435000029255,
                46.32793000002647
              ],
              [
                -117.97437899970654,
                46.327982000267745
              ],
              [
                -117.97449400023258,
                46.32798699999012
              ],
              [
                -117.97519600038947,
                46.328281000230504
              ],
              [
                -117.97516000040444,
                46.32821000016948
              ],
              [
                -117.97504400005349,
                46.32800500022748
              ],
              [
                -117.9750299998098,
                46.32797999975837
              ],
              [
                -117.97501399991629,
                46.32796000024327
              ],
              [
                -117.97491299963393,
                46.327831999699825
              ],
              [
                -117.97488000002198,
                46.32779000003779
              ],
              [
                -117.97562800020961,
                46.32781200013062
              ],
              [
                -117.97619300009913,
                46.32782999980524
              ],
              [
                -117.97691699999731,
                46.32751100017926
              ],
              [
                -117.97721200044842,
                46.32783999989765
              ],
              [
                -117.97772600028429,
                46.327818999763544
              ],
              [
                -117.97787100004925,
                46.32781200013062
              ],
              [
                -117.97877999989537,
                46.327809000287665
              ],
              [
                -117.98062500025009,
                46.32779900018964
              ],
              [
                -117.98062299970192,
                46.32729499995178
              ],
              [
                -117.98091599960489,
                46.32764499993759
              ],
              [
                -117.98302399972536,
                46.326659999949484
              ],
              [
                -117.98414299963373,
                46.32619300017318
              ],
              [
                -117.98445399997836,
                46.32606299987813
              ],
              [
                -117.98472599996491,
                46.32593899978593
              ],
              [
                -117.9848570003845,
                46.32606999973486
              ],
              [
                -117.9851810002496,
                46.326397000108905
              ],
              [
                -117.98547599980236,
                46.32626199979872
              ],
              [
                -117.98649500015165,
                46.325796999695335
              ],
              [
                -117.98907000025231,
                46.32460500026772
              ],
              [
                -117.98929799985795,
                46.32450500017158
              ],
              [
                -117.98976599966309,
                46.3243030000277
              ],
              [
                -117.98977800025699,
                46.32429799996861
              ],
              [
                -117.98998800031927,
                46.32420299999984
              ],
              [
                -117.99141600002416,
                46.32420900008113
              ],
              [
                -117.99141600002416,
                46.32411399995782
              ],
              [
                -117.99141600002416,
                46.32409699969631
              ],
              [
                -117.9914059999784,
                46.3222209997992
              ],
              [
                -117.99143100009276,
                46.32214000004573
              ],
              [
                -117.9914469999863,
                46.321942000074586
              ],
              [
                -117.9914699995525,
                46.32154599984376
              ],
              [
                -117.99147200010064,
                46.320738000101436
              ],
              [
                -117.99147100027574,
                46.32064099999742
              ],
              [
                -117.99146700007778,
                46.31647200004861
              ],
              [
                -117.9914620000549,
                46.3159849999961
              ],
              [
                -117.99167700014004,
                46.31588000006786
              ],
              [
                -117.99175999998072,
                46.315840000249
              ],
              [
                -117.99206200010453,
                46.31570399977755
              ],
              [
                -117.99236900025117,
                46.315564000143645
              ],
              [
                -117.99316500011939,
                46.31520799997525
              ],
              [
                -117.99314300037808,
                46.315165999928155
              ],
              [
                -117.99304999959334,
                46.314981000046025
              ],
              [
                -117.99300000026297,
                46.31498999982332
              ],
              [
                -117.99288999975977,
                46.31498999982332
              ],
              [
                -117.99277000010918,
                46.31496999990252
              ],
              [
                -117.992699999789,
                46.31492000006853
              ],
              [
                -117.99266100032922,
                46.31493000003897
              ],
              [
                -117.99251400001613,
                46.314640999721775
              ],
              [
                -117.99247200018334,
                46.31455699996588
              ],
              [
                -117.99213999992234,
                46.3146200001051
              ],
              [
                -117.99205999955639,
                46.3146340002641
              ],
              [
                -117.99169999970628,
                46.31471000026681
              ],
              [
                -117.99155599976622,
                46.314734999975244
              ],
              [
                -117.9912300002513,
                46.31482200001314
              ],
              [
                -117.99096999996031,
                46.31477000029236
              ],
              [
                -117.9910899996109,
                46.31463000013037
              ],
              [
                -117.99116999997685,
                46.31450999970649
              ],
              [
                -117.99120599996185,
                46.31443200028255
              ],
              [
                -117.99125000034277,
                46.31433999989645
              ],
              [
                -117.99129200017558,
                46.31415700009833
              ],
              [
                -117.99130999971894,
                46.314079999749445
              ],
              [
                -117.9913699999934,
                46.31386000028305
              ],
              [
                -117.99138000003913,
                46.313759999781965
              ],
              [
                -117.99140099995553,
                46.313647000137564
              ],
              [
                -117.9914339995675,
                46.31348300014517
              ],
              [
                -117.99148200014638,
                46.313223000270014
              ],
              [
                -117.99159000010141,
                46.31288999987394
              ],
              [
                -117.9916169998656,
                46.312832000091554
              ],
              [
                -117.99162299971339,
                46.31281699987036
              ],
              [
                -117.99164299980487,
                46.31277400024767
              ],
              [
                -117.99165000037588,
                46.31276000023334
              ],
              [
                -117.99163100010931,
                46.312765999708105
              ],
              [
                -117.99157500003281,
                46.312785999813876
              ],
              [
                -117.99155699959114,
                46.31279300012841
              ],
              [
                -117.9913699999934,
                46.312860000079745
              ],
              [
                -117.99135300027494,
                46.31280100004357
              ],
              [
                -117.99134300022924,
                46.31276899975544
              ],
              [
                -117.99132999981045,
                46.31271999999544
              ],
              [
                -117.99134599970394,
                46.31267400024412
              ],
              [
                -117.99135800029781,
                46.31264300010669
              ],
              [
                -117.99137199964323,
                46.3125999997268
              ],
              [
                -117.99138000003913,
                46.312580000173504
              ],
              [
                -117.99143000026784,
                46.31247900020809
              ],
              [
                -117.99145000035932,
                46.31243999999344
              ],
              [
                -117.99173999988923,
                46.312159999799874
              ],
              [
                -117.9920400003632,
                46.311899999844414
              ],
              [
                -117.99205700008166,
                46.31188899970214
              ],
              [
                -117.99245999958947,
                46.311610000035905
              ],
              [
                -117.99354000003811,
                46.31098999989125
              ],
              [
                -117.99365999968872,
                46.31091999998409
              ],
              [
                -117.99378000023762,
                46.31088999973057
              ],
              [
                -117.9938460003599,
                46.31095299974758
              ],
              [
                -117.99413199969183,
                46.310764000099475
              ],
              [
                -117.9941590003543,
                46.31078399969585
              ]
            ]
          ],
          [
            [
              [
                -118.00464299998173,
                46.31530300005154
              ],
              [
                -118.00489300022699,
                46.315048999981485
              ],
              [
                -118.00161299959638,
                46.31519999979147
              ],
              [
                -118.00157699961137,
                46.315202000147764
              ],
              [
                -118.00166000035036,
                46.31547999994316
              ],
              [
                -118.00162799966499,
                46.315524000093795
              ],
              [
                -118.00163799971075,
                46.31564499970516
              ],
              [
                -118.00168200009168,
                46.31610299996459
              ],
              [
                -118.00137999996787,
                46.31612000022828
              ],
              [
                -118.00095499982044,
                46.316142000050725
              ],
              [
                -118.00104100003415,
                46.31689699970863
              ],
              [
                -118.00105500027786,
                46.31701900015167
              ],
              [
                -118.00105899957752,
                46.317044000046124
              ],
              [
                -118.0017180000767,
                46.31694499992557
              ],
              [
                -118.00231599957817,
                46.316854999716945
              ],
              [
                -118.00242100005846,
                46.31685000021806
              ],
              [
                -118.00249399985339,
                46.31674500008821
              ],
              [
                -118.00321600010176,
                46.31628200006724
              ],
              [
                -118.00349700030917,
                46.31610299996459
              ],
              [
                -118.00384100026572,
                46.315882999944485
              ],
              [
                -118.00429599965207,
                46.31555300011734
              ],
              [
                -118.00464299998173,
                46.31530300005154
              ]
            ]
          ]
        ]
      },
      "properties": {
        "AREALAND": "3734704",
        "AREAWATER": "0",
        "BASENAME": "Dayton",
        "CBSAPCI": "N",
        "CENTLAT": "+46.3167881",
        "CENTLON": "-117.9767619",
        "FUNCSTAT": "A",
        "GEOID": "5316970",
        "INTPTLAT": "+46.3167881",
        "INTPTLON": "-117.9767619",
        "LSADC": "25",
        "MTFCC": "G4110",
        "NAME": "Dayton city",
        "NECTAPCI": "N",
        "OBJECTID": 15063,
        "OID": "27890245511657",
        "PLACE": "16970",
        "PLACECC": "C1",
        "PLACENS": "02410301",
        "STATE": "53",
        "DISP_CLR": 5,
        "slug": "dayton",
        "jurisdiction_key": "dayton_city",
        "county_fips": [
          "53013"
        ]
      }
    }
  ]
}
