{
  "type": "FeatureCollection",
  "features": [
    {
      "type": "Feature",
      "geometry": {
        "type": "MultiPolygon",
        "coordinates": [
          [
            [
              [
                -118.17527500040359,
                47.652343000279075
              ],
              [
                -118.17525699996193,
                47.65126899990932
              ],
              [
                -118.17521799960387,
                47.65105299996641
              ],
              [
                -118.17323000003233,
                47.65145200006962
              ],
              [
                -118.16985099966755,
                47.65213699974862
              ],
              [
                -118.16592400002996,
                47.65292300011614
              ],
              [
                -118.16558799957099,
                47.652998999897044
              ],
              [
                -118.16360800039537,
                47.653397000000844
              ],
              [
                -118.16358199955779,
                47.653303999991266
              ],
              [
                -118.16327699995925,
                47.65243600018473
              ],
              [
                -118.16246500019756,
                47.6521629998545
              ],
              [
                -118.1624700002204,
                47.651414000277576
              ],
              [
                -118.16247400041837,
                47.65079500007404
              ],
              [
                -118.16248199991598,
                47.65003399998761
              ],
              [
                -118.16249399961156,
                47.6485150002868
              ],
              [
                -118.16251799990098,
                47.64551999979081
              ],
              [
                -118.16252000044913,
                47.64520799973939
              ],
              [
                -118.16252700012183,
                47.64443600005155
              ],
              [
                -118.16253299996959,
                47.64358799979801
              ],
              [
                -118.16253899981737,
                47.64290200010493
              ],
              [
                -118.16254200019043,
                47.64272599986441
              ],
              [
                -118.16246900039548,
                47.64272599986441
              ],
              [
                -118.16191100017868,
                47.64272500000581
              ],
              [
                -118.16073500036887,
                47.64272300028847
              ],
              [
                -118.16023700042649,
                47.64272300028847
              ],
              [
                -118.15968000003458,
                47.64272400014715
              ],
              [
                -118.15899600031935,
                47.64272500000581
              ],
              [
                -118.15819500042826,
                47.64272800018685
              ],
              [
                -118.15767400002139,
                47.642729000045435
              ],
              [
                -118.15630099966978,
                47.64273200022628
              ],
              [
                -118.1549780004452,
                47.642734999801704
              ],
              [
                -118.15374300018584,
                47.64273899984055
              ],
              [
                -118.15365600014721,
                47.64273899984055
              ],
              [
                -118.15225900040447,
                47.642743999737405
              ],
              [
                -118.15125400029889,
                47.642743999737405
              ],
              [
                -118.15061999991408,
                47.64274500020094
              ],
              [
                -118.14989900038896,
                47.64274500020094
              ],
              [
                -118.14824200035522,
                47.64274900023902
              ],
              [
                -118.14723899989944,
                47.64275300027684
              ],
              [
                -118.14467999969231,
                47.642754999992995
              ],
              [
                -118.14466399979878,
                47.642754999992995
              ],
              [
                -118.14418900032094,
                47.64275000009721
              ],
              [
                -118.14308200010811,
                47.64274900023902
              ],
              [
                -118.14099999992693,
                47.64275199981347
              ],
              [
                -118.14097300016275,
                47.64275199981347
              ],
              [
                -118.14100699959965,
                47.648266000154734
              ],
              [
                -118.14101699964539,
                47.64999999985697
              ],
              [
                -118.14088199992617,
                47.649993999724806
              ],
              [
                -118.1404550001289,
                47.649977000254424
              ],
              [
                -118.14028199987654,
                47.6499790002992
              ],
              [
                -118.13936800000755,
                47.64999099996109
              ],
              [
                -118.13881599963851,
                47.65085899986128
              ],
              [
                -118.13716000032802,
                47.65346399979452
              ],
              [
                -118.13702300006065,
                47.65368099970127
              ],
              [
                -118.13722599955193,
                47.65371499985592
              ],
              [
                -118.13859999972844,
                47.65383400022289
              ],
              [
                -118.13897700019531,
                47.65386599977696
              ],
              [
                -118.13947599996258,
                47.65390999988817
              ],
              [
                -118.1402929997472,
                47.65355700012434
              ],
              [
                -118.14080599975819,
                47.65333599987011
              ],
              [
                -118.14103699973685,
                47.6532369999923
              ],
              [
                -118.14103900028502,
                47.6534549998905
              ],
              [
                -118.14104299958466,
                47.65414999995228
              ],
              [
                -118.1410459999577,
                47.65470600011899
              ],
              [
                -118.1409689999648,
                47.654732999784805
              ],
              [
                -118.14094600039859,
                47.654740000211326
              ],
              [
                -118.14087799972822,
                47.65476300013672
              ],
              [
                -118.1408559999869,
                47.65477199981531
              ],
              [
                -118.14086699985756,
                47.65479900005216
              ],
              [
                -118.14090200001765,
                47.65488000007368
              ],
              [
                -118.14091399971322,
                47.6549079998801
              ],
              [
                -118.14092200010914,
                47.65492599979092
              ],
              [
                -118.14093700017774,
                47.65499100019048
              ],
              [
                -118.14094200020061,
                47.65501299977677
              ],
              [
                -118.14096499976685,
                47.6551119999182
              ],
              [
                -118.14097300016275,
                47.655145999746225
              ],
              [
                -118.14100199957676,
                47.65532999985515
              ],
              [
                -118.14100699959965,
                47.65541699977296
              ],
              [
                -118.14101300034572,
                47.65552000002384
              ],
              [
                -118.14101599982047,
                47.65566999995529
              ],
              [
                -118.14101699964539,
                47.65571099971633
              ],
              [
                -118.14101599982047,
                47.65574299993547
              ],
              [
                -118.14101599982047,
                47.6557560003025
              ],
              [
                -118.14101599982047,
                47.655841999903025
              ],
              [
                -118.14101599982047,
                47.65587500025389
              ],
              [
                -118.14101599982047,
                47.65601899972563
              ],
              [
                -118.14101400017064,
                47.65619999977153
              ],
              [
                -118.14100800032288,
                47.65717699987317
              ],
              [
                -118.14100800032288,
                47.65723799975254
              ],
              [
                -118.14106199985123,
                47.657243000076726
              ],
              [
                -118.14358099987538,
                47.65725199993302
              ],
              [
                -118.14357800040068,
                47.65767000022132
              ],
              [
                -118.14360900036282,
                47.65767099979389
              ],
              [
                -118.14457799958507,
                47.657664999938035
              ],
              [
                -118.14459299965367,
                47.657666000115725
              ],
              [
                -118.14458900035405,
                47.657735000230424
              ],
              [
                -118.14471200037768,
                47.65766700029344
              ],
              [
                -118.14470700035479,
                47.65844299990109
              ],
              [
                -118.14469700030905,
                47.66049299998333
              ],
              [
                -118.14226399960026,
                47.66049199985975
              ],
              [
                -118.14227100017129,
                47.659726000022175
              ],
              [
                -118.14227199999621,
                47.65961400014995
              ],
              [
                -118.1416660000988,
                47.65961199986913
              ],
              [
                -118.14136099960196,
                47.65961099972867
              ],
              [
                -118.14101599982047,
                47.65961000019329
              ],
              [
                -118.14101599982047,
                47.659714000177004
              ],
              [
                -118.14101599982047,
                47.660072000119406
              ],
              [
                -118.14101699964539,
                47.66043600017027
              ],
              [
                -118.14102099984333,
                47.66213099999134
              ],
              [
                -118.14101800036859,
                47.66317299972182
              ],
              [
                -118.14101599982047,
                47.66408600018911
              ],
              [
                -118.14101499999555,
                47.66417800030214
              ],
              [
                -118.14101499999555,
                47.664454000273366
              ],
              [
                -118.14101499999555,
                47.66454699978374
              ],
              [
                -118.14166500027387,
                47.66455600019594
              ],
              [
                -118.1420319997967,
                47.66455700024163
              ],
              [
                -118.14353200036992,
                47.66459099996922
              ],
              [
                -118.14393599970265,
                47.664637000205985
              ],
              [
                -118.14638000028206,
                47.66462999989639
              ],
              [
                -118.14638799977968,
                47.66173000021173
              ],
              [
                -118.14639100015272,
                47.66095799970001
              ],
              [
                -118.14639299980254,
                47.660494000106844
              ],
              [
                -118.14639500035067,
                47.659704000001405
              ],
              [
                -118.14639899965033,
                47.658196000244104
              ],
              [
                -118.14640200002339,
                47.657261999973194
              ],
              [
                -118.14650499995555,
                47.657261999973194
              ],
              [
                -118.14669199955327,
                47.657263000158615
              ],
              [
                -118.1473839996644,
                47.65726600010974
              ],
              [
                -118.14850199974791,
                47.65726900006066
              ],
              [
                -118.14977700019021,
                47.65725300011862
              ],
              [
                -118.1500230002375,
                47.65725600007033
              ],
              [
                -118.15076100037939,
                47.657264999924344
              ],
              [
                -118.1510080002516,
                47.65726900006066
              ],
              [
                -118.15108900044244,
                47.65726900006066
              ],
              [
                -118.15133399976654,
                47.65727200001146
              ],
              [
                -118.15141599978227,
                47.657273000196675
              ],
              [
                -118.15159499988245,
                47.65727399977684
              ],
              [
                -118.15174399984535,
                47.65727499996203
              ],
              [
                -118.1517329999747,
                47.66094799976273
              ],
              [
                -118.15739500036213,
                47.66094899987754
              ],
              [
                -118.15763499966333,
                47.66113300010813
              ],
              [
                -118.15770599980841,
                47.661187000039575
              ],
              [
                -118.15792099989359,
                47.66134900010381
              ],
              [
                -118.15799299986362,
                47.66140299981183
              ],
              [
                -118.15848800033123,
                47.661775999944545
              ],
              [
                -118.15889900023498,
                47.662087000152376
              ],
              [
                -118.15998100033345,
                47.66288900022209
              ],
              [
                -118.16048000010075,
                47.66325899981092
              ],
              [
                -118.16084300032388,
                47.66352799994877
              ],
              [
                -118.16112899965586,
                47.66374000007479
              ],
              [
                -118.16193899976776,
                47.6643309997102
              ],
              [
                -118.16196499970702,
                47.66435000005224
              ],
              [
                -118.16212399971569,
                47.664450000082574
              ],
              [
                -118.16218300016524,
                47.664481999785586
              ],
              [
                -118.16233799997593,
                47.66454300020503
              ],
              [
                -118.16234299999881,
                47.66404200018296
              ],
              [
                -118.1623489998466,
                47.663821000141034
              ],
              [
                -118.16235200021963,
                47.66367699980192
              ],
              [
                -118.16240200044834,
                47.66191099982072
              ],
              [
                -118.1624069995729,
                47.66165700013167
              ],
              [
                -118.1624209998166,
                47.66097200009309
              ],
              [
                -118.16242199964152,
                47.66095299973161
              ],
              [
                -118.15974500033191,
                47.66094899987754
              ],
              [
                -118.15975200000459,
                47.658007999869035
              ],
              [
                -118.15975399965444,
                47.657309000196854
              ],
              [
                -118.16247100004531,
                47.65731800004177
              ],
              [
                -118.16417300028489,
                47.65731099996087
              ],
              [
                -118.16610800015297,
                47.65657600015807
              ],
              [
                -118.16773800042255,
                47.65595599981651
              ],
              [
                -118.16877199994212,
                47.65554999992356
              ],
              [
                -118.16968300033636,
                47.65519199983424
              ],
              [
                -118.17317999980362,
                47.653814000037784
              ],
              [
                -118.1731789999787,
                47.65278099991059
              ],
              [
                -118.17527500040359,
                47.652343000279075
              ]
            ]
          ],
          [
            [
              [
                -118.15058800012703,
                47.669173999754015
              ],
              [
                -118.15061700043935,
                47.66645199980105
              ],
              [
                -118.14264199989205,
                47.666440000291935
              ],
              [
                -118.14102099984333,
                47.668322000195396
              ],
              [
                -118.14102199966823,
                47.66881399999292
              ],
              [
                -118.14102300039147,
                47.66904900010997
              ],
              [
                -118.14102099984333,
                47.67109700005925
              ],
              [
                -118.14102099984333,
                47.6718589997726
              ],
              [
                -118.14102099984333,
                47.67190100003343
              ],
              [
                -118.14102099984333,
                47.6720299997158
              ],
              [
                -118.14102099984333,
                47.672072999740685
              ],
              [
                -118.14101900019352,
                47.67287699980089
              ],
              [
                -118.14101599982047,
                47.67415899978297
              ],
              [
                -118.14101400017064,
                47.67528900005854
              ],
              [
                -118.14101300034572,
                47.67609399999298
              ],
              [
                -118.1410109997976,
                47.67701099989253
              ],
              [
                -118.14100699959965,
                47.67733100007989
              ],
              [
                -118.14144500016586,
                47.677334000087484
              ],
              [
                -118.14402699993924,
                47.67734300010921
              ],
              [
                -118.14979399990865,
                47.673549999989675
              ],
              [
                -118.14985699965781,
                47.671886000246616
              ],
              [
                -118.1482559997006,
                47.671892000282824
              ],
              [
                -118.14828500001292,
                47.669169999924904
              ],
              [
                -118.15058800012703,
                47.669173999754015
              ]
            ]
          ],
          [
            [
              [
                -118.17646000043423,
                47.644495000034475
              ],
              [
                -118.17646799993182,
                47.642729999904
              ],
              [
                -118.17640500018263,
                47.642729999904
              ],
              [
                -118.1762679999153,
                47.642729999904
              ],
              [
                -118.17574999988145,
                47.6427309997625
              ],
              [
                -118.1749249997009,
                47.64273300008479
              ],
              [
                -118.17474399995095,
                47.642736000265366
              ],
              [
                -118.17437800025303,
                47.6427309997625
              ],
              [
                -118.1740869999999,
                47.6427309997625
              ],
              [
                -118.17378499987612,
                47.6427309997625
              ],
              [
                -118.17345799963796,
                47.6427309997625
              ],
              [
                -118.17327100004022,
                47.64273399994323
              ],
              [
                -118.17325500014671,
                47.64273399994323
              ],
              [
                -118.17324699975079,
                47.6445159999815
              ],
              [
                -118.1763730003956,
                47.644495000034475
              ],
              [
                -118.17646000043423,
                47.644495000034475
              ]
            ]
          ]
        ]
      },
      "properties": {
        "AREALAND": "4317270",
        "AREAWATER": "0",
        "BASENAME": "Davenport",
        "CBSAPCI": "N",
        "CENTLAT": "+47.6550417",
        "CENTLON": "-118.1518797",
        "FUNCSTAT": "A",
        "GEOID": "5316795",
        "INTPTLAT": "+47.6550417",
        "INTPTLON": "-118.1518797",
        "LSADC": "25",
        "MTFCC": "G4110",
        "NAME": "Davenport city",
        "NECTAPCI": "N",
        "OBJECTID": 15868,
        "OID": "27890480264304",
        "PLACE": "16795",
        "PLACECC": "C1",
        "PLACENS": "02410295",
        "STATE": "53",
        "DISP_CLR": 1,
        "slug": "davenport",
        "jurisdiction_key": "davenport_city",
        "county_fips": [
          "53043"
        ]
      }
    }
  ]
}
