{
  "type": "FeatureCollection",
  "features": [
    {
      "type": "Feature",
      "geometry": {
        "type": "Polygon",
        "coordinates": [
          [
            [
              -117.4876590002357,
              47.95344599991616
            ],
            [
              -117.48764099979401,
              47.95342699975752
            ],
            [
              -117.48755899977823,
              47.95333999998685
            ],
            [
              -117.48731799975383,
              47.953082000158304
            ],
            [
              -117.48669199976493,
              47.95242999993434
            ],
            [
              -117.48480799995048,
              47.95046700004634
            ],
            [
              -117.48327800013834,
              47.94887199972221
            ],
            [
              -117.48234800037585,
              47.94790199982332
            ],
            [
              -117.48226399981193,
              47.947814999776426
            ],
            [
              -117.48227100038295,
              47.94695299998784
            ],
            [
              -117.48160299966295,
              47.946962999773234
            ],
            [
              -117.4815719997008,
              47.946962999773234
            ],
            [
              -117.4814789998144,
              47.94696399981187
            ],
            [
              -117.48144899967716,
              47.94696499985043
            ],
            [
              -117.48143600015668,
              47.94695099991022
            ],
            [
              -117.48139699979863,
              47.9469120001856
            ],
            [
              -117.48138500010305,
              47.946899000270875
            ],
            [
              -117.48109700022297,
              47.94660100017174
            ],
            [
              -117.48023500023251,
              47.945708999920484
            ],
            [
              -117.47994800017734,
              47.94541200024964
            ],
            [
              -117.47951499963399,
              47.94496400005825
            ],
            [
              -117.47821699962545,
              47.9436229999642
            ],
            [
              -117.47778499980531,
              47.94317600002463
            ],
            [
              -117.47769799976668,
              47.94308600010646
            ],
            [
              -117.47743699965076,
              47.94281600001351
            ],
            [
              -117.47735100033536,
              47.942727000190885
            ],
            [
              -117.47708699984642,
              47.9424599998036
            ],
            [
              -117.47629699982599,
              47.9416600001369
            ],
            [
              -117.47603400006024,
              47.941393999800866
            ],
            [
              -117.47572899956343,
              47.941070000108105
            ],
            [
              -117.47544300023145,
              47.94076599975347
            ],
            [
              -117.47480999967156,
              47.94010500027592
            ],
            [
              -117.47454600008092,
              47.93982800022703
            ],
            [
              -117.47450400024813,
              47.93978400025865
            ],
            [
              -117.47449400020236,
              47.93977300011026
            ],
            [
              -117.47417100016219,
              47.9397770002192
            ],
            [
              -117.47383100040355,
              47.93977899997267
            ],
            [
              -117.47356400043988,
              47.93978099972605
            ],
            [
              -117.47338600016465,
              47.93978199990358
            ],
            [
              -117.47334299960862,
              47.93978300008111
            ],
            [
              -117.47282799994782,
              47.93978600001184
            ],
            [
              -117.47153099976417,
              47.939794999802906
            ],
            [
              -117.47152900011439,
              47.94039499979267
            ],
            [
              -117.47152699956622,
              47.940884999824135
            ],
            [
              -117.47152499991641,
              47.941316999907365
            ],
            [
              -117.47152499991641,
              47.941419999989094
            ],
            [
              -117.47152499991641,
              47.94147000003654
            ],
            [
              -117.47152499991641,
              47.94160500016381
            ],
            [
              -117.47150700037307,
              47.94160599970432
            ],
            [
              -117.47137199975553,
              47.941606999846556
            ],
            [
              -117.4704400003432,
              47.9416130000979
            ],
            [
              -117.47018000005221,
              47.94161400024
            ],
            [
              -117.4698849996011,
              47.941614999780334
            ],
            [
              -117.4694629998267,
              47.941618000206496
            ],
            [
              -117.46896400005943,
              47.94162100003076
            ],
            [
              -117.46879599982995,
              47.9416220001727
            ],
            [
              -117.46866199993565,
              47.941619999888744
            ],
            [
              -117.46855099960756,
              47.941618999746765
            ],
            [
              -117.46609199985782,
              47.94163199978593
            ],
            [
              -117.46068200026377,
              47.94167800026856
            ],
            [
              -117.45797800029169,
              47.94169999975232
            ],
            [
              -117.45662500003156,
              47.94171100009248
            ],
            [
              -117.45527299959636,
              47.9417229999685
            ],
            [
              -117.45522699956561,
              47.94172500024846
            ],
            [
              -117.45522800028883,
              47.942842000088255
            ],
            [
              -117.45521700041817,
              47.943014000299776
            ],
            [
              -117.45520800019733,
              47.9431230000851
            ],
            [
              -117.45518999975569,
              47.943227999798964
            ],
            [
              -117.45516499964133,
              47.943312000018224
            ],
            [
              -117.45514200007511,
              47.94338899994891
            ],
            [
              -117.45511500031093,
              47.94346500026033
            ],
            [
              -117.45508299962555,
              47.94352399987874
            ],
            [
              -117.45504499999073,
              47.94357599990472
            ],
            [
              -117.45490299970048,
              47.943572000089716
            ],
            [
              -117.45448000010121,
              47.94356200025003
            ],
            [
              -117.4543389996359,
              47.943558999936705
            ],
            [
              -117.45415100021322,
              47.9435540000158
            ],
            [
              -117.45394000032604,
              47.94357599990472
            ],
            [
              -117.45393399957992,
              47.94362899998155
            ],
            [
              -117.45395100019671,
              47.94536900028959
            ],
            [
              -117.45363200035445,
              47.945370999826736
            ],
            [
              -117.45359499964621,
              47.945370999826736
            ],
            [
              -117.45329800044361,
              47.945372999965535
            ],
            [
              -117.45259899976148,
              47.94537799971045
            ],
            [
              -117.45173000009834,
              47.94538400012581
            ],
            [
              -117.45023999957085,
              47.9453950002837
            ],
            [
              -117.44987899989583,
              47.94539699981984
            ],
            [
              -117.44987899989583,
              47.94557699987632
            ],
            [
              -117.44988100044397,
              47.94568600027436
            ],
            [
              -117.44989899998733,
              47.94697699971023
            ],
            [
              -117.44990099963715,
              47.947087000200675
            ],
            [
              -117.44990099963715,
              47.94723099979964
            ],
            [
              -117.44719599984013,
              47.94725800009342
            ],
            [
              -117.44567799972356,
              47.94727299998317
            ],
            [
              -117.44493999958168,
              47.947281000243464
            ],
            [
              -117.44452399965508,
              47.94728399973904
            ],
            [
              -117.44452100018033,
              47.94785800010837
            ],
            [
              -117.44451899963221,
              47.94817399985513
            ],
            [
              -117.44451399960933,
              47.94905099971242
            ],
            [
              -117.44450899958643,
              47.94996300026477
            ],
            [
              -117.44443999998948,
              47.949962000284216
            ],
            [
              -117.4443489997529,
              47.94996099970191
            ],
            [
              -117.44361399998405,
              47.94995499981794
            ],
            [
              -117.44272000020655,
              47.94994599999064
            ],
            [
              -117.44182499970584,
              47.949938000142865
            ],
            [
              -117.44182600042906,
              47.950726000261675
            ],
            [
              -117.44182600042906,
              47.95080799979912
            ],
            [
              -117.44170300040541,
              47.95080699983492
            ],
            [
              -117.43914800039623,
              47.950775999730965
            ],
            [
              -117.43915300041907,
              47.95168300018896
            ],
            [
              -117.43915900026687,
              47.95259100030053
            ],
            [
              -117.43916099991671,
              47.95299599972867
            ],
            [
              -117.4391619997416,
              47.95316400016885
            ],
            [
              -117.4391619997416,
              47.953190999769646
            ],
            [
              -117.43916299956652,
              47.95325800025561
            ],
            [
              -117.43917199978736,
              47.954375999837694
            ],
            [
              -117.43912099973373,
              47.954375999837694
            ],
            [
              -117.43863500038522,
              47.954375999837694
            ],
            [
              -117.43816599985686,
              47.95437699973284
            ],
            [
              -117.4371769996448,
              47.954380000019846
            ],
            [
              -117.43669200012124,
              47.95438099991492
            ],
            [
              -117.43611800001088,
              47.95438099991492
            ],
            [
              -117.43439700040304,
              47.95438500009672
            ],
            [
              -117.43382400011758,
              47.95438699988665
            ],
            [
              -117.43274200001913,
              47.95438199981001
            ],
            [
              -117.42949800027186,
              47.954368999969354
            ],
            [
              -117.4293030002782,
              47.95436800007405
            ],
            [
              -117.42876500015284,
              47.95436600028334
            ],
            [
              -117.42876799962758,
              47.95448499972756
            ],
            [
              -117.42879000026721,
              47.9561989997839
            ],
            [
              -117.42881299983343,
              47.95801000007985
            ],
            [
              -117.42882399970406,
              47.95888200001194
            ],
            [
              -117.4288250004273,
              47.959531999843804
            ],
            [
              -117.42883499957472,
              47.95975299987271
            ],
            [
              -117.42837000014264,
              47.95975100029047
            ],
            [
              -117.42806899984375,
              47.959749999897696
            ],
            [
              -117.42559800039845,
              47.95973799999595
            ],
            [
              -117.42456200033075,
              47.959734000228565
            ],
            [
              -117.4234969999507,
              47.95972999985934
            ],
            [
              -117.4207159999857,
              47.95971799995291
            ],
            [
              -117.41911300037864,
              47.95971199999865
            ],
            [
              -117.41793300037087,
              47.95970699983574
            ],
            [
              -117.41467799985466,
              47.9596929997379
            ],
            [
              -117.41261499994003,
              47.9596790002378
            ],
            [
              -117.41237100044088,
              47.959677000051066
            ],
            [
              -117.41203900017986,
              47.95967499986431
            ],
            [
              -117.41024800025181,
              47.95966299994511
            ],
            [
              -117.41000200020453,
              47.95966099975776
            ],
            [
              -117.40923399992542,
              47.95965600019148
            ],
            [
              -117.40570599959769,
              47.959631999739884
            ],
            [
              -117.40433599961914,
              47.95962299979325
            ],
            [
              -117.40418900020437,
              47.95962199999962
            ],
            [
              -117.40408799992204,
              47.95962199999962
            ],
            [
              -117.40408799992204,
              47.959665000132375
            ],
            [
              -117.40408899974693,
              47.959737000204505
            ],
            [
              -117.40408999957184,
              47.95977200011143
            ],
            [
              -117.40408700009712,
              47.959972999770955
            ],
            [
              -117.40403600004349,
              47.963251999908465
            ],
            [
              -117.40405799978481,
              47.968769999701266
            ],
            [
              -117.4040639996326,
              47.96931200016898
            ],
            [
              -117.40407799987628,
              47.9705750002859
            ],
            [
              -117.403795999844,
              47.97056199970819
            ],
            [
              -117.40104900021416,
              47.97055800017749
            ],
            [
              -117.40020399994215,
              47.9705559998106
            ],
            [
              -117.39989099994771,
              47.9705559998106
            ],
            [
              -117.39830199968604,
              47.97055299986152
            ],
            [
              -117.39325899961479,
              47.97054400001326
            ],
            [
              -117.39305699994846,
              47.97054299982952
            ],
            [
              -117.3928080004264,
              47.97054299982952
            ],
            [
              -117.39280300040353,
              47.97072300010875
            ],
            [
              -117.39278999998474,
              47.97319300010575
            ],
            [
              -117.39278300031206,
              47.974199999723865
            ],
            [
              -117.39278400013696,
              47.97435400004117
            ],
            [
              -117.39278499996188,
              47.97451199972536
            ],
            [
              -117.39278300031206,
              47.97508999991642
            ],
            [
              -117.39279199963458,
              47.97539200025826
            ],
            [
              -117.39279199963458,
              47.97551400024589
            ],
            [
              -117.39279400018272,
              47.97571399990765
            ],
            [
              -117.39280400022844,
              47.976759999752026
            ],
            [
              -117.39281299955096,
              47.978161999720825
            ],
            [
              -117.39281299955096,
              47.97836800014301
            ],
            [
              -117.39281599992401,
              47.97872400014348
            ],
            [
              -117.39282599996974,
              47.98010399973356
            ],
            [
              -117.39282599996974,
              47.98020200009863
            ],
            [
              -117.39283000016772,
              47.980643999728045
            ],
            [
              -117.39283099999264,
              47.98080299999296
            ],
            [
              -117.39283500019059,
              47.98144200028248
            ],
            [
              -117.3928360000155,
              47.98151699997849
            ],
            [
              -117.39283900038853,
              47.98172700011097
            ],
            [
              -117.39286000030496,
              47.98505900001961
            ],
            [
              -117.39286699997764,
              47.98601600010786
            ],
            [
              -117.39286699997764,
              47.9860980001521
            ],
            [
              -117.39287299982544,
              47.98686400000658
            ],
            [
              -117.39287299982544,
              47.98687300001657
            ],
            [
              -117.39287600019847,
              47.98743099997641
            ],
            [
              -117.39288500041931,
              47.98868399989219
            ],
            [
              -117.39731199964908,
              47.98869099992048
            ],
            [
              -117.39866200043447,
              47.988693000186046
            ],
            [
              -117.39868400017578,
              47.988693000186046
            ],
            [
              -117.3988139998721,
              47.988693000186046
            ],
            [
              -117.39899799999515,
              47.988694000018185
            ],
            [
              -117.40396700044651,
              47.988704999974175
            ],
            [
              -117.40396800027143,
              47.98859600014278
            ],
            [
              -117.40396200042365,
              47.987196999932564
            ],
            [
              -117.40394399998198,
              47.983002000143024
            ],
            [
              -117.40394099960895,
              47.98220999999986
            ],
            [
              -117.40393899995911,
              47.98160399980199
            ],
            [
              -117.40393399993624,
              47.98143399989959
            ],
            [
              -117.40583600019238,
              47.98144200028248
            ],
            [
              -117.41346500023491,
              47.98144200028248
            ],
            [
              -117.41504899957539,
              47.98144500020023
            ],
            [
              -117.41588700017472,
              47.98144800011786
            ],
            [
              -117.4162460001999,
              47.981456999869586
            ],
            [
              -117.41686200014308,
              47.981462999703226
            ],
            [
              -117.41698199979366,
              47.98146400027674
            ],
            [
              -117.41882600032346,
              47.9814819997731
            ],
            [
              -117.42064099964264,
              47.981498999893006
            ],
            [
              -117.42083300016158,
              47.98150099983599
            ],
            [
              -117.42122899999671,
              47.98150600029446
            ],
            [
              -117.42126300033188,
              47.98150600029446
            ],
            [
              -117.42134699999745,
              47.98150700026582
            ],
            [
              -117.42145199957946,
              47.98150900020849
            ],
            [
              -117.42151199985389,
              47.98150900020849
            ],
            [
              -117.42158899984682,
              47.981510000179796
            ],
            [
              -117.42294999960455,
              47.98152299980515
            ],
            [
              -117.42431000043568,
              47.98153600002849
            ],
            [
              -117.42567100019338,
              47.98154900024851
            ],
            [
              -117.42568799991183,
              47.984786999953634
            ],
            [
              -117.42568999956167,
              47.985191000215906
            ],
            [
              -117.4258030004379,
              47.98519200011593
            ],
            [
              -117.42702899957808,
              47.98520500001651
            ],
            [
              -117.42836699976958,
              47.98521899981331
            ],
            [
              -117.429705999786,
              47.9852330002076
            ],
            [
              -117.4298749998404,
              47.98523500000591
            ],
            [
              -117.4310439999775,
              47.98524699999681
            ],
            [
              -117.43238999966664,
              47.98526099978223
            ],
            [
              -117.43373700007896,
              47.98527500016507
            ],
            [
              -117.43508299976807,
              47.98528899994289
            ],
            [
              -117.43642500015756,
              47.98530299971691
            ],
            [
              -117.43661400030344,
              47.985300000023315
            ],
            [
              -117.43661500012836,
              47.98485899988068
            ],
            [
              -117.43661599995326,
              47.98384400009695
            ],
            [
              -117.43661599995326,
              47.98343399990976
            ],
            [
              -117.43661699977815,
              47.98220500021088
            ],
            [
              -117.43661799960307,
              47.98179600019999
            ],
            [
              -117.43661900032629,
              47.98049100012268
            ],
            [
              -117.43661599995326,
              47.98030800023498
            ],
            [
              -117.43656099970167,
              47.975847000026576
            ],
            [
              -117.43654300015834,
              47.97436100020868
            ],
            [
              -117.4387030001573,
              47.9743849998308
            ],
            [
              -117.44518399997915,
              47.97445900004885
            ],
            [
              -117.44734499980304,
              47.974483999732826
            ],
            [
              -117.44959000019084,
              47.974512999832186
            ],
            [
              -117.45632700010572,
              47.9746010001377
            ],
            [
              -117.45639900007575,
              47.97460200024281
            ],
            [
              -117.45833899996671,
              47.97463799980451
            ],
            [
              -117.45833300011893,
              47.97239600029388
            ],
            [
              -117.45832899992097,
              47.971161999782545
            ],
            [
              -117.45832899992097,
              47.97103999973665
            ],
            [
              -117.45832899992097,
              47.971011000092496
            ],
            [
              -117.45832800009607,
              47.970747000218836
            ],
            [
              -117.45832600044623,
              47.97014700013433
            ],
            [
              -117.45831800005031,
              47.967500000056326
            ],
            [
              -117.45831700022542,
              47.967436999767216
            ],
            [
              -117.45831700022542,
              47.967417000298994
            ],
            [
              -117.45831700022542,
              47.96733600029852
            ],
            [
              -117.45831100037763,
              47.966881000118136
            ],
            [
              -117.45830600035475,
              47.96642600013978
            ],
            [
              -117.45830299998168,
              47.96615900008147
            ],
            [
              -117.45830100033187,
              47.965970999762064
            ],
            [
              -117.45829899978374,
              47.96574500028961
            ],
            [
              -117.45829799995884,
              47.965675000124676
            ],
            [
              -117.45829700013391,
              47.96558000009281
            ],
            [
              -117.45829600030899,
              47.965516000188124
            ],
            [
              -117.45829399976087,
              47.96535699976208
            ],
            [
              -117.45829399976087,
              47.9653239999982
            ],
            [
              -117.45829200011104,
              47.96513200029758
            ],
            [
              -117.45828999956292,
              47.96493999988327
            ],
            [
              -117.458288999738,
              47.96491000013002
            ],
            [
              -117.45828999956292,
              47.96479899998917
            ],
            [
              -117.46372699981944,
              47.964844999702585
            ],
            [
              -117.46371500012387,
              47.963749000203556
            ],
            [
              -117.46369300038255,
              47.961348999776284
            ],
            [
              -117.46368400016173,
              47.96010300017283
            ],
            [
              -117.46375000028398,
              47.96010300017283
            ],
            [
              -117.46418499957885,
              47.96010499974149
            ],
            [
              -117.46549299963313,
              47.96011200003584
            ],
            [
              -117.46592899965121,
              47.960114999989834
            ],
            [
              -117.46655800001315,
              47.96011799994365
            ],
            [
              -117.46844500020066,
              47.960128999973314
            ],
            [
              -117.46907500038752,
              47.96013299971011
            ],
            [
              -117.46908100023528,
              47.960335000151176
            ],
            [
              -117.46909899977865,
              47.96094099974311
            ],
            [
              -117.46910600034965,
              47.96114399979676
            ],
            [
              -117.46910700017457,
              47.96120400005103
            ],
            [
              -117.46911300002233,
              47.96138500015529
            ],
            [
              -117.46911600039539,
              47.961445999888035
            ],
            [
              -117.46911999969502,
              47.9615779997041
            ],
            [
              -117.46913200028892,
              47.96197600023398
            ],
            [
              -117.46913700031179,
              47.962109000245874
            ],
            [
              -117.46913800013671,
              47.96249299975175
            ],
            [
              -117.46914200033466,
              47.96351099980322
            ],
            [
              -117.46914300015958,
              47.96364800013985
            ],
            [
              -117.46914399998447,
              47.96377600028841
            ],
            [
              -117.46914399998447,
              47.963833000153805
            ],
            [
              -117.46927100020609,
              47.963823000023716
            ],
            [
              -117.4693709997652,
              47.963825000049866
            ],
            [
              -117.46998199968549,
              47.96382999981425
            ],
            [
              -117.47063399961364,
              47.96383599989172
            ],
            [
              -117.4712860004401,
              47.96384199996853
            ],
            [
              -117.47153099976417,
              47.963843999994005
            ],
            [
              -117.47185100032964,
              47.96384699973127
            ],
            [
              -117.47185100032964,
              47.964045999759044
            ],
            [
              -117.47185100032964,
              47.96408000004683
            ],
            [
              -117.47185100032964,
              47.96412599979902
            ],
            [
              -117.47185100032964,
              47.96414700024761
            ],
            [
              -117.47185200015457,
              47.96454599993096
            ],
            [
              -117.47185200015457,
              47.96476300018489
            ],
            [
              -117.47185299997946,
              47.96498499978127
            ],
            [
              -117.47185299997946,
              47.96506300019325
            ],
            [
              -117.47185299997946,
              47.96515299973569
            ],
            [
              -117.47185399980435,
              47.96558500028877
            ],
            [
              -117.47185399980435,
              47.96566699970452
            ],
            [
              -117.47185399980435,
              47.96578299996131
            ],
            [
              -117.47185299997946,
              47.9658169997072
            ],
            [
              -117.47185399980435,
              47.965876000274605
            ],
            [
              -117.47185399980435,
              47.96589700001174
            ],
            [
              -117.47185499962927,
              47.96619199991337
            ],
            [
              -117.47185600035252,
              47.96646599983586
            ],
            [
              -117.47185600035252,
              47.96657199990327
            ],
            [
              -117.47185600035252,
              47.96668499975828
            ],
            [
              -117.47185700017744,
              47.96690500020927
            ],
            [
              -117.47185700017744,
              47.96712400007469
            ],
            [
              -117.47185800000236,
              47.96739799986479
            ],
            [
              -117.47185800000236,
              47.96740700026128
            ],
            [
              -117.47235900031775,
              47.967400999997096
            ],
            [
              -117.47239299975463,
              47.9674020002417
            ],
            [
              -117.47249700041,
              47.967404999772334
            ],
            [
              -117.47253199967183,
              47.96740600001682
            ],
            [
              -117.47279799981058,
              47.96740799990424
            ],
            [
              -117.47359600022693,
              47.967417000298994
            ],
            [
              -117.4738630001906,
              47.967419999828756
            ],
            [
              -117.47444899999651,
              47.967419000186034
            ],
            [
              -117.47454600008092,
              47.967419000186034
            ],
            [
              -117.47454100005805,
              47.96763300028066
            ],
            [
              -117.474509000271,
              47.96879799978486
            ],
            [
              -117.47639499973526,
              47.96881499987117
            ],
            [
              -117.476480999949,
              47.96881600008834
            ],
            [
              -117.47971899984849,
              47.968844999762204
            ],
            [
              -117.47975999985638,
              47.968844999762204
            ],
            [
              -117.47983799967417,
              47.96884700019536
            ],
            [
              -117.47985600011583,
              47.96852999973675
            ],
            [
              -117.47991300001726,
              47.96754000012361
            ],
            [
              -117.47993999978142,
              47.966238999856294
            ],
            [
              -117.47998499998727,
              47.9641190000486
            ],
            [
              -117.47999000001013,
              47.96388100014999
            ],
            [
              -117.47998499998727,
              47.963735999712135
            ],
            [
              -117.47994700035244,
              47.962588000047504
            ],
            [
              -117.47993499975856,
              47.96220600013361
            ],
            [
              -117.4799370003067,
              47.962131999801635
            ],
            [
              -117.4799439999794,
              47.9619140001747
            ],
            [
              -117.47994700035244,
              47.96184099977672
            ],
            [
              -117.47994999982718,
              47.9617210000766
            ],
            [
              -117.47996300024597,
              47.96136099990542
            ],
            [
              -117.47996700044392,
              47.96124200005574
            ],
            [
              -117.47996599972068,
              47.96104300005349
            ],
            [
              -117.47996300024597,
              47.960447999815166
            ],
            [
              -117.47996300024597,
              47.96025000014522
            ],
            [
              -117.48028100026329,
              47.96025300009119
            ],
            [
              -117.48123799978995,
              47.96026199992808
            ],
            [
              -117.48155699963219,
              47.96026499987336
            ],
            [
              -117.48171099961797,
              47.96026499987336
            ],
            [
              -117.48217299957534,
              47.96026799981846
            ],
            [
              -117.48232699956112,
              47.96026900020116
            ],
            [
              -117.48241799979773,
              47.96026900020116
            ],
            [
              -117.48242000034585,
              47.96017999975219
            ],
            [
              -117.48241600014791,
              47.96002800005034
            ],
            [
              -117.48240699992706,
              47.959784999795815
            ],
            [
              -117.48239900042947,
              47.95947700023952
            ],
            [
              -117.48254699966915,
              47.95957100027146
            ],
            [
              -117.48263600025592,
              47.959627000170805
            ],
            [
              -117.48341000038283,
              47.960117000159556
            ],
            [
              -117.4835280003836,
              47.960167999950286
            ],
            [
              -117.48364899985911,
              47.9602209998564
            ],
            [
              -117.48385800009649,
              47.96027899981619
            ],
            [
              -117.4838809996627,
              47.9602849997046
            ],
            [
              -117.48401000043242,
              47.96028399992373
            ],
            [
              -117.48408599970212,
              47.96028399992373
            ],
            [
              -117.48408400005229,
              47.96015600014563
            ],
            [
              -117.48408200040245,
              47.96009700026328
            ],
            [
              -117.4840420002195,
              47.95918700009997
            ],
            [
              -117.48402100030309,
              47.95872600025514
            ],
            [
              -117.4839800002952,
              47.95872499984257
            ],
            [
              -117.48390999997503,
              47.95872400003156
            ],
            [
              -117.48361399969903,
              47.95872400003156
            ],
            [
              -117.48360100017852,
              47.95817499979275
            ],
            [
              -117.48360100017852,
              47.95816000005938
            ],
            [
              -117.48371099978337,
              47.95815900023739
            ],
            [
              -117.48367399997348,
              47.95732500001212
            ],
            [
              -117.48367300014856,
              47.957296999724775
            ],
            [
              -117.4836699997755,
              47.957247999787086
            ],
            [
              -117.48366899995058,
              47.957235999905755
            ],
            [
              -117.48379399962407,
              47.95723400022604
            ],
            [
              -117.48379199997424,
              47.957191999715405
            ],
            [
              -117.48379100014932,
              47.957156999865425
            ],
            [
              -117.48514400040945,
              47.95712999993056
            ],
            [
              -117.48528199960342,
              47.95712699980323
            ],
            [
              -117.48667699969633,
              47.95710399982396
            ],
            [
              -117.48719999975305,
              47.95709599988106
            ],
            [
              -117.48719599955508,
              47.95701199980449
            ],
            [
              -117.48714000037691,
              47.955757000260114
            ],
            [
              -117.48713799982876,
              47.95572200003963
            ],
            [
              -117.48713199998097,
              47.9555749998173
            ],
            [
              -117.48666599982568,
              47.955583999867486
            ],
            [
              -117.48524899999144,
              47.95561100000863
            ],
            [
              -117.48504999979981,
              47.95561199987988
            ],
            [
              -117.48504599960184,
              47.95553100001725
            ],
            [
              -117.48500499959397,
              47.95523699987241
            ],
            [
              -117.48499200007349,
              47.95514000013491
            ],
            [
              -117.48498100020284,
              47.95492500013589
            ],
            [
              -117.48494900041578,
              47.954280000185754
            ],
            [
              -117.48493900037005,
              47.954065000218094
            ],
            [
              -117.4852590000372,
              47.954061000011556
            ],
            [
              -117.48701800017817,
              47.954036000067255
            ],
            [
              -117.48706300038401,
              47.95403799987069
            ],
            [
              -117.48709599999599,
              47.954038999772415
            ],
            [
              -117.48727199972308,
              47.95404600028706
            ],
            [
              -117.48739300009689,
              47.95404100017737
            ],
            [
              -117.48706599985876,
              47.95370299982403
            ],
            [
              -117.48714399967655,
              47.95366899992594
            ],
            [
              -117.487420999686,
              47.95354899989459
            ],
            [
              -117.4876590002357,
              47.95344599991616
            ]
          ]
        ]
      },
      "properties": {
        "AREALAND": "17842087",
        "AREAWATER": "0",
        "BASENAME": "Deer Park",
        "CBSAPCI": "N",
        "CENTLAT": "+47.9642046",
        "CENTLON": "-117.4397877",
        "FUNCSTAT": "A",
        "GEOID": "5317320",
        "INTPTLAT": "+47.9642046",
        "INTPTLON": "-117.4397877",
        "LSADC": "25",
        "MTFCC": "G4110",
        "NAME": "Deer Park city",
        "NECTAPCI": "N",
        "OBJECTID": 27202,
        "OID": "27890481567792",
        "PLACE": "17320",
        "PLACECC": "C1",
        "PLACENS": "02410312",
        "STATE": "53",
        "DISP_CLR": 2,
        "slug": "deer_park",
        "jurisdiction_key": "deer_park_city",
        "county_fips": [
          "53063"
        ]
      }
    }
  ]
}
