{"type":"FeatureCollection","features":[{"type":"Feature","geometry":{"type":"Polygon","coordinates":[[[-122.68592099978629,47.096433999914716],[-122.68592699963409,47.09634699991379],[-122.68591099974056,47.09597000010192],[-122.6859049998928,47.095693999713674],[-122.685899000045,47.09537199979703],[-122.68588700034942,47.09023699974723],[-122.68588800017434,47.090068000110776],[-122.68317699963123,47.09006900010298],[-122.68312099955475,47.08759900007126],[-122.68297699961468,47.087579999947025],[-122.6829080000177,47.08757899990808],[-122.68287600023065,47.086467000060985],[-122.68196800020945,47.0864660000012],[-122.68176099962191,47.08646499994134],[-122.68131000043351,47.08646299982162],[-122.68129500036491,47.086715000247274],[-122.68130500041065,47.08698000013456],[-122.6813160002813,47.08725799990115],[-122.68131999958096,47.08736699979649],[-122.68047699985706,47.087374000096396],[-122.68048000023013,47.08725699985617],[-122.68047900040521,47.08700099996075],[-122.68047900040521,47.08658799982011],[-122.68047900040521,47.08647599998682],[-122.68047600003216,47.08646000025354],[-122.68041400010789,47.08646000025354],[-122.68011000033427,47.08645900019362],[-122.6768389999245,47.08644900020477],[-122.67524899983793,47.08644399990384],[-122.67522100024883,47.087222000105555],[-122.6751779996928,47.088374999869636],[-122.67516199979927,47.08880899994739],[-122.67513900023306,47.089403999929594],[-122.67511900014156,47.08993599975394],[-122.67511099974567,47.090152000000764],[-122.67503200010295,47.090150000019484],[-122.6749529995619,47.090148000038134],[-122.67388700025529,47.09012000029129],[-122.67331999981761,47.09010499980924],[-122.67325299987047,47.09010399981775],[-122.67317900025063,47.09010199983463],[-122.67305500040207,47.09009799986824],[-122.67294300024909,47.090095999884944],[-122.67282100005033,47.09009199991811],[-122.67259699974434,47.0900859999673],[-122.67237199961343,47.09008100000776],[-122.67216699957406,47.090075000055705],[-122.67190600035646,47.090068000110776],[-122.67168600024841,47.09006300014958],[-122.67146100011753,47.0900570001955],[-122.67128100019247,47.090052000233236],[-122.6711420002753,47.090048000263096],[-122.6710240002745,47.09004500028528],[-122.67099199958915,47.09004400029266],[-122.67090600027373,47.09004199969571],[-122.67054200022568,47.09003399975363],[-122.6699530000467,47.09001699987271],[-122.66995200022178,47.09018500029261],[-122.66993399978013,47.0944940000076],[-122.66992299990947,47.097311000272896],[-122.66471099978382,47.09730000001897],[-122.66468599966949,47.09363299976357],[-122.66459100013324,47.09363199983832],[-122.662589000318,47.09361699973384],[-122.6624779999899,47.09361699973384],[-122.66204899964453,47.09361499988268],[-122.66128600028658,47.09361000025447],[-122.65681499977757,47.09358000002892],[-122.65286899987343,47.09355400010518],[-122.65010600035008,47.09353800005171],[-122.64813700014683,47.09353899997872],[-122.64664400014465,47.09353899997872],[-122.64662099968008,47.092691000067056],[-122.64662300022822,47.09225000016058],[-122.64662400005314,47.092072999936654],[-122.64662599970296,47.09163099984269],[-122.64663499992378,47.08993599975394],[-122.64663300027398,47.08928399984639],[-122.64663200044906,47.08893099990466],[-122.64663200044906,47.08885300001431],[-122.64663200044906,47.08805699985654],[-122.64663200044906,47.088018999927996],[-122.64663300027398,47.08793799982891],[-122.64636499958704,47.08800200001559],[-122.64500800002729,47.088329999994606],[-122.64325499973405,47.08875200023752],[-122.6416229998147,47.08918500029283],[-122.64056400018075,47.08943800007732],[-122.6380250000651,47.09002599981035],[-122.63769500035222,47.09009499989329],[-122.63713600031048,47.09021499998418],[-122.63573100017179,47.09056600001298],[-122.63084700010923,47.09179600018508],[-122.62997699972287,47.09198999997461],[-122.62863900042967,47.09241900021239],[-122.62694999971058,47.09281700006858],[-122.62535499960111,47.09319899985293],[-122.6241360001336,47.093480999898574],[-122.62120700003061,47.094221000273926],[-122.62120899968042,47.09432000025172],[-122.6212079998555,47.09451599983783],[-122.6212060002057,47.09507100008176],[-122.62237500034281,47.09507299987825],[-122.62237399961958,47.09535800007556],[-122.62237299979469,47.09576600005923],[-122.62237299979469,47.09587799992763],[-122.62237500034281,47.09602500027648],[-122.62237100014484,47.09623800004946],[-122.62236699994689,47.096566000066396],[-122.6223250001141,47.09673300014156],[-122.6222909997789,47.096834000072036],[-122.62224999977101,47.09691599995942],[-122.62214900038701,47.09701999973939],[-122.62202499964013,47.097111999775215],[-122.62188099970007,47.097188999942304],[-122.6217429996078,47.09724099989685],[-122.62239399971105,47.09724700026463],[-122.62244800013775,47.097110999915294],[-122.62251300043506,47.096972000242516],[-122.62258399968186,47.096838000144054],[-122.62273900039087,47.096548999824314],[-122.62288400015584,47.096584000172946],[-122.62303200029385,47.09662200010604],[-122.62273900039087,47.09715999975742],[-122.62253500017636,47.09773999984228],[-122.62252599995554,47.0985969997873],[-122.62252599995554,47.0989030001064],[-122.62252299958249,47.10066400021805],[-122.62252500013062,47.10262800002006],[-122.62252599995554,47.10319799995264],[-122.62252500013062,47.10343600003217],[-122.62250400021422,47.108285000238816],[-122.622474000077,47.10983200020512],[-122.62248999997054,47.11157999998724],[-122.62256699996341,47.111801000233115],[-122.62282700025443,47.11249199996935],[-122.62293100001149,47.11271099973959],[-122.62304700036245,47.11291999992211],[-122.6231629998151,47.113094000030095],[-122.62344200037266,47.11308599988301],[-122.62357299989394,47.11308199980903],[-122.62375600019203,47.11311700029341],[-122.62394399961467,47.11317700010955],[-122.62416500044596,47.11329099975728],[-122.62428900029448,47.11338600029607],[-122.62441999981576,47.11350299998653],[-122.62455700008309,47.11362599977569],[-122.62462800022821,47.11368699978933],[-122.62470400039618,47.11374399970879],[-122.62478499968873,47.11379799970492],[-122.62487099990246,47.11384800024113],[-122.62496100031414,47.11389599980695],[-122.62496100031414,47.11408199977881],[-122.62495700011617,47.115475999810045],[-122.62455500043326,47.11546199987284],[-122.62466599986304,47.115879999816784],[-122.6246840003047,47.11598100010338],[-122.62472899961223,47.11630900014161],[-122.62472899961223,47.11634399972624],[-122.62473899965796,47.11718199977929],[-122.62471600009172,47.12229699976333],[-122.62471400044194,47.122733000237524],[-122.6251139995767,47.12270899986134],[-122.62616499971301,47.122700999937265],[-122.62741800041402,47.12270899986134],[-122.62756999985167,47.1227149998036],[-122.62756099963086,47.12431799986392],[-122.62754999976019,47.12620099975551],[-122.62754800011038,47.12632899975403],[-122.63278399962715,47.12629599986028],[-122.63807899959343,47.126297999706274],[-122.63814399989079,47.126297999706274],[-122.643375000283,47.126300000163354],[-122.6433769999328,47.12640100022901],[-122.64343800003218,47.13012400010719],[-122.64351300037524,47.133407999924884],[-122.64350300032952,47.1348870001924],[-122.64350199960629,47.13497400014939],[-122.64353900031452,47.13497100025859],[-122.64365800014019,47.13493199982969],[-122.64401700016539,47.134884000296736],[-122.64413699981601,47.13484900007522],[-122.64425800018984,47.134849999837456],[-122.64460499962115,47.13477199999576],[-122.64462399988773,47.13476999985731],[-122.6453340004405,47.13458999992025],[-122.64654799988516,47.134173999853076],[-122.64731299979121,47.13382000013584],[-122.64806400035191,47.13340899971416],[-122.64956700039983,47.13252999982962],[-122.64986199995262,47.13236799987348],[-122.64994899999125,47.13234199994774],[-122.65038400018445,47.13204200007312],[-122.65090600041627,47.13177000019891],[-122.65191700036961,47.13115399988879],[-122.65245399977172,47.13086500007824],[-122.65272099973542,47.13068499975782],[-122.6531419996849,47.130447999751425],[-122.65328999982289,47.13039599984339],[-122.65352499999956,47.130230999951436],[-122.65360799984023,47.130210000061815],[-122.6535840004491,47.13019400002393],[-122.65363700015254,47.130160000233],[-122.65371599979527,47.13017600028111],[-122.6538100004049,47.13012199979387],[-122.6539929998047,47.129987000169386],[-122.65423499965404,47.129753000293725],[-122.65466900002231,47.12942999994679],[-122.65504899996388,47.129002000166444],[-122.6551390003756,47.12895099994011],[-122.65546900008847,47.12858900003205],[-122.65569500004428,47.128399999781465],[-122.65595799981,47.12810899989678],[-122.656330000254,47.1277480002657],[-122.6564499999046,47.127672000192],[-122.65667000001261,47.127437999910455],[-122.65679700023422,47.127328000237355],[-122.65679700023422,47.12727499981913],[-122.65696200009066,47.12716399990227],[-122.65710900040375,47.12698399989159],[-122.65734500040531,47.1267930002226],[-122.65759999977513,47.126510000066595],[-122.65812700002982,47.12600200029222],[-122.65820499984761,47.125961000150554],[-122.65868600007157,47.12545599983936],[-122.6588440002553,47.12533299989079],[-122.65899400004315,47.12528999996095],[-122.65908100008176,47.12520799977093],[-122.65916399992246,47.12512600006574],[-122.65933499962667,47.12495400007965],[-122.65944500012984,47.12483999974691],[-122.65946199984829,47.124817000272124],[-122.6595489998869,47.1246989998338],[-122.65961400018425,47.12453599990634],[-122.65970100022288,47.12449199998659],[-122.65976999981986,47.124401000162045],[-122.65979900013215,47.12430199988727],[-122.65996499981354,47.124151000138326],[-122.6602290003025,47.12376899994049],[-122.66038900013604,47.12360099974026],[-122.66121900033944,47.122371000188096],[-122.661307000203,47.122176999846914],[-122.66141199978496,47.122087999734084],[-122.66141599998295,47.12202200016553],[-122.66150999969427,47.12190900027884],[-122.66152300011304,47.12183899984998],[-122.66164299976366,47.121730000221284],[-122.6618779999403,47.12137300014881],[-122.6620820001548,47.12112299995438],[-122.66211399994185,47.12104000004326],[-122.66219099993475,47.12098900012939],[-122.66225200003412,47.120889000204315],[-122.66263500034876,47.1205160000972],[-122.66283199999225,47.12033100003263],[-122.6633140000411,47.11989099987192],[-122.66343200004187,47.11982700011225],[-122.66411800030524,47.11925100003337],[-122.66451099976729,47.11911100003582],[-122.66469300024049,47.11904699994916],[-122.66494199976253,47.118888000069326],[-122.66534500016864,47.11869700006218],[-122.66553400031455,47.11858299976958],[-122.66576799976795,47.11837399982136],[-122.66585999982946,47.118197999710794],[-122.66584300011101,47.11816599973927],[-122.66588099974584,47.1181490002815],[-122.66583300006528,47.118132000206955],[-122.66582999969222,47.118082000028195],[-122.66587499989807,47.118101999738535],[-122.66590300038547,47.11809000003548],[-122.66593799964728,47.11796700017227],[-122.66590900023326,47.117951000119426],[-122.66596299976163,47.117848999822534],[-122.6662210004028,47.11753199985105],[-122.66643200028997,47.11736500021925],[-122.66656399963615,47.11706799990862],[-122.66668500000998,47.116934999750775],[-122.6670249997686,47.11656300015021],[-122.66721700028754,47.116394999813394],[-122.66789099995701,47.11574699974618],[-122.66800399993491,47.11569000013815],[-122.66808199975273,47.115611000194384],[-122.66822900006582,47.11554700017715],[-122.66831600010445,47.11544400003553],[-122.66844800034892,47.115383999718695],[-122.66890399956019,47.11500200014983],[-122.66918399994267,47.114706000240226],[-122.66939300018007,47.11432400008372],[-122.6693549996469,47.11427500014366],[-122.66940900007357,47.11427000001003],[-122.66942800034015,47.11421000020348],[-122.669650000098,47.11396200028549],[-122.6698199999773,47.113770999713694],[-122.67022800040631,47.113378000192874],[-122.67080199961835,47.11275500023235],[-122.6709659996499,47.11262299986762],[-122.67125199988014,47.11228599988778],[-122.6714100000639,47.11214400013888],[-122.67150100030048,47.11206199986164],[-122.67167100017981,47.11186099969882],[-122.67217400014505,47.11122099987245],[-122.6722129996048,47.11111999972213],[-122.67230300001648,47.11101899999154],[-122.67230399984138,47.110933999791236],[-122.67234700039741,47.110870000262956],[-122.67244799978144,47.110818999771766],[-122.6727340000117,47.11025200018959],[-122.67286500043126,47.110079999804775],[-122.67291399993674,47.109938999902916],[-122.67319699979397,47.10945799999419],[-122.67327799998482,47.10931799990947],[-122.67334400010706,47.109194999946034],[-122.67357799956048,47.1087669999953],[-122.67368100039096,47.10865999977552],[-122.67376599988147,47.108509999911035],[-122.67377500010228,47.10842800014878],[-122.67389200027816,47.10821200005113],[-122.67401100010382,47.10805199993447],[-122.67406700018033,47.10802800027289],[-122.67405200011171,47.10797900003865],[-122.67413900015036,47.10778000028318],[-122.67435000003756,47.10744799976022],[-122.67467200025284,47.10683400023941],[-122.67480500032222,47.10655399996075],[-122.67498199987423,47.10628300029093],[-122.67511300029379,47.105907000210216],[-122.6751419997078,47.105879000189034],[-122.67523499959422,47.105787999712696],[-122.67526899992941,47.10562299992378],[-122.67537299968647,47.10541300011972],[-122.67535500014313,47.105357999859436],[-122.6754150004176,47.10532400009258],[-122.6755090001289,47.10512500019429],[-122.67557000022828,47.104845000097775],[-122.67562299993173,47.104804000160954],[-122.67571499999323,47.104478999917156],[-122.67580700005475,47.1043010002597],[-122.67587300017698,47.10416500019587],[-122.67584800006264,47.104068000248276],[-122.67600600024639,47.10388299986456],[-122.67603700020852,47.10363599986714],[-122.67639100021084,47.10293899977214],[-122.6764020000815,47.10283999992038],[-122.67658899967924,47.10255299989642],[-122.67674500021317,47.102423000043295],[-122.67678600022106,47.10227499986172],[-122.67694000020683,47.10212699988019],[-122.67700399978094,47.10200699972533],[-122.6770780002991,47.1019760001815],[-122.67711000008616,47.10193199994978],[-122.67713199982747,47.10190400028372],[-122.67721600039137,47.10179000009353],[-122.67745999989052,47.101540000227224],[-122.67757399969335,47.10147200007519],[-122.67763300014288,47.10138699991587],[-122.67777399970988,47.10128999979847],[-122.67782200028878,47.10128699984247],[-122.67786699959632,47.10121999976157],[-122.67808000003161,47.101065000182174],[-122.67818499961362,47.101025000178026],[-122.67821399992594,47.10098399974512],[-122.67824499988808,47.10098800011687],[-122.67895500044087,47.10060599994883],[-122.67903099971053,47.10059199976891],[-122.67914299986352,47.10048399982996],[-122.67932500033673,47.1004169999615],[-122.67951100010957,47.100306000267764],[-122.6795980001482,47.10028899999672],[-122.67967099994313,47.10022000027981],[-122.6798309997767,47.10018400007297],[-122.67987799963235,47.100129999717026],[-122.67994999960239,47.10011900004548],[-122.68013999957319,47.100029999728655],[-122.68023500000776,47.10001399978643],[-122.68039900003929,47.09988500026793],[-122.68055499967488,47.099844000180155],[-122.68084699975293,47.09965799998183],[-122.68102599985308,47.0995959999752],[-122.68105799964013,47.099536000136716],[-122.68122500004469,47.09946799987115],[-122.68151100027497,47.09923699975024],[-122.6816279995525,47.09918499991044],[-122.68165000019214,47.099146000150135],[-122.68169899969762,47.09915700002271],[-122.68174999975125,47.09906700010907],[-122.68192499965342,47.09900800011036],[-122.68201599989004,47.098914999855225],[-122.6821470003096,47.098886999825496],[-122.68231299999096,47.09879199970228],[-122.68240199967941,47.098675999914185],[-122.68252999972594,47.09862599980107],[-122.682533000099,47.09856799975778],[-122.68259199965021,47.098510000262856],[-122.68270499962811,47.09847100000813],[-122.68276599972748,47.098375999754175],[-122.68282699982686,47.09833600017592],[-122.68291100039076,47.09836499972026],[-122.68289799997197,47.09830499971765],[-122.68313499979844,47.098171999756175],[-122.68332099957127,47.09800099992909],[-122.6834000001123,47.097987000287254],[-122.68349800002159,47.09780399986949],[-122.68367100027397,47.097702999944325],[-122.68373700039619,47.09769700023942],[-122.68379000009963,47.09764400026874],[-122.68393400003967,47.097583000214144],[-122.68402600010118,47.097510000026816],[-122.68410200026916,47.09749799996134],[-122.68414400010198,47.09743800020479],[-122.68424100018633,47.09744399993887],[-122.68429300006488,47.09741300018434],[-122.68428800004202,47.0973800000905],[-122.68435199961613,47.0973630001083],[-122.68431900000415,47.09734699997617],[-122.68434599976834,47.09729000023089],[-122.68440500021786,47.09731899973343],[-122.68440400039297,47.09728600019283],[-122.68436699968471,47.0972799998294],[-122.68464600024231,47.097127000118284],[-122.68469499974779,47.097039000165246],[-122.68471900003723,47.09699500013424],[-122.68480000022808,47.09691299975697],[-122.68487200019811,47.09687699976023],[-122.68492699955138,47.09688099982902],[-122.6850549995979,47.09682299971957],[-122.68522799985024,47.096744999767935],[-122.68531999991178,47.09675100019165],[-122.68545299998115,47.09672499998149],[-122.68546899987469,47.096741000300476],[-122.6855040000348,47.096725999848665],[-122.68547200024774,47.09670299984076],[-122.68553599982182,47.09658099995178],[-122.68575699975479,47.09650499999991],[-122.68583999959544,47.09644700009242],[-122.68592099978629,47.096433999914716]]]},"properties":{"AREALAND":"15075921","AREAWATER":"79487","BASENAME":"DuPont","CBSAPCI":"N","CENTLAT":"+47.1077235","CENTLON":"-122.6494819","FUNCSTAT":"A","GEOID":"5318965","INTPTLAT":"+47.1073508","INTPTLON":"-122.6475757","LSADC":"25","MTFCC":"G4110","NAME":"DuPont city","NECTAPCI":"N","OBJECTID":25543,"OID":"278901445839830","PLACE":"18965","PLACECC":"C1","PLACENS":"02410373","STATE":"53","DISP_CLR":5,"slug":"dupont","jurisdiction_key":"dupont_city","county_fips":["53053"]}}]}
