{
  "type": "FeatureCollection",
  "features": [
    {
      "type": "Feature",
      "geometry": {
        "type": "Polygon",
        "coordinates": [
          [
            [
              -121.99750799992528,
              47.72875100001956
            ],
            [
              -121.99750899975018,
              47.72864099971027
            ],
            [
              -121.99743500013032,
              47.72864099971027
            ],
            [
              -121.99728399961928,
              47.72863900026281
            ],
            [
              -121.99681599981413,
              47.72863800023692
            ],
            [
              -121.99143999965698,
              47.72863500015914
            ],
            [
              -121.9910120000348,
              47.72863900026281
            ],
            [
              -121.99056500014603,
              47.72861700029308
            ],
            [
              -121.99056599997095,
              47.72860299992296
            ],
            [
              -121.98788000044053,
              47.728553999806465
            ],
            [
              -121.9879130000525,
              47.72896399980414
            ],
            [
              -121.9875139998443,
              47.72895200017134
            ],
            [
              -121.98723900038303,
              47.728959999725426
            ],
            [
              -121.98714999979623,
              47.72896499982377
            ],
            [
              -121.98710700013855,
              47.72853399985666
            ],
            [
              -121.98709299989484,
              47.72839099990114
            ],
            [
              -121.98704199984122,
              47.72788900022786
            ],
            [
              -121.9870050000313,
              47.727510999945565
            ],
            [
              -121.98684000017485,
              47.72583400018328
            ],
            [
              -121.9868150000605,
              47.725572999868156
            ],
            [
              -121.98659400012754,
              47.72562500001907
            ],
            [
              -121.98635399992804,
              47.72563099991692
            ],
            [
              -121.98572799993916,
              47.72566300016621
            ],
            [
              -121.98565000012134,
              47.72566499972796
            ],
            [
              -121.98540400007406,
              47.72567199970407
            ],
            [
              -121.98472000035882,
              47.725689999983615
            ],
            [
              -121.98420599962462,
              47.72569699995636
            ],
            [
              -121.98093500011318,
              47.725743000099214
            ],
            [
              -121.98085899994517,
              47.725740999936214
            ],
            [
              -121.98068300021808,
              47.72573899977313
            ],
            [
              -121.98061100024808,
              47.72573399996933
            ],
            [
              -121.98048099965341,
              47.72572499983794
            ],
            [
              -121.98024300000202,
              47.72568600025775
            ],
            [
              -121.9801989996211,
              47.72567800020081
            ],
            [
              -121.9801069995596,
              47.72564499987733
            ],
            [
              -121.9800019999776,
              47.72559700008369
            ],
            [
              -121.97974099986172,
              47.72545000017617
            ],
            [
              -121.979261000361,
              47.7251129999447
            ],
            [
              -121.9790710003902,
              47.725018000032414
            ],
            [
              -121.97893300029796,
              47.72496699997622
            ],
            [
              -121.97875300037286,
              47.724919000162096
            ],
            [
              -121.97863199999907,
              47.72489799992738
            ],
            [
              -121.97847200016547,
              47.7248799999784
            ],
            [
              -121.97832099965443,
              47.72486800000898
            ],
            [
              -121.97680199971296,
              47.72483499977663
            ],
            [
              -121.97616499985341,
              47.72483699997443
            ],
            [
              -121.97554999973518,
              47.72484000027098
            ],
            [
              -121.97350699991206,
              47.724866999910695
            ],
            [
              -121.97331600011636,
              47.724870000205506
            ],
            [
              -121.97167599980104,
              47.724899000025076
            ],
            [
              -121.9713340003926,
              47.72490500000656
            ],
            [
              -121.97101399982714,
              47.724908000299195
            ],
            [
              -121.97044499973966,
              47.72491400027963
            ],
            [
              -121.96985499973576,
              47.72490700020167
            ],
            [
              -121.96958399957414,
              47.724895000238426
            ],
            [
              -121.96932300035654,
              47.724883999766156
            ],
            [
              -121.96833400014447,
              47.724823999895996
            ],
            [
              -121.96819900042527,
              47.72480800012039
            ],
            [
              -121.96822399964132,
              47.72466099979909
            ],
            [
              -121.96820000025016,
              47.722828000075125
            ],
            [
              -121.96692099960991,
              47.72270300026916
            ],
            [
              -121.96692099960991,
              47.722751999846935
            ],
            [
              -121.96691899996007,
              47.723269000205015
            ],
            [
              -121.96691999978499,
              47.72337999990038
            ],
            [
              -121.96525100005569,
              47.72338200015404
            ],
            [
              -121.96523500016217,
              47.723666999861905
            ],
            [
              -121.96402099981921,
              47.7244759998904
            ],
            [
              -121.96421400016307,
              47.724632999949826
            ],
            [
              -121.964026999667,
              47.7247039999483
            ],
            [
              -121.96374200015995,
              47.72478699984087
            ],
            [
              -121.96346900034848,
              47.72489400014065
            ],
            [
              -121.96309100005672,
              47.725026000190724
            ],
            [
              -121.96271000029022,
              47.725097999747454
            ],
            [
              -121.96243800030365,
              47.725129000230915
            ],
            [
              -121.96224800033283,
              47.72513299999955
            ],
            [
              -121.9620979996467,
              47.72511699971457
            ],
            [
              -121.96180499974373,
              47.725077000189145
            ],
            [
              -121.96153199993226,
              47.72499799993341
            ],
            [
              -121.96129000008293,
              47.72488300027246
            ],
            [
              -121.96110000011213,
              47.7247879999407
            ],
            [
              -121.96093899955532,
              47.72468700003409
            ],
            [
              -121.96089599989763,
              47.72464600007593
            ],
            [
              -121.9608289999505,
              47.72456799987483
            ],
            [
              -121.96072900039137,
              47.72441700026154
            ],
            [
              -121.96060100034485,
              47.72414899991797
            ],
            [
              -121.9604220002447,
              47.72355500005028
            ],
            [
              -121.96035399957434,
              47.72333900012209
            ],
            [
              -121.9603159999395,
              47.72324699978001
            ],
            [
              -121.96022399987798,
              47.72306299981693
            ],
            [
              -121.96015399955779,
              47.72294599984398
            ],
            [
              -121.96001299999081,
              47.72275299998582
            ],
            [
              -121.9599920000744,
              47.72272300004069
            ],
            [
              -121.95975400042303,
              47.72239499979588
            ],
            [
              -121.95916699989388,
              47.72158700024369
            ],
            [
              -121.95900899971014,
              47.721371000011644
            ],
            [
              -121.95893099989232,
              47.72126399972724
            ],
            [
              -121.95829099965974,
              47.720390000126784
            ],
            [
              -121.95817900040504,
              47.720237000115176
            ],
            [
              -121.95546799986192,
              47.72134200004096
            ],
            [
              -121.95449100024378,
              47.72174200023322
            ],
            [
              -121.955395000067,
              47.722721999901204
            ],
            [
              -121.95882499958712,
              47.72132800013274
            ],
            [
              -121.95890599977797,
              47.72143000006878
            ],
            [
              -121.95906800015969,
              47.72164099985962
            ],
            [
              -121.95962700020141,
              47.72241800012175
            ],
            [
              -121.95880100019599,
              47.72275999974893
            ],
            [
              -121.95785999966449,
              47.72315099995917
            ],
            [
              -121.9576689998688,
              47.72322499995
            ],
            [
              -121.95749599961644,
              47.72329700018314
            ],
            [
              -121.9573230002624,
              47.72336800018968
            ],
            [
              -121.9571490001851,
              47.72344000022521
            ],
            [
              -121.95709099956049,
              47.723464000214896
            ],
            [
              -121.95697599993275,
              47.72351100003685
            ],
            [
              -121.95693099972692,
              47.72352999997857
            ],
            [
              -121.95680299968039,
              47.72358299987469
            ],
            [
              -121.95663000032636,
              47.723654000095735
            ],
            [
              -121.95643899963231,
              47.723732999972654
            ],
            [
              -121.95641900043915,
              47.72374099972401
            ],
            [
              -121.95636699966231,
              47.72376299994037
            ],
            [
              -121.95640000017258,
              47.72379600024753
            ],
            [
              -121.95669600044859,
              47.724100999954395
            ],
            [
              -121.9572320000258,
              47.724675000020206
            ],
            [
              -121.95732099971427,
              47.72476000015975
            ],
            [
              -121.95737699979075,
              47.724823999895996
            ],
            [
              -121.9563030000882,
              47.72525800001747
            ],
            [
              -121.95595599975857,
              47.725402000202834
            ],
            [
              -121.95475200035966,
              47.72590300020082
            ],
            [
              -121.95420599983841,
              47.726135999821054
            ],
            [
              -121.95441300042596,
              47.72628200013855
            ],
            [
              -121.95519000002759,
              47.726831000041415
            ],
            [
              -121.95663899964887,
              47.72785400001483
            ],
            [
              -121.95687300000058,
              47.728018999863615
            ],
            [
              -121.95756199973866,
              47.728483000221786
            ],
            [
              -121.95782700005255,
              47.72866100022321
            ],
            [
              -121.95795400027416,
              47.72876699979251
            ],
            [
              -121.95811300028281,
              47.72892500023216
            ],
            [
              -121.95869400006585,
              47.72958599984569
            ],
            [
              -121.9589009997551,
              47.729950000166326
            ],
            [
              -121.95900700006031,
              47.730196999755066
            ],
            [
              -121.95904200022039,
              47.73031699973668
            ],
            [
              -121.95907200035764,
              47.73044899994093
            ],
            [
              -121.95909300027404,
              47.73058699974177
            ],
            [
              -121.95910999999248,
              47.73078600008925
            ],
            [
              -121.95910300031977,
              47.73098199973369
            ],
            [
              -121.95910400014466,
              47.73151999996673
            ],
            [
              -121.9591340002819,
              47.731956999769096
            ],
            [
              -121.95915000017543,
              47.732317000010845
            ],
            [
              -121.95915500019832,
              47.732430000270035
            ],
            [
              -121.95919700003112,
              47.733368999713846
            ],
            [
              -121.95920899972667,
              47.73364700025148
            ],
            [
              -121.95921799994748,
              47.7338800002717
            ],
            [
              -121.95923600038917,
              47.734299999806225
            ],
            [
              -121.95665200006766,
              47.734095999989314
            ],
            [
              -121.95667399980896,
              47.734519999850356
            ],
            [
              -121.95669200025063,
              47.73485100019499
            ],
            [
              -121.95669999974825,
              47.73504300003305
            ],
            [
              -121.95656300037919,
              47.73503199989154
            ],
            [
              -121.95542500020422,
              47.734936000040726
            ],
            [
              -121.9531830001895,
              47.73474899995535
            ],
            [
              -121.95153000035369,
              47.73460899988153
            ],
            [
              -121.94944300014967,
              47.734434999929746
            ],
            [
              -121.94934400041545,
              47.73442999975238
            ],
            [
              -121.94902600039813,
              47.73441299999166
            ],
            [
              -121.94860700009848,
              47.73441000024655
            ],
            [
              -121.94774500010804,
              47.734405000066786
            ],
            [
              -121.94787999982724,
              47.736259999967366
            ],
            [
              -121.94651700041969,
              47.73624800020318
            ],
            [
              -121.94657799962076,
              47.73717299979462
            ],
            [
              -121.94661399960576,
              47.737707999947354
            ],
            [
              -121.9466389997201,
              47.73810300029839
            ],
            [
              -121.94650700037396,
              47.738094999732176
            ],
            [
              -121.94548800002467,
              47.73808000025306
            ],
            [
              -121.94389899976301,
              47.738054999903326
            ],
            [
              -121.94398599980164,
              47.74169499984736
            ],
            [
              -121.94812800042268,
              47.7417900001491
            ],
            [
              -121.94949000000533,
              47.74182099975855
            ],
            [
              -121.94944200032475,
              47.7399960001136
            ],
            [
              -121.9502220002994,
              47.74007599977872
            ],
            [
              -121.9521360002511,
              47.740236999751545
            ],
            [
              -121.95898799979373,
              47.74083400024648
            ],
            [
              -121.95925599958234,
              47.74086700000738
            ],
            [
              -121.95952400026925,
              47.74090400011718
            ],
            [
              -121.95962499965329,
              47.74277200028255
            ],
            [
              -121.96006700041744,
              47.74281599973065
            ],
            [
              -121.96091900036217,
              47.74290000011147
            ],
            [
              -121.96216600031707,
              47.743024000023155
            ],
            [
              -121.96222099967034,
              47.743028999979316
            ],
            [
              -121.96390199999354,
              47.74319600017163
            ],
            [
              -121.96410799985784,
              47.743215999927244
            ],
            [
              -121.96472299997608,
              47.74327700010091
            ],
            [
              -121.964799999969,
              47.74702900008791
            ],
            [
              -121.9683419996421,
              47.74741000024495
            ],
            [
              -121.96946100044879,
              47.74753100008858
            ],
            [
              -121.96947200031944,
              47.743747000052
            ],
            [
              -121.96947499979419,
              47.737876999990206
            ],
            [
              -121.97051800043292,
              47.73778599980291
            ],
            [
              -121.97113100000301,
              47.73773900017505
            ],
            [
              -121.97140999966227,
              47.73774099987729
            ],
            [
              -121.97142200025614,
              47.73868999975038
            ],
            [
              -121.97142700027901,
              47.738994000012596
            ],
            [
              -121.97142200025614,
              47.73957200013823
            ],
            [
              -121.97148699965514,
              47.74046500028714
            ],
            [
              -121.97149400022617,
              47.74082399991206
            ],
            [
              -121.97149599987601,
              47.740922999755156
            ],
            [
              -121.974933999792,
              47.74094899972541
            ],
            [
              -121.97495399988351,
              47.742158000012
            ],
            [
              -121.97497999982279,
              47.74377000001008
            ],
            [
              -121.97501199960982,
              47.74568200006963
            ],
            [
              -121.9750509999679,
              47.7475560001161
            ],
            [
              -121.97539599974938,
              47.747558000045295
            ],
            [
              -121.97720000009619,
              47.7475650000989
            ],
            [
              -121.97723899955596,
              47.74761500010916
            ],
            [
              -121.97725500034781,
              47.74760899972388
            ],
            [
              -121.97741199980831,
              47.74756599976132
            ],
            [
              -121.97751399991559,
              47.7475479997945
            ],
            [
              -121.97761500019791,
              47.74753800014581
            ],
            [
              -121.97778099987926,
              47.74753800014581
            ],
            [
              -121.97820400037688,
              47.747538999808754
            ],
            [
              -121.97910800020013,
              47.74754200000554
            ],
            [
              -121.97923100022376,
              47.74754300027243
            ],
            [
              -121.98062899979142,
              47.747549999724015
            ],
            [
              -121.9806270001416,
              47.747624999743046
            ],
            [
              -121.9806270001416,
              47.74765600010596
            ],
            [
              -121.98062600031668,
              47.74771399972207
            ],
            [
              -121.98065399990578,
              47.747714999985675
            ],
            [
              -121.98079000034822,
              47.74880199970566
            ],
            [
              -121.98107900005321,
              47.75109500011038
            ],
            [
              -121.98109499994675,
              47.75121800023539
            ],
            [
              -121.98469900044245,
              47.751228999977066
            ],
            [
              -121.98481999991796,
              47.75112600021841
            ],
            [
              -121.98495999966002,
              47.75100700007335
            ],
            [
              -121.98514200013325,
              47.7508250001423
            ],
            [
              -121.98535499967024,
              47.7505769997427
            ],
            [
              -121.98556399990763,
              47.75028800027019
            ],
            [
              -121.98564300044865,
              47.75015900027183
            ],
            [
              -121.98577700034295,
              47.749891000119234
            ],
            [
              -121.98583699971908,
              47.749740999859675
            ],
            [
              -121.9859289997806,
              47.74945699991555
            ],
            [
              -121.98597499981136,
              47.74926000011801
            ],
            [
              -121.98600499994858,
              47.749076999880174
            ],
            [
              -121.98602400021515,
              47.74887799997389
            ],
            [
              -121.98603000006294,
              47.74867899991069
            ],
            [
              -121.98602400021515,
              47.74850999989998
            ],
            [
              -121.98598300020728,
              47.748161999911574
            ],
            [
              -121.98596499976563,
              47.74800500011148
            ],
            [
              -121.98595999974273,
              47.747959999958375
            ],
            [
              -121.9857680001221,
              47.74796100021719
            ],
            [
              -121.98515300000388,
              47.74796300013084
            ],
            [
              -121.98514899980593,
              47.747588000182056
            ],
            [
              -121.98514799998101,
              47.74750499978149
            ],
            [
              -121.98502300030754,
              47.747506000049114
            ],
            [
              -121.98496700023105,
              47.74741600004913
            ],
            [
              -121.98504900024679,
              47.7473650001814
            ],
            [
              -121.98509199990451,
              47.747331999707384
            ],
            [
              -121.98519499983668,
              47.74722199998965
            ],
            [
              -121.98526900035483,
              47.74710100003167
            ],
            [
              -121.9852879997231,
              47.74706999994229
            ],
            [
              -121.98531299983745,
              47.747003999807326
            ],
            [
              -121.98536800008905,
              47.74673399975654
            ],
            [
              -121.9853870003556,
              47.74656199982164
            ],
            [
              -121.98539499985321,
              47.74636299996388
            ],
            [
              -121.98576200027435,
              47.746343999895196
            ],
            [
              -121.98585500016077,
              47.747086000127105
            ],
            [
              -121.98585799963548,
              47.74711099976432
            ],
            [
              -121.98586100000854,
              47.747135999993525
            ],
            [
              -121.98586699985633,
              47.74718300019868
            ],
            [
              -121.98591600026015,
              47.74758499998797
            ],
            [
              -121.98610899970566,
              47.747583999721876
            ],
            [
              -121.98635999977584,
              47.74758300005979
            ],
            [
              -121.98645699986021,
              47.74758199979367
            ],
            [
              -121.98651600030975,
              47.74758199979367
            ],
            [
              -121.98661199967088,
              47.74758199979367
            ],
            [
              -121.98674899993826,
              47.74758100013155
            ],
            [
              -121.98680400018984,
              47.74758100013155
            ],
            [
              -121.98685699989329,
              47.74757999986542
            ],
            [
              -121.98707399962825,
              47.74757900020327
            ],
            [
              -121.98704699986409,
              47.74741099991035
            ],
            [
              -121.98701400025212,
              47.7471980000753
            ],
            [
              -121.9869640000234,
              47.74694799995663
            ],
            [
              -121.98691899981759,
              47.746671999726146
            ],
            [
              -121.98690299992403,
              47.74619299999276
            ],
            [
              -121.98706600013068,
              47.745676000065565
            ],
            [
              -121.98746500033882,
              47.744676999710435
            ],
            [
              -121.98804500029696,
              47.74329899991826
            ],
            [
              -121.98839500010132,
              47.74246600020881
            ],
            [
              -121.9888369999672,
              47.741416000210165
            ],
            [
              -121.98902899958782,
              47.74109999973764
            ],
            [
              -121.98905299987727,
              47.74105999980106
            ],
            [
              -121.98909800008312,
              47.740999000050046
            ],
            [
              -121.98914800031183,
              47.74094199999029
            ],
            [
              -121.98920199984018,
              47.74088799984433
            ],
            [
              -121.98926100028973,
              47.740840000204585
            ],
            [
              -121.989323000214,
              47.740796000294544
            ],
            [
              -121.98938799961303,
              47.74075799971075
            ],
            [
              -121.9894570001083,
              47.740724999880754
            ],
            [
              -121.98952800025343,
              47.74069700020994
            ],
            [
              -121.98960100004837,
              47.74067600029595
            ],
            [
              -121.98967499966818,
              47.7406609997481
            ],
            [
              -121.98975099983619,
              47.74065199977973
            ],
            [
              -121.99052900016103,
              47.74078800014215
            ],
            [
              -121.99120799985337,
              47.74090700009225
            ],
            [
              -121.99144700022796,
              47.74092899970295
            ],
            [
              -121.99174199978079,
              47.74089000002974
            ],
            [
              -121.99182899981939,
              47.74085700028341
            ],
            [
              -121.99195100001813,
              47.740809999803155
            ],
            [
              -121.99210900020189,
              47.74070799975877
            ],
            [
              -121.99219200004255,
              47.740601999725996
            ],
            [
              -121.9922220001798,
              47.74052900005666
            ],
            [
              -121.99220700011118,
              47.74039300022589
            ],
            [
              -121.9921230004456,
              47.740204000195426
            ],
            [
              -121.9920949999582,
              47.74015100029705
            ],
            [
              -121.99206499982097,
              47.74009300010703
            ],
            [
              -121.9919839996301,
              47.73993699994199
            ],
            [
              -121.99191300038329,
              47.73983299977363
            ],
            [
              -121.99184999973579,
              47.73975199992264
            ],
            [
              -121.99183600039042,
              47.73973400027429
            ],
            [
              -121.99179500038252,
              47.73968300012918
            ],
            [
              -121.9917660000702,
              47.73964599975573
            ],
            [
              -121.99174400032891,
              47.73960100022945
            ],
            [
              -121.99161499955916,
              47.739443000161586
            ],
            [
              -121.99157299972637,
              47.73938199972419
            ],
            [
              -121.99139199997639,
              47.73911800016627
            ],
            [
              -121.9912720003258,
              47.738944000178876
            ],
            [
              -121.9912449996633,
              47.73887599974797
            ],
            [
              -121.99121200005135,
              47.738792000123674
            ],
            [
              -121.99117900043937,
              47.73871000002884
            ],
            [
              -121.9911309998605,
              47.73858799978139
            ],
            [
              -121.9910610004386,
              47.738415000277364
            ],
            [
              -121.99096099998117,
              47.73820999982411
            ],
            [
              -121.99092900019411,
              47.73805999973255
            ],
            [
              -121.99093199966887,
              47.73800200023375
            ],
            [
              -121.9909350000419,
              47.73794499991345
            ],
            [
              -121.99113599988334,
              47.73744900024709
            ],
            [
              -121.9913009997398,
              47.73705799982881
            ],
            [
              -121.99131900018146,
              47.73700399988332
            ],
            [
              -121.9913359998999,
              47.73695200021849
            ],
            [
              -121.99139500034944,
              47.73678400006347
            ],
            [
              -121.99140799986993,
              47.73665800004459
            ],
            [
              -121.99142999961126,
              47.73660600003425
            ],
            [
              -121.9914420002051,
              47.73652400012151
            ],
            [
              -121.99148499986282,
              47.736403999942745
            ],
            [
              -121.99161000043462,
              47.73611200006436
            ],
            [
              -121.99180299988015,
              47.73576800011781
            ],
            [
              -121.99183200019245,
              47.73571699971279
            ],
            [
              -121.99190699963721,
              47.73558400028135
            ],
            [
              -121.99199000037619,
              47.73538000005719
            ],
            [
              -121.99204800010251,
              47.73514600020197
            ],
            [
              -121.9920820004377,
              47.73501399981972
            ],
            [
              -121.99209300030836,
              47.73486899971903
            ],
            [
              -121.99212799957013,
              47.73470800006333
            ],
            [
              -121.99214000016403,
              47.734592000179205
            ],
            [
              -121.99229599979964,
              47.733979000026906
            ],
            [
              -121.9923140002413,
              47.73393399983193
            ],
            [
              -121.99233199978467,
              47.733889000202275
            ],
            [
              -121.99236100009696,
              47.73376700013797
            ],
            [
              -121.99237199996762,
              47.73372099983151
            ],
            [
              -121.99249199961821,
              47.73323199997232
            ],
            [
              -121.99257199998416,
              47.732968999987584
            ],
            [
              -121.99258399967971,
              47.732881000118816
            ],
            [
              -121.99261800001493,
              47.73279300010135
            ],
            [
              -121.99263999975622,
              47.732685999714995
            ],
            [
              -121.992693000358,
              47.73256900020978
            ],
            [
              -121.99270900025151,
              47.73251499983823
            ],
            [
              -121.99281700020654,
              47.73234200009465
            ],
            [
              -121.99289699967419,
              47.73218900014287
            ],
            [
              -121.99298799991077,
              47.73207899984446
            ],
            [
              -121.9931650003611,
              47.73187199989433
            ],
            [
              -121.99353400043205,
              47.73155300019319
            ],
            [
              -121.99396200005421,
              47.73122000007979
            ],
            [
              -121.99413699995638,
              47.731118999956614
            ],
            [
              -121.99437200013303,
              47.73100299993241
            ],
            [
              -121.99487500009828,
              47.73082200012856
            ],
            [
              -121.99545099985845,
              47.730731000300004
            ],
            [
              -121.9960380003876,
              47.730673999874874
            ],
            [
              -121.996748999867,
              47.73063499977068
            ],
            [
              -121.99721699967213,
              47.73058399977626
            ],
            [
              -121.99731999960429,
              47.730563000012815
            ],
            [
              -121.99749899970443,
              47.730525999804826
            ],
            [
              -121.99749700005462,
              47.73015799989789
            ],
            [
              -121.99749799987951,
              47.73005700013197
            ],
            [
              -121.99749899970443,
              47.729904000113535
            ],
            [
              -121.99750799992528,
              47.72875100001956
            ]
          ]
        ]
      },
      "properties": {
        "AREALAND": "6347228",
        "AREAWATER": "47853",
        "BASENAME": "Duvall",
        "CBSAPCI": "N",
        "CENTLAT": "+47.7353860",
        "CENTLON": "-121.9725314",
        "FUNCSTAT": "A",
        "GEOID": "5319035",
        "INTPTLAT": "+47.7355120",
        "INTPTLON": "-121.9722244",
        "LSADC": "25",
        "MTFCC": "G4110",
        "NAME": "Duvall city",
        "NECTAPCI": "N",
        "OBJECTID": 19696,
        "OID": "27890836057924",
        "PLACE": "19035",
        "PLACECC": "C1",
        "PLACENS": "02410377",
        "STATE": "53",
        "DISP_CLR": 5,
        "slug": "duvall",
        "jurisdiction_key": "duvall_city",
        "county_fips": [
          "53033"
        ]
      }
    }
  ]
}
