{"type":"FeatureCollection","features":[{"type":"Feature","geometry":{"type":"Polygon","coordinates":[[[-122.3264589997821,47.23826299982598],[-122.32646899982782,47.23786399986073],[-122.32627700020723,47.23772999975177],[-122.3260999997569,47.237626000034474],[-122.32602699996197,47.23758899986297],[-122.32573499988392,47.2374430000715],[-122.32556500000462,47.237365999848166],[-122.32538099988159,47.23727199972482],[-122.32524299978934,47.23718700009264],[-122.32514200040531,47.23711599994376],[-122.32500599996287,47.23698800023389],[-122.3249170002744,47.23688800018828],[-122.32485699999994,47.236791999869304],[-122.32472399993055,47.23652299970097],[-122.32437999997396,47.23600899999862],[-122.32422400033835,47.23581300028233],[-122.32404299969009,47.23560099982285],[-122.32396099967433,47.235487999861505],[-122.3239039997729,47.23538800003477],[-122.32387700000874,47.23532999969505],[-122.32383600000084,47.235154000105354],[-122.32383400035103,47.23507100014802],[-122.32382000010732,47.23447699987034],[-122.32385199989437,47.234171999754],[-122.323902999948,47.23390299970444],[-122.32391899984152,47.23372100003477],[-122.32390999962068,47.23356700024829],[-122.32388799987937,47.233445999884296],[-122.32384000019879,47.233293999998395],[-122.32380800041176,47.23306999985343],[-122.32380000001584,47.23296400003752],[-122.32384600004657,47.23262699975524],[-122.32386399958992,47.232546999981665],[-122.3239310004354,47.232316000201635],[-122.32394099958282,47.232172999804156],[-122.3239180000166,47.23202399982841],[-122.32388700005447,47.23195599998683],[-122.32381599990937,47.231841000038266],[-122.32360599984706,47.23161499969865],[-122.32302099986607,47.23092999989681],[-122.32296999981243,47.23088000028144],[-122.32283900029118,47.23077099977297],[-122.32199599966901,47.2302280001736],[-122.32187900039146,47.23012399976267],[-122.32175800001764,47.2300050002915],[-122.32148799968088,47.22969000015048],[-122.32131799980155,47.22946999988087],[-122.32116299999088,47.229309999832125],[-122.321045999815,47.22921299999821],[-122.32090699989783,47.22908200004141],[-122.32075299991206,47.228956000089454],[-122.3206919998127,47.22891100016474],[-122.32063999993416,47.22885200023272],[-122.32054399967468,47.22875699982153],[-122.3205029996668,47.22869900015461],[-122.32045800035928,47.22861500001961],[-122.3204259996739,47.228508999833615],[-122.32041300015344,47.228219000117434],[-122.3204829995753,47.22641900015416],[-122.32050600003986,47.22587099988336],[-122.3205599995682,47.22459699975078],[-122.320572999987,47.2234240000595],[-122.32057800000986,47.222948000190954],[-122.3206009995761,47.22087999971065],[-122.32060200029932,47.22076800006314],[-122.32060399994913,47.2205630002915],[-122.31791300039583,47.2196009998355],[-122.31754699979962,47.21946999991862],[-122.3163900002564,47.21905599988388],[-122.3160189996373,47.218928999884085],[-122.31515699964686,47.21864499971583],[-122.31489800007911,47.21892699986244],[-122.31229500038931,47.218298999706754],[-122.31234800009277,47.21814699970139],[-122.31244500017714,47.21786699973905],[-122.31246299972048,47.21781700000418],[-122.31244000015427,47.217806000263636],[-122.3121809996882,47.2176809997791],[-122.31212299996189,47.2176530000304],[-122.31178499985309,47.21745900023251],[-122.31090799979403,47.21720300012361],[-122.30982499987063,47.21692099996023],[-122.30865999993146,47.21658799978995],[-122.30796399962239,47.216389000073356],[-122.30450300014014,47.215398999827684],[-122.3020009998344,47.21468299999697],[-122.29886300039233,47.213834000245974],[-122.29495799959773,47.21274100028683],[-122.2939049998116,47.21246599990119],[-122.2938999997887,47.212270999906366],[-122.29383600021463,47.21225699982597],[-122.2936500004418,47.212195999999096],[-122.29358699979429,47.212179000094885],[-122.29304000034644,47.21200800000132],[-122.29048699998707,47.211299000015366],[-122.2889620001978,47.21086799993262],[-122.2888130002349,47.21082599978968],[-122.28866799957159,47.21078099973034],[-122.28865500005114,47.21077700029276],[-122.28864900020335,47.21079100015365],[-122.28863300030983,47.2108240000726],[-122.2886249999139,47.21083799992108],[-122.28860900002037,47.21086500005427],[-122.2885470000961,47.21096800025537],[-122.28827000008667,47.21089100001136],[-122.28666499993147,47.21044599971591],[-122.28659999963412,47.21056099970433],[-122.28486099958462,47.210320000015386],[-122.28465800009334,47.2102650002266],[-122.28369599964549,47.21000099995835],[-122.28357299962185,47.20996800013758],[-122.28344999959819,47.20993400011577],[-122.28330700038136,47.209894000205864],[-122.28282000030964,47.20975600004092],[-122.28118599984212,47.20928900002526],[-122.28053399991397,47.20910200029305],[-122.28054099958668,47.20876200025582],[-122.2783119999907,47.20815399994656],[-122.27702599967775,47.20778800030034],[-122.2761000001132,47.20754599999099],[-122.27501399981678,47.20730699987785],[-122.27367800017339,47.207088999946265],[-122.27248700029496,47.206932000188026],[-122.2695819995831,47.20654900016543],[-122.26908399964074,47.20648599999562],[-122.26774700017246,47.206319000239375],[-122.26726599994853,47.20625800029601],[-122.26538600033203,47.20602300027859],[-122.2643779998534,47.205889000223294],[-122.26378200000175,47.205811000281216],[-122.26248599964302,47.205646999794084],[-122.26139000019916,47.20552399985888],[-122.26083799983012,47.20544700025544],[-122.25987799993038,47.205312999965685],[-122.2598160000061,47.20530399999783],[-122.25967600026401,47.20528499978952],[-122.2595149997072,47.2052590001358],[-122.2587399997554,47.20513599991119],[-122.25849700008118,47.20508700004],[-122.25696800009396,47.20478199986138],[-122.25474799982051,47.20430700014305],[-122.25330400022212,47.20400800028478],[-122.25224999971273,47.2038770002956],[-122.25151199957085,47.20378499996076],[-122.25130900007954,47.20378200029212],[-122.25089800017584,47.20377700003023],[-122.25090599967342,47.20396099995779],[-122.2509030001987,47.20401899983587],[-122.25090499984852,47.204108999794656],[-122.25090599967342,47.20419299969981],[-122.25090800022157,47.20428299997374],[-122.2509099998714,47.20439799989808],[-122.25092199956697,47.20500500026639],[-122.25092999996289,47.20559099977956],[-122.25094000000863,47.20591000011774],[-122.25094400020657,47.206121000077395],[-122.25094500003149,47.20618999974615],[-122.25095300042742,47.20656900016492],[-122.25030999982177,47.206557999922],[-122.24999799965225,47.20655400016598],[-122.2494329997627,47.20654499979843],[-122.2483260004482,47.20652799991371],[-122.24817400011224,47.20653100003736],[-122.2481289999064,47.20659700027362],[-122.24828799991504,47.20668400001575],[-122.24851100039614,47.206832999817806],[-122.24880099992605,47.20704999995644],[-122.24915300027855,47.207313000036855],[-122.25016699970665,47.20808700021184],[-122.25030300014909,47.20820000000688],[-122.2503819997918,47.20828400014676],[-122.25042399962459,47.20833600013766],[-122.25050700036357,47.20845600025063],[-122.2506629999992,47.20871900007251],[-122.25073800034227,47.20893599981844],[-122.2507629995583,47.20904600026453],[-122.25081500033515,47.20922799983589],[-122.25100899960559,47.20963500024207],[-122.25117500018526,47.20984700021213],[-122.25156500017259,47.210346000239596],[-122.25209499990203,47.211025999794785],[-122.25216199984919,47.211120000091924],[-122.2522339998192,47.211221000095726],[-122.25234000012442,47.21138000027985],[-122.25249699958495,47.21166899982381],[-122.25255400038466,47.211812000008116],[-122.25259200001949,47.211935000007564],[-122.25273900033258,47.21268200005354],[-122.25292500010544,47.213665999717094],[-122.25295600006757,47.21388799988885],[-122.25297699998396,47.21399299991852],[-122.2529860002048,47.2140380003034],[-122.25302399983963,47.21427599988707],[-122.25300600029628,47.2159460002822],[-122.25299700007544,47.216814000135344],[-122.25297899963378,47.21750400011674],[-122.25298299983173,47.21789800007568],[-122.25304200028128,47.218114000068155],[-122.25309800035778,47.21823500004662],[-122.25319600026708,47.21841499977095],[-122.25418899977876,47.22001399989517],[-122.25430099993177,47.22019400029144],[-122.25466699962966,47.22076300018225],[-122.2546979995918,47.22083300030136],[-122.25481300011786,47.22109599975725],[-122.25482399998852,47.22113399982135],[-122.25484400008,47.221204000060695],[-122.25484999992776,47.221231999764484],[-122.25502700037808,47.22122599995993],[-122.25565500001679,47.22121700025187],[-122.2561420000885,47.221210999835485],[-122.25733999963963,47.221193999770676],[-122.25741800035576,47.22118999989821],[-122.25823299959221,47.22118100018399],[-122.25865799973964,47.221174999763534],[-122.25991200026557,47.22115800029731],[-122.2609640002268,47.221143000153624],[-122.26171999991205,47.2211329998521],[-122.26185299998143,47.2211329998521],[-122.2619779996549,47.22661200024423],[-122.25917800032165,47.22667200009426],[-122.25919900023804,47.22845399999883],[-122.2586689996103,47.22845700010223],[-122.25642699959556,47.22847299983731],[-122.25514100018091,47.22850300024258],[-122.25505999999007,47.22904999971403],[-122.25501700033234,47.22928299994021],[-122.25496100025585,47.22951499994096],[-122.25489400030871,47.22974499992269],[-122.25449000007765,47.23075800009471],[-122.25444800024486,47.23090999993431],[-122.25439700019122,47.23102500007308],[-122.2543529998103,47.2311929998909],[-122.25426699959655,47.23157300012857],[-122.25412199983163,47.23229699991085],[-122.25409400024252,47.23242299984997],[-122.254070999778,47.232522999782034],[-122.25401200022675,47.23278200019288],[-122.25400700020388,47.232809999881226],[-122.25394299973148,47.23314799996235],[-122.25390699974645,47.233340000210525],[-122.25389000002802,47.23354499998088],[-122.25389000002802,47.23365799981578],[-122.25390699974645,47.23381100021764],[-122.25391599996729,47.23396499990498],[-122.25400100035608,47.234693999734304],[-122.25410299956505,47.23563299985452],[-122.25411500015892,47.23574299981586],[-122.25426400012185,47.23709799982217],[-122.25434000028983,47.23772900009559],[-122.25434399958945,47.23776400024843],[-122.25437000042706,47.23792500004387],[-122.25438299994751,47.23808200014222],[-122.25440399986394,47.23824000003184],[-122.25443999984894,47.2384250001878],[-122.25448599987968,47.2386090000583],[-122.25454399960603,47.23879100001755],[-122.2546120002764,47.238971999718956],[-122.25469000009419,47.239149999914],[-122.25477100028506,47.23930800027831],[-122.25477999960756,47.239326999885044],[-122.25574100023053,47.2410809998148],[-122.25576499962163,47.24112500018191],[-122.25627799963264,47.24205900007411],[-122.25672600024463,47.24288900021207],[-122.25675200018387,47.242918000216896],[-122.25687000018466,47.24315099984785],[-122.25693600030688,47.24330899986777],[-122.25699400003323,47.24348599997121],[-122.25700999992675,47.24357499987902],[-122.25700200042913,47.24381600026982],[-122.25687900040549,47.244556000248174],[-122.25680400006243,47.24490899993795],[-122.25677399992519,47.24521299972051],[-122.25675800003165,47.245290000126765],[-122.2567539998337,47.245352999932344],[-122.25676800007743,47.24539900004315],[-122.2567749997501,47.2455079997353],[-122.25679700038971,47.24561400007119],[-122.2568240001539,47.24570800003052],[-122.25687799968227,47.24583499990527],[-122.25717300013335,47.24630900014852],[-122.25808700000233,47.247669999951874],[-122.25824900038405,47.24794600014112],[-122.25834700029333,47.248124000065964],[-122.25843299960876,47.248296000212946],[-122.2585630002034,47.248595999827586],[-122.2585840001198,47.24868899992413],[-122.25860000001335,47.248884000127454],[-122.25857300024913,47.249189999759224],[-122.25856200037848,47.24943899996643],[-122.25858499994472,47.24965999969633],[-122.25863199980037,47.24985499998347],[-122.25868799987688,47.25008700016854],[-122.25890499961184,47.250691000057245],[-122.2589709997341,47.25092000018784],[-122.25898599980269,47.25096899978099],[-122.25909499958264,47.251341000203674],[-122.25933499978217,47.252057000048794],[-122.25946899967649,47.252455999830495],[-122.25954999986733,47.25276700007724],[-122.25990300004476,47.25424300014484],[-122.2599569995731,47.25448700001714],[-122.25998800043355,47.254578000238936],[-122.2600269998933,47.25465299994237],[-122.26012599962749,47.254773000100556],[-122.26022500026002,47.25487199998056],[-122.2603859999185,47.255007999902034],[-122.2606749996235,47.255257000193495],[-122.26078699977649,47.255365999720055],[-122.26103700002173,47.25560700011984],[-122.26119199983243,47.2558070000843],[-122.2612370000383,47.255864999957076],[-122.26157199977403,47.256395000140934],[-122.26215199973215,47.25737399985351],[-122.26237500021325,47.257376000253544],[-122.2632580001201,47.25737399985351],[-122.26595700006933,47.257367999872415],[-122.26661300019546,47.25736600008184],[-122.26784099988379,47.25736299978607],[-122.26989399975264,47.25735900020435],[-122.27134999994493,47.25736299978607],[-122.27149899990783,47.25736000009979],[-122.27166600031244,47.257356999803676],[-122.27177099989441,47.25735500001267],[-122.27198699980448,47.25731599980452],[-122.27220600008758,47.25733600016498],[-122.27228899992826,47.257331999971576],[-122.27244200008914,47.257325999985675],[-122.27315900031465,47.25729899973606],[-122.27365499970887,47.25732099989535],[-122.27403999967333,47.25737399985351],[-122.27419299983421,47.25733000017958],[-122.27433099992646,47.257313000115616],[-122.27505999984751,47.257308999920426],[-122.27539499958328,47.25730700012761],[-122.2758619995635,47.2573039998285],[-122.27619499964945,47.25730200003545],[-122.27716600031815,47.25729199984977],[-122.27743300028185,47.25728900015947],[-122.2776059996359,47.25728900015947],[-122.2783529999986,47.257290999953],[-122.27859700039609,47.25729199984977],[-122.27925299962388,47.25728800026269],[-122.27972999964983,47.2572849999625],[-122.27992999966641,47.25728400006565],[-122.28097400013003,47.25728800026269],[-122.28146700004952,47.257295000149504],[-122.2815709998066,47.25729699994282],[-122.28212099962751,47.25730600023113],[-122.28478699996478,47.25726099999366],[-122.28539899970995,47.257259000199035],[-122.28564700030542,47.257249000005174],[-122.28599000043708,47.25724700021005],[-122.28601800002619,47.25724599970278],[-122.28644599964835,47.257231999915206],[-122.28737100028631,47.257184999817426],[-122.28778899986274,47.25720700002404],[-122.28795200006932,47.257202999820876],[-122.28810600005515,47.257200000125586],[-122.288223000231,47.257197999718905],[-122.2883570001253,47.25716799970691],[-122.28841300020181,47.257155999697304],[-122.28876600037923,47.257151000200594],[-122.28905699973404,47.257160999803254],[-122.29115200033401,47.25720199992248],[-122.29121900028117,47.257202999820876],[-122.29366499961209,47.25724999990273],[-122.2937359997572,47.25725099980023],[-122.2938200003211,47.25725099980023],[-122.29421699998113,47.257248000107644],[-122.29449599964039,47.25724700021005],[-122.29459600009781,47.25724599970278],[-122.29478500024369,47.25724599970278],[-122.29485300001578,47.25724599970278],[-122.29483600029732,47.25721399992161],[-122.29463600028079,47.25720999971899],[-122.29457099998346,47.25721100022694],[-122.2939819998045,47.255880999952865],[-122.29386700017679,47.25520699975389],[-122.29382600016889,47.25488800027639],[-122.29381899959786,47.25370899990514],[-122.2938279998187,47.25305300030374],[-122.2938279998187,47.25303200017761],[-122.29383000036684,47.25292500007352],[-122.29384100023749,47.25220299981181],[-122.29386299997881,47.25070299970253],[-122.29384200006241,47.250607000024715],[-122.29386899982657,47.25003100013279],[-122.29386600035187,47.247316999757025],[-122.2938770002225,47.24602499970161],[-122.29388200024536,47.24538900004899],[-122.29388499972013,47.24501199986714],[-122.293889999743,47.24425900013476],[-122.29389499976587,47.243659000086566],[-122.29390200033687,47.24274399994975],[-122.29410999985102,47.24274500012114],[-122.29459600009781,47.242746999854035],[-122.29642300001086,47.24275799990825],[-122.29641999963782,47.24283999985238],[-122.29640799994226,47.24355800027824],[-122.29715899960463,47.24356299983852],[-122.2975369998964,47.24356599969643],[-122.29801100044762,47.24356800000819],[-122.29803400001386,47.24356800000819],[-122.29841700032851,47.24357099986585],[-122.29874500039156,47.243573000177385],[-122.2992009996028,47.24357600003477],[-122.29940700036545,47.24357700019045],[-122.30003800037721,47.243581000203214],[-122.30038300015873,47.24358299990455],[-122.30040099970205,47.24301900002571],[-122.30040999992289,47.24277800027818],[-122.30066500019102,47.24278000000984],[-122.30256300024918,47.24279299978836],[-122.30378599991467,47.24279999976164],[-122.30453599975209,47.24280399983302],[-122.30513599980173,47.242809000074374],[-122.30719200004363,47.24282599991551],[-122.30721299996004,47.24103700002107],[-122.30721399978495,47.241003999999286],[-122.3073229995649,47.24100599979789],[-122.30800200015553,47.241014999805515],[-122.30869400026668,47.24102399981166],[-122.30908599990381,47.24102900022097],[-122.30949099995979,47.241034000019916],[-122.30984400013722,47.24103899981844],[-122.3099079997113,47.24105099982078],[-122.31249200003283,47.24106299982044],[-122.31255099958405,47.24106299982044],[-122.31256599965265,47.24068499974568],[-122.31262599992712,47.240685999955936],[-122.31268600020158,47.24068700016618],[-122.31322099995388,47.24069399980784],[-122.31396699959336,47.24070400007839],[-122.31396699959336,47.24060900017625],[-122.31396800031659,47.24031300010784],[-122.31396499994354,47.24014999980918],[-122.3139919997077,47.23924499999267],[-122.31463299976522,47.23924399975515],[-122.31525999957903,47.239231999953454],[-122.3154830000601,47.23922099977699],[-122.31613199961522,47.239167999948414],[-122.31646399987622,47.23914699980604],[-122.31655000008995,47.239141999828966],[-122.31691400013801,47.23912199991611],[-122.31780399971755,47.23910599973639],[-122.31910799957389,47.239095999774094],[-122.32037799999333,47.23909000016175],[-122.32166799960595,47.23908599980991],[-122.32294700024622,47.239077999715256],[-122.32306100004905,47.23907599984388],[-122.3233559996018,47.239070000229276],[-122.32350200009,47.23907399997241],[-122.32362500011364,47.23907700008451],[-122.32393800010809,47.2391159996968],[-122.32397200044329,47.23912199991611],[-122.32404100004025,47.23901799988149],[-122.3241699999117,47.23885900023735],[-122.32419400020113,47.23882900020494],[-122.3243409996159,47.238563999791005],[-122.32440599991325,47.23845799998623],[-122.3247339999763,47.238524000131264],[-122.3250350002752,47.23880799992819],[-122.32491999974913,47.239062000132165],[-122.32560500018758,47.239055999906064],[-122.32563399960158,47.23833100011348],[-122.32645799995719,47.23832699970433],[-122.3264589997821,47.23826299982598]]]},"properties":{"AREALAND":"21716784","AREAWATER":"21131","BASENAME":"Edgewood","CBSAPCI":"N","CENTLAT":"+47.2309132","CENTLON":"-122.2831239","FUNCSTAT":"A","GEOID":"5320645","INTPTLAT":"+47.2320735","INTPTLON":"-122.2857285","LSADC":"25","MTFCC":"G4110","NAME":"Edgewood city","NECTAPCI":"N","OBJECTID":28093,"OID":"278901445839832","PLACE":"20645","PLACECC":"C1","PLACENS":"02410400","STATE":"53","DISP_CLR":4,"slug":"edgewood","jurisdiction_key":"edgewood_city","county_fips":["53053"]}}]}
