{"type":"FeatureCollection","features":[{"type":"Feature","geometry":{"type":"Polygon","coordinates":[[[-120.30946099970168,47.435104000211794],[-120.3093829998839,47.434947999849214],[-120.3093829998839,47.43454799987568],[-120.30918299986736,47.43414799989992],[-120.30918299986736,47.433947999987154],[-120.30908300030825,47.43374799992192],[-120.30898200002592,47.43334799994177],[-120.30894100001805,47.43326700021668],[-120.30888199956847,47.43314800002686],[-120.30878200000937,47.43294799995954],[-120.30858199999284,47.43254799997529],[-120.3084820004337,47.43234800005839],[-120.30818199995973,47.43194799976739],[-120.3079819999432,47.43164799983276],[-120.3078820003841,47.431548000082216],[-120.30452499976062,47.42760600000338],[-120.30346799977649,47.42636599993765],[-120.30328200000366,47.426148000006336],[-120.30271799993903,47.425315000073766],[-120.30255599955731,47.42507499979581],[-120.30200800028454,47.42440299988148],[-120.30182699963629,47.423963000130726],[-120.30135299998334,47.422810000144764],[-120.30066199969713,47.42056699999848],[-120.30060099959775,47.42036799999176],[-120.2999980000734,47.419202000096966],[-120.29853600003334,47.41637800005551],[-120.29851500011695,47.416331999698755],[-120.29820999962011,47.4159399999703],[-120.29780499956414,47.415366999891326],[-120.29727499983473,47.414616000124404],[-120.2971330004428,47.41441500018622],[-120.29662100025672,47.4135199999213],[-120.29640399962345,47.413140999792965],[-120.29592900014562,47.41180699994175],[-120.29555800042486,47.4101809999647],[-120.29550099962512,47.40982500011979],[-120.29536500008098,47.40893999974945],[-120.29528300006524,47.40774899983742],[-120.29523399966145,47.40702799978485],[-120.29484600022224,47.405094000246265],[-120.29474199956682,47.40482500019342],[-120.2937880004132,47.40235500015075],[-120.29366100019159,47.402025000057215],[-120.2931749999448,47.40076700026057],[-120.29316800027208,47.40075999990507],[-120.29284699988175,47.40043699994864],[-120.29257999991803,47.40016900006481],[-120.29224299963414,47.399829999908356],[-120.29034100027634,47.397916999776946],[-120.2903320000555,47.3979079997015],[-120.28915299987266,47.39854899994738],[-120.28911100003987,47.398555999988574],[-120.28900700028281,47.398625000084564],[-120.28831900036963,47.39899599984455],[-120.28806699957623,47.39913200010694],[-120.28789300039728,47.399225000070864],[-120.28789400022217,47.39929300025441],[-120.28789500004709,47.39932400016585],[-120.28778500044224,47.399327999956974],[-120.28767400011415,47.39936500013848],[-120.28764200032712,47.39932600006144],[-120.28759700012125,47.39927199981361],[-120.28722499967728,47.39881299972891],[-120.28714500020965,47.39885700027329],[-120.28689499996439,47.39899500019456],[-120.2865869999928,47.39916399975996],[-120.28542100022875,47.399789000297574],[-120.28576000016247,47.40007799981006],[-120.28562299989511,47.4001339997048],[-120.28489899999693,47.400325999760554],[-120.2849040000198,47.40008599988553],[-120.28481600015625,47.40008500025622],[-120.28393700044738,47.400072999838315],[-120.2836930000499,47.400070999971064],[-120.28345000037567,47.40006799986605],[-120.28320699980308,47.400064000131145],[-120.2829599999309,47.40006100002573],[-120.28271800008156,47.40005900015803],[-120.2816660001203,47.40005100007845],[-120.28171999964867,47.400172999791735],[-120.28172300002171,47.400380999767954],[-120.28059200041777,47.4003029998731],[-120.27892399961505,47.400211999849844],[-120.27712199981636,47.400107000001846],[-120.27683700030931,47.400090000226825],[-120.27621700016822,47.399973000303106],[-120.27597299977074,47.399867999978824],[-120.27578100015013,47.39976999993328],[-120.27528200038286,47.39947299978011],[-120.27435400027015,47.39879199970487],[-120.27412699959112,47.39867800012336],[-120.273842999909,47.398635999959325],[-120.27364999956514,47.398637000224205],[-120.27320799969928,47.398637999881046],[-120.27255699959602,47.39863900014589],[-120.27173399996363,47.39863900014589],[-120.2710000000197,47.39862100024011],[-120.27059999998664,47.39863400003753],[-120.26945799961369,47.3986140002075],[-120.26938999984164,47.3986140002075],[-120.26837300004048,47.39860200006262],[-120.26510500000377,47.39856800014398],[-120.26134300022265,47.39852900008508],[-120.26035900003347,47.39851899984703],[-120.26037300027717,47.39965200026941],[-120.26037300027717,47.39967400019584],[-120.26038300032293,47.40036700016951],[-120.26039400019359,47.40123400024858],[-120.26041199973693,47.402631000156056],[-120.26042299960758,47.40343200018541],[-120.26042500015572,47.4040159999793],[-120.2604319998284,47.405806000078115],[-120.26043699985128,47.40673699987308],[-120.26044199987415,47.407601000013564],[-120.26045000027007,47.40849200024772],[-120.26045600011786,47.409438999730796],[-120.2604460000721,47.40987500028763],[-120.26044100004924,47.410080000114895],[-120.26043500020145,47.41034099973967],[-120.26044799972193,47.41163100007673],[-120.26045000027007,47.41183199969874],[-120.26045899959259,47.41307199986423],[-120.2604529997448,47.41390700016171],[-120.26045100009499,47.414022000195494],[-120.26046500033867,47.41598699999712],[-120.2604689996383,47.416720999783784],[-120.2604689996383,47.41707799973304],[-120.26026600014706,47.41719400004858],[-120.26025600010131,47.418270999994355],[-120.26046600016359,47.41831299970005],[-120.26047100018646,47.418761000148976],[-120.26048999955472,47.418999000280614],[-120.26049100027794,47.41984499990053],[-120.26049200010286,47.42021000000052],[-120.26049299992778,47.42038800007225],[-120.26059099983705,47.42038700022037],[-120.26209999973278,47.42037600002489],[-120.26365899985724,47.420384999908734],[-120.26485800013157,47.420392000087446],[-120.26541700017331,47.42039500025057],[-120.26778399986152,47.420408999996624],[-120.26833700005548,47.42041200015882],[-120.26924799955141,47.42041700002352],[-120.26993499963967,47.42042000018522],[-120.27002400022644,47.42139599975807],[-120.2700560000135,47.42183899977236],[-120.27004599996776,47.42312299984225],[-120.27004599996776,47.42316199992659],[-120.27111499964745,47.423165999731026],[-120.27111100034782,47.42350300024382],[-120.27108399968529,47.426228999748886],[-120.27106799979178,47.42765999976788],[-120.27104000020267,47.4301220001875],[-120.271025999959,47.43140599997628],[-120.27098699960094,47.434880999699516],[-120.27097900010331,47.43514400010559],[-120.27121000008201,47.43514299992632],[-120.27141699977123,47.43499499992141],[-120.27314199957702,47.43447099972774],[-120.27388499974178,47.43455600018448],[-120.27396599993266,47.43452199977523],[-120.27489599969515,47.43407699975659],[-120.2763359999939,47.433048000088206],[-120.27719999963418,47.43285000008659],[-120.27930000025702,47.43291600016989],[-120.27929500023414,47.43314499998287],[-120.27928699983822,47.433464000261154],[-120.27922499991394,47.433463000049954],[-120.27912399963161,47.43411099984575],[-120.27911699995893,47.434156000269496],[-120.27904099979092,47.434646000232455],[-120.27966799960473,47.43466800012624],[-120.2797649996891,47.43482500028891],[-120.2799830001473,47.43514500028483],[-120.28048000026476,47.43554499997377],[-120.28054899986174,47.435581000064026],[-120.2810660000707,47.43584800006571],[-120.28116900000286,47.435948999708614],[-120.28123500012511,47.435948999708614],[-120.28147500032462,47.435948000152294],[-120.28145600005804,47.43656099987801],[-120.2815189998072,47.43656200003033],[-120.28269499961702,47.4365660000318],[-120.28268499957129,47.43691999986692],[-120.28268100027164,47.436991999964185],[-120.28333999987247,47.436998000221045],[-120.28372499983695,47.43699499978891],[-120.28384399966264,47.43699599993297],[-120.28388800004356,47.43699599993297],[-120.28477699979818,47.43699899975742],[-120.28531999994641,47.437005000013436],[-120.28576900038331,47.437007000301215],[-120.28655199983271,47.43701100026882],[-120.28655699985559,47.436914000208844],[-120.28656600007642,47.43647200022121],[-120.28721999965441,47.43672300000026],[-120.2872430001189,47.436725000298715],[-120.28750300040993,47.43674999976958],[-120.28750400023483,47.4367930000713],[-120.28820700021662,47.43686099975601],[-120.28881499976384,47.437156000256806],[-120.28900899993259,47.437250000060644],[-120.28906900020708,47.43723899974325],[-120.28918999968258,47.43721600017686],[-120.28969699984577,47.43725100019991],[-120.29002599973374,47.43713199990505],[-120.29023400014621,47.436779999969666],[-120.290640999852,47.436475000075575],[-120.29110799983222,47.436212999796865],[-120.29201699967834,47.4360499997653],[-120.29214899992282,47.4360499997653],[-120.29214899992282,47.43583000011499],[-120.29214899992282,47.43569600015346],[-120.29214899992282,47.43556599992812],[-120.29215099957264,47.43514100017537],[-120.29480199984131,47.435134999706804],[-120.29535400021032,47.43513400013497],[-120.2958360002592,47.43513199977604],[-120.29746300015572,47.43512800027326],[-120.29919899983216,47.435122999982816],[-120.29949599993307,47.435122999982816],[-120.30014299983836,47.43512199980316],[-120.30166599997779,47.435103000031766],[-120.30230299983735,47.43509799973896],[-120.30280400015276,47.43512000005142],[-120.30296499981124,47.43511700011984],[-120.30416400008556,47.43511000007625],[-120.3052710002984,47.435094999806125],[-120.30579500018005,47.435088999939914],[-120.30590200031017,47.43509000012021],[-120.30610399997653,47.43511000007625],[-120.30946099970168,47.435104000211794]]]},"properties":{"AREALAND":"9813517","AREAWATER":"794875","BASENAME":"East Wenatchee","CBSAPCI":"Y","CENTLAT":"+47.4174215","CENTLON":"-120.2821927","FUNCSTAT":"A","GEOID":"5320155","INTPTLAT":"+47.4174498","INTPTLON":"-120.2837984","LSADC":"25","MTFCC":"G4110","NAME":"East Wenatchee city","NECTAPCI":"N","OBJECTID":22714,"OID":"27890484276429","PLACE":"20155","PLACECC":"C1","PLACENS":"02410391","STATE":"53","DISP_CLR":3,"slug":"east_wenatchee","jurisdiction_key":"east_wenatchee_city","county_fips":["53017"]}}]}
