{
  "type": "FeatureCollection",
  "features": [
    {
      "type": "Feature",
      "geometry": {
        "type": "Polygon",
        "coordinates": [
          [
            [
              -118.96111699964932,
              47.996032999954295
            ],
            [
              -118.96109800028103,
              47.99565200005593
            ],
            [
              -118.95994099983949,
              47.99565499974901
            ],
            [
              -118.95870399993032,
              47.99565699974466
            ],
            [
              -118.95849899989092,
              47.99565400005169
            ],
            [
              -118.95748100026485,
              47.99566099973572
            ],
            [
              -118.95715900004959,
              47.99566099973572
            ],
            [
              -118.95702500015528,
              47.99566200003401
            ],
            [
              -118.95669799991715,
              47.99566299973113
            ],
            [
              -118.95608399962379,
              47.995664000029386
            ],
            [
              -118.95578999989596,
              47.99566299973113
            ],
            [
              -118.95478300014054,
              47.99566699972172
            ],
            [
              -118.95478399996546,
              47.995705999914435
            ],
            [
              -118.95463699965235,
              47.99570700021186
            ],
            [
              -118.95438300010746,
              47.99571100019904
            ],
            [
              -118.95396700018085,
              47.99571100019904
            ],
            [
              -118.95371199991273,
              47.99571500018591
            ],
            [
              -118.95358800006416,
              47.99571799987534
            ],
            [
              -118.95355999957674,
              47.99572900013758
            ],
            [
              -118.95358600041435,
              47.995670000015046
            ],
            [
              -118.95315899971877,
              47.99567099971201
            ],
            [
              -118.95266300032455,
              47.9956720000101
            ],
            [
              -118.95227599981192,
              47.99567299970704
            ],
            [
              -118.95212299965105,
              47.99567400000509
            ],
            [
              -118.95167900013534,
              47.99567499970203
            ],
            [
              -118.95113599998712,
              47.995676000000046
            ],
            [
              -118.95097699997848,
              47.99567700029801
            ],
            [
              -118.95111199969769,
              47.99572399985471
            ],
            [
              -118.95111199969769,
              47.997361999993714
            ],
            [
              -118.94955000009853,
              47.99736599985265
            ],
            [
              -118.94955400029644,
              47.99807799985063
            ],
            [
              -118.95021399972224,
              47.998075999948824
            ],
            [
              -118.95037100008106,
              47.998075999948824
            ],
            [
              -118.95037299973087,
              47.998487999724034
            ],
            [
              -118.95010900014024,
              47.998487999724034
            ],
            [
              -118.94996500020021,
              47.99848899996752
            ],
            [
              -118.94996600002511,
              47.998642999963714
            ],
            [
              -118.94996799967495,
              47.999090999961886
            ],
            [
              -118.95037600010396,
              47.999089999730074
            ],
            [
              -118.95038299977664,
              47.999317999785504
            ],
            [
              -118.94980600019154,
              47.99932000024027
            ],
            [
              -118.94844999955836,
              47.99932299972006
            ],
            [
              -118.94845600030447,
              48.00263399988568
            ],
            [
              -118.94845299993142,
              48.00363199974325
            ],
            [
              -118.94845999960411,
              48.004261999912686
            ],
            [
              -118.94845999960411,
              48.00472399971449
            ],
            [
              -118.95046399996748,
              48.004723000192946
            ],
            [
              -118.950303000309,
              48.00492499992104
            ],
            [
              -118.9502320001639,
              48.00501199995592
            ],
            [
              -118.95017699991232,
              48.005150999803895
            ],
            [
              -118.95016500021676,
              48.00518700030015
            ],
            [
              -118.9501419997522,
              48.0053609999404
            ],
            [
              -118.95015000014813,
              48.005465999988566
            ],
            [
              -118.95017400043757,
              48.00553900002198
            ],
            [
              -118.95021700009526,
              48.00561199995213
            ],
            [
              -118.95024999970724,
              48.00563999988966
            ],
            [
              -118.9502890000653,
              48.00567399983637
            ],
            [
              -118.95039799984525,
              48.005740000057735
            ],
            [
              -118.95056100005186,
              48.00580399999144
            ],
            [
              -118.95058100014334,
              48.005812000202916
            ],
            [
              -118.95080200007631,
              48.00550999992228
            ],
            [
              -118.9508730002214,
              48.005414999854494
            ],
            [
              -118.95140399977574,
              48.00472200007032
            ],
            [
              -118.95194699992393,
              48.00472200007032
            ],
            [
              -118.95217100022992,
              48.004507999830466
            ],
            [
              -118.95355700010202,
              48.004540999796134
            ],
            [
              -118.95465099989606,
              48.0045590002603
            ],
            [
              -118.95486199978323,
              48.00423399982811
            ],
            [
              -118.95541499997722,
              48.00349900028657
            ],
            [
              -118.95620900019559,
              48.00260399979219
            ],
            [
              -118.95690299995654,
              48.001942000180954
            ],
            [
              -118.95738099980744,
              48.00148199987577
            ],
            [
              -118.95839400030893,
              48.00064699996104
            ],
            [
              -118.95914300032146,
              48.00013199994102
            ],
            [
              -118.95939500021653,
              47.999959999922375
            ],
            [
              -118.9595190000651,
              47.99987500021516
            ],
            [
              -118.9596449995635,
              47.9998000001451
            ],
            [
              -118.9598289996865,
              47.999696000204096
            ],
            [
              -118.96003999957371,
              47.99957699972539
            ],
            [
              -118.96018600006188,
              47.999439000109575
            ],
            [
              -118.96034000004768,
              47.99929199987752
            ],
            [
              -118.96050800027714,
              47.9990660001718
            ],
            [
              -118.96070599974556,
              47.998800000212654
            ],
            [
              -118.96099899964852,
              47.998142000274186
            ],
            [
              -118.96101299989223,
              47.99802700022643
            ],
            [
              -118.96103700018165,
              47.99785799996813
            ],
            [
              -118.96106700031889,
              47.99763199999186
            ],
            [
              -118.96108300021243,
              47.997198000102166
            ],
            [
              -118.96111699964932,
              47.996032999954295
            ]
          ]
        ]
      },
      "properties": {
        "AREALAND": "615877",
        "AREAWATER": "88074",
        "BASENAME": "Elmer City",
        "CBSAPCI": "N",
        "CENTLAT": "+47.9998415",
        "CENTLON": "-118.9541472",
        "FUNCSTAT": "A",
        "GEOID": "5321485",
        "INTPTLAT": "+48.0018244",
        "INTPTLON": "-118.9534070",
        "LSADC": "43",
        "MTFCC": "G4110",
        "NAME": "Elmer City town",
        "NECTAPCI": "N",
        "OBJECTID": 2980,
        "OID": "27890480662911",
        "PLACE": "21485",
        "PLACECC": "C1",
        "PLACENS": "02412478",
        "STATE": "53",
        "DISP_CLR": 5,
        "slug": "elmer_city",
        "jurisdiction_key": "elmer_city_city",
        "county_fips": [
          "53047"
        ]
      }
    }
  ]
}
