{"type":"FeatureCollection","features":[{"type":"Feature","geometry":{"type":"Polygon","coordinates":[[[-120.59497200027775,47.0089870002411],[-120.59497399992753,47.00888900006287],[-120.5946740003519,47.008680000244745],[-120.59350699986459,47.00787800025482],[-120.59236000036711,47.00738200018286],[-120.59119399970476,47.00687899994853],[-120.59097899961958,47.0067889997651],[-120.59065200027975,47.006651999766504],[-120.58967099956531,47.006241999840015],[-120.58962799990759,47.00622399984583],[-120.58954300041711,47.00614600020932],[-120.58942799989106,47.005992999790486],[-120.58938100003539,47.005806999712114],[-120.58932599978381,47.00568400026292],[-120.58904600029966,47.00534099969521],[-120.58839600002132,47.00454300006609],[-120.58753499985578,47.00360000026341],[-120.58723399955689,47.00327000003407],[-120.58709800001277,47.003139000137075],[-120.58706200002777,47.003091000005504],[-120.58702699986766,47.00302799995889],[-120.58656599973521,47.00265699974288],[-120.58649299994026,47.00259899999969],[-120.58613599956492,47.002316000170026],[-120.58345500005733,47.00019200015767],[-120.58288599996986,46.99974200020775],[-120.58269599999906,46.99958600027167],[-120.58256700012763,46.99947800023759],[-120.58190500015374,46.99892899985448],[-120.5800389998826,46.997384999888595],[-120.57991800040709,46.99728500007936],[-120.57925700025812,46.996738000255775],[-120.57914099990717,46.996642000088876],[-120.57879500030074,46.99635600021587],[-120.57867999977469,46.99626099988938],[-120.57785799996724,46.99558100010274],[-120.57758599998066,46.99535600017824],[-120.57577199958811,46.99385499999961],[-120.57429799985245,46.99265200017873],[-120.57319900003556,46.99175499999651],[-120.57282400011681,46.991449000238596],[-120.572161000318,46.990907000184144],[-120.57210699989135,46.99086400016835],[-120.57205400018789,46.99082000010214],[-120.5719999997612,46.990775999999656],[-120.5718299998819,46.990636999953296],[-120.57170100001046,46.990531000256894],[-120.57158899985748,46.990440000083886],[-120.57147800042772,46.99034899975599],[-120.57177100033066,46.99018899986085],[-120.57213700002858,46.9899819998642],[-120.57220700034877,46.98994900003927],[-120.57242200043392,46.989825000199446],[-120.57260700038185,46.98972499972372],[-120.57321900012703,46.99021800004209],[-120.57311600019486,46.990282999926215],[-120.57305099989757,46.990329999896886],[-120.57287500017046,46.99045299976794],[-120.5725820002675,46.99061000003902],[-120.5724009996192,46.99070399997671],[-120.57243800032745,46.99073399989592],[-120.57276999969015,46.99100500026189],[-120.5781729996115,46.995420999940585],[-120.57884200015641,46.995966999846935],[-120.57921200005225,46.99626899981377],[-120.57987200037635,46.99680799969439],[-120.57995000019415,46.996732000212106],[-120.58009199958606,46.996552999722596],[-120.57993599995044,46.99522699973705],[-120.5799049999883,46.994885999921046],[-120.58026999986129,46.99457200014433],[-120.58033900035657,46.99444800000147],[-120.58040399975557,46.99433299973531],[-120.58053900037311,46.99409400009554],[-120.58047300025088,46.993923000235675],[-120.5803760001665,46.9936699999016],[-120.58017500032504,46.99348099991182],[-120.58004200025566,46.99335700030102],[-120.57995199984397,46.9932479999608],[-120.57986099960736,46.99313900001105],[-120.57981700012478,46.993086000219314],[-120.57947999984086,46.99268100024897],[-120.57853300035994,46.99193400001387],[-120.57792900011235,46.99126699979994],[-120.57770599963125,46.99111799970334],[-120.57734999997912,46.99088099980825],[-120.57711499980248,46.99046299999411],[-120.57694200044843,46.98974100030261],[-120.5769890003041,46.989261999892825],[-120.57712599967313,46.98883599986202],[-120.57740000020783,46.98827200010441],[-120.57736800042078,46.98822300003356],[-120.5772910004279,46.98810500026631],[-120.57697000003752,46.98760799976374],[-120.57671700031752,46.987454000102936],[-120.57621299962906,46.987343999898506],[-120.5750960002688,46.987219000059916],[-120.57495099960555,46.9872219996967],[-120.57312299986758,46.9872630000266],[-120.572778999911,46.98731600007771],[-120.57235200011372,46.98726400010903],[-120.57215299992208,46.987209999922996],[-120.57182499985903,46.98712099978103],[-120.57134100016036,46.986911999980556],[-120.5712950001296,46.986893000125285],[-120.57050699975902,46.98620499981686],[-120.57003800012896,46.9855819999312],[-120.56968199957848,46.98510899975586],[-120.5696180000044,46.9847349997469],[-120.56958700004226,46.98454999994677],[-120.5695820000194,46.984520000233594],[-120.56935000021579,46.984520000233594],[-120.56929499996421,46.98452300002179],[-120.56901600030496,46.984531999998325],[-120.5689419997868,46.98430399971782],[-120.56900999955886,46.98408899969669],[-120.5693169997055,46.98379900008002],[-120.56976100011951,46.983383999889135],[-120.56983800011241,46.983155000068734],[-120.56994100004458,46.98287200021479],[-120.57008099978667,46.9824930002445],[-120.57010199970307,46.9817550002461],[-120.57008699963443,46.981650999857564],[-120.5701340003884,46.9813219997062],[-120.5700260004334,46.981126000022904],[-120.56989699966365,46.98086900020301],[-120.56988099977012,46.980776999924295],[-120.56977799983797,46.980192000110634],[-120.56940499956906,46.979808999866584],[-120.56925099958329,46.97965199974021],[-120.56835299960781,46.97873200014514],[-120.56754300039422,46.97810900020179],[-120.56721000030828,46.977860000204956],[-120.56719900043761,46.977867000173944],[-120.567112000399,46.97791999973424],[-120.56708300008668,46.97793899971417],[-120.56689099956775,46.97805499996127],[-120.56675900022158,46.978135000048454],[-120.56660299968767,46.97822000004828],[-120.5663950001735,46.978333000163275],[-120.56630099956386,46.97837899997355],[-120.56622799976894,46.97841499971753],[-120.5660970002477,46.97847199972225],[-120.56606700011045,46.978484999865366],[-120.56598000007182,46.97852400027573],[-120.56595199958441,46.978538000038924],[-120.56533599964126,46.97881699980882],[-120.5646979999568,46.97910799971802],[-120.56349000035995,46.979660999923844],[-120.56287500024169,46.979943000007964],[-120.56253899978272,46.98009699985632],[-120.56243500002566,46.98014499980589],[-120.56175799998314,46.98040900029065],[-120.56155999961642,46.98047699986082],[-120.56150400043825,46.9804930001437],[-120.5613320000108,46.980544999957395],[-120.5611489997127,46.98059300011765],[-120.56101999984126,46.980626000202875],[-120.56088799959676,46.980662000272574],[-120.5606349998768,46.980721999722],[-120.56050400035555,46.9807489997281],[-120.5603880000046,46.98077200013108],[-120.56033000027824,46.98078499971498],[-120.56003900002511,46.980832000069995],[-120.55992299967419,46.98085100024088],[-120.55966599975622,46.980879999972586],[-120.55936199998263,46.98091599987131],[-120.55923300011116,46.980927000244094],[-120.55908499997318,46.98093999979026],[-120.55888900015461,46.98095199974574],[-120.55863800008444,46.98096199991086],[-120.55841499960334,46.980970999873975],[-120.55811099982974,46.980970999873975],[-120.55793599992755,46.980970999873975],[-120.55771599981954,46.98096499989871],[-120.55748800021391,46.98096399969848],[-120.55726300008303,46.980958999922805],[-120.55719699996075,46.98095599993458],[-120.55713099983852,46.98095700013495],[-120.55657299962168,46.98094500018063],[-120.55653099978889,46.98094399998],[-120.55600500025743,46.98094299977938],[-120.5557499999893,46.98092600004312],[-120.55565999957764,46.98092000006284],[-120.55498599990817,46.98090399990774],[-120.55473200036326,46.980897999924956],[-120.55377300028843,46.980882999965075],[-120.55222400020973,46.98085100024088],[-120.55203599988874,46.980847000044186],[-120.55156200023582,46.980838000060146],[-120.55108500020987,46.980827999871885],[-120.54965499995684,46.980799000111915],[-120.54951699986457,46.980796000114715],[-120.54951500021475,46.980715000126786],[-120.54951400038985,46.98068200009654],[-120.54951100001679,46.980543999749266],[-120.54948699972735,46.978752999706906],[-120.54945800031335,46.97874500022504],[-120.54943900004677,46.97872599991865],[-120.54940600043479,46.97869400012924],[-120.54934100013747,46.978631000123976],[-120.54936899972655,46.97859800003322],[-120.54953799978097,46.97840099992214],[-120.54942599962797,46.978221000299826],[-120.54925999994663,46.97804199971361],[-120.5492099997179,46.97798699976243],[-120.54899399980783,46.97777500024577],[-120.54854600009418,46.97729300028674],[-120.54834500025274,46.97711800013445],[-120.5482020001376,46.97702499986949],[-120.54790500003668,46.97692800017872],[-120.54763999972282,46.97679700005795],[-120.54732799955327,46.976511000021944],[-120.54727200037512,46.976280000219916],[-120.54740000042162,46.97600899997607],[-120.54745700032302,46.97591299996282],[-120.54752599992,46.97579600028833],[-120.54688800023555,46.975004000144885],[-120.5465969999824,46.97494900013351],[-120.54640199998873,46.974918999936335],[-120.54635400030814,46.97491200019434],[-120.54617900040596,46.974881999976404],[-120.54553300032559,46.97476299986541],[-120.54455699963401,46.974583999962036],[-120.54330100035658,46.97435499983873],[-120.54276900007902,46.97425800020817],[-120.54261300044342,46.97422899994953],[-120.54238800031251,46.973900000099235],[-120.54215899998366,46.97356499987104],[-120.54055800002641,46.97122699981232],[-120.53991000029623,46.97028099995184],[-120.53982300025757,46.97015300008],[-120.53985000002177,46.97015300008],[-120.54094899983868,46.97014100015295],[-120.54137499981103,46.97013800017076],[-120.54165199982046,46.970135999978204],[-120.54211600032598,46.97013200020589],[-120.54222900030388,46.970130999803025],[-120.54227100013667,46.970130999803025],[-120.54229399970288,46.97013000001311],[-120.5423590000002,46.97013000001311],[-120.54249299989449,46.970135000188414],[-120.54257800028331,46.970135000188414],[-120.54263000016185,46.970042999830476],[-120.5426619999489,46.96994599973479],[-120.54276599970599,46.96981500028696],[-120.5428240003306,46.969741999819036],[-120.54301400030141,46.96956499987462],[-120.54312899992915,46.969456999859815],[-120.54320500009713,46.96938599973692],[-120.543246000105,46.96935600009701],[-120.54332899994567,46.96929799976465],[-120.54337599980136,46.96923900017587],[-120.54341799963414,46.96918099971664],[-120.54337800034948,46.96904199991373],[-120.54321699979268,46.96883200011728],[-120.5431330001271,46.968537999998006],[-120.54312100043154,46.96811700008673],[-120.54313200030221,46.96799299987279],[-120.54314900002062,46.96780299998598],[-120.54273399991894,46.967392000057714],[-120.5423380000838,46.96712100013745],[-120.54207000029518,46.9669960002182],[-120.54205199985354,46.96698800020362],[-120.54191799995924,46.96695399982176],[-120.541775999669,46.966940000091],[-120.54170100022425,46.96697700002836],[-120.54163400027711,46.967053000134236],[-120.54156800015488,46.96712900013215],[-120.5414640003978,46.96718999989907],[-120.54139800027555,46.967252000053215],[-120.54138300020695,46.96730399986995],[-120.54140699959808,46.96738899992135],[-120.54146900042066,46.967479000261285],[-120.541450999979,46.96753199969585],[-120.54142099984179,46.967576999764454],[-120.54129500034338,46.96760199999056],[-120.54126299965802,46.96764600016392],[-120.54104500009812,46.96771599969641],[-120.53996100034983,46.96789300024236],[-120.5398170004098,46.96792399992099],[-120.5391629999335,46.96806899976117],[-120.53918600039805,46.969157999844725],[-120.53923999992642,46.96922900027027],[-120.53943200044533,46.96948600025417],[-120.53924900014724,46.96955400022933],[-120.53890500019064,46.96968399990525],[-120.53870199980106,46.96975600004245],[-120.5386609997932,46.96977100005881],[-120.53857299992961,46.969792999870904],[-120.5385140003784,46.96980000028287],[-120.5384850000661,46.96980400008006],[-120.53839800002744,46.96980799987689],[-120.53833799975298,46.969810999877595],[-120.53813699991153,46.96981500028696],[-120.5380509996978,46.969822000083035],[-120.53793600007009,46.96983199987777],[-120.53742999973178,46.96983199987777],[-120.5372339999132,46.96983000028677],[-120.53596500021699,46.969822000083035],[-120.53513099981565,46.96981699987852],[-120.53443000038199,46.96981300008231],[-120.53433699959727,46.96981200028648],[-120.53416099987015,46.969810999877595],[-120.53373599972272,46.969806000285],[-120.53333800023775,46.969807000080976],[-120.53325000037424,46.96980799987689],[-120.53306600025121,46.96980799987689],[-120.53260199974572,46.969807000080976],[-120.53217800032151,46.969807000080976],[-120.5317699998925,46.96980799987689],[-120.52951500035726,46.969810999877595],[-120.52877300001744,46.96981300008231],[-120.52862800025248,46.96981300008231],[-120.52862800025248,46.97006599993479],[-120.52862800025248,46.97082699983436],[-120.52862900007739,46.97108100017929],[-120.52862300022959,46.9711659997454],[-120.52861900003163,46.97122500027347],[-120.5286089999859,46.97140099986205],[-120.52877899986521,46.971431999959464],[-120.52912000034705,46.971494999864774],[-120.53064599996121,46.97177499997633],[-120.5315949999903,46.971949999838024],[-120.53166600013542,46.971961000216524],[-120.53220099988772,46.9719749998591],[-120.53298900025831,46.97209900003603],[-120.5336999997377,46.97221799994535],[-120.53397699974714,46.97226100024922],[-120.53424799990879,46.972306000017056],[-120.53445700014615,46.97232800001233],[-120.53466800003338,46.97234200017181],[-120.53482399966896,46.97234200017181],[-120.53495500008853,46.972337999951506],[-120.53513300036377,46.97232800001233],[-120.53578199991888,46.97225200004593],[-120.53718500040772,46.972054999847934],[-120.53799999964417,46.971976000227464],[-120.53825999993519,46.971954999843184],[-120.53921200033732,46.97187100006246],[-120.53921099961407,46.971961000216524],[-120.53920399994139,46.972849000237396],[-120.53919999974342,46.97323800030306],[-120.5391980000936,46.97332100004534],[-120.53919300007072,46.97362200014218],[-120.53919200024583,46.973682000136144],[-120.53917800000212,46.97448100004396],[-120.53917800000212,46.97456299998888],[-120.53838499960865,46.97466599974901],[-120.53824400004166,46.97467199981819],[-120.53806499994151,46.97466599974901],[-120.5378880003895,46.97464600012649],[-120.53771599996205,46.97461000029682],[-120.53757200002201,46.97456700004281],[-120.53753600003701,46.974541000300064],[-120.53717600018688,46.97433300006434],[-120.53634199978555,46.97361899974229],[-120.53617799975402,46.97349400029785],[-120.53596199984395,46.97335900020193],[-120.53576500020046,46.97325799983919],[-120.5355359998716,46.97316100005771],[-120.53539000028172,46.97311200023395],[-120.53483200006488,46.972950000146675],[-120.53426700017538,46.972800000127776],[-120.53363100014072,46.97264899994531],[-120.53252700030096,46.972430999786404],[-120.53218699964401,46.972367999757715],[-120.53211800004703,46.972340999810285],[-120.53206000032071,46.97230899987763],[-120.53201400028998,46.97230100004471],[-120.53187899967243,46.9722810001507],[-120.53183400036491,46.97226999983806],[-120.53178800033416,46.972261999999304],[-120.53165199989171,46.97223799986292],[-120.53160699968586,46.97223000001939],[-120.53109399967488,46.972139999705014],[-120.52955800001497,46.971873000190094],[-120.52904599982888,46.971784000259895],[-120.52899399995036,46.97177499997633],[-120.52883800031474,46.97174799972952],[-120.52878600043621,46.971739000052885],[-120.52860800016099,46.97170800013341],[-120.5286089999859,46.97192800030019],[-120.52861200035893,46.97232899976117],[-120.52862499987944,46.974026000150644],[-120.52763099964449,46.97403999986562],[-120.52763900004041,46.97350499974581],[-120.52757100026835,46.973282999861794],[-120.52752000021475,46.972922999880105],[-120.52764499988821,46.97263299976705],[-120.52779700022417,46.9724460002785],[-120.52825599980848,46.97224999993246],[-120.52824999996069,46.972104000027215],[-120.52824900013577,46.97196799973176],[-120.52824199956477,46.97164499986602],[-120.52820599957977,46.97163900007021],[-120.52722499976362,46.971450999792744],[-120.52639600028346,46.97129200010852],[-120.52619399971879,46.971295000025975],[-120.52604499975588,46.971274999755764],[-120.52497299970317,46.971103000065526],[-120.52479399960299,46.97107100000513],[-120.5246250004469,46.97104600017447],[-120.52422700006366,46.9709989997992],[-120.52384799994698,46.970968000063806],[-120.52342299979954,46.97094900005889],[-120.52322799980585,46.97094900005889],[-120.5228019998335,46.970963999740675],[-120.52233300020345,46.970995999865146],[-120.52165000031316,46.97109200012354],[-120.52134599964121,46.97114699981087],[-120.52106799980686,46.97120799989942],[-120.52094200030851,46.97124200002912],[-120.52002699971631,46.971579999998845],[-120.51935499969666,46.971884999728594],[-120.51812299981036,46.97244499991892],[-120.51813000038135,46.97263100028077],[-120.51813100020627,46.972814000163694],[-120.51814100025202,46.973680999799676],[-120.51816600036638,46.976917000209006],[-120.5181680000162,46.97734700007103],[-120.5181689998411,46.977386999739885],[-120.51916100042622,46.97738400016416],[-120.52153300013728,46.977377999786356],[-120.52224000031703,46.977377999786356],[-120.52335599985237,46.97737200002079],[-120.52341500030192,46.97737200002079],[-120.52342199997463,46.97833500004927],[-120.52499799981751,46.97895299984764],[-120.52551699967626,46.97928699979998],[-120.52614699986312,46.97958499995971],[-120.52662200023926,46.980054999941636],[-120.52714699994586,46.98025300030105],[-120.52742700032832,46.98049099972553],[-120.52758499961375,46.980626000202875],[-120.52792199989764,46.98086800000099],[-120.52832199993072,46.98098400002237],[-120.52864599979583,46.98098500022221],[-120.52863999994804,46.981028000218224],[-120.52863499992517,46.98122900001172],[-120.52861800020672,46.98195999987158],[-120.52861300018385,46.98220400011426],[-120.5286099998108,46.982292000300255],[-120.52860800016099,46.98242200026817],[-120.52860700033607,46.98245600000967],[-120.52860399996304,46.982558999887594],[-120.52860300013812,46.98264400020861],[-120.52835399971775,46.98262200016732],[-120.52764300023838,46.982842999725],[-120.52697399969345,46.98315200020374],[-120.52641300000191,46.98352600025645],[-120.52618000037339,46.98373300012922],[-120.52615899955867,46.98389399988469],[-120.5261460000382,46.98399199995142],[-120.52614199984025,46.98404500018155],[-120.5261329996194,46.98418599987885],[-120.52610699968015,46.984361000185494],[-120.52609900018254,46.984402999781636],[-120.52608400011394,46.98445900000896],[-120.52607700044125,46.984659000254304],[-120.52519100016134,46.98466999985695],[-120.52446300006521,46.98468499997999],[-120.52434199969139,46.984687999758975],[-120.5233500000046,46.98469899996848],[-120.52277900026729,46.98472800006424],[-120.5183589998119,46.98474099991191],[-120.51831100013133,46.984950999746864],[-120.5182969998876,46.985183999713044],[-120.51831100013133,46.98551099976762],[-120.51829799971253,46.985940000268926],[-120.51830600010844,46.98665200011725],[-120.51831399960605,46.98739200008239],[-120.51832200000197,46.988114000252544],[-120.51832299982689,46.988282000125835],[-120.51832600019995,46.98848300022154],[-120.51840599966756,46.98848200016197],[-120.518690000248,46.988476999863806],[-120.51918800019038,46.988468999998524],[-120.51979200043797,46.98846000007208],[-120.52034300008378,46.98845100014412],[-120.5206180004434,46.988445999843044],[-120.52151700024376,46.988432000223085],[-120.52241699986907,46.988417999986716],[-120.52333599976089,46.988403000298426],[-120.52333300028616,46.98796900022185],[-120.52333199956291,46.98783299983135],[-120.52347700022622,46.98777199971052],[-120.52347700022622,46.987745000187296],[-120.5235269995566,46.987743000040524],[-120.52526099958324,46.98768800026397],[-120.52531699965972,46.98768500004054],[-120.52548800026226,46.98767900020602],[-120.52554500016369,46.98767700005673],[-120.52559299984426,46.98767499990741],[-120.52589099977008,46.98766799999693],[-120.5269329996856,46.987647999722405],[-120.5270020001809,46.98764700026001],[-120.52718200010591,46.98764099980842],[-120.52718299993083,46.9876919999488],[-120.52721200024315,46.988494000262904],[-120.52721600044111,46.9886869997287],[-120.52721899991586,46.988805000049425],[-120.52721300006807,46.988939999754116],[-120.52719600034962,46.98932200010768],[-120.527213999893,46.98977100014962],[-120.52739399981803,46.98977100014962],[-120.52739700019109,46.98988499978229],[-120.52741499973445,46.990242000074495],[-120.52805599979195,46.99021499996066],[-120.5280740002336,46.990744000069505],[-120.52785999997337,46.99075200020704],[-120.5277710002849,46.990755000258325],[-120.52773100010192,46.99075400024121],[-120.52725300025105,46.99075200020704],[-120.52728099984016,46.9912759998665],[-120.52717999955777,46.99127799988111],[-120.5260890001368,46.991304000063884],[-120.52608699958867,46.99124300022781],[-120.52607300024327,46.990940000030356],[-120.5260680002204,46.990892999983295],[-120.52606200037262,46.99076299978145],[-120.52589300031823,46.99076499981521],[-120.5254050004216,46.990768999882555],[-120.52463499959433,46.990787000181896],[-120.52232499980755,46.99084099981794],[-120.52182400039041,46.99085300000201],[-120.5215559997035,46.99085400001722],[-120.52156199955128,46.99106999980167],[-120.52157999999295,46.99171800004479],[-120.52158699966566,46.9919350000089],[-120.52177499998662,46.99193000003376],[-120.5217740001617,46.9929460000774],[-120.52178900023033,46.99294500010134],[-120.52178699968219,46.993088000166196],[-120.51977399999632,46.99313500012108],[-120.51955600043642,46.993119999918335],[-120.51951999955308,46.993205999961525],[-120.51950200000974,46.99323800025574],[-120.519379999811,46.99344399992957],[-120.51934499965091,46.99350499970439],[-120.51913899978659,46.993797999852205],[-120.51878599960916,46.99429800024455],[-120.51872299985997,46.994405999719824],[-120.51845599989628,46.9948000001305],[-120.51843699962969,46.99482900026059],[-120.51837200023068,46.99494400007204],[-120.51835200013922,46.99499400004611],[-120.51935700024478,46.995103999824295],[-120.52334199960868,46.99500699984787],[-120.52440799981363,46.99498100024115],[-120.52472199963296,46.99497400006209],[-120.52485300005256,46.99496999969675],[-120.52492699967237,46.995078000264776],[-120.52524600041292,46.99551599992231],[-120.52552000004931,46.99590300005676],[-120.52575000020309,46.996222000164366],[-120.52680999966194,46.99551799977825],[-120.52698799993716,46.9954039999067],[-120.52706300028024,46.99540499983675],[-120.52836200011367,46.995410000099476],[-120.52836399976351,46.995835999811376],[-120.52836399976351,46.995883999721386],[-120.52821999982346,46.99592600006675],[-120.52811600006639,46.995957999957646],[-120.52804200044655,46.995980000024694],[-120.5277439996224,46.99608400010763],[-120.52745400009248,46.99618500024186],[-120.5275529998267,46.996323999950654],[-120.52780800009482,46.996642999995764],[-120.52783499985901,46.996675999976254],[-120.52833899964915,46.996355000303616],[-120.52851600009947,46.99630999994344],[-120.52864900016885,46.99628199991806],[-120.52864900016885,46.99631500012149],[-120.52864900016885,46.99636599995019],[-120.52864900016885,46.99641399999682],[-120.52864999999377,46.99644800002927],[-120.5286509998187,46.996523000006334],[-120.52852899961995,46.99652700025537],[-120.5284609998479,46.99652900007347],[-120.52754000030622,46.99705399996994],[-120.5275960003827,46.99721199973892],[-120.52767900022339,46.99744400028258],[-120.52743300017609,46.99768400014407],[-120.52723599963429,46.99787600023742],[-120.527213999893,46.99789800012749],[-120.52725599972578,46.99791900012551],[-120.52740800006174,46.99812600001425],[-120.52749500010037,46.99821699996613],[-120.52767500002541,46.99840599974801],[-120.52774799982036,46.99849299973409],[-120.52782599963817,46.99858699989787],[-120.5275960003827,46.99858799976836],[-120.526961000173,46.998591999862846],[-120.526961000173,46.99861099984801],[-120.52694399955624,46.99865600010838],[-120.5269200001651,46.99891700025851],[-120.52690199972344,46.99921099999927],[-120.52689400022584,46.9995460000576],[-120.52685300021797,46.9995460000576],[-120.52619600026692,46.99954799976267],[-120.52619899974165,46.99985100016772],[-120.52619899974165,47.00004000029623],[-120.52620200011471,47.00015599976203],[-120.52574799965497,47.000080000140514],[-120.52371499987758,46.999734000190706],[-120.52266899976411,46.99957000018961],[-120.52246100024999,46.99957100004175],[-120.52219000008833,46.99957299974587],[-120.52195099971374,46.999574000210586],[-120.52170999968929,46.9995759999146],[-120.5209630002249,46.99957999993513],[-120.52096099967677,46.99960099988471],[-120.5207890001476,46.99956299999904],[-120.52076200038344,46.999557000272596],[-120.52056099964366,46.999518999743],[-120.52035899997733,46.99948600029297],[-120.52016200033381,46.99945800009387],[-120.5199630001422,46.99943399991151],[-120.51976399995056,46.99941600007404],[-120.5195699997818,46.999402000264276],[-120.51937399996321,46.99939199987282],[-120.51917899996955,46.99938699998269],[-120.51898399997589,46.99938600012716],[-120.51857800009502,46.99938799983822],[-120.51849000023148,46.999388999693764],[-120.51836100036003,46.99937199969691],[-120.51721399996424,46.99937800005681],[-120.51718800002497,46.99862099977302],[-120.51718999967478,46.99857299987093],[-120.51600100034452,46.998355999903175],[-120.5154139998154,46.998248999710384],[-120.51185500042384,46.9976549997254],[-120.50797899994156,46.99700900019843],[-120.50789299972784,46.99849400021901],[-120.50785199971997,46.99966199998326],[-120.50797499974361,46.99966100013287],[-120.50851700006692,46.99965600026791],[-120.50909600020015,46.999652000253086],[-120.50918599971352,46.999650999789836],[-120.50945500022536,46.99964900008862],[-120.50954599956363,46.99964900008862],[-120.51002900033568,46.999645999923956],[-120.51132700034422,46.99963799989253],[-120.51148100033,46.99963700004169],[-120.51196500002867,46.99963600019083],[-120.51218299958857,46.99963499972729],[-120.51251599967449,46.99963200017449],[-120.51386200026194,46.999620999974894],[-120.51416900040859,46.99961900027257],[-120.51472099987934,46.99961600010625],[-120.51544899997548,46.99961200008842],[-120.5154659996939,46.99961200008842],[-120.51694000032785,46.99959100014316],[-120.5173949997142,46.99959100014316],[-120.51763499991371,46.99958700012346],[-120.5182040000012,46.9995790000832],[-120.51836399983476,46.99957699976663],[-120.51836700020782,46.99985600001441],[-120.51837899990339,47.00053400025596],[-120.51838300010135,47.0007509999552],[-120.51838399992627,47.00080899986672],[-120.51821700042,47.000811000137176],[-120.51741399998077,47.00080599976724],[-120.5174220003767,47.001249999796286],[-120.51662700033343,47.001262999914026],[-120.51663599965593,47.001643000166865],[-120.51664400005185,47.00203799970899],[-120.51571099991628,47.00204500018791],[-120.51524800013401,47.002048000217876],[-120.51505999981305,47.002049999829296],[-120.51506499983591,47.00222799986764],[-120.51506700038405,47.0022929998474],[-120.51508099972945,47.00275499971513],[-120.51508199955434,47.00277600025467],[-120.51469599976497,47.00277900024354],[-120.51390200044492,47.00278399981623],[-120.51325600036452,47.002788000209215],[-120.51300399957114,47.00278900000109],[-120.51188499966274,47.00279599976898],[-120.51188300001293,47.002830999819885],[-120.51188100036308,47.002868000041346],[-120.51166299990491,47.00286700025095],[-120.51103199989312,47.00286299986392],[-120.51099900028117,47.002864000267024],[-120.51045100011008,47.00287199981541],[-120.5099180000076,47.00287900018505],[-120.50990899978677,47.003298000073244],[-120.50990299993899,47.00358499993521],[-120.50990200011407,47.003683999818115],[-120.50989899974104,47.003942999757705],[-120.5098970000912,47.00416499975669],[-120.50989500044139,47.00432799997989],[-120.50991499963457,47.00432799997989],[-120.51187799999005,47.004325999841114],[-120.51188999968561,47.00351200023821],[-120.51270900001835,47.00351099984725],[-120.513268999885,47.00351099984725],[-120.51327700028092,47.003952999909956],[-120.51329099962632,47.004782000140764],[-120.51329200034952,47.004874999901325],[-120.51329700037242,47.005180999966605],[-120.51329800019732,47.00520200016504],[-120.51330400004511,47.005466999772146],[-120.51330599969492,47.00551100003038],[-120.51331900011371,47.006067000115834],[-120.51333599983217,47.00673800008387],[-120.51335500009874,47.006949000190566],[-120.5136849998116,47.006943999782536],[-120.51373199966727,47.006943999782536],[-120.51394799957734,47.006943999782536],[-120.51414799959387,47.006943999782536],[-120.5143590003794,47.006943999782536],[-120.51443800002211,47.00694500010921],[-120.51454599997714,47.00694100002756],[-120.5145519998249,47.00717799975513],[-120.51454500015225,47.0081519997374],[-120.51454500015225,47.00870300026771],[-120.51591099993283,47.00869000012279],[-120.51591099993283,47.00870500024264],[-120.51727400023869,47.00869299977958],[-120.51726400019295,47.00816599970451],[-120.51634500030111,47.008184000269424],[-120.5163319998823,47.00746399989501],[-120.51577799986345,47.00740100010496],[-120.51573199983268,47.0071850001731],[-120.51572900035794,47.00701700030284],[-120.51572599998491,47.00693099982208],[-120.51566400006065,47.00693099982208],[-120.51548499996048,47.00693099982208],[-120.51495500023104,47.00693800027238],[-120.51475299966637,47.00693800027238],[-120.51475600003943,47.006792999858135],[-120.51476600008516,47.00630899990115],[-120.51475299966637,47.0062120000505],[-120.51845000004849,47.00622799998117],[-120.51845000004849,47.00628800013786],[-120.51845000004849,47.006310999965685],[-120.51845000004849,47.00638099972692],[-120.51845000004849,47.00640499985144],[-120.51845199969833,47.00650800013589],[-120.51846099991914,47.00682000017211],[-120.5184640002922,47.006923999983414],[-120.5184640002922,47.00693699994557],[-120.5184640002922,47.0069759998131],[-120.51846500011712,47.006990000088486],[-120.51846500011712,47.00703299999238],[-120.51846599994204,47.00716299981907],[-120.51846699976693,47.007206999905485],[-120.51846699976693,47.00728299980234],[-120.51846699976693,47.00732499976341],[-120.51846900031506,47.00751399979219],[-120.51847000013998,47.007591000179346],[-120.5184719997898,47.00778300019992],[-120.5184719997898,47.00781600003828],[-120.51847599998777,47.00801900017302],[-120.51849100005639,47.008665000117915],[-120.51849199988128,47.009278999743586],[-120.51849100005639,47.009306000026],[-120.51849100005639,47.009446999849935],[-120.51849100005639,47.009735000027874],[-120.51849000023148,47.0100939999427],[-120.51849000023148,47.01012299973491],[-120.51849899955398,47.01057000028576],[-120.51851500034583,47.01087899972523],[-120.51851699999564,47.011286000074676],[-120.51851899964548,47.0116749997778],[-120.5185220000185,47.01181900017912],[-120.51852799986631,47.01227399998872],[-120.51853000041443,47.01242499973117],[-120.5185270000414,47.012763999877436],[-120.5185270000414,47.01286599993397],[-120.51852899969123,47.01300599994649],[-120.51852399966833,47.01314600020458],[-120.51853700008715,47.0132720002455],[-120.51854299993491,47.0137830000522],[-120.51854700013288,47.014122999732884],[-120.51870899961627,47.014122000153094],[-120.51919800023612,47.014122000153094],[-120.51936200026765,47.014122000153094],[-120.51963099988117,47.01411500003186],[-120.5197039996761,47.01411399983946],[-120.52073300007112,47.014107999909704],[-120.52159800043461,47.01410300017184],[-120.52162900039674,47.01410300017184],[-120.52169899981864,47.01410300017184],[-120.5206390003598,47.015468000029195],[-120.51906599999165,47.01749200026611],[-120.51893899977004,47.01765500024279],[-120.51981900020213,47.017742000116826],[-120.52216900017194,47.01795599998527],[-120.52280299965841,47.01817400007409],[-120.52290399994078,47.01820799973239],[-120.52295400016946,47.018224999859626],[-120.52310700033034,47.01827799982535],[-120.52325499957004,47.01832900012401],[-120.52331200036976,47.0183489999396],[-120.52448800017957,47.01876399993514],[-120.5254270001629,47.01907100014802],[-120.525638999875,47.01914000023617],[-120.52840899996937,47.020047000206],[-120.52916200017987,47.020233000301374],[-120.52916200017987,47.02071299996394],[-120.52916200017987,47.02121899992193],[-120.52909400040778,47.02121300017806],[-120.52898399990463,47.02119000003089],[-120.52878999973586,47.021123000264595],[-120.52864499997091,47.021076999882816],[-120.52858999971933,47.02106000005121],[-120.52703099959487,47.02051800027699],[-120.52579299986078,47.02010700014949],[-120.52558500034667,47.02002400016891],[-120.52437799967639,47.01962800002738],[-120.52390200037364,47.01947199998175],[-120.52386800003846,47.02521399986711],[-120.52386600038864,47.02547200014078],[-120.52484899985458,47.025442000130276],[-120.52707999999866,47.025374000207414],[-120.52915600033208,47.02531200009421],[-120.529157000157,47.02508899982253],[-120.52916200017987,47.0232100000721],[-120.52923900017274,47.0232100000721],[-120.53043800044709,47.023200999873076],[-120.53043800044709,47.02324999971346],[-120.53043800044709,47.02335399998809],[-120.53043800044709,47.023920999976994],[-120.53171999966379,47.02389699976258],[-120.53171999966379,47.02325299977722],[-120.53171999966379,47.023189000217734],[-120.53171800001395,47.021722999883806],[-120.53171700018905,47.021476999906284],[-120.53171800001395,47.021237999820876],[-120.53178400013618,47.02123899987984],[-120.53202699981044,47.0212420000566],[-120.53205500029785,47.02124300011548],[-120.53217599977337,47.02124999991474],[-120.53238099981276,47.02136900003604],[-120.53246600020158,47.02141799972075],[-120.53310200023621,47.02178699997595],[-120.53334400008555,47.02188599980469],[-120.5336579999049,47.02194400003972],[-120.5339469996099,47.02195199979266],[-120.53429499976448,47.02196200024767],[-120.5344599996209,47.0220229999206],[-120.53445899979599,47.02368899990159],[-120.53445899979599,47.02502699999063],[-120.53506399986848,47.025016000121575],[-120.53626300014284,47.024992999775705],[-120.5377190003351,47.024967000065],[-120.53971500030256,47.024950000247344],[-120.53971500030256,47.024815000278245],[-120.53971500030256,47.02456399986821],[-120.53971600012748,47.02445700011777],[-120.53971699995238,47.02422899993417],[-120.53971699995238,47.02419999984099],[-120.53971699995238,47.02416599971173],[-120.53971699995238,47.024138000201354],[-120.53971699995238,47.024113000079346],[-120.53971699995238,47.02408399992319],[-120.54025900027568,47.02416199969509],[-120.54075899986788,47.02423499995144],[-120.54109399960363,47.02450700002784],[-120.54173899985908,47.024927999862854],[-120.54194499972341,47.02506300015857],[-120.54289600030063,47.025612000170845],[-120.54398599989672,47.02624099977751],[-120.54489300009298,47.02651999976331],[-120.54523299985162,47.02656299986405],[-120.54545799998253,47.02666899972242],[-120.54566499967176,47.026801999992145],[-120.54615199974347,47.027112999706986],[-120.54630999992722,47.02726600024452],[-120.54655799962434,47.02733300026184],[-120.54662399974659,47.02733999987494],[-120.54702999962744,47.02742899977442],[-120.54751500004934,47.027533999809066],[-120.54773099995941,47.02759699973073],[-120.54825300019124,47.02794299984091],[-120.54943599967372,47.02832300011019],[-120.54965099975888,47.02836400013224],[-120.54989500015635,47.02855899994044],[-120.5499550004308,47.02860599991956],[-120.55026000002933,47.0288489997507],[-120.5503239996034,47.0288999997487],[-120.55044400015234,47.02899400028963],[-120.55046900026672,47.02901600022296],[-120.5504680004418,47.02896499972347],[-120.55046500006874,47.02870699979978],[-120.55046300041892,47.028604999998606],[-120.55046199969568,47.028489999778856],[-120.55045900022095,47.02828000020258],[-120.55039999977141,47.02293400001491],[-120.55131799983835,47.022938000123546],[-120.55132600023427,47.02331699987242],[-120.55143500001422,47.024819000245905],[-120.55146799962618,47.025333999708025],[-120.55149399956544,47.02576999998248],[-120.55414599965903,47.025758000292235],[-120.55415300023003,47.02642800030003],[-120.55908699962299,47.026404999950195],[-120.55908599979807,47.02624199974275],[-120.5572909996721,47.02624900011128],[-120.5572200004253,47.022959000076646],[-120.55583600020303,47.02296500023669],[-120.55584000040099,47.02326900011441],[-120.55356599970088,47.02327899971033],[-120.55355099963225,47.021365999866404],[-120.55354899998247,47.02117899998363],[-120.5546999996779,47.02118799991112],[-120.55551099961471,47.02119400027021],[-120.55567800001927,47.02119300021041],[-120.5562060000989,47.02118899997102],[-120.5570660004395,47.021184000283725],[-120.55730699956561,47.02118300022373],[-120.5574379999852,47.02118200016377],[-120.55745399987869,47.02118200016377],[-120.55744999968074,47.02100899991151],[-120.55741299987082,47.01939600028123],[-120.55740600019814,47.019086999901276],[-120.55740600019814,47.018951999804216],[-120.55739500032747,47.016345000292844],[-120.55739199995443,47.01545599986078],[-120.55736699984008,47.015451000249165],[-120.55733300040322,47.01551000029129],[-120.55708800018083,47.015932000187064],[-120.55690800025576,47.016252000291125],[-120.55637699980309,47.01627600026756],[-120.55564000038446,47.01629200024586],[-120.55563500036159,47.015764999817186],[-120.55563399963835,47.01565700002976],[-120.55562199994277,47.01467800002819],[-120.55559500017861,47.01412500011731],[-120.55559500017861,47.01406599976992],[-120.55559500017861,47.01399800005687],[-120.55559500017861,47.01394200015612],[-120.55557900028508,47.01392300011083],[-120.55554599977482,47.01391000001146],[-120.55525399969677,47.01391100020766],[-120.55463500027888,47.01391100020766],[-120.55299499996357,47.013914000183696],[-120.55299199959053,47.013778000283914],[-120.55297700042024,47.01347600006068],[-120.55324100001086,47.01347000005924],[-120.55373899995324,47.013459000258976],[-120.55373999977813,47.0134890002657],[-120.55393899996979,47.01348699985745],[-120.55414300018427,47.01348500006162],[-120.55438900023158,47.013482000061494],[-120.55555900019361,47.01345500005265],[-120.55559799965334,47.01347600006068],[-120.55568499969199,47.01352100005014],[-120.55578500014941,47.01357300019487],[-120.5558269999822,47.013594999746125],[-120.55602699999875,47.013738999870455],[-120.55606299998375,47.013768999719886],[-120.55615000002238,47.013842000099764],[-120.55623200003814,47.01391100020766],[-120.55633699962014,47.01391100020766],[-120.55641000031338,47.013993999890914],[-120.56089199979476,47.01399200011403],[-120.56090100001558,47.015841999946296],[-120.56116200013149,47.01589899985099],[-120.56140800017877,47.01599899973023],[-120.56142599972212,47.016006000216976],[-120.56164400018032,47.016112999756125],[-120.56192700003754,47.016285999948295],[-120.56206199975676,47.016403999959685],[-120.56231600019997,47.01670399987323],[-120.56243500002566,47.0168539998104],[-120.56260300025515,47.01709400005837],[-120.56272499955558,47.01726899978881],[-120.56285599997514,47.0175229999731],[-120.56969099979932,47.017568999742196],[-120.56974600005091,47.01745999979894],[-120.57038999958317,47.01780499995827],[-120.57062099956184,47.017913999809714],[-120.57131400039619,47.018244000211624],[-120.57154600019977,47.01835500000535],[-120.57154399965164,47.018158000047286],[-120.57154399965164,47.01811600003062],[-120.57155000039775,47.01796200009514],[-120.57156600029126,47.01780899983875],[-120.57159499970528,47.017658000008495],[-120.5716180001698,47.01757300025282],[-120.57167000004834,47.017384000296836],[-120.57184699960035,47.016827999810644],[-120.572045999792,47.0162070001531],[-120.57214299987635,47.01594400024856],[-120.5722020003259,47.015820000095744],[-120.5723370000451,47.01558499984595],[-120.57249000020597,47.01538100012499],[-120.57259599961287,47.0152679999321],[-120.57265300041259,47.01520900023508],[-120.57281099969802,47.01506000013901],[-120.57301499991254,47.01486099991718],[-120.5732810000513,47.015099000200216],[-120.57361800033522,47.01541999995172],[-120.57404799960719,47.015816000066216],[-120.57430799989821,47.016054999923774],[-120.57533899994306,47.01699600005681],[-120.57598099982546,47.01758200017574],[-120.57792099971643,47.01940200022929],[-120.57803500041756,47.01933799972786],[-120.58148300037932,47.017569999869885],[-120.58197600029882,47.01756200007282],[-120.58206800036034,47.01755999981713],[-120.58208900027672,47.01755999981713],[-120.58208799955352,47.01688899983723],[-120.5824390000811,47.016784999830406],[-120.58252299974669,47.016595000001594],[-120.58262599967884,47.01636400008884],[-120.58260999978535,47.016045999743525],[-120.58247099986815,47.01591099991987],[-120.58201999978147,47.01547699969443],[-120.58202999982717,47.01528499977044],[-120.58203599967496,47.015159999751994],[-120.58204700044394,47.014811000160414],[-120.58205099974359,47.014672999731246],[-120.58206199961425,47.01429900020167],[-120.5822010004297,47.014394000304144],[-120.58331199994221,47.01515699984591],[-120.58497900002168,47.016317999894135],[-120.58590100028658,47.01693400001293],[-120.590458000111,47.02006100011718],[-120.59058100013463,47.019798000209754],[-120.59063399983812,47.01958000001478],[-120.59068800026478,47.019364999824376],[-120.59109699962036,47.017694000246095],[-120.59112699975759,47.017694000246095],[-120.5923799995603,47.01769900026016],[-120.59258200012496,47.017700999898175],[-120.5926130000871,47.01761899997889],[-120.59266300031584,47.01748499997417],[-120.59281499975349,47.017173999901324],[-120.59298299998296,47.01683400004732],[-120.59350000019192,47.01587899973017],[-120.59361599964454,47.01566500011223],[-120.59373000034569,47.015447999746996],[-120.59378499969895,47.01534299982664],[-120.5938729995625,47.01516900008157],[-120.59410199989136,47.01471699975589],[-120.59411699995998,47.01467800002819],[-120.59417600040953,47.014496999882574],[-120.59422099971704,47.014299999778096],[-120.59422400009008,47.014287999959656],[-120.59425199967919,47.01407700005762],[-120.59425500005224,47.01398900014238],[-120.59453899973437,47.01400999994043],[-120.5946059996815,47.013768999719886],[-120.59462300029824,47.0137070002167],[-120.59463199962077,47.01367499993122],[-120.59463800036688,47.01364800001995],[-120.5946540002604,47.01357999977464],[-120.59466000010819,47.013552999815396],[-120.59467299962867,47.013483999857435],[-120.59479999985027,47.01292400016742],[-120.59481599974379,47.012524999990866],[-120.59468600004746,47.01204500022178],[-120.59444599984795,47.011430999929956],[-120.59451399962,47.011128000274205],[-120.59478800015471,47.010201999955086],[-120.5949709995545,47.00906399972995],[-120.59497200027775,47.0089870002411]],[[-120.57145599978811,46.99946899971436],[-120.57145199959014,46.99976099978398],[-120.57144400009253,47.00039300018508],[-120.57043099959104,47.00038900022547],[-120.57042899994121,47.000131999893206],[-120.5701329996652,47.00013100005161],[-120.57013000019046,46.99945899994806],[-120.57026800028274,46.99945800009387],[-120.57145599978811,46.99946899971436]],[[-120.56744899978457,47.00304799999149],[-120.56744899978457,47.00309699994774],[-120.56736099992102,47.00309999991863],[-120.56711099967576,47.00310899983019],[-120.56679299965846,47.00311000022868],[-120.5666830000536,47.003036000095335],[-120.56635599981544,47.00281400030563],[-120.56624700003549,47.002739999762284],[-120.56612400001185,47.00265699974288],[-120.56611599961596,47.00172400030018],[-120.56611399996612,47.00131300010171],[-120.56610999976817,47.00085199984497],[-120.56610700029343,47.00041299997885],[-120.56610399992037,46.99997400018144],[-120.56609999972241,46.99953300013475],[-120.56609300004972,46.99945999980228],[-120.56612800020983,46.99945999980228],[-120.56623600016484,46.99945999980228],[-120.56627200014987,46.99945999980228],[-120.56654199958831,46.99945999980228],[-120.56732199956296,46.9994610002691],[-120.56735400024834,46.9994610002691],[-120.56742700004327,46.9994610002691],[-120.56742299984532,46.999650999789836],[-120.56742799986819,47.0002880000731],[-120.56743799991392,47.00155100010855],[-120.56744899978457,47.00304799999149]],[[-120.56601799970666,46.9961899998189],[-120.56605399969166,46.99692400005012],[-120.56534599968698,46.99693500019228],[-120.56535400008293,46.99704100005348],[-120.5649289999355,46.99704799996175],[-120.56393200022582,46.99707700009722],[-120.5638889996698,46.997077999995966],[-120.56371999961539,46.9970820002035],[-120.56356499980473,46.99708599979804],[-120.56270199998937,46.997106000216945],[-120.56249500030012,46.99711099970782],[-120.56231600019997,46.99711400001483],[-120.56214899979538,46.99711300011671],[-120.56201400007619,46.997115999810916],[-120.56200200038063,46.99699100015668],[-120.5619999998325,46.99695599995603],[-120.56195200015192,46.99633199986557],[-120.56194799995394,46.99627900017708],[-120.56194499958089,46.9962300000946],[-120.56206799960454,46.99622900017998],[-120.5623549996597,46.996224999908584],[-120.5632190001983,46.99621699997766],[-120.56350700007837,46.99621400023298],[-120.56398499992927,46.99620900004548],[-120.56541900038025,46.99619500000818],[-120.56583100010891,46.99619099973425],[-120.56601799970666,46.9961899998189]],[[-120.56041200029404,46.99180799988269],[-120.56041300011894,46.99183599980136],[-120.55997200007798,46.99183499980453],[-120.55981200024439,46.99183499980453],[-120.55965200041085,46.991833999807675],[-120.55925099965451,46.9918329998108],[-120.55859100022877,46.991831999813876],[-120.55732800038032,46.991827999826086],[-120.55595000000585,46.99182499983508],[-120.55606600035681,46.991660000068954],[-120.5561719997637,46.99151799986244],[-120.55657699981965,46.991145999983495],[-120.55672199958461,46.99100400024951],[-120.55695000008855,46.9907029999587],[-120.55716099997575,46.99050100022374],[-120.55724999966421,46.99037499977793],[-120.55726700028094,46.990347999731284],[-120.55737000021311,46.990172000000896],[-120.55739799980222,46.990123999862405],[-120.55742700011453,46.990083999918326],[-120.55748900003883,46.98982899972437],[-120.55748599966574,46.98955399997796],[-120.55743200013738,46.98884100012661],[-120.5574120000459,46.98820999980712],[-120.55737900043395,46.98816900020355],[-120.55762700013108,46.98817099972163],[-120.55801100027062,46.98817299985239],[-120.56020600042972,46.98818199982716],[-120.56037299993596,46.991118999713585],[-120.56041200029404,46.99180799988269]],[[-120.55178700036673,47.00782699977566],[-120.55187000020739,47.00787800025482],[-120.55123199962463,47.00789400029899],[-120.55073200003244,47.00790599971646],[-120.5504680004418,47.00791300003898],[-120.55035399974065,47.00791599973937],[-120.55035200009084,47.0081219997955],[-120.55014600022653,47.00812500009672],[-120.5492099997179,47.00813300008243],[-120.54920700024317,47.007685000262924],[-120.54927099981728,47.00768300024985],[-120.54942399997813,47.00768300024985],[-120.5500049997612,47.00766399981548],[-120.5501439996784,47.00766799984299],[-120.55035499956557,47.007673000183274],[-120.55034899971778,47.007026999879685],[-120.55178700036673,47.00782699977566]],[[-120.55033100017444,47.00989200000256],[-120.55034000039528,47.010134999876676],[-120.54997999964687,47.01013100003392],[-120.54941499975732,47.01012599992373],[-120.5491670000602,47.01012400000205],[-120.54896600021875,47.01012500026918],[-120.54896399967063,47.009884000280294],[-120.54896000037097,47.00975800020908],[-120.54892199983783,47.009758999870506],[-120.548623999912,47.00976000014446],[-120.5479419998466,47.009760999805856],[-120.54764200027095,47.009762000079775],[-120.5475400001637,47.009762000079775],[-120.5474420002544,47.00976299974113],[-120.54740000042162,47.00972400007086],[-120.54734099997206,47.00967700000631],[-120.54736100006356,47.00949400011683],[-120.54735500021575,47.009205000192686],[-120.54735199984272,47.00903199972515],[-120.54739100020078,47.00903199972515],[-120.54744700027729,47.009031000050115],[-120.54835899959811,47.0090230001989],[-120.54914399959567,47.00903199972515],[-120.55010699986845,47.00898900020536],[-120.5503289996263,47.00897899977073],[-120.55033399964917,47.009138999761795],[-120.55033100017444,47.00989200000256]],[[-120.53975499958722,47.01431800011318],[-120.53975499958722,47.01433899978186],[-120.53975499958722,47.01437700018217],[-120.53975499958722,47.01441000023386],[-120.5397539997623,47.014505999711446],[-120.53975299993738,47.01479800027721],[-120.53975299993738,47.01489499984758],[-120.53974999956435,47.01555700012251],[-120.53974500043977,47.017186000296135],[-120.53974500043977,47.017268000267954],[-120.53974500043977,47.01728900000149],[-120.53974399971656,47.01754699999074],[-120.53974200006672,47.0182099999638],[-120.53974100024182,47.0183489999396],[-120.5397389996937,47.01876600014572],[-120.5397389996937,47.018906000001664],[-120.5397389996937,47.01891800000722],[-120.5397389996937,47.018954000007746],[-120.5397389996937,47.018967000104034],[-120.53974100024182,47.01926299993258],[-120.5397460002647,47.01972299983576],[-120.53974100024182,47.0201520000629],[-120.5397389996937,47.02044900013235],[-120.53973700004386,47.02060799998546],[-120.53973500039403,47.02077299977141],[-120.53960700034753,47.02077299977141],[-120.53870299962598,47.02077299977141],[-120.53844999990596,47.020774999906735],[-120.53844999990596,47.020760000114855],[-120.53845499992886,47.020586000261225],[-120.53845300027902,47.02020700010969],[-120.5384519995558,47.020046000124715],[-120.53844999990596,47.01973500027013],[-120.53715100007253,47.01975999999262],[-120.53713000015614,47.02111100014219],[-120.537127999608,47.02119100009075],[-120.537127999608,47.021247999797204],[-120.53724700033199,47.021246999738416],[-120.53734799971602,47.021246000292024],[-120.53768099980196,47.021246000292024],[-120.53782599956692,47.021246000292024],[-120.53794799976566,47.0212450002332],[-120.5379660002073,47.02187199975964],[-120.5379100001308,47.02187199975964],[-120.53713900037698,47.02187499990083],[-120.53713699982882,47.02190099989263],[-120.53711500008752,47.0221440002402],[-120.53712500013324,47.02240300007841],[-120.53716299976811,47.02342200003459],[-120.53716500031624,47.02346500018135],[-120.53716699996606,47.023517999844664],[-120.53708800032334,47.02349900014473],[-120.5369600002768,47.02346700021582],[-120.53656000024375,47.0233419997548],[-120.53648900009864,47.023305000243155],[-120.53636299970192,47.02323900009064],[-120.53535000009876,47.02258299972481],[-120.53482100019423,47.022240999939015],[-120.53456099990323,47.022073000273174],[-120.53454500000971,47.0219409999024],[-120.53452599974315,47.02178599992725],[-120.5344599996209,47.02125300009088],[-120.53445600032126,47.021219999981234],[-120.53444100025264,47.021093999709],[-120.53444200007756,47.01906299996338],[-120.53444299990247,47.017685999855146],[-120.53444399972736,47.016176000294585],[-120.53455000003258,47.014100999786585],[-120.53455300040562,47.01399500008555],[-120.53518500024231,47.01398999972461],[-120.53714699987455,47.01399600028017],[-120.53741100036352,47.01399600028017],[-120.5384299998145,47.01399600028017],[-120.53876999957312,47.01399600028017],[-120.53887800042646,47.01399600028017],[-120.53887900025137,47.01407299989758],[-120.53887900025137,47.01412599969701],[-120.53888099990121,47.01424899991865],[-120.5388819997261,47.01432100006635],[-120.53975499958722,47.01431800011318]],[[-120.52099500001194,47.00237299980818],[-120.52101000008057,47.00320899976658],[-120.52094300013343,47.00320899976658],[-120.52091299999618,47.00320899976658],[-120.52072200020046,47.003210999947164],[-120.52065299970516,47.003210999947164],[-120.5204569998866,47.003210999947164],[-120.51998999990636,47.003213999911615],[-120.5198739995554,47.00321499969556],[-120.51966400039144,47.00321699987592],[-120.51958099965246,47.00321800027239],[-120.5195120000555,47.00321900005621],[-120.51939999990248,47.00321999984002],[-120.51934399982599,47.00321999984002],[-120.51917700031971,47.00322200002021],[-120.51914600035758,47.003222999804],[-120.5189139996557,47.003224000200355],[-120.51852799986631,47.003224000200355],[-120.51841400006347,47.003224000200355],[-120.51840800021569,47.00303099993364],[-120.51840099964468,47.002768999871535],[-120.51840300019285,47.00235699994815],[-120.51840300019285,47.00228200019572],[-120.51840200036793,47.00223399990679],[-120.51922599982522,47.00223200030225],[-120.52071600035268,47.002224000045395],[-120.52099599983686,47.00222199982786],[-120.52099500001194,47.00237299980818]],[[-120.5184359998048,47.00536500028704],[-120.51844099982766,47.00550100016979],[-120.51826199972751,47.00550199991089],[-120.51640499967725,47.00551199977134],[-120.51494900038328,47.005518999795],[-120.51475299966637,47.00551199977134],[-120.51474299962065,47.0050190002585],[-120.51473799959777,47.0048270001044],[-120.51473799959777,47.00480900024601],[-120.51474299962065,47.00444199980284],[-120.51475000019164,47.00382499978009],[-120.51475299966637,47.00350700012103],[-120.51489400013169,47.00350200000337],[-120.51515900044556,47.003493000158024],[-120.51544800015056,47.003493000158024],[-120.51548400013556,47.00349600010667],[-120.51548400013556,47.00361499997479],[-120.51548400013556,47.00419000002992],[-120.51628400020175,47.00420099990142],[-120.51629099987443,47.003909000206235],[-120.5162880003997,47.003565999881026],[-120.51658200012756,47.003568999825525],[-120.51831600015419,47.003589000268164],[-120.51842300028432,47.00358799987864],[-120.51842599975906,47.00416699990154],[-120.51842699958398,47.004203000044875],[-120.51842999995701,47.00444399993728],[-120.51843099978193,47.00447900013376],[-120.51843099978193,47.004639999884425],[-120.51843099978193,47.004722999885956],[-120.51843199960682,47.00481999999001],[-120.51827299959818,47.00481999999001],[-120.51727400023869,47.00481799986966],[-120.51694299980258,47.004817000115764],[-120.51694299980258,47.00482799985811],[-120.51694299980258,47.004951000053126],[-120.51694299980258,47.005212000081606],[-120.51843400015498,47.00520799987018],[-120.5184359998048,47.00536500028704]]]},"properties":{"AREALAND":"22874907","AREAWATER":"278246","BASENAME":"Ellensburg","CBSAPCI":"Y","CENTLAT":"+47.0001012","CENTLON":"-120.5497252","FUNCSTAT":"A","GEOID":"5321240","INTPTLAT":"+47.0001242","INTPTLON":"-120.5495399","LSADC":"25","MTFCC":"G4110","NAME":"Ellensburg city","NECTAPCI":"N","OBJECTID":27899,"OID":"27890897692101","PLACE":"21240","PLACECC":"C1","PLACENS":"02410430","STATE":"53","DISP_CLR":1,"slug":"ellensburg","jurisdiction_key":"ellensburg_city","county_fips":["53037"]}}]}
