{"type":"FeatureCollection","features":[{"type":"Feature","geometry":{"type":"Polygon","coordinates":[[[-117.69295000037545,46.9329799999535],[-117.69309000011751,46.93284000008032],[-117.69281999978075,46.932719999810075],[-117.69257999958127,46.93259999988438],[-117.69196000033848,46.93229000005862],[-117.69157000035113,46.932070000063355],[-117.69132000010589,46.931920000133935],[-117.69088599973762,46.93162200003385],[-117.69083999970685,46.931590000282704],[-117.69041000043484,46.931319999895805],[-117.68999000031029,46.93108000024952],[-117.68962999956186,46.930900000269126],[-117.68941000035217,46.93080999974533],[-117.68905999964949,46.930700000194804],[-117.68922000038135,46.930689999834094],[-117.68934000003198,46.930689999834094],[-117.68947999977404,46.930700000194804],[-117.6899700002188,46.9307599998661],[-117.69024999970296,46.93077999994609],[-117.69054000013122,46.9307599998661],[-117.69161399983375,46.93082299981669],[-117.69180600035268,46.93065499978378],[-117.69213299969252,46.93035099987447],[-117.69056000022269,46.929775999958885],[-117.68988300018017,46.928516000271046],[-117.68958199988128,46.92796200015706],[-117.6895700001857,46.92794200025176],[-117.69004600038679,46.92765399980576],[-117.69214799976113,46.92637999997941],[-117.69235799982343,46.92625199998888],[-117.69109400015007,46.925242999712886],[-117.69105700034015,46.92521599991018],[-117.69134100002225,46.925065999804055],[-117.69160499961293,46.924928000145265],[-117.69111199969342,46.924553000143874],[-117.6915050000538,46.924346000073875],[-117.69174899955297,46.92456299980983],[-117.69195199994256,46.92445499975993],[-117.69167099973517,46.924205999718325],[-117.69107200040877,46.924522999907616],[-117.69088800028575,46.924383000014686],[-117.69056600007046,46.924141999924785],[-117.690513000367,46.924098000175725],[-117.6897300000193,46.92344599999365],[-117.69090599982908,46.92278100028635],[-117.69063200019272,46.9225789998294],[-117.69005899990727,46.92211099993254],[-117.68916699977959,46.92142599972239],[-117.68906999969522,46.92149000030639],[-117.68886999967867,46.92162999978355],[-117.68870999984509,46.92176100001478],[-117.6885900001945,46.92185999988332],[-117.68833999994925,46.9220499997012],[-117.68822899962116,46.922149999722194],[-117.68811999984123,46.922250000170074],[-117.6880699996125,46.92227999983857],[-117.68782000026557,46.92247000000756],[-117.68693999983346,46.92307999993519],[-117.68536999983837,46.92415999995114],[-117.68509799985179,46.92432700007775],[-117.68497999985102,46.92439999992915],[-117.68456999977221,46.92464999970876],[-117.68445000012159,46.924720000272366],[-117.68430000033376,46.92482000021765],[-117.68426000015079,46.92487000012033],[-117.68424000005932,46.924919999976325],[-117.68426000015079,46.92499000018711],[-117.68448000025883,46.92520999981583],[-117.68432000042527,46.925449999997845],[-117.68418700035586,46.92563399992044],[-117.68404300041583,46.92583299988884],[-117.68373000042138,46.9257770002407],[-117.68359300015403,46.925752000104964],[-117.6834020003583,46.925601000264216],[-117.68293299982996,46.925307000031644],[-117.68259600044438,46.92512300021289],[-117.68230500019122,46.92497799994713],[-117.68184400005877,46.92476800022032],[-117.681353999614,46.924575000142774],[-117.68072299960227,46.92437200028365],[-117.67960799989181,46.924044000015996],[-117.6794790000204,46.92400599980283],[-117.67942600031694,46.92404299997847],[-117.67923799999595,46.924141999924785],[-117.68123800016139,46.9258009997465],[-117.68126900012352,46.92582499985505],[-117.68037199997298,46.92633800021753],[-117.67968599970962,46.92672899979445],[-117.67999100020646,46.926983000292125],[-117.6801900003981,46.92714800024784],[-117.68173500027885,46.92627599989536],[-117.68222099962735,46.926679999774784],[-117.68180899989869,46.9269319999241],[-117.68220700028193,46.927251999865874],[-117.68221499977956,46.92770500009981],[-117.68222300017548,46.92834799974997],[-117.68154199993499,46.928076000272235],[-117.68123800016139,46.927952999863216],[-117.6812540000549,46.92910999975046],[-117.6812680002986,46.93015200012745],[-117.6812730003215,46.93067599981671],[-117.68177999958634,46.9306710002478],[-117.68177899976145,46.93084800003947],[-117.68177999958634,46.93095199983481],[-117.68205099974803,46.93095099992625],[-117.68225900016049,46.93094599976957],[-117.68228000007686,46.93163900010477],[-117.6822819997267,46.93169100017983],[-117.68358200028337,46.931679000214196],[-117.68377300007907,46.93167799970572],[-117.68377800010194,46.931809999796045],[-117.68378899997259,46.932672000240096],[-117.68379399999549,46.9331100001653],[-117.68556700038017,46.93309100021065],[-117.68575399997792,46.93308999972859],[-117.68575700035095,46.933587000239875],[-117.68575900000079,46.933903000266994],[-117.68728399979004,46.93389200003725],[-117.68771300013543,46.93388700015514],[-117.68772999985386,46.93385999980221],[-117.6878000001741,46.933709999978994],[-117.68782000026557,46.93357999999689],[-117.68782600011333,46.9335140000267],[-117.68784399965668,46.93331600024163],[-117.68785000040282,46.9332499999461],[-117.68824000039014,46.9332499999461],[-117.68885999963291,46.93326999970968],[-117.6889199999074,46.93326999970968],[-117.68917199980247,46.93326999970968],[-117.69038000029764,46.93326999970968],[-117.6911800003638,46.93328000020207],[-117.69194000024699,46.93328000020207],[-117.6921319998676,46.93325400002212],[-117.69231000014285,46.933230000175094],[-117.69272000022167,46.93312000007415],[-117.69283999987226,46.93305000005957],[-117.69295000037545,46.9329799999535]]]},"properties":{"AREALAND":"768051","AREAWATER":"0","BASENAME":"Endicott","CBSAPCI":"N","CENTLAT":"+46.9282315","CENTLON":"-117.6866851","FUNCSTAT":"A","GEOID":"5321730","INTPTLAT":"+46.9282315","INTPTLON":"-117.6866851","LSADC":"43","MTFCC":"G4110","NAME":"Endicott town","NECTAPCI":"N","OBJECTID":4042,"OID":"27890256943247","PLACE":"21730","PLACECC":"C1","PLACENS":"02412488","STATE":"53","DISP_CLR":3,"slug":"endicott","jurisdiction_key":"endicott_city","county_fips":["53075"]}}]}
