{"type":"FeatureCollection","features":[{"type":"Feature","geometry":{"type":"Polygon","coordinates":[[[-119.07134600009262,47.9130110001036],[-119.07137100020697,47.910016000210554],[-119.06590800001116,47.91009399989783],[-119.06590899983607,47.90992400007321],[-119.06595900006478,47.90361300025758],[-119.06596400008765,47.902863000044974],[-119.06596499991257,47.902753999704714],[-119.0607369998934,47.902811000027285],[-119.05720100006809,47.90284999989491],[-119.05704999955702,47.90285100018454],[-119.05703200001368,47.90352500008231],[-119.05702399961775,47.90383199977057],[-119.05702199996792,47.904085999840945],[-119.05683199999714,47.90435099972623],[-119.05638799958314,47.90497099981609],[-119.05618799956659,47.90524900014121],[-119.0559830004255,47.90553500027358],[-119.05579500010451,47.90579800010381],[-119.05537699962974,47.90637999975382],[-119.05524600010853,47.90648000011918],[-119.05524199991055,47.90659399972194],[-119.05509399977257,47.91050199972755],[-119.05503199984827,47.91213100026841],[-119.0528939995906,47.91214999995146],[-119.04960499963748,47.91217699990108],[-119.03904800021513,47.912269000248024],[-119.03876199998487,47.91227099986104],[-119.03871099993124,47.91329800018204],[-119.03865300020495,47.91433399999756],[-119.03862499971753,47.914865000100306],[-119.03846300023412,47.91791899984965],[-119.03846300023412,47.917951999786254],[-119.03845800021128,47.91969500023689],[-119.03844999981533,47.92257700003042],[-119.03659299976506,47.92212900001348],[-119.03642399971065,47.92214900015611],[-119.03542299980303,47.92226799973111],[-119.03522799980938,47.922292000077626],[-119.03434699955234,47.92245500023019],[-119.0342179996809,47.92281800026071],[-119.03399099990021,47.92312499988712],[-119.03371800008874,47.92333399977086],[-119.03360599993576,47.92337600010643],[-119.03352300009507,47.923509000141486],[-119.03340900029225,47.92361900000265],[-119.03331100038295,47.92363500001768],[-119.03312600043502,47.92353999974294],[-119.0330340003735,47.92346000007333],[-119.03300900025917,47.92334999987405],[-119.03300500006122,47.92313599996545],[-119.03298499996971,47.92211599988651],[-119.03293700028915,47.92154599995314],[-119.03286600014403,47.92129200008488],[-119.03282299958799,47.92113500009961],[-119.03266500030259,47.920838000124164],[-119.03263500016534,47.92075100028279],[-119.03257800026395,47.92044399981177],[-119.0324970000731,47.920241000013625],[-119.03242400027816,47.92012000007828],[-119.03241599988223,47.919867999752285],[-119.03242400027816,47.919692999706676],[-119.03239099976786,47.91952300011046],[-119.03233899988933,47.9194129999678],[-119.03228500036099,47.91929799973278],[-119.03226899956914,47.91921600017863],[-119.03227699996506,47.919061999842434],[-119.03243299960067,47.918481000111576],[-119.0325389999059,47.918178999984065],[-119.03260400020321,47.91796599975303],[-119.03230999957704,47.91796699975048],[-119.02813799971707,47.91798299970755],[-119.02813299969421,47.918328999976666],[-119.0281200001737,47.91933000002276],[-119.0281200001737,47.91935499989693],[-119.02804300018083,47.925351999996074],[-119.02783499976837,47.925351999996074],[-119.02780800000419,47.927153000153915],[-119.02788599982198,47.927290999796945],[-119.0278580002329,47.927331000296356],[-119.02783999979124,47.927455000263485],[-119.0278370003165,47.927592999702625],[-119.02782899992057,47.92809500010474],[-119.0278370003165,47.928751999878756],[-119.0278509996619,47.92881699996705],[-119.02786200043084,47.92884599982268],[-119.02787400012642,47.92887699983717],[-119.02794100007355,47.928938999810356],[-119.02769099982831,47.928957000157595],[-119.02231300002133,47.92894699989856],[-119.02209499956314,47.92894699989856],[-119.02084900033144,47.92894499972614],[-119.0198049998678,47.92894300015558],[-119.01980800024086,47.929046999993936],[-119.01985900029449,47.93104800016437],[-119.01995499965564,47.931034000126544],[-119.0199389997621,47.931611999913194],[-119.01988000021086,47.931997000085126],[-119.02057899999471,47.931920000039284],[-119.02079200043003,47.931895999946825],[-119.02081400017136,47.93196100029683],[-119.0204719998646,47.93222899985838],[-119.02077700036143,47.93242600004724],[-119.02114899990711,47.93256000000046],[-119.02215700038572,47.93290299994711],[-119.02231600039438,47.93295899985749],[-119.02235999987703,47.9330879999039],[-119.02215700038572,47.9330309998251],[-119.02181400025405,47.93293700026537],[-119.02204500023274,47.93324499972218],[-119.02190700014046,47.93346499993059],[-119.02151999962786,47.934057999742926],[-119.02117700039449,47.93408200003567],[-119.02103199973124,47.93424000013005],[-119.02045400032122,47.93486499979005],[-119.01998399996795,47.935789999987456],[-119.01994399978497,47.935803999941406],[-119.01991199999794,47.93581499973059],[-119.01975700018723,47.9358679999405],[-119.01981099971557,47.93591299988304],[-119.01988699988358,47.93597799999839],[-119.01981400008864,47.936012999748876],[-119.01965699972979,47.93608900007125],[-119.01980900006578,47.93608900007125],[-119.0205870003906,47.936087000175064],[-119.02058099964455,47.93636600029274],[-119.02068100010194,47.93636600029274],[-119.02072999960743,47.93547699994143],[-119.02074200020132,47.935249000153426],[-119.02214499979185,47.93524799988815],[-119.02228500043222,47.93524599995943],[-119.02229200010494,47.93496499987717],[-119.02230299997557,47.93445700007845],[-119.02293399998734,47.93445700007845],[-119.02316400014114,47.934453000159756],[-119.02343199992973,47.93444799996004],[-119.02378799958188,47.93444099979999],[-119.0262890000627,47.934455000119144],[-119.02633300044366,47.93354699976886],[-119.02649800030008,47.93354699976886],[-119.0272890001454,47.933546000072525],[-119.02732099993246,47.93261299993552],[-119.02772900036146,47.93261200022113],[-119.02768199960748,47.934449000240754],[-119.0271970000839,47.934582000090266],[-119.02661399975273,47.93477000028043],[-119.0264220001321,47.93483699997174],[-119.02586800011325,47.9350660000397],[-119.02519299972055,47.9353170000898],[-119.02499100005419,47.93539300023154],[-119.02494099982547,47.93541199979811],[-119.02477099994617,47.935476000282456],[-119.02470599964882,47.93550199983594],[-119.02463200002897,47.93552999989596],[-119.02452800027189,47.935571999957624],[-119.02405000042101,47.935755999739605],[-119.02401100006296,47.93576900004945],[-119.02325100017977,47.93602599999406],[-119.02330899990606,47.93619199973593],[-119.02334900008904,47.93617799988704],[-119.0238799996434,47.93598100014987],[-119.02423600019387,47.93585599990908],[-119.02444299988309,47.93578400026397],[-119.02461399958732,47.93572900005791],[-119.02489999981758,47.935624999814785],[-119.02510400003206,47.93557599978976],[-119.02529999985066,47.93555400010733],[-119.02546200023235,47.93555700028341],[-119.02550400006517,47.9355590002001],[-119.02575699978516,47.93558700022929],[-119.02594599993104,47.93559999997978],[-119.02607499980247,47.93560899989769],[-119.02610800031275,47.93560899989769],[-119.02615000014553,47.93560899989769],[-119.02627599964391,47.93560899989769],[-119.02633799956818,47.935622999900644],[-119.02648300023148,47.93560899989769],[-119.02669800031663,47.93558799988616],[-119.02679399967776,47.935577999705714],[-119.02724200028975,47.935471999840736],[-119.0276620004143,47.93538300001338],[-119.02780299998132,47.9353170000898],[-119.02795299976914,47.93522499980048],[-119.02810299955696,47.935177000264886],[-119.02821600043319,47.93513499988241],[-119.02838100028964,47.93509500000226],[-119.02846699960504,47.93507199984651],[-119.02852500022968,47.93505700002728],[-119.02863599965943,47.935028000043445],[-119.02874399961446,47.93499399989638],[-119.02883800022413,47.93495100029791],[-119.02907000002772,47.93482799991942],[-119.02912199990622,47.93471199997455],[-119.02926099982342,47.9346379999879],[-119.0297739998344,47.93492899974774],[-119.02995100028473,47.934946999815566],[-119.0300330003005,47.9349579997871],[-119.03020400000473,47.934946999815566],[-119.03035899981542,47.934946999815566],[-119.03047799964109,47.93499399989638],[-119.03049799973259,47.93500200025163],[-119.03061200043372,47.93501799975469],[-119.03071500036589,47.93501799975469],[-119.0308159997499,47.93498499987139],[-119.0308579995827,47.93495300023803],[-119.03184299959679,47.934964000208296],[-119.03188399960466,47.93500099998157],[-119.03189600019856,47.935053999822145],[-119.0319349996583,47.93507300011518],[-119.03218900010152,47.935220000277226],[-119.03229899970637,47.935276999748645],[-119.03232600036885,47.935286999987305],[-119.03257800026395,47.93541300006022],[-119.03298199959666,47.935626000072716],[-119.03371300006584,47.93561700015777],[-119.03427799995539,47.93554500017986],[-119.03439500013124,47.935566000208844],[-119.03454800029212,47.935517000127916],[-119.0346090003915,47.93547800020229],[-119.03462799975976,47.93546499981927],[-119.03474800030867,47.93538800012268],[-119.03476000000421,47.9353709998694],[-119.03477000004997,47.93535600013692],[-119.03500900042458,47.93497100029755],[-119.03503299981571,47.93490899973186],[-119.03521000026603,47.93482299975597],[-119.03523899968003,47.93494800008667],[-119.0355530003977,47.93501000000377],[-119.03607599955612,47.9349869998102],[-119.03643299993149,47.935028000043445],[-119.0365819998944,47.93502099996187],[-119.03670699956788,47.9349869998102],[-119.03678899958365,47.934959000057944],[-119.03688700039123,47.93489900002194],[-119.03718399959386,47.934643000169245],[-119.03729300027211,47.9346219997654],[-119.03733000008204,47.93447700026917],[-119.03762499963482,47.93443600020093],[-119.03765300012222,47.93443699988005],[-119.03811500007959,47.934434999919965],[-119.03848800034848,47.93436599974502],[-119.0385460000748,47.934363999782185],[-119.03866400007558,47.93435900017568],[-119.03894100008502,47.93424400006523],[-119.03919499962993,47.934213999942],[-119.03951000017251,47.934194999935194],[-119.03979600040276,47.93418599977117],[-119.03980899992324,47.93423000029075],[-119.03974799982387,47.93435300028615],[-119.03979800005258,47.934421999876584],[-119.04008400028286,47.93440299994624],[-119.0403620001172,47.93437000027231],[-119.04080099961003,47.934446000000385],[-119.04087099993023,47.934475999989004],[-119.04123900017626,47.93449000029873],[-119.04161099972195,47.934440000120944],[-119.04225199977944,47.93426199976968],[-119.04253100033702,47.93427299988694],[-119.04271899975969,47.93424499974805],[-119.04310399972417,47.93426399973646],[-119.04343799963497,47.93409399987693],[-119.04360599986447,47.93410199976956],[-119.0436639995908,47.934187000056944],[-119.04373100043627,47.93438400000887],[-119.04384600006398,47.934520999939274],[-119.04388500042204,47.93454399973827],[-119.04388500042204,47.934434000240806],[-119.04396900008763,47.934434000240806],[-119.04514800027047,47.93442599979768],[-119.04516400016402,47.93525300001055],[-119.04528600036275,47.93525199974535],[-119.04600500023805,47.93524500029599],[-119.04612400006376,47.935244000030636],[-119.04628300007239,47.935267999772904],[-119.0466069999375,47.935265999844965],[-119.04660399956444,47.934986000141755],[-119.04692900015279,47.93498499987139],[-119.0471130002758,47.9349829999325],[-119.04732599981281,47.93498099999354],[-119.04791400016688,47.93497700011537],[-119.04792800041056,47.934630999853525],[-119.04794199975596,47.93430499994112],[-119.04930000003895,47.9343129998011],[-119.04931299955943,47.932541999703545],[-119.04931000008472,47.93240200018966],[-119.04931000008472,47.932391999994884],[-119.05519300040507,47.93235599987972],[-119.05534200036797,47.93235900024135],[-119.05536199956116,47.9323899999557],[-119.0601860002476,47.93234099987447],[-119.06019899976805,47.93081000020922],[-119.06022700025547,47.92730600006308],[-119.06025700039271,47.92368100025913],[-119.06025900004252,47.92340400011054],[-119.06026099969233,47.92313799976052],[-119.06026200041555,47.92307099996137],[-119.06027699958587,47.92282799989879],[-119.06028599980671,47.92169499989036],[-119.06028699963163,47.921547999809675],[-119.06028900017976,47.921231999843826],[-119.06293899972516,47.92119299998095],[-119.06558900016891,47.92115500002452],[-119.0656310000017,47.921154000088684],[-119.0656360000246,47.920980000118405],[-119.06558599979589,47.920798000021506],[-119.06558699962078,47.92071100011285],[-119.06558900016891,47.9202159999656],[-119.06558999999383,47.92013799988259],[-119.06558199959794,47.91989100004792],[-119.06483500013351,47.919865999830755],[-119.06486400044584,47.91917100015514],[-119.06507000031016,47.919196000106155],[-119.06535099961923,47.9192140002319],[-119.06556800025254,47.919219000098536],[-119.06555099963578,47.91872200015869],[-119.06555700038189,47.9185889998568],[-119.06555700038189,47.91800300024895],[-119.06555099963578,47.917823999914575],[-119.06564000022254,47.91752700019651],[-119.0657630002462,47.91470799987761],[-119.06580500007901,47.91390900019146],[-119.06848499976165,47.91387199977823],[-119.06985100044056,47.913850999971295],[-119.07134000024483,47.91383199970858],[-119.07134600009262,47.9130110001036]]]},"properties":{"AREALAND":"5149098","AREAWATER":"1690907","BASENAME":"Electric City","CBSAPCI":"N","CENTLAT":"+47.9217957","CENTLON":"-119.0474617","FUNCSTAT":"A","GEOID":"5321030","INTPTLAT":"+47.9128057","INTPTLON":"-119.0436353","LSADC":"25","MTFCC":"G4110","NAME":"Electric City city","NECTAPCI":"N","OBJECTID":17370,"OID":"27890249576464","PLACE":"21030","PLACECC":"C1","PLACENS":"02412472","STATE":"53","DISP_CLR":1,"slug":"electric_city","jurisdiction_key":"electric_city_city","county_fips":["53025"]}}]}
