{
  "type": "FeatureCollection",
  "features": [
    {
      "type": "Feature",
      "geometry": {
        "type": "Polygon",
        "coordinates": [
          [
            [
              -119.58343200043069,
              47.281007999852314
            ],
            [
              -119.58340700031633,
              47.281007999852314
            ],
            [
              -119.58333100014835,
              47.28100899991056
            ],
            [
              -119.58330699985889,
              47.281009999968745
            ],
            [
              -119.58324599975953,
              47.281009999968745
            ],
            [
              -119.58320300010183,
              47.28101100002691
            ],
            [
              -119.58306599983449,
              47.28101300014316
            ],
            [
              -119.58300700028325,
              47.28101400020127
            ],
            [
              -119.5825319999071,
              47.281016999766074
            ],
            [
              -119.58142899989224,
              47.281026000287724
            ],
            [
              -119.58018699996019,
              47.281047999728116
            ],
            [
              -119.57844000041307,
              47.281073999996806
            ],
            [
              -119.57820400041153,
              47.281075000053754
            ],
            [
              -119.57807499964179,
              47.281076000110694
            ],
            [
              -119.57784500038635,
              47.28108099978567
            ],
            [
              -119.5777869997617,
              47.281161000006016
            ],
            [
              -119.57722699989506,
              47.281172000004
            ],
            [
              -119.5770820001301,
              47.28117300005909
            ],
            [
              -119.57680299957251,
              47.28117799972492
            ],
            [
              -119.56700000018557,
              47.281388999939814
            ],
            [
              -119.56585600016284,
              47.28141399999041
            ],
            [
              -119.56403900029552,
              47.281432000287644
            ],
            [
              -119.56189299964194,
              47.281489000071204
            ],
            [
              -119.56053000023437,
              47.28151899970814
            ],
            [
              -119.55976299978018,
              47.281534999873195
            ],
            [
              -119.55908300026292,
              47.28154499974537
            ],
            [
              -119.55580299963232,
              47.2816080002982
            ],
            [
              -119.55537400018525,
              47.28161800015658
            ],
            [
              -119.55523400044316,
              47.28156800023642
            ],
            [
              -119.55390600029739,
              47.28161199987613
            ],
            [
              -119.55259599969497,
              47.28160500015747
            ],
            [
              -119.54818700000855,
              47.28165399999667
            ],
            [
              -119.54531800018002,
              47.28167000012089
            ],
            [
              -119.54422699986071,
              47.28165800018054
            ],
            [
              -119.54422699986071,
              47.28177399989626
            ],
            [
              -119.54417599980707,
              47.29618000022494
            ],
            [
              -119.54417599980707,
              47.29623199988735
            ],
            [
              -119.53981800017431,
              47.29632999983855
            ],
            [
              -119.53367600028615,
              47.296390999697806
            ],
            [
              -119.53288399971758,
              47.29642199978906
            ],
            [
              -119.53292899992343,
              47.29844699996836
            ],
            [
              -119.53292999974836,
              47.29852900018514
            ],
            [
              -119.5304130002723,
              47.29747500025176
            ],
            [
              -119.53011600017136,
              47.29735200016852
            ],
            [
              -119.52916299994435,
              47.29696000014891
            ],
            [
              -119.52869000011631,
              47.296764999723464
            ],
            [
              -119.52727300028211,
              47.29618199976767
            ],
            [
              -119.52680100027901,
              47.295987999903645
            ],
            [
              -119.52583299998334,
              47.2955889998241
            ],
            [
              -119.5229289999947,
              47.29439300021365
            ],
            [
              -119.52196200042226,
              47.29399500009714
            ],
            [
              -119.52128100018177,
              47.293714000193305
            ],
            [
              -119.51923900018359,
              47.29287100005288
            ],
            [
              -119.51896200017416,
              47.292756999971594
            ],
            [
              -119.51855899976802,
              47.29259100010863
            ],
            [
              -119.5177889998391,
              47.29227400015591
            ],
            [
              -119.51547900005227,
              47.291323999727624
            ],
            [
              -119.51470999994824,
              47.29100799997059
            ],
            [
              -119.51424700016597,
              47.29081700024123
            ],
            [
              -119.51285799992084,
              47.29024499984465
            ],
            [
              -119.51239599996346,
              47.290055000293535
            ],
            [
              -119.51213099964963,
              47.289944999792525
            ],
            [
              -119.51133499978141,
              47.289618000259075
            ],
            [
              -119.51107100019077,
              47.2895099998628
            ],
            [
              -119.50317500018453,
              47.28625799987097
            ],
            [
              -119.50117199964605,
              47.285432999864405
            ],
            [
              -119.5001330001036,
              47.284999999963844
            ],
            [
              -119.49406900003326,
              47.282505000002104
            ],
            [
              -119.49371199965789,
              47.28235800027531
            ],
            [
              -119.4929240001856,
              47.282370000056886
            ],
            [
              -119.49277900042064,
              47.28237300015419
            ],
            [
              -119.4909390000888,
              47.2824049999629
            ],
            [
              -119.4909249998451,
              47.28951900015814
            ],
            [
              -119.4958580003115,
              47.28950700017026
            ],
            [
              -119.49626099981928,
              47.28950600027271
            ],
            [
              -119.49625900016947,
              47.28965799971797
            ],
            [
              -119.4962540001466,
              47.29059800022904
            ],
            [
              -119.49622200035957,
              47.296764999723464
            ],
            [
              -119.49622099963634,
              47.29682100028478
            ],
            [
              -119.4962059995677,
              47.299829999989896
            ],
            [
              -119.49620300009299,
              47.30041499992264
            ],
            [
              -119.49681599966307,
              47.300416999914475
            ],
            [
              -119.50041099993796,
              47.30043000016385
            ],
            [
              -119.50114599970681,
              47.30043299984604
            ],
            [
              -119.50160900038739,
              47.30046500030396
            ],
            [
              -119.50158900029588,
              47.30260999991215
            ],
            [
              -119.5015700000293,
              47.303433000140004
            ],
            [
              -119.50157800042523,
              47.30433600023978
            ],
            [
              -119.50156699965628,
              47.304641999775654
            ],
            [
              -119.50155800033376,
              47.30489599974908
            ],
            [
              -119.50157199967914,
              47.305319999973776
            ],
            [
              -119.50157400022728,
              47.30683099983606
            ],
            [
              -119.50153599969411,
              47.30927499978239
            ],
            [
              -119.50148499964051,
              47.31717499971735
            ],
            [
              -119.50148299999067,
              47.3175520000209
            ],
            [
              -119.50145100020362,
              47.3190239999573
            ],
            [
              -119.50140900037083,
              47.321309000062726
            ],
            [
              -119.50140000015,
              47.32183400001963
            ],
            [
              -119.5013950001271,
              47.32213700027884
            ],
            [
              -119.50138400025648,
              47.322737999847234
            ],
            [
              -119.5013649999899,
              47.32561599988871
            ],
            [
              -119.50136800036294,
              47.325697000153234
            ],
            [
              -119.50135599976906,
              47.326056000213704
            ],
            [
              -119.50133900005063,
              47.32659299997987
            ],
            [
              -119.50124299979115,
              47.32952099974153
            ],
            [
              -119.50115499992762,
              47.333309000142954
            ],
            [
              -119.50104699997259,
              47.33773799978945
            ],
            [
              -119.50092800014691,
              47.34004300019955
            ],
            [
              -119.51507900001921,
              47.3399140001952
            ],
            [
              -119.51553299958064,
              47.339910000157
            ],
            [
              -119.51852500033115,
              47.339881999881044
            ],
            [
              -119.51959599966065,
              47.33987300024576
            ],
            [
              -119.51963199964567,
              47.33987300024576
            ],
            [
              -119.52222099999005,
              47.339848999993364
            ],
            [
              -119.52245600016667,
              47.33984799983042
            ],
            [
              -119.52412800026903,
              47.33980900015716
            ],
            [
              -119.52524100032964,
              47.3397839997115
            ],
            [
              -119.5254060001861,
              47.339780999827646
            ],
            [
              -119.52696699996034,
              47.33975199992731
            ],
            [
              -119.52826499996888,
              47.33969299991291
            ],
            [
              -119.5282669996187,
              47.339735000167245
            ],
            [
              -119.53382900044703,
              47.33966699985471
            ],
            [
              -119.53387299992964,
              47.33962999977322
            ],
            [
              -119.53411899997694,
              47.33963300027437
            ],
            [
              -119.53416300035786,
              47.33963300027437
            ],
            [
              -119.53531999990108,
              47.33964600000906
            ],
            [
              -119.53896299985654,
              47.3397039999103
            ],
            [
              -119.53897899975006,
              47.339634999999646
            ],
            [
              -119.53900600041256,
              47.33815799994411
            ],
            [
              -119.53898999962072,
              47.337562999905785
            ],
            [
              -119.53895100016095,
              47.33600899989598
            ],
            [
              -119.53986699967979,
              47.33601000013166
            ],
            [
              -119.54355900003902,
              47.33304699984116
            ],
            [
              -119.54406299982917,
              47.33264000006615
            ],
            [
              -119.54427100024164,
              47.33247600001073
            ],
            [
              -119.54415099969273,
              47.332474000014315
            ],
            [
              -119.54420799959412,
              47.330783999732795
            ],
            [
              -119.54425299979997,
              47.33073499975158
            ],
            [
              -119.54432999979286,
              47.330736000087114
            ],
            [
              -119.54565100026596,
              47.3307459997886
            ],
            [
              -119.54546999961767,
              47.33096499971674
            ],
            [
              -119.54530399993631,
              47.33116600015262
            ],
            [
              -119.54624200009475,
              47.33116299977919
            ],
            [
              -119.54624499956945,
              47.33097999981201
            ],
            [
              -119.5462460002927,
              47.33091300012459
            ],
            [
              -119.54624700011759,
              47.33087100015906
            ],
            [
              -119.54624899976743,
              47.330751000247474
            ],
            [
              -119.54624700011759,
              47.33051699981826
            ],
            [
              -119.5464789999212,
              47.33051899988879
            ],
            [
              -119.54647700027137,
              47.33068299993298
            ],
            [
              -119.5468949998478,
              47.33068599972488
            ],
            [
              -119.54718000025316,
              47.33068900012542
            ],
            [
              -119.54731400014745,
              47.33068999985301
            ],
            [
              -119.54731599979728,
              47.33052599983055
            ],
            [
              -119.54751099979094,
              47.33053299977138
            ],
            [
              -119.5481479996505,
              47.330541999780884
            ],
            [
              -119.54891299955658,
              47.33055799972643
            ],
            [
              -119.54947699962116,
              47.33056300020309
            ],
            [
              -119.54963999982779,
              47.33056399993301
            ],
            [
              -119.54963399998002,
              47.33093900023149
            ],
            [
              -119.54961399988855,
              47.3320340001838
            ],
            [
              -119.54960499966768,
              47.332511000239755
            ],
            [
              -119.54989900029388,
              47.33250799994273
            ],
            [
              -119.54998899980723,
              47.33250900024471
            ],
            [
              -119.55316700033059,
              47.33252300020859
            ],
            [
              -119.55421900029185,
              47.3325179999175
            ],
            [
              -119.55430600033047,
              47.3325179999175
            ],
            [
              -119.55436200040697,
              47.3325179999175
            ],
            [
              -119.55441299956229,
              47.332434000070506
            ],
            [
              -119.5546460000891,
              47.33205399970217
            ],
            [
              -119.5546519999369,
              47.33175800009071
            ],
            [
              -119.55467299985328,
              47.3308079998437
            ],
            [
              -119.55468200007412,
              47.33038699994364
            ],
            [
              -119.55488100026575,
              47.33002699974489
            ],
            [
              -119.55486500037222,
              47.329041999952565
            ],
            [
              -119.55486399964899,
              47.328990000293686
            ],
            [
              -119.55490999967975,
              47.32898899992509
            ],
            [
              -119.55494400001493,
              47.32898899992509
            ],
            [
              -119.5552290004203,
              47.32898500027696
            ],
            [
              -119.55523699991791,
              47.3289650002053
            ],
            [
              -119.55528399977356,
              47.32884599998766
            ],
            [
              -119.55541199982008,
              47.32853900016824
            ],
            [
              -119.55597500005977,
              47.32719699999098
            ],
            [
              -119.5567590002324,
              47.32533100006811
            ],
            [
              -119.55678099997372,
              47.325278999800325
            ],
            [
              -119.55705600033335,
              47.32527099994196
            ],
            [
              -119.55763999959113,
              47.32525299995171
            ],
            [
              -119.55790300025518,
              47.325245000089396
            ],
            [
              -119.55788099961555,
              47.32529900004992
            ],
            [
              -119.55729300015982,
              47.32673599992805
            ],
            [
              -119.55721399961878,
              47.326930000209764
            ],
            [
              -119.55677900032391,
              47.32803700024256
            ],
            [
              -119.55631900001637,
              47.32908999992005
            ],
            [
              -119.55586700010474,
              47.33019199983618
            ],
            [
              -119.55550600042972,
              47.33100900026829
            ],
            [
              -119.55536699961425,
              47.33132700025897
            ],
            [
              -119.55509899982563,
              47.331810000068515
            ],
            [
              -119.554835000235,
              47.332286000015
            ],
            [
              -119.5546810002492,
              47.33252500020315
            ],
            [
              -119.55474499982331,
              47.33254700013807
            ],
            [
              -119.55481400031859,
              47.33256999975583
            ],
            [
              -119.55505699999284,
              47.33265200000567
            ],
            [
              -119.5555259996229,
              47.332626999824214
            ],
            [
              -119.55609800008344,
              47.33263200010499
            ],
            [
              -119.5586170001076,
              47.33265599998494
            ],
            [
              -119.55868800025273,
              47.33261400018787
            ],
            [
              -119.55896699991199,
              47.33244899974856
            ],
            [
              -119.55921899980703,
              47.33244200006171
            ],
            [
              -119.5599750003906,
              47.33242400007984
            ],
            [
              -119.56022800011061,
              47.332418000084516
            ],
            [
              -119.56302400014421,
              47.33240899978581
            ],
            [
              -119.56318399997777,
              47.33240899978581
            ],
            [
              -119.56383599990595,
              47.33241299978347
            ],
            [
              -119.56424000013698,
              47.33239600009585
            ],
            [
              -119.56423400028919,
              47.33248300030189
            ],
            [
              -119.564235999939,
              47.33278599975388
            ],
            [
              -119.56423799958885,
              47.33312699998749
            ],
            [
              -119.56423900031206,
              47.33333900021538
            ],
            [
              -119.56480699967634,
              47.33331800028823
            ],
            [
              -119.56490899978358,
              47.333315000037054
            ],
            [
              -119.56501099989083,
              47.33331100010774
            ],
            [
              -119.56516599970152,
              47.33330500021319
            ],
            [
              -119.56532700025832,
              47.333298000030936
            ],
            [
              -119.56563199985685,
              47.33328600023821
            ],
            [
              -119.56575700042865,
              47.33328199969788
            ],
            [
              -119.5657359996139,
              47.335885999986964
            ],
            [
              -119.57091799960233,
              47.33577500023886
            ],
            [
              -119.57091900032555,
              47.33586199974859
            ],
            [
              -119.57095799978529,
              47.339388999743036
            ],
            [
              -119.57108699965671,
              47.339387000008486
            ],
            [
              -119.57616800026112,
              47.33928200013986
            ],
            [
              -119.57620000004817,
              47.33211099971863
            ],
            [
              -119.57629100028475,
              47.32851500024403
            ],
            [
              -119.57628999956152,
              47.328217000124184
            ],
            [
              -119.57626699999531,
              47.32631000018031
            ],
            [
              -119.57626000032262,
              47.32568700010473
            ],
            [
              -119.57622000013964,
              47.32568400002895
            ],
            [
              -119.57601900029819,
              47.325667000002106
            ],
            [
              -119.57490500041268,
              47.32555399982786
            ],
            [
              -119.57417399994347,
              47.325504000040084
            ],
            [
              -119.57407199983622,
              47.32550000012806
            ],
            [
              -119.57392399969821,
              47.32549499978096
            ],
            [
              -119.57340200036471,
              47.32549200030315
            ],
            [
              -119.57190299961641,
              47.325549999919666
            ],
            [
              -119.57118999958888,
              47.325583000218934
            ],
            [
              -119.57098000042492,
              47.3255910000301
            ],
            [
              -119.5697550002113,
              47.325664999747836
            ],
            [
              -119.56946800015612,
              47.32567899969923
            ],
            [
              -119.56923200015459,
              47.32568300020661
            ],
            [
              -119.56906599957492,
              47.32569100000259
            ],
            [
              -119.56889999989356,
              47.32569300025583
            ],
            [
              -119.56873500003712,
              47.32569000018038
            ],
            [
              -119.56857000018069,
              47.325680999952965
            ],
            [
              -119.56840600014915,
              47.325664999747836
            ],
            [
              -119.56816099992676,
              47.32563500018745
            ],
            [
              -119.56792099972725,
              47.32559899984002
            ],
            [
              -119.56762199997652,
              47.32554299992734
            ],
            [
              -119.56760699990791,
              47.325541000277305
            ],
            [
              -119.56732200040086,
              47.325465999950445
            ],
            [
              -119.5670649995846,
              47.32537799992649
            ],
            [
              -119.56688899985751,
              47.32532899980113
            ],
            [
              -119.56688300000972,
              47.32570300030319
            ],
            [
              -119.56684799984961,
              47.32750700027636
            ],
            [
              -119.5668339996059,
              47.328268000161756
            ],
            [
              -119.56680900038988,
              47.328268999935176
            ],
            [
              -119.56667200012252,
              47.32827400001972
            ],
            [
              -119.56654700044905,
              47.3282769999484
            ],
            [
              -119.56578300036792,
              47.32829299997121
            ],
            [
              -119.56575700042865,
              47.328293999744155
            ],
            [
              -119.56566000034427,
              47.328295999898806
            ],
            [
              -119.56562099998618,
              47.32829700028058
            ],
            [
              -119.56558900019913,
              47.327482000094925
            ],
            [
              -119.56550399981033,
              47.32528599982764
            ],
            [
              -119.56562900038213,
              47.324967000163454
            ],
            [
              -119.56564600010056,
              47.32492499973201
            ],
            [
              -119.56573499978899,
              47.32135599984578
            ],
            [
              -119.56573300013919,
              47.32123899995847
            ],
            [
              -119.56570100035213,
              47.31913899998564
            ],
            [
              -119.56567799988761,
              47.31769700003038
            ],
            [
              -119.56568899975827,
              47.3160469997343
            ],
            [
              -119.56569200013129,
              47.315611000140926
            ],
            [
              -119.56572599956817,
              47.310460000203406
            ],
            [
              -119.56573700033714,
              47.30867100013243
            ],
            [
              -119.56573800016206,
              47.30855999983523
            ],
            [
              -119.56574999985762,
              47.30666500029818
            ],
            [
              -119.56585699998773,
              47.3064179997787
            ],
            [
              -119.56591300006423,
              47.30628400014338
            ],
            [
              -119.56640500015882,
              47.30510499995589
            ],
            [
              -119.56684799984961,
              47.30404900029357
            ],
            [
              -119.56792400010033,
              47.30158800008935
            ],
            [
              -119.56839699992831,
              47.300509000064274
            ],
            [
              -119.5684360002864,
              47.300418999906185
            ],
            [
              -119.56845999967753,
              47.30036399980181
            ],
            [
              -119.56858100005132,
              47.30023400004766
            ],
            [
              -119.56906999977288,
              47.299714999976004
            ],
            [
              -119.5692339998044,
              47.29954200024143
            ],
            [
              -119.57009199959688,
              47.29864399973257
            ],
            [
              -119.57169900030023,
              47.296965000150344
            ],
            [
              -119.57248500012268,
              47.29580400016008
            ],
            [
              -119.57318200025668,
              47.294777000165745
            ],
            [
              -119.57332700002165,
              47.294558000101574
            ],
            [
              -119.57399599966824,
              47.29372999971622
            ],
            [
              -119.57521300038425,
              47.29251500008556
            ],
            [
              -119.5755909997777,
              47.29213900016042
            ],
            [
              -119.5763239998967,
              47.29134999982025
            ],
            [
              -119.57812900006847,
              47.288888000250374
            ],
            [
              -119.57935299955885,
              47.28717100023506
            ],
            [
              -119.58035199981663,
              47.285746000118635
            ],
            [
              -119.58041499956582,
              47.28512100017608
            ],
            [
              -119.58049999995464,
              47.28429500011253
            ],
            [
              -119.58058399962023,
              47.28347600002999
            ],
            [
              -119.58075299967463,
              47.283129999773166
            ],
            [
              -119.58146700042539,
              47.282564999934856
            ],
            [
              -119.58154299969503,
              47.282505000002104
            ],
            [
              -119.5819200001619,
              47.282204999926876
            ],
            [
              -119.5823290004158,
              47.28188100020179
            ],
            [
              -119.5830540001389,
              47.28130699995917
            ],
            [
              -119.58343200043069,
              47.281007999852314
            ]
          ],
          [
            [
              -119.56899799980286,
              47.29213600000764
            ],
            [
              -119.5695650002405,
              47.292124999852284
            ],
            [
              -119.56898799975711,
              47.29291299976431
            ],
            [
              -119.56836500014126,
              47.29376599984359
            ],
            [
              -119.56727899984483,
              47.295290999808586
            ],
            [
              -119.56709899991976,
              47.29554600001753
            ],
            [
              -119.56692900004046,
              47.295779000208434
            ],
            [
              -119.56683699997896,
              47.295876000003545
            ],
            [
              -119.56706999960748,
              47.29604400006939
            ],
            [
              -119.56526699998388,
              47.2985409999536
            ],
            [
              -119.56482199974495,
              47.29916000020654
            ],
            [
              -119.5617350003565,
              47.30345899976153
            ],
            [
              -119.56143800025559,
              47.30387100016385
            ],
            [
              -119.56074600014446,
              47.30481900013789
            ],
            [
              -119.56054299975487,
              47.304816000095386
            ],
            [
              -119.55934000018088,
              47.30480200009782
            ],
            [
              -119.55921200013438,
              47.3048009998803
            ],
            [
              -119.5582449996636,
              47.30614600000938
            ],
            [
              -119.55796000015657,
              47.306542999850436
            ],
            [
              -119.55791400012583,
              47.30659100016008
            ],
            [
              -119.55786300007217,
              47.306635999877756
            ],
            [
              -119.55779799977488,
              47.3066850002848
            ],
            [
              -119.55774099987346,
              47.306712999887864
            ],
            [
              -119.55767800012427,
              47.306735999790064
            ],
            [
              -119.55762399969758,
              47.306749999884524
            ],
            [
              -119.55754099985691,
              47.30675200024574
            ],
            [
              -119.5574339997268,
              47.306755000178406
            ],
            [
              -119.55735500008409,
              47.30675399999784
            ],
            [
              -119.5570110001275,
              47.30675100006516
            ],
            [
              -119.55687200021032,
              47.306749999884524
            ],
            [
              -119.55559400029327,
              47.306755000178406
            ],
            [
              -119.5549900000457,
              47.306765000155636
            ],
            [
              -119.5549900000457,
              47.30682300022989
            ],
            [
              -119.55498699967262,
              47.30687000010687
            ],
            [
              -119.55497999999996,
              47.30701400001413
            ],
            [
              -119.55497800035012,
              47.30706199989602
            ],
            [
              -119.5547289999298,
              47.30706199989602
            ],
            [
              -119.55398199956704,
              47.30706599998574
            ],
            [
              -119.55373399986992,
              47.3070670001604
            ],
            [
              -119.5535199996097,
              47.30706899990054
            ],
            [
              -119.5528789995522,
              47.3070770000786
            ],
            [
              -119.5526660000152,
              47.30707999999278
            ],
            [
              -119.5524490002802,
              47.30707999999278
            ],
            [
              -119.55180099965168,
              47.30708400008113
            ],
            [
              -119.5515849997416,
              47.30708500025545
            ],
            [
              -119.55136899983157,
              47.30708800016918
            ],
            [
              -119.55072399957608,
              47.30709900025746
            ],
            [
              -119.55051000021416,
              47.30710399990921
            ],
            [
              -119.55037100029699,
              47.30709999982237
            ],
            [
              -119.5495989998199,
              47.30711399982041
            ],
            [
              -119.54960899986565,
              47.30579100007054
            ],
            [
              -119.54960999969057,
              47.305295000257466
            ],
            [
              -119.54961100041378,
              47.30519399984553
            ],
            [
              -119.5491839997182,
              47.30507799971331
            ],
            [
              -119.54851099987366,
              47.304878999733816
            ],
            [
              -119.54811400021362,
              47.304749999726475
            ],
            [
              -119.54775500018842,
              47.3046270001204
            ],
            [
              -119.54759899965451,
              47.30457700002044
            ],
            [
              -119.5470639999022,
              47.30436699993698
            ],
            [
              -119.54691400011437,
              47.304309000213586
            ],
            [
              -119.5462899997753,
              47.3040540002338
            ],
            [
              -119.54601899961365,
              47.30393999989515
            ],
            [
              -119.54501799970605,
              47.303523000040606
            ],
            [
              -119.5443370003639,
              47.30323900007689
            ],
            [
              -119.5443370003639,
              47.30309299974197
            ],
            [
              -119.5443370003639,
              47.30265499997301
            ],
            [
              -119.5443370003639,
              47.30250899985277
            ],
            [
              -119.54432899996797,
              47.30050500008759
            ],
            [
              -119.5422059997789,
              47.30048999986766
            ],
            [
              -119.54179599970008,
              47.300487000188696
            ],
            [
              -119.54137599957552,
              47.30048599988954
            ],
            [
              -119.54168100007236,
              47.30010100027299
            ],
            [
              -119.54184900030182,
              47.29986699993059
            ],
            [
              -119.54186000017248,
              47.29985200013886
            ],
            [
              -119.5419249995715,
              47.2997709998498
            ],
            [
              -119.54200099973949,
              47.29969200006506
            ],
            [
              -119.54208399958016,
              47.299615000184374
            ],
            [
              -119.54213399980887,
              47.299580999797904
            ],
            [
              -119.54438300039462,
              47.29657799973667
            ],
            [
              -119.54439199971713,
              47.29622999973726
            ],
            [
              -119.54507600033067,
              47.2962269998166
            ],
            [
              -119.5510690002559,
              47.29619400006878
            ],
            [
              -119.55434899998818,
              47.29621299998146
            ],
            [
              -119.55486299982408,
              47.296207000138054
            ],
            [
              -119.5550750004345,
              47.296204999987005
            ],
            [
              -119.55506899968842,
              47.29544600026132
            ],
            [
              -119.55506200001571,
              47.29452700013609
            ],
            [
              -119.55507399971128,
              47.29317199978657
            ],
            [
              -119.55508100028229,
              47.29246599994864
            ],
            [
              -119.55759399956037,
              47.29242899970325
            ],
            [
              -119.55875500019987,
              47.292396999865346
            ],
            [
              -119.55877399956813,
              47.29239600002243
            ],
            [
              -119.55888200042149,
              47.292392999884264
            ],
            [
              -119.55891199966041,
              47.29257100027348
            ],
            [
              -119.55893400030001,
              47.29306600021546
            ],
            [
              -119.5592089997613,
              47.293077000175074
            ],
            [
              -119.55985300019186,
              47.29305500025354
            ],
            [
              -119.56036000035506,
              47.293038000086334
            ],
            [
              -119.5603639996547,
              47.29312400008757
            ],
            [
              -119.56037899972333,
              47.293450000055074
            ],
            [
              -119.56035100013425,
              47.29424500020484
            ],
            [
              -119.56086199959708,
              47.294242999979545
            ],
            [
              -119.56282999997543,
              47.29421300024727
            ],
            [
              -119.56295100034929,
              47.294205999758915
            ],
            [
              -119.56294499960318,
              47.29384400013713
            ],
            [
              -119.56294499960318,
              47.29382100010937
            ],
            [
              -119.56294499960318,
              47.293808999879026
            ],
            [
              -119.56294499960318,
              47.29376800008689
            ],
            [
              -119.56395100043198,
              47.29374800008759
            ],
            [
              -119.56394399986095,
              47.293528000205406
            ],
            [
              -119.56394300003606,
              47.29347899978851
            ],
            [
              -119.56305699975616,
              47.29349899988955
            ],
            [
              -119.56300800025068,
              47.29349999971161
            ],
            [
              -119.56293999958031,
              47.29350199996497
            ],
            [
              -119.56281200043212,
              47.29350500004026
            ],
            [
              -119.56280499986109,
              47.293397000270055
            ],
            [
              -119.5627849997696,
              47.29309500015946
            ],
            [
              -119.56332000042023,
              47.293103000015165
            ],
            [
              -119.56396700032552,
              47.29312800001337
            ],
            [
              -119.56396599960227,
              47.293111999699065
            ],
            [
              -119.56396499977738,
              47.29309599998917
            ],
            [
              -119.56394399986095,
              47.292738999872164
            ],
            [
              -119.56393399981522,
              47.29256800014521
            ],
            [
              -119.56393200016541,
              47.29249299993023
            ],
            [
              -119.56392700014254,
              47.29224700006252
            ],
            [
              -119.56444299962823,
              47.29223400023832
            ],
            [
              -119.56466899958404,
              47.2922279999434
            ],
            [
              -119.56599500008001,
              47.29219800028659
            ],
            [
              -119.56651200028897,
              47.29218600029725
            ],
            [
              -119.56655599977157,
              47.29218399999412
            ],
            [
              -119.56668899984095,
              47.29218200030017
            ],
            [
              -119.5667340000468,
              47.29218200030017
            ],
            [
              -119.56729999976123,
              47.2921699996979
            ],
            [
              -119.56899799980286,
              47.29213600000764
            ]
          ]
        ]
      },
      "properties": {
        "AREALAND": "27481749",
        "AREAWATER": "0",
        "BASENAME": "Ephrata",
        "CBSAPCI": "N",
        "CENTLAT": "+47.3121098",
        "CENTLON": "-119.5343963",
        "FUNCSTAT": "A",
        "GEOID": "5322080",
        "INTPTLAT": "+47.3121098",
        "INTPTLON": "-119.5343963",
        "LSADC": "25",
        "MTFCC": "G4110",
        "NAME": "Ephrata city",
        "NECTAPCI": "N",
        "OBJECTID": 29012,
        "OID": "27890249576470",
        "PLACE": "22080",
        "PLACECC": "C1",
        "PLACENS": "02410450",
        "STATE": "53",
        "DISP_CLR": 5,
        "slug": "ephrata",
        "jurisdiction_key": "ephrata_city",
        "county_fips": [
          "53025"
        ]
      }
    }
  ]
}
