{
  "type": "FeatureCollection",
  "features": [
    {
      "type": "Feature",
      "geometry": {
        "type": "Polygon",
        "coordinates": [
          [
            [
              -120.24006000042523,
              47.6762740001766
            ],
            [
              -120.24002500026512,
              47.675205999959424
            ],
            [
              -120.23994200042446,
              47.67261999996166
            ],
            [
              -120.23993999987633,
              47.67253099988938
            ],
            [
              -120.23994200042446,
              47.67200999984689
            ],
            [
              -120.23994599972411,
              47.67063099998976
            ],
            [
              -120.23994800027225,
              47.669473000025526
            ],
            [
              -120.23994999992208,
              47.668306000010986
            ],
            [
              -120.239950999747,
              47.66751800013488
            ],
            [
              -120.23995499994494,
              47.665521000300494
            ],
            [
              -120.23995499994494,
              47.665282999932806
            ],
            [
              -120.23995599976986,
              47.6648319999835
            ],
            [
              -120.23995699959478,
              47.664553000058724
            ],
            [
              -120.23995699959478,
              47.6643589998934
            ],
            [
              -120.23995800031798,
              47.663862000156534
            ],
            [
              -120.23995900014292,
              47.66354000012727
            ],
            [
              -120.23995999996784,
              47.663024000245116
            ],
            [
              -120.23995999996784,
              47.66287599981603
            ],
            [
              -120.23904199990088,
              47.663050999844835
            ],
            [
              -120.23824699985758,
              47.66320199999281
            ],
            [
              -120.23822900031423,
              47.66320500020772
            ],
            [
              -120.23821099987258,
              47.66320899988894
            ],
            [
              -120.23761900021887,
              47.663271000051296
            ],
            [
              -120.23733700018656,
              47.66339799975387
            ],
            [
              -120.23681599977965,
              47.663385000079536
            ],
            [
              -120.2365429999682,
              47.6633840000114
            ],
            [
              -120.23579099958258,
              47.66326099995201
            ],
            [
              -120.23423599965612,
              47.663003999950035
            ],
            [
              -120.23355399959074,
              47.6629100000335
            ],
            [
              -120.23247900006326,
              47.66273500013704
            ],
            [
              -120.23184399985352,
              47.662567000241125
            ],
            [
              -120.23162700011854,
              47.662561999821804
            ],
            [
              -120.23126899991827,
              47.66248999978044
            ],
            [
              -120.23000699989474,
              47.66218700028273
            ],
            [
              -120.22923899961563,
              47.6620699997784
            ],
            [
              -120.22864000028925,
              47.66205899996055
            ],
            [
              -120.22852300011337,
              47.66205699977341
            ],
            [
              -120.22728100018134,
              47.66190399975058
            ],
            [
              -120.22651000042748,
              47.66197200021944
            ],
            [
              -120.22600099971616,
              47.661874999968546
            ],
            [
              -120.22575300001904,
              47.66182800022498
            ],
            [
              -120.22541200043548,
              47.66176299986634
            ],
            [
              -120.2252070003961,
              47.66167000023626
            ],
            [
              -120.22501700042527,
              47.66158299984688
            ],
            [
              -120.2248630004395,
              47.66151299987336
            ],
            [
              -120.22475799995917,
              47.661464999699035
            ],
            [
              -120.22461999986693,
              47.66140199970568
            ],
            [
              -120.22438999971317,
              47.66129800005936
            ],
            [
              -120.22430600004759,
              47.66126000017182
            ],
            [
              -120.2240900001375,
              47.661161000191626
            ],
            [
              -120.22402700038833,
              47.66113300010813
            ],
            [
              -120.22281899989316,
              47.6603980002603
            ],
            [
              -120.22157899961091,
              47.65991700006035
            ],
            [
              -120.2208930002459,
              47.660184000219175
            ],
            [
              -120.22060500036582,
              47.66059099989854
            ],
            [
              -120.2198360002618,
              47.660465000146615
            ],
            [
              -120.21901199990617,
              47.66033100028806
            ],
            [
              -120.2188660003163,
              47.66030700026803
            ],
            [
              -120.2187190000032,
              47.660283000237015
            ],
            [
              -120.21772999979116,
              47.6621439999779
            ],
            [
              -120.21720300043478,
              47.66299100017763
            ],
            [
              -120.2167759997392,
              47.66367999998948
            ],
            [
              -120.21506299962897,
              47.66487599992876
            ],
            [
              -120.21287500004091,
              47.665951999971
            ],
            [
              -120.21174500026186,
              47.66660999983557
            ],
            [
              -120.21000899968709,
              47.667588999908176
            ],
            [
              -120.20828200023146,
              47.669092000171325
            ],
            [
              -120.20675999991694,
              47.669941999978775
            ],
            [
              -120.20455800008517,
              47.6715809998152
            ],
            [
              -120.20362800032268,
              47.67292299999397
            ],
            [
              -120.2031389997028,
              47.673607000000686
            ],
            [
              -120.202848000348,
              47.67540900008503
            ],
            [
              -120.20248699977465,
              47.6767690000504
            ],
            [
              -120.20110199972747,
              47.67896299990207
            ],
            [
              -120.19963399983963,
              47.681045999904725
            ],
            [
              -120.19904800003371,
              47.68227600015987
            ],
            [
              -120.19901899972137,
              47.68398200020351
            ],
            [
              -120.19919000032394,
              47.68593799979941
            ],
            [
              -120.19974099996975,
              47.68804699985556
            ],
            [
              -120.20097899970384,
              47.69067300016449
            ],
            [
              -120.20200800009886,
              47.69241299984506
            ],
            [
              -120.20239399988823,
              47.69415900001571
            ],
            [
              -120.20240200028415,
              47.695431000102296
            ],
            [
              -120.2028359997541,
              47.69710600016901
            ],
            [
              -120.20325699970358,
              47.698827999954844
            ],
            [
              -120.20436700028945,
              47.70083399980204
            ],
            [
              -120.20521900023417,
              47.70205899989344
            ],
            [
              -120.20543299959608,
              47.70223099993111
            ],
            [
              -120.20674700039646,
              47.70329200008655
            ],
            [
              -120.20716999999576,
              47.70366400017376
            ],
            [
              -120.2076710003112,
              47.704104999895016
            ],
            [
              -120.20859100002797,
              47.704038999705325
            ],
            [
              -120.21135299972637,
              47.70384300024315
            ],
            [
              -120.21202399992112,
              47.70379600021015
            ],
            [
              -120.21227400016636,
              47.70377900012345
            ],
            [
              -120.21258899981065,
              47.7037840002206
            ],
            [
              -120.21273500029882,
              47.703786999915984
            ],
            [
              -120.21301999980587,
              47.70379399980902
            ],
            [
              -120.21312299973803,
              47.70379700010838
            ],
            [
              -120.21334899969384,
              47.703800999701166
            ],
            [
              -120.21362200040362,
              47.7038070002988
            ],
            [
              -120.2135360001899,
              47.70366599997528
            ],
            [
              -120.21351400044858,
              47.70363900022995
            ],
            [
              -120.21328699976955,
              47.70331299996225
            ],
            [
              -120.21314799985238,
              47.70311399985007
            ],
            [
              -120.21278899982717,
              47.702708999727044
            ],
            [
              -120.21259700020657,
              47.702512000177705
            ],
            [
              -120.21288599991155,
              47.70246099985387
            ],
            [
              -120.21532100027014,
              47.70202599972292
            ],
            [
              -120.21603299957445,
              47.701904999926555
            ],
            [
              -120.21691499965637,
              47.70174800029672
            ],
            [
              -120.21687399964848,
              47.701673000091034
            ],
            [
              -120.2168169997471,
              47.70156499991968
            ],
            [
              -120.21562800041683,
              47.700922999959104
            ],
            [
              -120.21495800004698,
              47.70034800002742
            ],
            [
              -120.21468799971025,
              47.70011499994446
            ],
            [
              -120.21308900030114,
              47.70006900014751
            ],
            [
              -120.21277899978143,
              47.70006099978437
            ],
            [
              -120.21250199977202,
              47.70005499996467
            ],
            [
              -120.21259200018368,
              47.69815699996912
            ],
            [
              -120.21261499974992,
              47.69767600010684
            ],
            [
              -120.21263900003936,
              47.69719500003947
            ],
            [
              -120.2126709998264,
              47.69650700015958
            ],
            [
              -120.21267500002438,
              47.69642800011612
            ],
            [
              -120.21269500011584,
              47.69452099981552
            ],
            [
              -120.21269500011584,
              47.69293799975295
            ],
            [
              -120.21270199978854,
              47.69267899994295
            ],
            [
              -120.21261200027516,
              47.69267899994295
            ],
            [
              -120.21237700009853,
              47.69267500010156
            ],
            [
              -120.21232900041798,
              47.69267500010156
            ],
            [
              -120.21228800041008,
              47.6917290002736
            ],
            [
              -120.21223099961037,
              47.69056199972881
            ],
            [
              -120.21219899982331,
              47.68992600011353
            ],
            [
              -120.2121290004014,
              47.68992600011353
            ],
            [
              -120.2122409996561,
              47.68970299989041
            ],
            [
              -120.21254199995496,
              47.68910299992241
            ],
            [
              -120.21256799989423,
              47.689051000208906
            ],
            [
              -120.21266199960557,
              47.689051000208906
            ],
            [
              -120.21271000018446,
              47.689051000208906
            ],
            [
              -120.2129450003611,
              47.689051000208906
            ],
            [
              -120.21348199976322,
              47.688509999834714
            ],
            [
              -120.21429600007309,
              47.68842899998871
            ],
            [
              -120.21468400041061,
              47.68844500005036
            ],
            [
              -120.21570600023462,
              47.688487000264494
            ],
            [
              -120.2156970000138,
              47.68833900007945
            ],
            [
              -120.21569299981583,
              47.68827200029478
            ],
            [
              -120.21563699973932,
              47.68760599975899
            ],
            [
              -120.21513799997204,
              47.68727299993035
            ],
            [
              -120.21504500008562,
              47.68714099978577
            ],
            [
              -120.21457300008251,
              47.68647699978265
            ],
            [
              -120.21455299999103,
              47.68639700003502
            ],
            [
              -120.21450799978521,
              47.686216999700726
            ],
            [
              -120.2141079997521,
              47.68550399994318
            ],
            [
              -120.21411699997294,
              47.68541100028175
            ],
            [
              -120.21427500015668,
              47.68540899977998
            ],
            [
              -120.21426400028604,
              47.68515599979366
            ],
            [
              -120.21425900026317,
              47.685063999769234
            ],
            [
              -120.2142550000652,
              47.68496700010023
            ],
            [
              -120.21424800039252,
              47.68480799974139
            ],
            [
              -120.21436300002026,
              47.68478999985283
            ],
            [
              -120.21474299996184,
              47.684734000226875
            ],
            [
              -120.21477099955092,
              47.684851999778914
            ],
            [
              -120.21495499967394,
              47.684794999956864
            ],
            [
              -120.21508100007065,
              47.684754999715686
            ],
            [
              -120.21536899995073,
              47.684667000044655
            ],
            [
              -120.2154719998829,
              47.6844089999474
            ],
            [
              -120.21553999965495,
              47.68423899972033
            ],
            [
              -120.2155580000966,
              47.683856999743114
            ],
            [
              -120.21569600018888,
              47.683657000076884
            ],
            [
              -120.21581599983946,
              47.68361599988731
            ],
            [
              -120.21592299996958,
              47.68357999988601
            ],
            [
              -120.21618499991041,
              47.683476000280365
            ],
            [
              -120.21642900030788,
              47.68337900007749
            ],
            [
              -120.21661500008074,
              47.683197000232646
            ],
            [
              -120.21704600007595,
              47.682700999957596
            ],
            [
              -120.21775499990552,
              47.68270499995919
            ],
            [
              -120.21817900022803,
              47.682708000262565
            ],
            [
              -120.21817599985498,
              47.68161199991473
            ],
            [
              -120.21918500015856,
              47.67994800021718
            ],
            [
              -120.21926799999922,
              47.67981200006205
            ],
            [
              -120.22081799990283,
              47.6798049999733
            ],
            [
              -120.22081799990283,
              47.67997500013469
            ],
            [
              -120.22094799959916,
              47.67999200012037
            ],
            [
              -120.22094099992647,
              47.680872000067374
            ],
            [
              -120.22283899998463,
              47.68089299990125
            ],
            [
              -120.22283899998463,
              47.68086900026322
            ],
            [
              -120.22284900003038,
              47.67999499997495
            ],
            [
              -120.22361599958627,
              47.67999999993383
            ],
            [
              -120.22391600006024,
              47.67999999993383
            ],
            [
              -120.22562900017047,
              47.68000499989219
            ],
            [
              -120.23117799968169,
              47.68001999976446
            ],
            [
              -120.23157000021716,
              47.68002100011872
            ],
            [
              -120.23192500004438,
              47.68002199986809
            ],
            [
              -120.23194500013588,
              47.681721000006526
            ],
            [
              -120.23194699978569,
              47.6818780000658
            ],
            [
              -120.23215400037324,
              47.681878999779585
            ],
            [
              -120.23380800003393,
              47.681890000258875
            ],
            [
              -120.23469500013874,
              47.68189599974964
            ],
            [
              -120.23465599978068,
              47.6795410002612
            ],
            [
              -120.23460700027518,
              47.67658300026369
            ],
            [
              -120.23459600040455,
              47.676247999980134
            ],
            [
              -120.2369379999784,
              47.67627199992934
            ],
            [
              -120.23724900032303,
              47.67627199992934
            ],
            [
              -120.2379799998939,
              47.676278000066134
            ],
            [
              -120.24006000042523,
              47.6762740001766
            ]
          ]
        ]
      },
      "properties": {
        "AREALAND": "5643534",
        "AREAWATER": "1649559",
        "BASENAME": "Entiat",
        "CBSAPCI": "N",
        "CENTLAT": "+47.6780227",
        "CENTLON": "-120.2175408",
        "FUNCSTAT": "A",
        "GEOID": "5322010",
        "INTPTLAT": "+47.6769770",
        "INTPTLON": "-120.2223289",
        "LSADC": "25",
        "MTFCC": "G4110",
        "NAME": "Entiat city",
        "NECTAPCI": "N",
        "OBJECTID": 18111,
        "OID": "27890865135556",
        "PLACE": "22010",
        "PLACECC": "C1",
        "PLACENS": "02410447",
        "STATE": "53",
        "DISP_CLR": 2,
        "slug": "entiat",
        "jurisdiction_key": "entiat_city",
        "county_fips": [
          "53007"
        ]
      }
    }
  ]
}
