{"type":"FeatureCollection","features":[{"type":"Feature","geometry":{"type":"Polygon","coordinates":[[[-122.3779940001591,48.90434900011707],[-122.37800500002976,48.90144899996348],[-122.37515799994253,48.90142699980215],[-122.37515600029269,48.90176899976535],[-122.37514700007188,48.90221599974757],[-122.37132599984118,48.9022270002463],[-122.37031800026088,48.90221799978475],[-122.36990900000696,48.90222399989578],[-122.36959199981457,48.90222199985887],[-122.36959699983741,48.90043399977838],[-122.36485900026304,48.900386999863336],[-122.36404900015114,48.900379000011604],[-122.36406900024261,48.89854899983792],[-122.36381200032467,48.898548000041174],[-122.36227699959136,48.898539000098225],[-122.36115600003313,48.89853300013533],[-122.35966600040398,48.89852400018969],[-122.3585330002519,48.89851699983711],[-122.35855599981811,48.89665700024516],[-122.35856400021403,48.89599299998401],[-122.35857000006179,48.89484500026836],[-122.35857000006179,48.89481999994881],[-122.35682199979145,48.89481400013012],[-122.35681900031675,48.894850000212614],[-122.35680900027101,48.895655000076424],[-122.35416700022316,48.895639999892985],[-122.35302200037552,48.89562799986117],[-122.35302200037552,48.896200999790686],[-122.35302099965229,48.89733300017027],[-122.35301999982738,48.89846900009281],[-122.35301999982738,48.89848400001786],[-122.35301900000246,48.899061000017056],[-122.35301300015468,48.89934100026814],[-122.35300700030689,48.89960200026442],[-122.3529939998881,48.9002109998768],[-122.35297499962152,48.90234800025779],[-122.35296600029902,48.90266299986537],[-122.35294000035975,48.90353399980565],[-122.35294500038259,48.90372100007029],[-122.3529319999638,48.90381300010793],[-122.35293000031402,48.903992000055176],[-122.35292500029112,48.90450500025146],[-122.3529219999181,48.904909000031694],[-122.35291500024537,48.90569600002226],[-122.35291500024537,48.90579400023974],[-122.35285900016888,48.90863999985089],[-122.35285699962074,48.90870900018835],[-122.35134400042537,48.90872100003193],[-122.35124499979284,48.90872200021557],[-122.35124399996795,48.90879099984936],[-122.35124099959492,48.90934000006071],[-122.3501080003411,48.909341000231954],[-122.35013699975512,48.91018699978427],[-122.35214600014135,48.91019000024714],[-122.35282800020674,48.91019199996517],[-122.35280800011527,48.91096999993401],[-122.35278899984868,48.91172900020634],[-122.35278600037395,48.91186400015775],[-122.35277700015314,48.91297200003128],[-122.35277299995516,48.913028000205884],[-122.3527610002596,48.91363600025389],[-122.35275899971145,48.9137799999272],[-122.35275700006163,48.913915999729525],[-122.35248199970204,48.91411900013916],[-122.35111099989854,48.9151359999606],[-122.35106999989067,48.915163000264094],[-122.35099899974556,48.91521700023695],[-122.35014500015104,48.9158449998542],[-122.34930599972682,48.91646700026051],[-122.34847999972138,48.917004999759946],[-122.34816799955185,48.917229999721734],[-122.34806700016782,48.91730100002666],[-122.34803399965755,48.91732499971613],[-122.34797500010632,48.91736800018864],[-122.34792499987759,48.917403999965366],[-122.34787399982399,48.917445999770564],[-122.34782000029561,48.91749000014698],[-122.34706000041243,48.91720299994514],[-122.34650100037068,48.91689400001941],[-122.34589399975005,48.91627999987628],[-122.34562699978638,48.91541000017658],[-122.34558300030375,48.91525700000428],[-122.34524299964681,48.91525599995146],[-122.34493200020049,48.915254999898615],[-122.34289299967705,48.91523299991157],[-122.34254799989552,48.91523299991157],[-122.33981100031146,48.91521600018333],[-122.33851999997559,48.91520200002077],[-122.33712300023289,48.91521300002229],[-122.3344290003065,48.91523700012462],[-122.33443400032938,48.91536100007595],[-122.33447500033728,48.91649699992867],[-122.33450100027653,48.91650000001254],[-122.33477200043819,48.91650000001254],[-122.33705499956248,48.91649699992867],[-122.33703000034646,48.9191619998991],[-122.33238999978305,48.919178000081075],[-122.32926400003653,48.919185999875005],[-122.3292549998157,48.91890599983171],[-122.32790400010374,48.91889899997284],[-122.32711099971026,48.91889500005307],[-122.327084999771,48.916545000068645],[-122.32612400004635,48.9165230000594],[-122.32336999984551,48.91659100011032],[-122.32152500038912,48.916593000162536],[-122.32098300006581,48.91659600024065],[-122.32097100037026,48.91837300009822],[-122.32097100037026,48.918428000132295],[-122.32096999964702,48.918560999717606],[-122.32096499962415,48.9193070001438],[-122.32095100027878,48.92014799999166],[-122.32125300040255,48.92014799999166],[-122.32151899964303,48.92014999990142],[-122.32159700035915,48.92014999990142],[-122.32187299964535,48.92015099985627],[-122.32344400036368,48.92015700017522],[-122.32464500028784,48.92016000003933],[-122.32790599975353,48.920166999721474],[-122.32824499968727,48.92016800026628],[-122.32878799983547,48.92017000017523],[-122.32882100034576,48.921207999968594],[-122.33034699995991,48.92123499994151],[-122.33156200012778,48.921257000236565],[-122.33465500026232,48.92123799974082],[-122.33555300023777,48.9212330000752],[-122.33552899994832,48.922836999950675],[-122.33550899985684,48.924058999862616],[-122.33572200029218,48.92406100020603],[-122.33703600019425,48.924058999862616],[-122.33711300018713,48.924058999862616],[-122.33709499974546,48.92468100009779],[-122.33843100028714,48.92466400004347],[-122.34169199975288,48.9246030000092],[-122.34169000010304,48.92467300000353],[-122.34166300033885,48.92595500023569],[-122.34167800040748,48.92622999996101],[-122.34245400018419,48.9262169997677],[-122.34499400012477,48.926172999996396],[-122.34499400012477,48.9261599997883],[-122.34499900014765,48.92593300023948],[-122.3450319997596,48.92450900014914],[-122.34504099998044,48.923843999960035],[-122.3452989997233,48.92383999984601],[-122.3454960002651,48.92383899996503],[-122.35107400008864,48.92382300009561],[-122.35258399980928,48.92381899997992],[-122.35258700018233,48.9236629999394],[-122.3525860003574,48.92359599995782],[-122.3525849996342,48.92351999972012],[-122.35256999956556,48.92263400014317],[-122.3526209996192,48.92210499971639],[-122.35263999988578,48.92018300017182],[-122.35263300021307,48.91979399994463],[-122.35262599964207,48.919367000183016],[-122.35262200034241,48.919128000159404],[-122.35261800014449,48.918859000170265],[-122.35261700031957,48.91873500004731],[-122.35264499990865,48.918733000080906],[-122.35280700029034,48.91873799999683],[-122.35294100018467,48.91874699984418],[-122.35296799994883,48.918748999810035],[-122.35366199970977,48.91881499981912],[-122.35371500031157,48.91881599980069],[-122.35387599997003,48.91880200005676],[-122.35398300010017,48.91879900011114],[-122.35446799962374,48.91880200005676],[-122.35484599991553,48.9187960001653],[-122.35522300038237,48.91880100007491],[-122.35618800030498,48.91886799999581],[-122.35672600043031,48.91889500005307],[-122.35704899957221,48.91889600003305],[-122.35742600003906,48.918891000132945],[-122.35796300033948,48.91885400026646],[-122.35850099956653,48.91884199990503],[-122.35893199956175,48.918856000228025],[-122.35905899978336,48.918894000073074],[-122.3593149998764,48.91897200022366],[-122.35967899992445,48.91892799997206],[-122.35994500006323,48.918957999933134],[-122.35997299965234,48.91896099986924],[-122.35997699985029,48.91878399978992],[-122.35997900039843,48.91858200002363],[-122.35998900044416,48.91850499984215],[-122.35999399956872,48.91839299990295],[-122.3600120000104,48.917193999819546],[-122.36002999955372,48.91532199985304],[-122.36004999964521,48.91393399997949],[-122.36006100041419,48.91308800011242],[-122.36396600031046,48.91315100023194],[-122.36397700018111,48.913054999877545],[-122.36400999979308,48.91151300023383],[-122.36943600017895,48.91159399989016],[-122.36955400017973,48.90659500008995],[-122.36960600005828,48.90658299973577],[-122.37203100037112,48.90600099976605],[-122.37256399957529,48.9058740000699],[-122.37306099969273,48.90572399976663],[-122.37322399989937,48.905833999875576],[-122.37335100012098,48.90591400023221],[-122.37352699984807,48.90597800018906],[-122.37364300019902,48.90599199998418],[-122.37375199997895,48.9060070000134],[-122.37403900003413,48.90602000015313],[-122.37512299978242,48.906033000289504],[-122.3779869995881,48.90607799973619],[-122.3779940001591,48.90434900011707]]]},"properties":{"AREALAND":"4055003","AREAWATER":"100459","BASENAME":"Everson","CBSAPCI":"N","CENTLAT":"+48.9114817","CENTLON":"-122.3535904","FUNCSTAT":"A","GEOID":"5322745","INTPTLAT":"+48.9125165","INTPTLON":"-122.3537184","LSADC":"25","MTFCC":"G4110","NAME":"Everson city","NECTAPCI":"N","OBJECTID":15469,"OID":"27890482591092","PLACE":"22745","PLACECC":"C1","PLACENS":"02410471","STATE":"53","DISP_CLR":3,"slug":"everson","jurisdiction_key":"everson_city","county_fips":["53073"]}}]}
