{"type":"FeatureCollection","features":[{"type":"Feature","geometry":{"type":"Polygon","coordinates":[[[-122.52645599978045,47.21963699975595],[-122.52645800032859,47.21729399971996],[-122.52525099965834,47.217305000176886],[-122.52177299955935,47.217332000068396],[-122.52061000016832,47.217336000231974],[-122.52007299986789,47.21733799970346],[-122.51982000014792,47.21733999978503],[-122.5195599998569,47.21734099982581],[-122.51785799961733,47.217349000151245],[-122.51586500002293,47.21735599982483],[-122.51585199960412,47.21825599993408],[-122.51583900008366,47.21920999973499],[-122.51581800016726,47.220759000277276],[-122.5158149997942,47.2210079998897],[-122.51499200016183,47.2210119997759],[-122.51378299984174,47.22102100012893],[-122.51252099981821,47.22102799992789],[-122.51200899963214,47.221029999870275],[-122.5119219995935,47.22103099984145],[-122.51191900011877,47.22079300007032],[-122.51188800015663,47.219211999745994],[-122.5118859996085,47.219140999920405],[-122.5118849997836,47.219099000228056],[-122.51188300013376,47.21901700015172],[-122.51188200030887,47.21894800008597],[-122.51188099958563,47.218914999731005],[-122.51187999976071,47.21887999994218],[-122.51187899993582,47.21881399973715],[-122.5118780001109,47.21874299998875],[-122.51187599956276,47.21867400017656],[-122.51187499973784,47.218606000291516],[-122.51187300008803,47.21853500026459],[-122.51187200026311,47.21846300012302],[-122.5118710004382,47.21840000007151],[-122.51186899989005,47.21833099981293],[-122.51186800006515,47.21826100005133],[-122.51186700024026,47.21819400027142],[-122.51186499969211,47.21812599977077],[-122.51186399986719,47.21806600001029],[-122.51186399986719,47.21804500004758],[-122.51186300004228,47.21801399979685],[-122.51185800001939,47.2177680002549],[-122.5118560003696,47.21765700016976],[-122.51185499964636,47.21762999983358],[-122.51184799997368,47.217480999855276],[-122.5118499996235,47.21738899992983],[-122.51008700018284,47.217398999717254],[-122.50821099986602,47.21741300027062],[-122.50793200020676,47.217415999778574],[-122.50763799958055,47.217417999857254],[-122.50755200026515,47.217417999857254],[-122.50687900042061,47.2174240000927],[-122.50674800000102,47.21742500013189],[-122.50664500006886,47.21742500013189],[-122.50653600028892,47.21742600017107],[-122.50641999993798,47.21742700021018],[-122.50631600018089,47.21742800024933],[-122.50619399998216,47.21742900028845],[-122.5060860000271,47.21742900028845],[-122.50596899985125,47.21742999971734],[-122.50586000007132,47.217430999756424],[-122.50577999970537,47.217431999795494],[-122.50574399972034,47.217431999795494],[-122.50563499994041,47.21743299983449],[-122.50551799976454,47.21743399987351],[-122.50536899980166,47.217434999912484],[-122.50529900037975,47.217434999912484],[-122.5052039999452,47.217435999951476],[-122.50520300012028,47.217497999890305],[-122.50518600040182,47.218882999977296],[-122.50518499967862,47.21901200010577],[-122.5051830000288,47.21911399972979],[-122.50517999965577,47.21930500017284],[-122.50515200006667,47.22106999992255],[-122.50515000041685,47.222284000146054],[-122.50514899969362,47.22282099975242],[-122.50514899969362,47.222890000268634],[-122.50513000032535,47.22538900008097],[-122.5051260001274,47.22598400021914],[-122.50512199992943,47.226504999844884],[-122.50515100024177,47.22830599977188],[-122.50515000041685,47.228417999965174],[-122.50513899964787,47.22947100030283],[-122.50512899960214,47.22988899996547],[-122.50511299970862,47.23067199998436],[-122.5051119998837,47.23083699973267],[-122.50510699986081,47.23200000000192],[-122.50509199979219,47.2327670002884],[-122.5050909999673,47.233246000264884],[-122.50508900031748,47.23327399970808],[-122.50506699967785,47.23361100014581],[-122.50508000009664,47.234413000221444],[-122.50505499998229,47.23595099972865],[-122.50503700043895,47.2360059997128],[-122.50500599957847,47.237527000242956],[-122.50502999986792,47.23928400009121],[-122.5050280002181,47.23971200027151],[-122.50502200037032,47.24049799973447],[-122.50502200037032,47.240563000175236],[-122.50501700034745,47.240833000167186],[-122.50501499979931,47.24111000019948],[-122.5049849996621,47.241709000262254],[-122.50496999959347,47.24199799977144],[-122.50495000040029,47.24291199981766],[-122.50526900024252,47.24290099979542],[-122.5053999997638,47.24290499985918],[-122.5056890003671,47.24290300013225],[-122.50614499957834,47.24290099979542],[-122.50882099996139,47.24287000005307],[-122.50909600032098,47.24286599998666],[-122.50951200024758,47.242857999852866],[-122.51030599956768,47.242847999988854],[-122.51064000037681,47.242842999751225],[-122.5116189996448,47.24283100015477],[-122.51176799960773,47.24282899981519],[-122.51295099998855,47.24281399970534],[-122.51369800035124,47.24280399983302],[-122.51431400029442,47.242796000299776],[-122.51482499975727,47.24278899971615],[-122.51595299988648,47.242771999863095],[-122.51707400034302,47.24278400008277],[-122.51959199964398,47.24275600017577],[-122.52013899999012,47.24275099992946],[-122.52119799962408,47.2427410000453],[-122.52271499991573,47.24273199972101],[-122.5238189997555,47.24272499973874],[-122.5257970001796,47.24271300011557],[-122.52636999956674,47.242709000037266],[-122.52635700004626,47.24002099988709],[-122.52639600040432,47.23906400000408],[-122.52639499968109,47.238600000251836],[-122.52639200020634,47.23760600015927],[-122.52637600031282,47.235445000001825],[-122.5263319999319,47.232141999884675],[-122.52629799959671,47.22820199985977],[-122.52573500025532,47.228196000234],[-122.52497799984685,47.22818900016139],[-122.52363700018064,47.22820800009487],[-122.52125899972344,47.228207000259054],[-122.52112999985202,47.228196000234],[-122.52106700010283,47.228174000177034],[-122.52103600014067,47.228148000153375],[-122.52100699982837,47.22808299973345],[-122.52099099993482,47.22800500010036],[-122.52099000010993,47.22771500006682],[-122.52100199980548,47.22733500022961],[-122.52101100002632,47.22697100029678],[-122.52102199989699,47.226426999719855],[-122.52103600014067,47.22508500002246],[-122.52103699996559,47.22500200015706],[-122.52116800038515,47.224999999754445],[-122.52116699966192,47.22496899990987],[-122.521642999863,47.22496999980671],[-122.5217059996122,47.22496999980671],[-122.52171099963506,47.22460899981633],[-122.52173699957433,47.22460899981633],[-122.52189499975808,47.22460799991264],[-122.52236400028644,47.22460400029775],[-122.52372599986907,47.22459900016861],[-122.52441899980512,47.224595999846855],[-122.52506999990835,47.22459300013505],[-122.52636200006911,47.22458700010078],[-122.52638299998553,47.22347200014737],[-122.52639999970398,47.22259899976347],[-122.52641099957464,47.2209439998388],[-122.52645199958248,47.219853999979044],[-122.52645599978045,47.21963699975595]],[[-122.51390599986541,47.228266000299065],[-122.51390400021556,47.22827599986509],[-122.51305999976847,47.22828399976053],[-122.51264600039,47.22828799970784],[-122.51241700006115,47.22828999998638],[-122.51140100008492,47.22830099999194],[-122.51064500039969,47.228308999883595],[-122.50954800023261,47.228314000272825],[-122.5095470004077,47.228256999955995],[-122.5095470004077,47.22820400014156],[-122.5095470004077,47.22818299992415],[-122.50953499981382,47.22724400017574],[-122.50768399961133,47.22725399993452],[-122.50767199991574,47.22651200013988],[-122.50644300040253,47.2265189998239],[-122.50641699956492,47.22481000020557],[-122.50641400009017,47.224696999807364],[-122.50645500009807,47.224696999807364],[-122.50648000021242,47.224696999807364],[-122.50703500005619,47.22469300019919],[-122.5071470002092,47.22469300019919],[-122.5075129999071,47.224689999882756],[-122.50760900016655,47.224689999882756],[-122.50791899978795,47.224688000078444],[-122.50808100016967,47.22468700017623],[-122.50844000019488,47.22468399985951],[-122.50877099973266,47.22468200005497],[-122.50887700003788,47.22468100015264],[-122.50903400039668,47.2246800002503],[-122.50929899981226,47.224678999737904],[-122.50953300016398,47.22467699993318],[-122.5097669996174,47.22467600003076],[-122.50979799957953,47.22467500012833],[-122.50981699984611,47.22467500012833],[-122.50985700002911,47.22467500012833],[-122.51014800028221,47.22467299971338],[-122.51043699998723,47.22467099990842],[-122.51052999987364,47.22467099990842],[-122.5107380002861,47.22466900010338],[-122.51103000036414,47.22466700029828],[-122.51171300025443,47.22466300007771],[-122.51196599997445,47.224661000272384],[-122.51196699979934,47.22470199992727],[-122.51196799962428,47.224743000160515],[-122.5119700001724,47.22481399980492],[-122.51197199982222,47.22488300016736],[-122.51197299964714,47.224951999829955],[-122.51197400037034,47.22499399976624],[-122.51197500019526,47.225021999908634],[-122.51197699984512,47.225091000000326],[-122.51197799967001,47.22516000000221],[-122.51197900039324,47.225182000090044],[-122.51198000021814,47.22522899991428],[-122.51198199986798,47.22529799973653],[-122.51198299969288,47.22536700007905],[-122.51198600006593,47.2254440000458],[-122.51246999976459,47.22543399994551],[-122.51247300013765,47.22556899991998],[-122.51261700007768,47.225564999767485],[-122.51322200015018,47.22556200011052],[-122.5132229999751,47.22563100010935],[-122.51322399980002,47.22567599976845],[-122.51322499962491,47.225700000018406],[-122.51322600034815,47.225768999837655],[-122.51322700017307,47.2258380001771],[-122.51322899982289,47.225906999816715],[-122.5132299996478,47.225975999976576],[-122.51323200019594,47.22604400017],[-122.51323300002083,47.226113000151486],[-122.51323300002083,47.22613999982806],[-122.51323399984575,47.22618200004321],[-122.51323600039389,47.22625099984506],[-122.51323700021881,47.22633299971385],[-122.51323899986862,47.22641599993547],[-122.51323999969354,47.22647000018621],[-122.51372599994035,47.22646600010175],[-122.51373000013832,47.22657499970296],[-122.51386200038277,47.2265739998364],[-122.51386700040564,47.226784999942666],[-122.51386900005548,47.22684699992987],[-122.51387400007833,47.227053000271866],[-122.51387599972817,47.22713100008578],[-122.51390599986541,47.228266000299065]]]},"properties":{"AREALAND":"4101099","AREAWATER":"0","BASENAME":"Fircrest","CBSAPCI":"N","CENTLAT":"+47.2307163","CENTLON":"-122.5157038","FUNCSTAT":"A","GEOID":"5323970","INTPTLAT":"+47.2307163","INTPTLON":"-122.5157038","LSADC":"25","MTFCC":"G4110","NAME":"Fircrest city","NECTAPCI":"N","OBJECTID":15368,"OID":"278901445839834","PLACE":"23970","PLACECC":"C1","PLACENS":"02410506","STATE":"53","DISP_CLR":4,"slug":"fircrest","jurisdiction_key":"fircrest_city","county_fips":["53053"]}}]}
