{"type":"FeatureCollection","features":[{"type":"Feature","geometry":{"type":"Polygon","coordinates":[[[-122.39963299960866,47.24046399977242],[-122.39963400033187,47.2404449999635],[-122.39948500036898,47.24040999975198],[-122.39927000028382,47.24035999993243],[-122.39871700008987,47.24023099991176],[-122.39851299987534,47.24015899996221],[-122.39780400004578,47.23991199988301],[-122.3973689998526,47.23976000024713],[-122.39724500000403,47.23969099973489],[-122.39716700018624,47.239647000006514],[-122.39704099978954,47.23957600010447],[-122.39698899991102,47.23954700009997],[-122.39694000040554,47.23951999993425],[-122.39627500005857,47.23914699980604],[-122.3960950001335,47.23902700022682],[-122.39594799982041,47.238929000246884],[-122.3958900000941,47.23888999988703],[-122.39567699965879,47.23874700015174],[-122.39558899979522,47.23868800019112],[-122.3954599999238,47.238602999780895],[-122.395305999938,47.23850000019892],[-122.39518399973927,47.2384189998896],[-122.39513699988362,47.23838799996436],[-122.39426999987029,47.237814000078174],[-122.39426999987029,47.237748000268596],[-122.39411300040977,47.23763399973848],[-122.39402200017317,47.23752999983276],[-122.3939400001574,47.23744399973303],[-122.39368499988927,47.237220999717906],[-122.39340200003207,47.23695100022682],[-122.39305899990039,47.23673900005075],[-122.39261299983654,47.23647800010178],[-122.39232199958342,47.23633499995621],[-122.39224799996356,47.236282000290466],[-122.39203100022857,47.236188999759186],[-122.39175300039425,47.236044999755656],[-122.39152599971523,47.235954999707246],[-122.39123299981226,47.23583900020552],[-122.39102500029809,47.23575299980103],[-122.39083399960407,47.23567299986689],[-122.39058099988408,47.235568000074984],[-122.38972599956632,47.23520199994054],[-122.38798099966907,47.2344549999807],[-122.38297299975791,47.232561999948416],[-122.37823799965825,47.23077200017038],[-122.37654200016479,47.23006799997307],[-122.37604900024527,47.22986399997762],[-122.37204100041686,47.22834899993396],[-122.37119100012198,47.228028000066665],[-122.36878000005282,47.22711700026841],[-122.36787200003162,47.22677500009536],[-122.36544599989388,47.22585800022337],[-122.36228499998728,47.22466499988302],[-122.36048400001349,47.223901999758695],[-122.35721900034983,47.22251900010572],[-122.35719599988529,47.22250900006375],[-122.35703299967868,47.22244000027186],[-122.35555200027034,47.22181300019565],[-122.3529239995679,47.22046299975813],[-122.35222300013425,47.220058000062025],[-122.35147499994662,47.21963499976102],[-122.35126300023452,47.21951599992629],[-122.35060899975824,47.21915199999414],[-122.34911699958091,47.21832000017901],[-122.34714400007802,47.21721900020476],[-122.34564299967988,47.216350000210014],[-122.3454960002651,47.216268000153434],[-122.3419269999295,47.21415899982013],[-122.34164099969924,47.21399000021694],[-122.34135100016933,47.2138189998608],[-122.34060600035474,47.21348900007696],[-122.34058500043835,47.21347599982157],[-122.34012299958269,47.21322700022847],[-122.33992199974122,47.21311800003135],[-122.33813500001115,47.21199499999305],[-122.33696099985117,47.211396000287344],[-122.33671599962878,47.21132599991386],[-122.33611800012731,47.21115399996366],[-122.33493999976936,47.21088800013432],[-122.33240200037693,47.21017000006877],[-122.33118700020906,47.20982600004564],[-122.3307250002517,47.20976600004725],[-122.32996100017056,47.209501999736155],[-122.32814400030323,47.209067999716105],[-122.32677400032469,47.208660000246816],[-122.3259519996189,47.20852000011853],[-122.32525299983507,47.208281000122255],[-122.32510100039741,47.20831000014857],[-122.32177999975893,47.207380000138976],[-122.3208459997985,47.207134000086725],[-122.32039899990973,47.20701700013037],[-122.32040200028277,47.20713099999718],[-122.32040300010769,47.20716600021764],[-122.32040499975751,47.20725699995034],[-122.32040999978038,47.20750199981612],[-122.32041499980325,47.20771600021275],[-122.3204959999941,47.2077400000494],[-122.32055000042078,47.20985600001939],[-122.32054299984976,47.21174500001244],[-122.32053799982688,47.21242899986027],[-122.3205460002228,47.21360400017928],[-122.3205160000856,47.21628600002791],[-122.32052100010844,47.217170999946845],[-122.32053899965182,47.21780999978129],[-122.32053500035215,47.21821100007789],[-122.32053700000199,47.21836099985679],[-122.32054700004772,47.21908900015114],[-122.32057600036005,47.21983500010181],[-122.32060399994913,47.2205630002915],[-122.32060200029932,47.22076800006314],[-122.3206009995761,47.22087999971065],[-122.32057800000986,47.222948000190954],[-122.320572999987,47.2234240000595],[-122.3205599995682,47.22459699975078],[-122.32050600003986,47.22587099988336],[-122.3204829995753,47.22641900015416],[-122.32041300015344,47.228219000117434],[-122.3204259996739,47.228508999833615],[-122.32045800035928,47.22861500001961],[-122.3205029996668,47.22869900015461],[-122.32054399967468,47.22875699982153],[-122.32063999993416,47.22885200023272],[-122.3206919998127,47.22891100016474],[-122.32075299991206,47.228956000089454],[-122.32090699989783,47.22908200004141],[-122.321045999815,47.22921299999821],[-122.32116299999088,47.229309999832125],[-122.32131799980155,47.22946999988087],[-122.32148799968088,47.22969000015048],[-122.32175800001764,47.2300050002915],[-122.32187900039146,47.23012399976267],[-122.32199599966901,47.2302280001736],[-122.32283900029118,47.23077099977297],[-122.32296999981243,47.23088000028144],[-122.32302099986607,47.23092999989681],[-122.32360599984706,47.23161499969865],[-122.32381599990937,47.231841000038266],[-122.32388700005447,47.23195599998683],[-122.3239180000166,47.23202399982841],[-122.32394099958282,47.232172999804156],[-122.3239310004354,47.232316000201635],[-122.32386399958992,47.232546999981665],[-122.32384600004657,47.23262699975524],[-122.32380000001584,47.23296400003752],[-122.32380800041176,47.23306999985343],[-122.32384000019879,47.233293999998395],[-122.32388799987937,47.233445999884296],[-122.32390999962068,47.23356700024829],[-122.32391899984152,47.23372100003477],[-122.323902999948,47.23390299970444],[-122.32385199989437,47.234171999754],[-122.32382000010732,47.23447699987034],[-122.32383400035103,47.23507100014802],[-122.32383600000084,47.235154000105354],[-122.32387700000874,47.23532999969505],[-122.3239039997729,47.23538800003477],[-122.32396099967433,47.235487999861505],[-122.32404299969009,47.23560099982285],[-122.32422400033835,47.23581300028233],[-122.32437999997396,47.23600899999862],[-122.32472399993055,47.23652299970097],[-122.32485699999994,47.236791999869304],[-122.3249170002744,47.23688800018828],[-122.32500599996287,47.23698800023389],[-122.32514200040531,47.23711599994376],[-122.32524299978934,47.23718700009264],[-122.32538099988159,47.23727199972482],[-122.32556500000462,47.237365999848166],[-122.32573499988392,47.2374430000715],[-122.32602699996197,47.23758899986297],[-122.3260999997569,47.237626000034474],[-122.32627700020723,47.23772999975177],[-122.32646899982782,47.23786399986073],[-122.32655400021665,47.237923999781444],[-122.32668599956281,47.238021000139824],[-122.32694000000603,47.23820799974485],[-122.32713300034987,47.23834500001834],[-122.32728300013773,47.23848000004368],[-122.3273529995596,47.238549000303344],[-122.32739000026781,47.23859700011274],[-122.32753599985769,47.23883900021763],[-122.3275640003451,47.23893300000067],[-122.32757199984272,47.23905099992045],[-122.3283030003119,47.239049000048055],[-122.32884999975975,47.239049000048055],[-122.32883800006418,47.24001400015652],[-122.3288179999727,47.24269999970755],[-122.32911900027156,47.24269500006582],[-122.33092699991803,47.24266400020292],[-122.3309500003826,47.24435700001336],[-122.33224199964503,47.24393099984462],[-122.33383599992958,47.24340499996628],[-122.3343089997576,47.243242000032666],[-122.33495200036323,47.24303699996536],[-122.33513700031116,47.24299299996652],[-122.3352739996802,47.242959999943395],[-122.33554400001692,47.24289300027677],[-122.33573700036078,47.24284699981941],[-122.33576099975193,47.242940999809896],[-122.33584600014075,47.243217000245444],[-122.33586100020935,47.243266000256426],[-122.3359630003166,47.24359399978517],[-122.33605700002794,47.24389099996779],[-122.33618699972426,47.24430200015986],[-122.33632300016673,47.24473000005236],[-122.33633700041041,47.244774999961265],[-122.33667200014617,47.2449599998628],[-122.33670200028341,47.24493900018669],[-122.33676900023057,47.24486099974862],[-122.3369139999955,47.24477200017183],[-122.33704600024,47.24467200018116],[-122.33720799972336,47.24453999987999],[-122.3373640002573,47.2444370002528],[-122.33748399990789,47.24435700001336],[-122.33769800016815,47.24423400021762],[-122.33799100007111,47.24407400022455],[-122.33824299996618,47.24395300006894],[-122.33839500030216,47.24387399985856],[-122.33863200012863,47.24377000000405],[-122.33921999958436,47.243484000266214],[-122.3396380000591,47.24331699993346],[-122.33960799992185,47.24418600002651],[-122.33958500035564,47.244710999943834],[-122.33957399958669,47.24498399991803],[-122.33954099997472,47.24556599991084],[-122.33953400030204,47.24568099995552],[-122.33954099997472,47.24576399975837],[-122.33947200037774,47.24574200028616],[-122.33939700003467,47.24573000012669],[-122.33932699971447,47.24572500016109],[-122.33924700024686,47.24572500016109],[-122.33918100012461,47.24573299986188],[-122.33909599973579,47.24576100002488],[-122.33907200034466,47.24577499979591],[-122.33897500026029,47.24583700013136],[-122.33890599976499,47.24594199969789],[-122.33889099969639,47.2459860002965],[-122.33887700035099,47.24607099983869],[-122.33889099969639,47.24727599991188],[-122.33889200041959,47.247674000265384],[-122.33931699966872,47.247674000265384],[-122.33954699982249,47.247674000265384],[-122.33955900041639,47.247967999917556],[-122.3395610000662,47.24801899994628],[-122.33956500026417,47.24811500004643],[-122.34066300025614,47.24810499995519],[-122.34069000002036,47.24810499995519],[-122.34068199962441,47.24786899993691],[-122.34066599973089,47.24733899979471],[-122.3412230001228,47.24734400021778],[-122.34145300027657,47.24734599977706],[-122.34151600002579,47.24734699986161],[-122.3415040003302,47.24674700003008],[-122.3422990003735,47.24674399974249],[-122.34230000019839,47.24682000026808],[-122.34379200037571,47.246816999984574],[-122.34393499959252,47.24690900006289],[-122.344066999837,47.24705000015114],[-122.34417399996714,47.24717400020398],[-122.34434899986931,47.247625000063046],[-122.34440699959563,47.247774000077165],[-122.3446019995893,47.24811700018642],[-122.34461300035828,47.24812700027539],[-122.34548799986918,47.248130999944586],[-122.34548600021937,47.24820600024117],[-122.34544400038655,47.24995700001653],[-122.3461210004291,47.24995700001653],[-122.34673800019713,47.24994999976944],[-122.34673800019713,47.25229199970795],[-122.34755900017973,47.25229199970795],[-122.34754499993599,47.25292000017733],[-122.3475380002633,47.25364199980999],[-122.34999500036322,47.25365499997159],[-122.34999399963998,47.253730999726756],[-122.34999600018811,47.25400700003837],[-122.34998899961711,47.25466799974839],[-122.35038600017546,47.25467499998155],[-122.35038199997751,47.255524999818505],[-122.35025800012895,47.255524999818505],[-122.35025399993097,47.256657999950505],[-122.34914699971816,47.256650999979435],[-122.34914400024343,47.256991000204565],[-122.35025300010605,47.25699900003295],[-122.35025200028116,47.257393000297284],[-122.35093900036942,47.25739799977114],[-122.35161800006176,47.25740199995957],[-122.35252500025804,47.25740899983136],[-122.35261700031957,47.25740899983136],[-122.35282999985655,47.25741100023003],[-122.35289699980375,47.25741300001896],[-122.35292299974299,47.25741399991342],[-122.35302800022329,47.25741599970219],[-122.35311600008684,47.25741800010063],[-122.35326900024772,47.25742200028755],[-122.35333600019486,47.257424000076064],[-122.35342499988332,47.25744199999827],[-122.35453499957089,47.25743799981287],[-122.35467100001333,47.25742200028755],[-122.35594100043276,47.25743299973308],[-122.35663099999579,47.25744000021048],[-122.35666000030808,47.25650700010828],[-122.356661000133,47.256476999704745],[-122.35758199967466,47.256480000050715],[-122.35856000001606,47.25648399969883],[-122.35891900004127,47.25648600013243],[-122.35881500028418,47.25642400006813],[-122.35864799987961,47.25632500004107],[-122.35760299959107,47.25570499973343],[-122.35760199976615,47.25556999970213],[-122.35760799961393,47.25531599999305],[-122.35854499994745,47.25506899985643],[-122.35974800041974,47.25475399993612],[-122.36066800013653,47.25451199997303],[-122.36068499985495,47.253690999933404],[-122.36068700040308,47.25365400000619],[-122.36062399975557,47.25365400000619],[-122.3599569997588,47.25365499997159],[-122.35961199997732,47.25365499997159],[-122.35940100009012,47.25365499997159],[-122.35941600015872,47.25304499987921],[-122.35941899963346,47.25299699974563],[-122.35943100022733,47.252550999829005],[-122.3594429999229,47.25210599980953],[-122.35945100031883,47.25181099995534],[-122.35963000041897,47.25181099995534],[-122.35966899987872,47.25181099995534],[-122.35967100042684,47.25174299989644],[-122.35969499981798,47.250857999704344],[-122.359654999635,47.250857999704344],[-122.35950900004515,47.250857999704344],[-122.35952800031173,47.25001899972541],[-122.35941199996077,47.24998599981073],[-122.35941500033383,47.24976200010492],[-122.35944700012085,47.24650600016749],[-122.35945100031883,47.24637300006479],[-122.35945299996865,47.24630200002912],[-122.3594560003417,47.246270999837705],[-122.36418600041847,47.246294999908784],[-122.36479700033877,47.24629299970004],[-122.36611700008861,47.24629399980442],[-122.36740800042443,47.24629399980442],[-122.36953200043841,47.24630400023757],[-122.37266700040574,47.24631799986509],[-122.37303200027871,47.24633800011064],[-122.37298299987492,47.2453229999181],[-122.37762799956289,47.245366999811246],[-122.37762300043833,47.24571799996451],[-122.37762099989021,47.24584499981528],[-122.3780209999233,47.245847000040996],[-122.37818800032785,47.245847000040996],[-122.37824000020639,47.24584800015379],[-122.38082700000265,47.24585599983605],[-122.38082799982757,47.245984000076035],[-122.38081799978181,47.246355000038974],[-122.3807950002156,47.246355000038974],[-122.38074900018486,47.246355000038974],[-122.38074800035993,47.24640500029884],[-122.38074099978891,47.24665199998746],[-122.38074400016197,47.24679499973009],[-122.38079699986541,47.24679599982499],[-122.38080799973608,47.24696400025872],[-122.38149999984721,47.246965999832355],[-122.38233599989837,47.246968000015734],[-122.38249900010499,47.246965999832355],[-122.38437700007168,47.24695399995018],[-122.38560099956206,47.246958999799766],[-122.38560099956206,47.24693199975259],[-122.38559800008731,47.2466189998044],[-122.38559499971426,47.24638799977673],[-122.38559800008731,47.24599799978813],[-122.38559800008731,47.24597300008184],[-122.38560399993509,47.24526799984786],[-122.38561999982863,47.244971000067345],[-122.38563900009521,47.244795999702426],[-122.38563900009521,47.244668000250776],[-122.38563900009521,47.244551999699226],[-122.38624800036565,47.24455699977555],[-122.38649699988767,47.24455900004989],[-122.38665699972124,47.244560000187015],[-122.38677800009509,47.24456099971431],[-122.38682999997361,47.24456099971431],[-122.38689799974567,47.2445619998514],[-122.38722800035688,47.24456400012555],[-122.38750600019122,47.24456599978978],[-122.38774800004055,47.244568000063786],[-122.38793999966117,47.244569999727865],[-122.38831499957989,47.24457200000172],[-122.3886250000996,47.24457499980249],[-122.38874300010039,47.24457599993931],[-122.38881599989534,47.244578999739886],[-122.38890299993395,47.244583999813656],[-122.38905199989688,47.244583999813656],[-122.3893139998377,47.244584999950305],[-122.3894629998006,47.244584999950305],[-122.38967200003798,47.244584999950305],[-122.38987200005452,47.244586000086976],[-122.38998900023037,47.244586000086976],[-122.390108999881,47.244586000086976],[-122.39050700026422,47.244587000223596],[-122.39063100011282,47.244587000223596],[-122.391026000123,47.24458799975038],[-122.39114699959853,47.24458899988695],[-122.39197699980191,47.244590000023514],[-122.39209800017574,47.24459100016009],[-122.39221899965128,47.24459100016009],[-122.39262200005739,47.244592000296606],[-122.39302299991539,47.2445929998233],[-122.39326499976472,47.2445929998233],[-122.39366700034593,47.24459399995978],[-122.39423999973305,47.2445950000963],[-122.39423999973305,47.24467899990612],[-122.39423999973305,47.2446919998285],[-122.39423999973305,47.245005000186175],[-122.39433900036559,47.245006999833755],[-122.39481200019357,47.24500900009106],[-122.39554100011465,47.24501199986714],[-122.39647800044817,47.24501599977154],[-122.3969040004205,47.24501900015701],[-122.39690900044337,47.2446919998285],[-122.3969110000932,47.24460599976679],[-122.39824699973659,47.24461099983801],[-122.39824500008675,47.24469500023232],[-122.39824099988878,47.24484399995065],[-122.39831500040695,47.24484500008241],[-122.39957400005744,47.24484899999942],[-122.39957900008028,47.244618999707036],[-122.3996009998216,47.24371200030146],[-122.39960300036974,47.24356200029239],[-122.39960800039263,47.24340799983314],[-122.3996130004155,47.243198000204075],[-122.39962099991308,47.24284399992079],[-122.39962599993598,47.24185499988636],[-122.39962699976087,47.241671999892596],[-122.39963000013393,47.24120799980463],[-122.39963000013393,47.241165999908915],[-122.39963099995884,47.24102000021572],[-122.39963099995884,47.24099099978177],[-122.39963099995884,47.24084299980164],[-122.39963299960866,47.240543999791925],[-122.39963299960866,47.24046399977242]]]},"properties":{"AREALAND":"15109465","AREAWATER":"336136","BASENAME":"Fife","CBSAPCI":"N","CENTLAT":"+47.2331005","CENTLON":"-122.3516214","FUNCSTAT":"A","GEOID":"5323795","INTPTLAT":"+47.2322930","INTPTLON":"-122.3506106","LSADC":"25","MTFCC":"G4110","NAME":"Fife city","NECTAPCI":"N","OBJECTID":25584,"OID":"278901445839833","PLACE":"23795","PLACECC":"C1","PLACENS":"02410502","STATE":"53","DISP_CLR":2,"slug":"fife","jurisdiction_key":"fife_city","county_fips":["53053"]}}]}
