{"type":"FeatureCollection","features":[{"type":"Feature","geometry":{"type":"MultiPolygon","coordinates":[[[[-119.8667479999493,47.07867700018033],[-119.86647900033579,47.07853300029052],[-119.86648199981052,47.07826999979754],[-119.86644300035078,47.07773400002164],[-119.86643599977978,47.07764899989969],[-119.86643599977978,47.077580000211945],[-119.86641400003846,47.0738090001155],[-119.8664109996654,47.07334799988799],[-119.8664109996654,47.07329900016287],[-119.86631799977899,47.07329599985359],[-119.8662480003571,47.07329599985359],[-119.86162100021248,47.07329900016287],[-119.861200000263,47.07329900016287],[-119.86119199986709,47.0726430003027],[-119.86123399969988,47.06604600011376],[-119.86110599965333,47.066053000155755],[-119.85877300030035,47.06604500028249],[-119.85878699964572,47.06300500009362],[-119.85842000012293,47.06342200021563],[-119.85825600009139,47.06355099993619],[-119.85818800031933,47.06360599993083],[-119.85797099968603,47.06374899989611],[-119.85768199998104,47.06390799986933],[-119.85748600016244,47.06398799991895],[-119.85740699962143,47.06402099989678],[-119.85719999993219,47.06408500005525],[-119.85689699998348,47.064151999737184],[-119.85656499972245,47.06419500010974],[-119.85616100038975,47.064210999798405],[-119.85607799965074,47.06420999993273],[-119.85578100044813,47.064206999723716],[-119.85579099959556,47.0658759997733],[-119.85581700043313,47.069928000299264],[-119.85582400010586,47.07088499975042],[-119.85583499997651,47.07255500027424],[-119.85583199960345,47.07265400014308],[-119.85582599975567,47.07295000016808],[-119.85582400010586,47.073050000226665],[-119.85582699958056,47.0731800002058],[-119.85582900012872,47.07330599986414],[-119.85376200001615,47.07329500015833],[-119.85360600038052,47.07329399985128],[-119.85321399984505,47.07329199984883],[-119.85249099977179,47.07328799984381],[-119.84933700043622,47.0732730001281],[-119.84925399969721,47.07326999981736],[-119.84917099985655,47.0736969997236],[-119.84887399975561,47.07530599974261],[-119.84887200010581,47.075360999844285],[-119.84886500043311,47.07541500023368],[-119.84877599984634,47.07605100002246],[-119.84878500006715,47.076743999946245],[-119.84890399989284,47.077448000108234],[-119.8492460001996,47.078851999858074],[-119.84947399980526,47.07951799982176],[-119.84971099963171,47.08054699969435],[-119.84996800044797,47.08120499983634],[-119.85012800028154,47.08161299997223],[-119.85070599969153,47.082642999887334],[-119.85123499959604,47.083352999892284],[-119.851350999947,47.08354500023255],[-119.85204200023323,47.08430100019791],[-119.85305400001151,47.085193999855136],[-119.85380499967386,47.0856190000922],[-119.85400100039074,47.08573099989243],[-119.85510699988035,47.08631800011649],[-119.8551660003299,47.0863500002752],[-119.85519800011696,47.08637000028816],[-119.8552729995617,47.0864160000448],[-119.85549799969259,47.086555999804375],[-119.8555739998606,47.08660300006934],[-119.85562699956404,47.08656400026888],[-119.85564699965552,47.08655100012516],[-119.85578899994574,47.08645000026492],[-119.8558430003724,47.086411999801605],[-119.85583199960345,47.086963999941005],[-119.85591600016735,47.08709200013143],[-119.85588000018235,47.08755999977672],[-119.8560729996279,47.08747600008042],[-119.85614799997094,47.08744399998654],[-119.85618300013103,47.087427999932366],[-119.85628299969015,47.08738199982634],[-119.85636399988101,47.08734400002791],[-119.85677499978476,47.087155000064385],[-119.8570169996341,47.0870520000285],[-119.85723699974211,47.08695900030005],[-119.85748399961432,47.08685299972755],[-119.85822699977908,47.08653900003671],[-119.85847500037451,47.086433999912174],[-119.85860099987289,47.086338000141474],[-119.85892899993597,47.08616899975521],[-119.85894999985234,47.08612499991777],[-119.85934599968745,47.08524000001566],[-119.8596720001007,47.08451200018188],[-119.8593909998933,47.08430600008835],[-119.85921199979315,47.084174000132236],[-119.85910899986098,47.084098999705645],[-119.85855800021518,47.08449400027675],[-119.85834700032798,47.08464600010019],[-119.85822599995416,47.0845680000518],[-119.85789600024128,47.084353999991286],[-119.85786500027915,47.084333999833106],[-119.85774499973023,47.084257000040864],[-119.85778699956302,47.0842309998476],[-119.85737700038251,47.08396799995506],[-119.85715499972633,47.08382400029645],[-119.85630899962943,47.083278000144894],[-119.85587500015949,47.08300300016782],[-119.85587599998438,47.08294099973217],[-119.85587599998438,47.08292000014051],[-119.85587599998438,47.08285800021998],[-119.85587599998438,47.082838000111856],[-119.85587599998438,47.0826939998456],[-119.85587599998438,47.08265699989277],[-119.85587799963422,47.08226599971316],[-119.85587900035743,47.08216599982124],[-119.85587900035743,47.08212299987729],[-119.85587599998438,47.081873000042066],[-119.85586799958845,47.08112600009514],[-119.85586799958845,47.08108699995517],[-119.85586500011372,47.081005000163806],[-119.85617800010819,47.08138300024085],[-119.85637499975165,47.08162200010642],[-119.85645299956947,47.08169500005122],[-119.85659400003478,47.081828000179605],[-119.85749299983516,47.08256100004403],[-119.85793399987611,47.082684999892514],[-119.8583690000693,47.08301200006719],[-119.85849100026802,47.083093999828016],[-119.85860900026881,47.083157999717784],[-119.85881699978293,47.08329699996855],[-119.85921000014336,47.08356000011526],[-119.85927899974031,47.08360300012277],[-119.85945299981759,47.083718000214056],[-119.85954900007707,47.08378199996588],[-119.85967600029865,47.08369000014557],[-119.85991999979782,47.083534000193524],[-119.86005299986721,47.0834509997701],[-119.86013200040824,47.083538000041145],[-119.86037099988452,47.08379900000173],[-119.86045100025048,47.083885999704414],[-119.86126300001219,47.083655999998875],[-119.86137900036314,47.08363299985137],[-119.86218399955386,47.083475000112195],[-119.86256299967054,47.083409999874384],[-119.86287200036536,47.08334699979406],[-119.8631779997888,47.08324200010634],[-119.86356600012631,47.08308600006577],[-119.86387300027299,47.08288799975645],[-119.86408400016016,47.082730999772735],[-119.86457200005678,47.08237100010108],[-119.86486699960959,47.082169999771565],[-119.86622999991545,47.080827999885514],[-119.8663820002514,47.080676999736255],[-119.86638100042649,47.080203999905876],[-119.86637899987835,47.079395000135584],[-119.86637899987835,47.07904699988817],[-119.86637800005346,47.07894200029008],[-119.86646300044228,47.078881999815074],[-119.8667479999493,47.07867700018033]]],[[[-119.87446599968034,47.089033999976905],[-119.87459000042722,47.08883599975645],[-119.8743850003878,47.08883799978705],[-119.87427499988462,47.088836999771786],[-119.86649199985628,47.08877399999328],[-119.86649100003136,47.088757999727015],[-119.86649000020644,47.08865799978875],[-119.86648699983338,47.081502000231154],[-119.86648600000849,47.08090899978518],[-119.86647000011497,47.080924999962235],[-119.86638999974902,47.081005000163806],[-119.86637600040365,47.081018999987904],[-119.86633399967253,47.08106299976073],[-119.86487099980754,47.08253400011275],[-119.86456500038412,47.0828119998377],[-119.86442800011676,47.082998000155094],[-119.86412799964279,47.08328400025094],[-119.86399399974847,47.08340700013439],[-119.86385900002925,47.083533000078624],[-119.86373199980765,47.08366099994985],[-119.86363800009634,47.0837649999246],[-119.86348900013341,47.08395099997313],[-119.86343200023201,47.08403300012373],[-119.86338299982819,47.08411600025203],[-119.86334500019338,47.08420300004872],[-119.86331400023124,47.08429099980399],[-119.86327099967521,47.08444699998602],[-119.86306099961293,47.0855519998698],[-119.8630449997194,47.08561800001649],[-119.86303999969653,47.08564199999393],[-119.8630099995593,47.08572999981877],[-119.86297100009955,47.085813999821795],[-119.86288599971076,47.085950000273996],[-119.86284300005305,47.08600200019323],[-119.86279299982434,47.08604999979129],[-119.86276000021238,47.08607500025296],[-119.86264499968632,47.08614199981755],[-119.86251300034016,47.08620599971554],[-119.86227700033861,47.086274999853885],[-119.86206300007835,47.086317000053896],[-119.86182100022903,47.08633299983013],[-119.86158000020461,47.086337000079254],[-119.86154300039469,47.086338000141474],[-119.86034499994526,47.086317000053896],[-119.85998099989718,47.08632600000507],[-119.85971300010858,47.08635800015894],[-119.85948399977973,47.08640399992598],[-119.85916499993752,47.086494999893226],[-119.8587849999959,47.086632999943504],[-119.85869999960708,47.08666399985686],[-119.85788799984536,47.086935000304315],[-119.85668799974611,47.08743799973743],[-119.8563780001247,47.087574999752235],[-119.85626799962154,47.087623999805885],[-119.85616700023753,47.087667000202856],[-119.85586299956559,47.08779699999692],[-119.85583699962632,47.08812299995766],[-119.85583400015159,47.08816800000753],[-119.85583300032667,47.0882910002353],[-119.85582699958056,47.088757999727015],[-119.85666600000481,47.088768999910606],[-119.85684699975477,47.08869199980104],[-119.85690200000637,47.08879499972387],[-119.85704699977133,47.08907399981469],[-119.85762500007964,47.09014300008441],[-119.8578200000733,47.09051700021934],[-119.85807699999125,47.09100899974606],[-119.85822599995416,47.09129299970612],[-119.85841199972701,47.09164899978256],[-119.8586870000866,47.09217600004869],[-119.85893300013389,47.092640999838245],[-119.85962799971976,47.093952000041085],[-119.85989300003365,47.0944730000778],[-119.86051200034984,47.09520700013741],[-119.85967999959831,47.09560599983867],[-119.85965799985699,47.09561699983099],[-119.85947899975685,47.09570399980148],[-119.8538010003742,47.09690500023544],[-119.85352699983952,47.0969619997813],[-119.85352699983952,47.09704400008312],[-119.85351799961867,47.09959299992374],[-119.85351199977089,47.10134200002837],[-119.85351199977089,47.1014000001073],[-119.85368300037345,47.1014000001073],[-119.8537510001455,47.1014000001073],[-119.85406499996485,47.1014000001073],[-119.85481700035044,47.1014000001073],[-119.85650699999616,47.10140099988673],[-119.85655200020199,47.101372000161454],[-119.85679700042436,47.10121099988119],[-119.8569399996412,47.10111700002038],[-119.85705699981705,47.101201000216115],[-119.85852100040526,47.10225600008127],[-119.8598639997213,47.10318000024762],[-119.85990300007938,47.10320599975162],[-119.85998400027026,47.103262000145385],[-119.86034300029544,47.10326400024572],[-119.86088899991837,47.103260999789484],[-119.86182700007681,47.103245000206805],[-119.86203200011622,47.10324599995158],[-119.86402700025876,47.103259000300504],[-119.86423800014596,47.103264999990145],[-119.86879999999327,47.10325299999876],[-119.86896900004766,47.103257999944546],[-119.86902299957602,47.103260000045026],[-119.86916999988911,47.103291999808036],[-119.8683039997007,47.102474000018795],[-119.86808299976776,47.102264999785],[-119.86606500005901,47.100368999857935],[-119.86569799963789,47.100032999755484],[-119.86535000038165,47.09971500024977],[-119.86482099957882,47.09922999978654],[-119.86440300000243,47.0988470000196],[-119.86388699961836,47.098374999917986],[-119.86315500022256,47.09769199977138],[-119.86288300023602,47.09743800020479],[-119.86281200009088,47.097371000172515],[-119.86274199977069,47.09730499991228],[-119.86276799970996,47.09728799990613],[-119.86281899976359,47.09725399987754],[-119.86283100035746,47.09724700026463],[-119.86305399994025,47.09710400028359],[-119.86313299958293,47.09705399991739],[-119.86329400013976,47.09694500027719],[-119.86872499965018,47.09336999981157],[-119.87027000042924,47.09233900002671],[-119.87123000032899,47.091721000092825],[-119.87209599961906,47.09113700000165],[-119.8725350000102,47.09081300009636],[-119.8730420001734,47.09044200016074],[-119.87338699995489,47.090133000175584],[-119.87399799987517,47.0895859998559],[-119.87446599968034,47.089033999976905]]]]},"properties":{"AREALAND":"3568055","AREAWATER":"0","BASENAME":"George","CBSAPCI":"N","CENTLAT":"+47.0846289","CENTLON":"-119.8599725","FUNCSTAT":"A","GEOID":"5326455","INTPTLAT":"+47.0831485","INTPTLON":"-119.8616830","LSADC":"25","MTFCC":"G4110","NAME":"George city","NECTAPCI":"N","OBJECTID":14626,"OID":"27890249576480","PLACE":"26455","PLACECC":"C1","PLACENS":"02410581","STATE":"53","DISP_CLR":4,"slug":"george","jurisdiction_key":"george_city","county_fips":["53025"]}}]}
