{
  "type": "FeatureCollection",
  "features": [
    {
      "type": "Feature",
      "geometry": {
        "type": "Polygon",
        "coordinates": [
          [
            [
              -122.62628000023905,
              47.36066900026243
            ],
            [
              -122.62628600008684,
              47.360113999887226
            ],
            [
              -122.62278799989637,
              47.360091999877085
            ],
            [
              -122.62100000034138,
              47.36008200025663
            ],
            [
              -122.6210229999076,
              47.35642000002469
            ],
            [
              -122.62278600024653,
              47.35642999973058
            ],
            [
              -122.62276699997996,
              47.35376000000147
            ],
            [
              -122.62183300001949,
              47.353605000155625
            ],
            [
              -122.62145899992568,
              47.35352400009437
            ],
            [
              -122.62099100012054,
              47.35344100009796
            ],
            [
              -122.62105800006769,
              47.353088000048096
            ],
            [
              -122.6210999999005,
              47.352832000017486
            ],
            [
              -122.616948000132,
              47.35277800021382
            ],
            [
              -122.6166729997724,
              47.352774999851185
            ],
            [
              -122.61559200039717,
              47.35276400014297
            ],
            [
              -122.61294299977831,
              47.35272999986855
            ],
            [
              -122.61212699981863,
              47.35272800003074
            ],
            [
              -122.61176299977055,
              47.352723999746246
            ],
            [
              -122.61046399993711,
              47.352710000269674
            ],
            [
              -122.6104549997163,
              47.35377100011063
            ],
            [
              -122.61041200005857,
              47.353741999983846
            ],
            [
              -122.61035400033226,
              47.353704000129326
            ],
            [
              -122.60964100030473,
              47.3532150002966
            ],
            [
              -122.60950999988515,
              47.35312499982618
            ],
            [
              -122.60927499970852,
              47.35297099985539
            ],
            [
              -122.60907899988993,
              47.352832000017486
            ],
            [
              -122.60886600035292,
              47.35268000024859
            ],
            [
              -122.60872099968967,
              47.352564000290556
            ],
            [
              -122.60845600027409,
              47.35229900020107
            ],
            [
              -122.6084429998553,
              47.35228300014848
            ],
            [
              -122.60836000001461,
              47.35218300001419
            ],
            [
              -122.60829700026545,
              47.35209799987277
            ],
            [
              -122.60806600028677,
              47.35170799983158
            ],
            [
              -122.60801500023314,
              47.351621000262554
            ],
            [
              -122.60800699983719,
              47.35160699988481
            ],
            [
              -122.6076820001472,
              47.35108599987907
            ],
            [
              -122.60755900012356,
              47.350906999997164
            ],
            [
              -122.6070829999225,
              47.35028800023778
            ],
            [
              -122.60692999976162,
              47.35008800013144
            ],
            [
              -122.60687100021038,
              47.35001200000182
            ],
            [
              -122.60688299990595,
              47.34950299983672
            ],
            [
              -122.61004100033782,
              47.3495120002649
            ],
            [
              -122.61031699962402,
              47.34950799973664
            ],
            [
              -122.60994099988038,
              47.348641000268614
            ],
            [
              -122.60948200029607,
              47.34758200018666
            ],
            [
              -122.60877000009346,
              47.346041999892265
            ],
            [
              -122.60855199963525,
              47.34557200010249
            ],
            [
              -122.60848300003828,
              47.345423000291404
            ],
            [
              -122.6087879996368,
              47.34542799996913
            ],
            [
              -122.6088510002843,
              47.345425999854626
            ],
            [
              -122.6091269995705,
              47.34542100017667
            ],
            [
              -122.60936000009734,
              47.345420000119276
            ],
            [
              -122.61029900008067,
              47.345420000119276
            ],
            [
              -122.61029200040797,
              47.34556699982968
            ],
            [
              -122.61072599987794,
              47.34555399972689
            ],
            [
              -122.61098299979588,
              47.3455520002258
            ],
            [
              -122.6111250000861,
              47.34554000017442
            ],
            [
              -122.61122399982033,
              47.345520000285646
            ],
            [
              -122.61131099985893,
              47.34549500010962
            ],
            [
              -122.61139600024775,
              47.3454520001201
            ],
            [
              -122.61141499961602,
              47.34543799993193
            ],
            [
              -122.61157600017279,
              47.345329999746774
            ],
            [
              -122.61179200008289,
              47.34541699994702
            ],
            [
              -122.611891999642,
              47.34544599977905
            ],
            [
              -122.61203999978001,
              47.34549099988558
            ],
            [
              -122.61207499994009,
              47.345498000277445
            ],
            [
              -122.61227800032968,
              47.34553700000899
            ],
            [
              -122.61255699998894,
              47.34558200003797
            ],
            [
              -122.6127710002492,
              47.345594000079814
            ],
            [
              -122.61285800028783,
              47.34559700024201
            ],
            [
              -122.61301200027361,
              47.3456019999033
            ],
            [
              -122.61439800014571,
              47.34562000026253
            ],
            [
              -122.61510899962508,
              47.34562900013549
            ],
            [
              -122.61522900017398,
              47.34563100024234
            ],
            [
              -122.61542800036563,
              47.34563299974039
            ],
            [
              -122.61635399993017,
              47.34564200021985
            ],
            [
              -122.61643299957288,
              47.345643000273
            ],
            [
              -122.61689100023061,
              47.34565200014207
            ],
            [
              -122.61689399970534,
              47.345518000174586
            ],
            [
              -122.61689600025348,
              47.34540399980729
            ],
            [
              -122.61692999969037,
              47.342923999942805
            ],
            [
              -122.61695800017775,
              47.34094199996706
            ],
            [
              -122.61768299990085,
              47.34094800021132
            ],
            [
              -122.6177010003425,
              47.33901499996821
            ],
            [
              -122.61771200021316,
              47.33774499999191
            ],
            [
              -122.61771300003807,
              47.33755800009191
            ],
            [
              -122.61771399986299,
              47.337453000238675
            ],
            [
              -122.61771700023606,
              47.33722100010081
            ],
            [
              -122.61593899982849,
              47.3372019997085
            ],
            [
              -122.61573700016213,
              47.33719999989106
            ],
            [
              -122.61575200023073,
              47.336282000214666
            ],
            [
              -122.610364000378,
              47.33626000000933
            ],
            [
              -122.6104210002794,
              47.33350199974299
            ],
            [
              -122.61049099970127,
              47.33020000016695
            ],
            [
              -122.6104970004474,
              47.32991300002279
            ],
            [
              -122.61061500044815,
              47.329910000187034
            ],
            [
              -122.61063200016659,
              47.32811100018695
            ],
            [
              -122.61064399986218,
              47.327944000124305
            ],
            [
              -122.61052500003647,
              47.32788300014107
            ],
            [
              -122.61053199970917,
              47.327392000196156
            ],
            [
              -122.61053500008222,
              47.32718800002032
            ],
            [
              -122.6105390002802,
              47.32689599973483
            ],
            [
              -122.61054000010509,
              47.32674499997571
            ],
            [
              -122.61054199975493,
              47.326608999903904
            ],
            [
              -122.6105469997778,
              47.326298000017566
            ],
            [
              -122.6105469997778,
              47.32602000015319
            ],
            [
              -122.6105469997778,
              47.32570400012515
            ],
            [
              -122.61054599995288,
              47.32543600027704
            ],
            [
              -122.61054599995288,
              47.325148999820364
            ],
            [
              -122.61054599995288,
              47.3248859999974
            ],
            [
              -122.61054599995288,
              47.324541999998225
            ],
            [
              -122.61054500012796,
              47.3235109998198
            ],
            [
              -122.61054500012796,
              47.32337199973948
            ],
            [
              -122.61054500012796,
              47.32275500020775
            ],
            [
              -122.61054500012796,
              47.32269699995819
            ],
            [
              -122.61054500012796,
              47.322664000291766
            ],
            [
              -122.61012500000339,
              47.32267799982065
            ],
            [
              -122.60661599994225,
              47.32280900027784
            ],
            [
              -122.6055149995772,
              47.32284299972984
            ],
            [
              -122.60549200001098,
              47.3236680000708
            ],
            [
              -122.60549000036119,
              47.32374799980982
            ],
            [
              -122.60548399961506,
              47.323960999787744
            ],
            [
              -122.60547100009461,
              47.32445999994393
            ],
            [
              -122.60547000026969,
              47.32449500000497
            ],
            [
              -122.60546799972155,
              47.32455799993457
            ],
            [
              -122.60546600007171,
              47.324661000169925
            ],
            [
              -122.60535499974365,
              47.32466500014547
            ],
            [
              -122.60474499964829,
              47.32468899999229
            ],
            [
              -122.60434200014045,
              47.32470400004324
            ],
            [
              -122.60413799992597,
              47.32471199998748
            ],
            [
              -122.60394299993229,
              47.324719999930515
            ],
            [
              -122.60334799990554,
              47.32474299991226
            ],
            [
              -122.60299499972811,
              47.32475600026812
            ],
            [
              -122.60280200028258,
              47.32476400020449
            ],
            [
              -122.60263200040328,
              47.3247699998515
            ],
            [
              -122.60219300001211,
              47.32478700016702
            ],
            [
              -122.60154000025906,
              47.324813000245015
            ],
            [
              -122.60148099980951,
              47.3248149999226
            ],
            [
              -122.60113799967782,
              47.32482800026075
            ],
            [
              -122.60065399997919,
              47.32484700023401
            ],
            [
              -122.60027900006044,
              47.32486099979326
            ],
            [
              -122.60025899996897,
              47.32486200024009
            ],
            [
              -122.60013799959515,
              47.32486899971373
            ],
            [
              -122.60001600029472,
              47.32487999975464
            ],
            [
              -122.59940600019935,
              47.3249030002756
            ],
            [
              -122.59879799975381,
              47.32492600017761
            ],
            [
              -122.5982760004203,
              47.32494599995193
            ],
            [
              -122.59746899978313,
              47.324975999903614
            ],
            [
              -122.59682100005293,
              47.32500000021806
            ],
            [
              -122.59633399998121,
              47.325019000129444
            ],
            [
              -122.59630200019416,
              47.325019999964304
            ],
            [
              -122.59613999981244,
              47.32502600019121
            ],
            [
              -122.59614900003331,
              47.32483799986294
            ],
            [
              -122.59617099977459,
              47.32438499990906
            ],
            [
              -122.59617900017051,
              47.32421400023514
            ],
            [
              -122.59618699966812,
              47.32404499971443
            ],
            [
              -122.59620400028489,
              47.32370200018781
            ],
            [
              -122.5962069997596,
              47.32365400019534
            ],
            [
              -122.59622400037635,
              47.323286000225146
            ],
            [
              -122.59622199982823,
              47.32322899981843
            ],
            [
              -122.59678300041811,
              47.32319699974479
            ],
            [
              -122.59801799977912,
              47.323154999732886
            ],
            [
              -122.59866200020967,
              47.323133000148246
            ],
            [
              -122.5994959997127,
              47.32308699999073
            ],
            [
              -122.60020600026552,
              47.323048000117026
            ],
            [
              -122.60021600031125,
              47.322683999704566
            ],
            [
              -122.60022899983173,
              47.32219200026011
            ],
            [
              -122.60025300012119,
              47.32128100027575
            ],
            [
              -122.60027599968741,
              47.32039199993271
            ],
            [
              -122.60028099971026,
              47.32031800013597
            ],
            [
              -122.60030900019768,
              47.319331000269436
            ],
            [
              -122.60035699987827,
              47.317593000248735
            ],
            [
              -122.60103700029381,
              47.317555999925666
            ],
            [
              -122.60303499991109,
              47.31747399998977
            ],
            [
              -122.60304199958378,
              47.31717800027641
            ],
            [
              -122.60307300044425,
              47.315681999796105
            ],
            [
              -122.60145700041838,
              47.31574399987158
            ],
            [
              -122.60040700010696,
              47.315785000284265
            ],
            [
              -122.599557999637,
              47.31581799998435
            ],
            [
              -122.59814800037378,
              47.31587199983658
            ],
            [
              -122.59727200013963,
              47.31590600009872
            ],
            [
              -122.59623799972175,
              47.31594699977672
            ],
            [
              -122.59516800021716,
              47.315989000037725
            ],
            [
              -122.59506199991193,
              47.31599300006085
            ],
            [
              -122.59289699989009,
              47.3160759998632
            ],
            [
              -122.58969599980051,
              47.31620000023488
            ],
            [
              -122.58969900017357,
              47.31587899989236
            ],
            [
              -122.58970599984627,
              47.31522699985508
            ],
            [
              -122.5897090002193,
              47.31489500001054
            ],
            [
              -122.5897429996562,
              47.314409000112384
            ],
            [
              -122.58974699985416,
              47.31420699981973
            ],
            [
              -122.58975299970194,
              47.313880999931825
            ],
            [
              -122.58972799958757,
              47.312968999707316
            ],
            [
              -122.58973900035654,
              47.311909000288985
            ],
            [
              -122.58974799967908,
              47.310998000241156
            ],
            [
              -122.58975500025007,
              47.31029999995305
            ],
            [
              -122.58976299974768,
              47.30947400026704
            ],
            [
              -122.58976799977054,
              47.308930999855725
            ],
            [
              -122.58976600012073,
              47.30841999986328
            ],
            [
              -122.58976600012073,
              47.30766299977832
            ],
            [
              -122.58976899959544,
              47.30756600028816
            ],
            [
              -122.58977899964121,
              47.307234999997014
            ],
            [
              -122.58979000041015,
              47.30651200021107
            ],
            [
              -122.58979700008287,
              47.30615199994324
            ],
            [
              -122.58980499958047,
              47.305755999801576
            ],
            [
              -122.58982499967195,
              47.30489500014249
            ],
            [
              -122.58983100041804,
              47.30437600014041
            ],
            [
              -122.58983600044093,
              47.303944000221115
            ],
            [
              -122.5898480001365,
              47.30362700010041
            ],
            [
              -122.58986200038018,
              47.302336000122985
            ],
            [
              -122.58989699964198,
              47.30098899994457
            ],
            [
              -122.58991799955837,
              47.30042699987227
            ],
            [
              -122.58993099997717,
              47.300063000188885
            ],
            [
              -122.58994500022088,
              47.29971099993924
            ],
            [
              -122.59002200021378,
              47.29768600004018
            ],
            [
              -122.59004599960491,
              47.29727799978743
            ],
            [
              -122.590052000351,
              47.29681600026973
            ],
            [
              -122.59006300022165,
              47.29620200006494
            ],
            [
              -122.59008599978786,
              47.2957559998038
            ],
            [
              -122.59011900029813,
              47.29487999996578
            ],
            [
              -122.59012000012305,
              47.29453099995576
            ],
            [
              -122.59012000012305,
              47.29439600023839
            ],
            [
              -122.58472999972219,
              47.29440399989725
            ],
            [
              -122.58185300039605,
              47.294400000067974
            ],
            [
              -122.58086199963581,
              47.29439900026292
            ],
            [
              -122.57923399991444,
              47.294397000043496
            ],
            [
              -122.57922600041681,
              47.294362999957194
            ],
            [
              -122.5791619999444,
              47.294090999698234
            ],
            [
              -122.5790060003088,
              47.293562000219275
            ],
            [
              -122.57893000014082,
              47.29331899992651
            ],
            [
              -122.57864499973545,
              47.29257699992015
            ],
            [
              -122.57792400021032,
              47.290819999859494
            ],
            [
              -122.57790499994374,
              47.29077299972731
            ],
            [
              -122.57772900021665,
              47.2907719998537
            ],
            [
              -122.57578299957957,
              47.290766999875956
            ],
            [
              -122.57531099957649,
              47.29076799974966
            ],
            [
              -122.57490300004581,
              47.290770000106356
            ],
            [
              -122.57485799983996,
              47.29412700018919
            ],
            [
              -122.57485500036522,
              47.294397000043496
            ],
            [
              -122.57484299977135,
              47.29440900014041
            ],
            [
              -122.57479400026588,
              47.297997999936875
            ],
            [
              -122.57054200003996,
              47.298007999743014
            ],
            [
              -122.57027300042644,
              47.298016000073915
            ],
            [
              -122.56984599973086,
              47.29801199990862
            ],
            [
              -122.56900100035719,
              47.298021999712056
            ],
            [
              -122.5722569998,
              47.30164399980682
            ],
            [
              -122.57351200015086,
              47.30307599975606
            ],
            [
              -122.57387600019894,
              47.3037329998219
            ],
            [
              -122.57386100013031,
              47.30451899991833
            ],
            [
              -122.57386100013031,
              47.30456900007316
            ],
            [
              -122.57385600010744,
              47.304791000140675
            ],
            [
              -122.57385100008457,
              47.30508000013785
            ],
            [
              -122.5738469998866,
              47.305309999723185
            ],
            [
              -122.57382699979512,
              47.30633099989051
            ],
            [
              -122.57382000012241,
              47.30672599980736
            ],
            [
              -122.57381299955144,
              47.30704300022717
            ],
            [
              -122.57381000007668,
              47.307241999978615
            ],
            [
              -122.57380800042685,
              47.307347999760786
            ],
            [
              -122.57380099985586,
              47.3076980000028
            ],
            [
              -122.57379599983298,
              47.30793999984174
            ],
            [
              -122.57379099981011,
              47.30818800010271
            ],
            [
              -122.57379900020601,
              47.30894299969963
            ],
            [
              -122.5731139997676,
              47.308947000256055
            ],
            [
              -122.57247500025821,
              47.3089510002031
            ],
            [
              -122.57244000009813,
              47.309862000208234
            ],
            [
              -122.57269100016828,
              47.30985200020782
            ],
            [
              -122.57409700013186,
              47.30984499996278
            ],
            [
              -122.57454200037078,
              47.30984299971856
            ],
            [
              -122.57453800017284,
              47.309942000143295
            ],
            [
              -122.57452800012709,
              47.31022200018069
            ],
            [
              -122.57453300014994,
              47.31030499991112
            ],
            [
              -122.57474700041018,
              47.31030499991112
            ],
            [
              -122.57526399972083,
              47.31030499991112
            ],
            [
              -122.57644799992654,
              47.31029899983957
            ],
            [
              -122.57643000038321,
              47.311283000031246
            ],
            [
              -122.57642299981218,
              47.31139500018413
            ],
            [
              -122.57642700001016,
              47.31163199970893
            ],
            [
              -122.57686100037841,
              47.311639999805415
            ],
            [
              -122.57763999962987,
              47.31163800023822
            ],
            [
              -122.57793799955572,
              47.311631000229724
            ],
            [
              -122.57816699988457,
              47.3116290000531
            ],
            [
              -122.57815699983882,
              47.31193500000508
            ],
            [
              -122.57841899977964,
              47.31193299983997
            ],
            [
              -122.5784160003049,
              47.31230800023938
            ],
            [
              -122.57841399975678,
              47.31255299989156
            ],
            [
              -122.5783440003349,
              47.31255299989156
            ],
            [
              -122.57834299961166,
              47.31258400025133
            ],
            [
              -122.5783379995888,
              47.312851000063006
            ],
            [
              -122.57894400038452,
              47.312851000063006
            ],
            [
              -122.57906900005797,
              47.31285200012821
            ],
            [
              -122.57905700036243,
              47.31348299972988
            ],
            [
              -122.5785209998869,
              47.313487999995864
            ],
            [
              -122.57851900023707,
              47.31395400017298
            ],
            [
              -122.57851800041217,
              47.314032999961654
            ],
            [
              -122.57851300038928,
              47.314224999919354
            ],
            [
              -122.57850800036641,
              47.31439999979013
            ],
            [
              -122.5785069996432,
              47.314425000072404
            ],
            [
              -122.57806499977733,
              47.31442400003698
            ],
            [
              -122.57805599955648,
              47.314863999788344
            ],
            [
              -122.57780600020955,
              47.314862999761225
            ],
            [
              -122.57721100018279,
              47.31487400005846
            ],
            [
              -122.57706899989257,
              47.31487400005846
            ],
            [
              -122.57688200029482,
              47.31487700013913
            ],
            [
              -122.57688200029482,
              47.314897000063546
            ],
            [
              -122.57687999974667,
              47.31530100008282
            ],
            [
              -122.57716299960391,
              47.315300000063964
            ],
            [
              -122.57782899977576,
              47.315299000045094
            ],
            [
              -122.57903700027092,
              47.31529599998838
            ],
            [
              -122.57901200015655,
              47.31580199983706
            ],
            [
              -122.57900799995863,
              47.316100999961584
            ],
            [
              -122.57901100033166,
              47.31623500028714
            ],
            [
              -122.57878899967551,
              47.316250000302446
            ],
            [
              -122.57782100027815,
              47.31622600027595
            ],
            [
              -122.57760199999505,
              47.3162200002676
            ],
            [
              -122.57738400043517,
              47.31621500026011
            ],
            [
              -122.57720699998484,
              47.31621200025544
            ],
            [
              -122.57685100033268,
              47.3162070002472
            ],
            [
              -122.57667499970728,
              47.31620000023488
            ],
            [
              -122.57643200003302,
              47.31617700018794
            ],
            [
              -122.57591300017425,
              47.31620600024551
            ],
            [
              -122.57580000019637,
              47.31624000029272
            ],
            [
              -122.5757419995717,
              47.31625599969836
            ],
            [
              -122.57564700003546,
              47.316273999709054
            ],
            [
              -122.57542199990458,
              47.316285999712775
            ],
            [
              -122.57514300024532,
              47.31628399971233
            ],
            [
              -122.57512399997874,
              47.31635000029562
            ],
            [
              -122.5751060004354,
              47.31684299993166
            ],
            [
              -122.57509600038966,
              47.316877000178025
            ],
            [
              -122.57508700016882,
              47.31702400018534
            ],
            [
              -122.57507600029818,
              47.317498000058436
            ],
            [
              -122.57507499957495,
              47.31754200025755
            ],
            [
              -122.57507700012309,
              47.31807400026343
            ],
            [
              -122.57352800004436,
              47.31808699982454
            ],
            [
              -122.57345699989925,
              47.31808999972275
            ],
            [
              -122.57319199958542,
              47.31808999972275
            ],
            [
              -122.57309100020139,
              47.3180910002978
            ],
            [
              -122.57275899994033,
              47.318094000195835
            ],
            [
              -122.57305299966822,
              47.31863399977145
            ],
            [
              -122.57309200002628,
              47.31870600019111
            ],
            [
              -122.57346100009723,
              47.31986199999027
            ],
            [
              -122.57367399963424,
              47.320530999937226
            ],
            [
              -122.57377900011454,
              47.32086099986328
            ],
            [
              -122.57385500028252,
              47.32098599987829
            ],
            [
              -122.57404500025332,
              47.321299999697835
            ],
            [
              -122.57439000003482,
              47.32186800009907
            ],
            [
              -122.57449100031714,
              47.32203399999376
            ],
            [
              -122.5748319999007,
              47.322598000288075
            ],
            [
              -122.57493300018302,
              47.32276500020234
            ],
            [
              -122.57499199973427,
              47.3228619998081
            ],
            [
              -122.57501600002371,
              47.32290200030301
            ],
            [
              -122.5751409996972,
              47.323106999852335
            ],
            [
              -122.57526500044406,
              47.323311999824014
            ],
            [
              -122.57536400017825,
              47.32347399998747
            ],
            [
              -122.57545799988961,
              47.32360200010356
            ],
            [
              -122.57565899973105,
              47.3238790000494
            ],
            [
              -122.57582199993766,
              47.32405000019879
            ],
            [
              -122.57586200012064,
              47.32432999977518
            ],
            [
              -122.57594300031148,
              47.324888000281156
            ],
            [
              -122.57597799957325,
              47.325195000009145
            ],
            [
              -122.57602600015217,
              47.325608000081374
            ],
            [
              -122.57604799989346,
              47.32577399979336
            ],
            [
              -122.57605499956615,
              47.32583099988961
            ],
            [
              -122.57593099971761,
              47.32643100024785
            ],
            [
              -122.5753890002926,
              47.32642200014672
            ],
            [
              -122.57544000034623,
              47.32651899973545
            ],
            [
              -122.57537500004892,
              47.32683999997934
            ],
            [
              -122.57522500026107,
              47.32671799982815
            ],
            [
              -122.57512900000161,
              47.32680399984425
            ],
            [
              -122.57503899958992,
              47.326876000089904
            ],
            [
              -122.57494300022879,
              47.3269310000085
            ],
            [
              -122.57483699992359,
              47.32696199984876
            ],
            [
              -122.57470600040232,
              47.32697999986556
            ],
            [
              -122.57455900008922,
              47.326964999852
            ],
            [
              -122.57443299969253,
              47.3269289998021
            ],
            [
              -122.57426799983608,
              47.32683399995854
            ],
            [
              -122.57408000041343,
              47.326778000137374
            ],
            [
              -122.57389499956717,
              47.32677299991121
            ],
            [
              -122.57390700016107,
              47.32697800026992
            ],
            [
              -122.57366500031172,
              47.32701100028597
            ],
            [
              -122.57359699964134,
              47.327057000071015
            ],
            [
              -122.57357200042532,
              47.32711300020529
            ],
            [
              -122.5735780002731,
              47.32732300002788
            ],
            [
              -122.57361000006013,
              47.32793000016433
            ],
            [
              -122.57373800010667,
              47.328101999763184
            ],
            [
              -122.57414900001038,
              47.32837099986071
            ],
            [
              -122.57460299957184,
              47.328673000001466
            ],
            [
              -122.57479699974058,
              47.329011000115244
            ],
            [
              -122.57485600019014,
              47.329378999779166
            ],
            [
              -122.5752190004133,
              47.329734000186946
            ],
            [
              -122.57560400037778,
              47.33053299977138
            ],
            [
              -122.57628800009299,
              47.33115300015665
            ],
            [
              -122.5761569996734,
              47.33157100029759
            ],
            [
              -122.57620799972703,
              47.332083999878684
            ],
            [
              -122.5762460002602,
              47.33247000002131
            ],
            [
              -122.57703399973246,
              47.33340700015418
            ],
            [
              -122.57746499972768,
              47.33415900026406
            ],
            [
              -122.57754699974348,
              47.334406000192615
            ],
            [
              -122.5775290002001,
              47.33455699996693
            ],
            [
              -122.57755400031448,
              47.33468500001398
            ],
            [
              -122.57759500032235,
              47.33489599981856
            ],
            [
              -122.57888199956191,
              47.335584999936586
            ],
            [
              -122.57902499967705,
              47.336245999818566
            ],
            [
              -122.57992699985049,
              47.336584000169424
            ],
            [
              -122.58189199985576,
              47.336950000202386
            ],
            [
              -122.5828300000142,
              47.33774699978865
            ],
            [
              -122.58332700013166,
              47.33817400001727
            ],
            [
              -122.58383000009691,
              47.33945500007285
            ],
            [
              -122.58386299970886,
              47.34048799979642
            ],
            [
              -122.58350399968367,
              47.340938000006695
            ],
            [
              -122.58418599974907,
              47.341753000119745
            ],
            [
              -122.58469600028533,
              47.343207000198845
            ],
            [
              -122.58464000020881,
              47.34331900024679
            ],
            [
              -122.58426299974197,
              47.3435719998827
            ],
            [
              -122.58379099973885,
              47.34357600025216
            ],
            [
              -122.58359200044552,
              47.34357699973578
            ],
            [
              -122.58353800001886,
              47.34357699973578
            ],
            [
              -122.58260800025637,
              47.343583999772754
            ],
            [
              -122.58244900024769,
              47.34358499986494
            ],
            [
              -122.58243500000398,
              47.34371500011976
            ],
            [
              -122.58237599955446,
              47.34394600024633
            ],
            [
              -122.58210000026823,
              47.3450269998399
            ],
            [
              -122.58205099986444,
              47.34527099987913
            ],
            [
              -122.58203199959785,
              47.3453959999538
            ],
            [
              -122.58039899985357,
              47.34540800003792
            ],
            [
              -122.58014600013358,
              47.3454090000955
            ],
            [
              -122.58014399958545,
              47.34548500015766
            ],
            [
              -122.58014399958545,
              47.34570900008872
            ],
            [
              -122.58014500030866,
              47.34602699981469
            ],
            [
              -122.57917600018808,
              47.34602699981469
            ],
            [
              -122.5791750003632,
              47.34554200028464
            ],
            [
              -122.57917299981506,
              47.34541699994702
            ],
            [
              -122.57874799966761,
              47.34542100017667
            ],
            [
              -122.5785279995596,
              47.34540800003792
            ],
            [
              -122.57852699973468,
              47.345545999896125
            ],
            [
              -122.57852599990976,
              47.34607600021465
            ],
            [
              -122.57852500008484,
              47.34634299997989
            ],
            [
              -122.58203999999377,
              47.34631900023402
            ],
            [
              -122.58226299957656,
              47.34631700015328
            ],
            [
              -122.58386400043209,
              47.34630899982948
            ],
            [
              -122.58387000027987,
              47.346539000133376
            ],
            [
              -122.58386000023411,
              47.34686199987906
            ],
            [
              -122.58387699995257,
              47.347063000062946
            ],
            [
              -122.58406600009845,
              47.34705899995773
            ],
            [
              -122.58519199967955,
              47.3470410000892
            ],
            [
              -122.58521000012121,
              47.348111000141444
            ],
            [
              -122.58736099989935,
              47.348172999893734
            ],
            [
              -122.5892210003227,
              47.348146999751265
            ],
            [
              -122.5892210003227,
              47.34894500011481
            ],
            [
              -122.5892210003227,
              47.34903199983466
            ],
            [
              -122.58910699962155,
              47.34901300004098
            ],
            [
              -122.58387399957951,
              47.34903199983466
            ],
            [
              -122.58387500030275,
              47.349913999769306
            ],
            [
              -122.58922899982026,
              47.34992999993148
            ],
            [
              -122.58923200019335,
              47.350446999936786
            ],
            [
              -122.58924200023907,
              47.35128799974764
            ],
            [
              -122.58924499971383,
              47.35179499986581
            ],
            [
              -122.58924899991177,
              47.352493000300655
            ],
            [
              -122.58924899991177,
              47.35256899990054
            ],
            [
              -122.58925200028483,
              47.35303299998463
            ],
            [
              -122.5892570003077,
              47.35354100028282
            ],
            [
              -122.58925999978243,
              47.35402099987136
            ],
            [
              -122.58926099960735,
              47.35417599971246
            ],
            [
              -122.58926300015548,
              47.354470999742425
            ],
            [
              -122.58926800017835,
              47.35515400016246
            ],
            [
              -122.58926399998037,
              47.35569099980585
            ],
            [
              -122.5892720003763,
              47.35637999996493
            ],
            [
              -122.58928800026983,
              47.35743599989488
            ],
            [
              -122.5893009997903,
              47.35994400006798
            ],
            [
              -122.58930499998827,
              47.35998600003135
            ],
            [
              -122.58934599999614,
              47.359958999841425
            ],
            [
              -122.58939200002692,
              47.3599180002478
            ],
            [
              -122.58945099957813,
              47.35989900011364
            ],
            [
              -122.58952699974611,
              47.35988899984813
            ],
            [
              -122.59155799987367,
              47.359753999729186
            ],
            [
              -122.59198100037129,
              47.3597430002587
            ],
            [
              -122.59210900041779,
              47.35974100007815
            ],
            [
              -122.5929680000352,
              47.35972700002907
            ],
            [
              -122.59363400020706,
              47.35972900021016
            ],
            [
              -122.59387000020861,
              47.35973500014449
            ],
            [
              -122.59430799987653,
              47.359747000011076
            ],
            [
              -122.59467799977237,
              47.35976100005485
            ],
            [
              -122.59465100000821,
              47.36672600015871
            ],
            [
              -122.59465100000821,
              47.36697099992106
            ],
            [
              -122.59465100000821,
              47.36723400005094
            ],
            [
              -122.59995699984516,
              47.367205000022324
            ],
            [
              -122.59994699979941,
              47.363607000037504
            ],
            [
              -122.60996599999473,
              47.363564999914445
            ],
            [
              -122.61031800034723,
              47.36356299987878
            ],
            [
              -122.6102580000728,
              47.36622799991577
            ],
            [
              -122.6126599999211,
              47.366260999740106
            ],
            [
              -122.61255299979098,
              47.365984000020745
            ],
            [
              -122.61297899976334,
              47.36600700028344
            ],
            [
              -122.6133989998879,
              47.367230000257756
            ],
            [
              -122.61526699980885,
              47.36722399995898
            ],
            [
              -122.61538800018265,
              47.36722399995898
            ],
            [
              -122.61536700026626,
              47.368106000052585
            ],
            [
              -122.61533799995394,
              47.36937200003638
            ],
            [
              -122.61532000041059,
              47.37022699969625
            ],
            [
              -122.61532899973312,
              47.37035500025705
            ],
            [
              -122.61537399993894,
              47.37066999997198
            ],
            [
              -122.6154540003049,
              47.371147000165294
            ],
            [
              -122.615481999894,
              47.37134899989447
            ],
            [
              -122.61552499955168,
              47.371975000128494
            ],
            [
              -122.61551200003122,
              47.372062000207514
            ],
            [
              -122.61547900041924,
              47.37216100022777
            ],
            [
              -122.6153909996574,
              47.37234899998204
            ],
            [
              -122.61530100014402,
              47.372497000274926
            ],
            [
              -122.61550899965816,
              47.37255099997423
            ],
            [
              -122.6157160002457,
              47.37308400023592
            ],
            [
              -122.61626299969356,
              47.37449800011831
            ],
            [
              -122.61671799997825,
              47.374499999739406
            ],
            [
              -122.61688399965958,
              47.37422599984734
            ],
            [
              -122.61718599978339,
              47.37422699996723
            ],
            [
              -122.61749700012801,
              47.37422900020691
            ],
            [
              -122.61785100013036,
              47.374230999838154
            ],
            [
              -122.61822500022414,
              47.3742340001974
            ],
            [
              -122.62030200038245,
              47.374244000176986
            ],
            [
              -122.62049999985086,
              47.37424599980772
            ],
            [
              -122.62050300022392,
              47.374204000247175
            ],
            [
              -122.6206720002783,
              47.37420499975914
            ],
            [
              -122.62082100024124,
              47.374164000287024
            ],
            [
              -122.62115199977902,
              47.3740720000202
            ],
            [
              -122.62148499986496,
              47.373946999731075
            ],
            [
              -122.62182299997376,
              47.37381899997965
            ],
            [
              -122.62210699965588,
              47.373712000210425
            ],
            [
              -122.62231300041853,
              47.37371299973166
            ],
            [
              -122.62275199991134,
              47.37371399986128
            ],
            [
              -122.62377700010842,
              47.37371799977111
            ],
            [
              -122.62378899980398,
              47.3736759997901
            ],
            [
              -122.62380600042074,
              47.3736169999775
            ],
            [
              -122.62377299991044,
              47.37358600015266
            ],
            [
              -122.62375700001692,
              47.37345499972992
            ],
            [
              -122.62383400000982,
              47.37343699973926
            ],
            [
              -122.62385099972826,
              47.3732890002593
            ],
            [
              -122.6238049996975,
              47.37324999974347
            ],
            [
              -122.6238690001699,
              47.37322700020573
            ],
            [
              -122.62388500006345,
              47.37312399979859
            ],
            [
              -122.62394199996486,
              47.372942000022626
            ],
            [
              -122.62393600011707,
              47.372810000286854
            ],
            [
              -122.62389299956106,
              47.37276199991391
            ],
            [
              -122.62392799972115,
              47.372621999742535
            ],
            [
              -122.62389599993412,
              47.372514999978044
            ],
            [
              -122.62394199996486,
              47.37244800007186
            ],
            [
              -122.6239029996068,
              47.372366999735625
            ],
            [
              -122.62391199982761,
              47.37210300009709
            ],
            [
              -122.62394500033791,
              47.37208599980546
            ],
            [
              -122.62391199982761,
              47.37205400013633
            ],
            [
              -122.62397399975191,
              47.371905000261364
            ],
            [
              -122.62405599976768,
              47.37182099981153
            ],
            [
              -122.6241360001336,
              47.37165500006448
            ],
            [
              -122.62421200030158,
              47.371637000067835
            ],
            [
              -122.62416600027085,
              47.37153400020551
            ],
            [
              -122.62408699972981,
              47.3714530002906
            ],
            [
              -122.62390099995696,
              47.371323999786206
            ],
            [
              -122.62372100003192,
              47.371202999776195
            ],
            [
              -122.62358700013762,
              47.371110999819095
            ],
            [
              -122.62350599994677,
              47.371055000110495
            ],
            [
              -122.62343800017472,
              47.37097400006831
            ],
            [
              -122.6232909998616,
              47.3708399999056
            ],
            [
              -122.62316399964001,
              47.370694000203386
            ],
            [
              -122.62304499981431,
              47.3705209998372
            ],
            [
              -122.62299200011087,
              47.37044499993301
            ],
            [
              -122.62282700025443,
              47.37020599984074
            ],
            [
              -122.62270300040586,
              47.36997200027686
            ],
            [
              -122.62279200009432,
              47.369969999875714
            ],
            [
              -122.62317200003594,
              47.36996200009554
            ],
            [
              -122.62297799986715,
              47.36963799976639
            ],
            [
              -122.62277799985061,
              47.369637000167934
            ],
            [
              -122.62260200012352,
              47.369635999961
            ],
            [
              -122.62257600018425,
              47.36952699980429
            ],
            [
              -122.6225729998112,
              47.36951400012781
            ],
            [
              -122.6225369998262,
              47.369396000250035
            ],
            [
              -122.62252599995554,
              47.369361999741294
            ],
            [
              -122.62252000010777,
              47.36931099984973
            ],
            [
              -122.62350400029693,
              47.36931699991109
            ],
            [
              -122.62372199985681,
              47.36931800012404
            ],
            [
              -122.62374899962103,
              47.36931800012404
            ],
            [
              -122.62374199994831,
              47.3690190000935
            ],
            [
              -122.6236359996431,
              47.3690190000935
            ],
            [
              -122.623648000237,
              47.36867700026542
            ],
            [
              -122.62480099958226,
              47.368674999815156
            ],
            [
              -122.62434000034813,
              47.367290000166086
            ],
            [
              -122.62415799987492,
              47.367290000166086
            ],
            [
              -122.62351599999248,
              47.36728599976867
            ],
            [
              -122.62352799968806,
              47.366650999917056
            ],
            [
              -122.62353000023622,
              47.36658399986246
            ],
            [
              -122.62360999970383,
              47.366590999890306
            ],
            [
              -122.6239510001857,
              47.36658399986246
            ],
            [
              -122.62399600039154,
              47.36658399986246
            ],
            [
              -122.62445199960278,
              47.36658799970464
            ],
            [
              -122.62542900011928,
              47.36658500012724
            ],
            [
              -122.62608100004744,
              47.366603000022806
            ],
            [
              -122.62620700044413,
              47.36660699986354
            ],
            [
              -122.62622300033767,
              47.365495000209904
            ],
            [
              -122.62623000001037,
              47.36504500004438
            ],
            [
              -122.62623800040626,
              47.36459399999668
            ],
            [
              -122.62625199975167,
              47.36369300021418
            ],
            [
              -122.62625400029981,
              47.363569999699045
            ],
            [
              -122.62625000010183,
              47.36356000012936
            ],
            [
              -122.62625900032268,
              47.362637000166345
            ],
            [
              -122.62628000023905,
              47.36066900026243
            ]
          ]
        ]
      },
      "properties": {
        "AREALAND": "15287949",
        "AREAWATER": "910286",
        "BASENAME": "Gig Harbor",
        "CBSAPCI": "N",
        "CENTLAT": "+47.3351596",
        "CENTLON": "-122.5960264",
        "FUNCSTAT": "A",
        "GEOID": "5326735",
        "INTPTLAT": "+47.3367087",
        "INTPTLON": "-122.5983617",
        "LSADC": "25",
        "MTFCC": "G4110",
        "NAME": "Gig Harbor city",
        "NECTAPCI": "N",
        "OBJECTID": 26277,
        "OID": "278901445839835",
        "PLACE": "26735",
        "PLACECC": "C1",
        "PLACENS": "02410588",
        "STATE": "53",
        "DISP_CLR": 3,
        "slug": "gig_harbor",
        "jurisdiction_key": "gig_harbor_city",
        "county_fips": [
          "53053"
        ]
      }
    }
  ]
}
