{
  "type": "FeatureCollection",
  "features": [
    {
      "type": "Feature",
      "geometry": {
        "type": "MultiPolygon",
        "coordinates": [
          [
            [
              [
                -121.71124499986199,
                47.86161799984332
              ],
              [
                -121.71124700041014,
                47.86151699973992
              ],
              [
                -121.71114399957963,
                47.86146399990533
              ],
              [
                -121.71090500010338,
                47.86134100020546
              ],
              [
                -121.71083399995824,
                47.86130500007635
              ],
              [
                -121.71079899979814,
                47.8612869997011
              ],
              [
                -121.7104849999788,
                47.861125000261424
              ],
              [
                -121.7103800003968,
                47.861071000134835
              ],
              [
                -121.710182999855,
                47.86097000017112
              ],
              [
                -121.70991500006639,
                47.86083300015652
              ],
              [
                -121.70993500015787,
                47.86057200016512
              ],
              [
                -121.70993900035583,
                47.860360000253316
              ],
              [
                -121.70993000013502,
                47.85959700024776
              ],
              [
                -121.70993099995992,
                47.85933099983444
              ],
              [
                -121.70332799993933,
                47.856591000242936
              ],
              [
                -121.70192799982354,
                47.85600199981002
              ],
              [
                -121.70112000025978,
                47.855665000004905
              ],
              [
                -121.70084499990016,
                47.855550999787866
              ],
              [
                -121.70071400037892,
                47.85568499991137
              ],
              [
                -121.70070500015808,
                47.855694999861726
              ],
              [
                -121.70061200027166,
                47.8557889999035
              ],
              [
                -121.70034399958475,
                47.85605199983957
              ],
              [
                -121.70026099974407,
                47.85600799974376
              ],
              [
                -121.6998339999468,
                47.855787999910376
              ],
              [
                -121.69940799997444,
                47.85556799974623
              ],
              [
                -121.69919500043743,
                47.855456999917415
              ],
              [
                -121.69876799974186,
                47.85523700015723
              ],
              [
                -121.6983419997695,
                47.8550170000664
              ],
              [
                -121.6982580001039,
                47.854973000297925
              ],
              [
                -121.69812900023248,
                47.854906000263625
              ],
              [
                -121.69770200043523,
                47.85468599997397
              ],
              [
                -121.69727599956455,
                47.85446599995649
              ],
              [
                -121.69706200020264,
                47.85435500017975
              ],
              [
                -121.69663600023028,
                47.85413499996351
              ],
              [
                -121.69621000025792,
                47.85391500001944
              ],
              [
                -121.69599599999769,
                47.853804000268774
              ],
              [
                -121.69557000002534,
                47.85358400012599
              ],
              [
                -121.69540099997094,
                47.853493999853356
              ],
              [
                -121.69516400014447,
                47.85337400005058
              ],
              [
                -121.69543000028325,
                47.85313500025906
              ],
              [
                -121.69552200034477,
                47.85305200013181
              ],
              [
                -121.69571899998827,
                47.85287500014289
              ],
              [
                -121.69548499963652,
                47.852758000268125
              ],
              [
                -121.69540099997094,
                47.85283800011317
              ],
              [
                -121.69529999968859,
                47.85293500005358
              ],
              [
                -121.6952799995971,
                47.85295200026678
              ],
              [
                -121.69522400041892,
                47.85300499976111
              ],
              [
                -121.69520500015234,
                47.8530229999979
              ],
              [
                -121.6949530002573,
                47.853263999786485
              ],
              [
                -121.69371499962489,
                47.85261900014593
              ],
              [
                -121.69129400040832,
                47.85139199982879
              ],
              [
                -121.69129900043119,
                47.85097500001931
              ],
              [
                -121.69113799987439,
                47.850897999973995
              ],
              [
                -121.69058300003059,
                47.85062999995818
              ],
              [
                -121.69040300010555,
                47.85054800013551
              ],
              [
                -121.69025199959448,
                47.85047300025037
              ],
              [
                -121.69002399998885,
                47.850360000170326
              ],
              [
                -121.68979899985797,
                47.850247999944095
              ],
              [
                -121.68964800024523,
                47.850173999726465
              ],
              [
                -121.68947400016795,
                47.85008099985724
              ],
              [
                -121.68895399958596,
                47.849801999851714
              ],
              [
                -121.6887810002319,
                47.84970899991821
              ],
              [
                -121.68846200038969,
                47.8495390001662
              ],
              [
                -121.68750800033773,
                47.84903199974562
              ],
              [
                -121.68719000032041,
                47.84886299970976
              ],
              [
                -121.685626999998,
                47.84805599970368
              ],
              [
                -121.68194800005756,
                47.84615800002465
              ],
              [
                -121.68094399977689,
                47.8456310001554
              ],
              [
                -121.67938800002548,
                47.8448140002662
              ],
              [
                -121.67895399965721,
                47.84459299975853
              ],
              [
                -121.67765399999888,
                47.843931000042794
              ],
              [
                -121.67722100035382,
                47.84371100021946
              ],
              [
                -121.67686700035148,
                47.843531000218135
              ],
              [
                -121.6758060001694,
                47.84299100008408
              ],
              [
                -121.67565800003142,
                47.84291499988195
              ],
              [
                -121.67545299999198,
                47.84281099999605
              ],
              [
                -121.67536500012845,
                47.84276700012071
              ],
              [
                -121.67536400030353,
                47.84311399990563
              ],
              [
                -121.67534500003697,
                47.84311800025274
              ],
              [
                -121.67532199957242,
                47.8431979998955
              ],
              [
                -121.6752990000062,
                47.84328499984935
              ],
              [
                -121.67528899996047,
                47.843366000070205
              ],
              [
                -121.67529099961028,
                47.843571999965235
              ],
              [
                -121.67529300015842,
                47.84369800029389
              ],
              [
                -121.67492499991242,
                47.84354299995634
              ],
              [
                -121.67410200027999,
                47.8432560002829
              ],
              [
                -121.6738050001791,
                47.84315000000405
              ],
              [
                -121.67368299998037,
                47.84310700005102
              ],
              [
                -121.67343100008529,
                47.843019999798685
              ],
              [
                -121.6729819996484,
                47.842864000207435
              ],
              [
                -121.6728999996326,
                47.8428349998027
              ],
              [
                -121.67279599987555,
                47.845088999779506
              ],
              [
                -121.6742279997784,
                47.8450809999918
              ],
              [
                -121.6745380002981,
                47.845083999987715
              ],
              [
                -121.67524999960239,
                47.8450869999834
              ],
              [
                -121.67524999960239,
                47.84510399975487
              ],
              [
                -121.6752489997775,
                47.84522299980768
              ],
              [
                -121.67524600030275,
                47.84545700013359
              ],
              [
                -121.67523799990684,
                47.84596500011395
              ],
              [
                -121.67522899968601,
                47.84614800004381
              ],
              [
                -121.67522500038639,
                47.8462500001198
              ],
              [
                -121.6752279998611,
                47.846394000098456
              ],
              [
                -121.6752060001198,
                47.847341999925725
              ],
              [
                -121.67519400042423,
                47.84822399981876
              ],
              [
                -121.67519100005117,
                47.848528000193966
              ],
              [
                -121.6751990004471,
                47.84891699989165
              ],
              [
                -121.67519400042423,
                47.84903799988304
              ],
              [
                -121.67518199983036,
                47.849378999819635
              ],
              [
                -121.67517400033273,
                47.84940200008824
              ],
              [
                -121.67513499997467,
                47.849518000186514
              ],
              [
                -121.6751719997846,
                47.8495629998742
              ],
              [
                -121.67518799967812,
                47.84959899971676
              ],
              [
                -121.67523299988396,
                47.84959999982925
              ],
              [
                -121.67525399980039,
                47.84959999982925
              ],
              [
                -121.67529499980826,
                47.84959899971676
              ],
              [
                -121.6758320001087,
                47.84959399975685
              ],
              [
                -121.6759119995763,
                47.84959399975685
              ],
              [
                -121.67597400039891,
                47.8495930002471
              ],
              [
                -121.67644399985387,
                47.84958800028665
              ],
              [
                -121.67647099961806,
                47.84958800028665
              ],
              [
                -121.67682200014563,
                47.8495849999484
              ],
              [
                -121.67694900036724,
                47.849583999835616
              ],
              [
                -121.67722999967633,
                47.849581000100024
              ],
              [
                -121.67766800024256,
                47.84957700025131
              ],
              [
                -121.67768199958793,
                47.849576000138384
              ],
              [
                -121.67769599983167,
                47.849576000138384
              ],
              [
                -121.67778100022046,
                47.84957500002543
              ],
              [
                -121.67792799963524,
                47.849573999912465
              ],
              [
                -121.67795600012263,
                47.849573999912465
              ],
              [
                -121.67819399977402,
                47.8495710001763
              ],
              [
                -121.6782130000406,
                47.8495710001763
              ],
              [
                -121.67859499963203,
                47.849567999837056
              ],
              [
                -121.67922900001683,
                47.84956100025058
              ],
              [
                -121.67944900012485,
                47.84955900002409
              ],
              [
                -121.67963999992058,
                47.849556999797514
              ],
              [
                -121.68042699956794,
                47.84955000020956
              ],
              [
                -121.68048600001748,
                47.849549000096104
              ],
              [
                -121.68053600024619,
                47.849549000096104
              ],
              [
                -121.6805439997438,
                47.85198599991264
              ],
              [
                -121.68054499956872,
                47.852111000233826
              ],
              [
                -121.68056800003325,
                47.8521219997317
              ],
              [
                -121.68059599962233,
                47.852133999893624
              ],
              [
                -121.6805920003227,
                47.85296500028424
              ],
              [
                -121.68070299975247,
                47.85297099996664
              ],
              [
                -121.68094299995198,
                47.85280500025982
              ],
              [
                -121.68133200011441,
                47.852690999783036
              ],
              [
                -121.68143000002371,
                47.852663000103476
              ],
              [
                -121.68157899998661,
                47.852676000193384
              ],
              [
                -121.6816209998194,
                47.85277700003905
              ],
              [
                -121.68153899980364,
                47.853033999905094
              ],
              [
                -121.68154999967429,
                47.85309400023457
              ],
              [
                -121.6815720003139,
                47.85312299972596
              ],
              [
                -121.68169199996451,
                47.853175000207614
              ],
              [
                -121.68176700030757,
                47.85322299986399
              ],
              [
                -121.68183400025474,
                47.85326599987008
              ],
              [
                -121.6818390002776,
                47.85329099970306
              ],
              [
                -121.68184900032334,
                47.853332000174554
              ],
              [
                -121.68187299971447,
                47.85344599984502
              ],
              [
                -121.68190100020188,
                47.853487000193965
              ],
              [
                -121.68201099980675,
                47.853646999922475
              ],
              [
                -121.68205099998973,
                47.85370600011223
              ],
              [
                -121.68213300000549,
                47.8537679997284
              ],
              [
                -121.68218400005911,
                47.853763000170474
              ],
              [
                -121.6822819999684,
                47.8537539998799
              ],
              [
                -121.68235300011351,
                47.85377599998462
              ],
              [
                -121.68238999992343,
                47.85378699973207
              ],
              [
                -121.68241900023573,
                47.85379600001688
              ],
              [
                -121.6824569998706,
                47.85380500030017
              ],
              [
                -121.68252700019079,
                47.853819000134905
              ],
              [
                -121.68258400009219,
                47.85383700008913
              ],
              [
                -121.68263199977277,
                47.853859000158636
              ],
              [
                -121.6826829998264,
                47.85388599976537
              ],
              [
                -121.68273600042815,
                47.85391600004869
              ],
              [
                -121.68281500007086,
                47.853965000253076
              ],
              [
                -121.68286399957637,
                47.853996999943305
              ],
              [
                -121.68289899973645,
                47.85402400008098
              ],
              [
                -121.68292600039895,
                47.8540450000444
              ],
              [
                -121.68296099966074,
                47.85407100013083
              ],
              [
                -121.68300400021674,
                47.85410199973
              ],
              [
                -121.68303900037685,
                47.8541259997375
              ],
              [
                -121.6831129999967,
                47.854165000102746
              ],
              [
                -121.68315700037762,
                47.85419000010505
              ],
              [
                -121.6832269997995,
                47.854231999888945
              ],
              [
                -121.68327399965519,
                47.854256999858954
              ],
              [
                -121.6834369998618,
                47.854343999949975
              ],
              [
                -121.68355900006053,
                47.854406000008915
              ],
              [
                -121.68364899957389,
                47.85444200010635
              ],
              [
                -121.68368799993198,
                47.854461999881785
              ],
              [
                -121.68370300000058,
                47.854469000012315
              ],
              [
                -121.683719999719,
                47.854482000252254
              ],
              [
                -121.6837819996433,
                47.85451300020851
              ],
              [
                -121.6838240003744,
                47.85453800004304
              ],
              [
                -121.68385799981128,
                47.85455899979831
              ],
              [
                -121.6838949996212,
                47.854584000213464
              ],
              [
                -121.68392700030657,
                47.85461200006131
              ],
              [
                -121.68394900004786,
                47.85463799986344
              ],
              [
                -121.68397300033732,
                47.85467199977052
              ],
              [
                -121.68400599994929,
                47.8547229998907
              ],
              [
                -121.68402100001789,
                47.854759999781024
              ],
              [
                -121.68402900041382,
                47.85478600011174
              ],
              [
                -121.68403400043668,
                47.854821999945344
              ],
              [
                -121.68403299971345,
                47.85485699974288
              ],
              [
                -121.68403100006363,
                47.85488700006719
              ],
              [
                -121.68403000023874,
                47.854916999771376
              ],
              [
                -121.68403000023874,
                47.85494200001393
              ],
              [
                -121.68403000023874,
                47.85495300011678
              ],
              [
                -121.68403000023874,
                47.85498099976543
              ],
              [
                -121.68402600004076,
                47.855013000034205
              ],
              [
                -121.68402000019297,
                47.85502700014559
              ],
              [
                -121.68401699981995,
                47.85504200026074
              ],
              [
                -121.6840079995991,
                47.855053999746936
              ],
              [
                -121.68399500007862,
                47.855078999923435
              ],
              [
                -121.68398800040595,
                47.85509800004953
              ],
              [
                -121.68398000001002,
                47.855118000174684
              ],
              [
                -121.68396999996426,
                47.85513900029784
              ],
              [
                -121.68396099974345,
                47.85515799979912
              ],
              [
                -121.68394900004786,
                47.85518399993026
              ],
              [
                -121.6839289999564,
                47.855209000044084
              ],
              [
                -121.68391499971268,
                47.85522800012254
              ],
              [
                -121.68390399984202,
                47.8552490002011
              ],
              [
                -121.68388499957544,
                47.85528499971326
              ],
              [
                -121.68387299987988,
                47.85530699977121
              ],
              [
                -121.68385799981128,
                47.85533099982377
              ],
              [
                -121.68384299974265,
                47.85535699986817
              ],
              [
                -121.68383400042015,
                47.85537299988901
              ],
              [
                -121.68382600002423,
                47.85538999990573
              ],
              [
                -121.68381900035153,
                47.855415999920545
              ],
              [
                -121.68382000017644,
                47.8554489999206
              ],
              [
                -121.68382299965117,
                47.85547499990579
              ],
              [
                -121.6838300002222,
                47.85550599987116
              ],
              [
                -121.68384799976555,
                47.85553399982393
              ],
              [
                -121.68388499957544,
                47.85555999976654
              ],
              [
                -121.68389899981915,
                47.85556899974366
              ],
              [
                -121.68391499971268,
                47.85558099971065
              ],
              [
                -121.68393300015437,
                47.85559200028077
              ],
              [
                -121.68399699972848,
                47.85562200017982
              ],
              [
                -121.68400699977418,
                47.85562800015758
              ],
              [
                -121.68408200011727,
                47.85566999998223
              ],
              [
                -121.68413099962277,
                47.855686999901586
              ],
              [
                -121.68420199976785,
                47.85570399981537
              ],
              [
                -121.6842600003925,
                47.855723999706825
              ],
              [
                -121.68427899976075,
                47.85573200026399
              ],
              [
                -121.68430700024815,
                47.855744000193305
              ],
              [
                -121.68433599966218,
                47.855755000126074
              ],
              [
                -121.68434300023316,
                47.855781999951134
              ],
              [
                -121.68433800021032,
                47.855812999732926
              ],
              [
                -121.68432700033965,
                47.85585100004296
              ],
              [
                -121.68431700029392,
                47.85586499992809
              ],
              [
                -121.68431300009594,
                47.85588799973117
              ],
              [
                -121.68433400001234,
                47.8559170000711
              ],
              [
                -121.68434800025605,
                47.8559309999384
              ],
              [
                -121.68438900026392,
                47.85594799977218
              ],
              [
                -121.68445100018822,
                47.855972000130826
              ],
              [
                -121.68449700021895,
                47.85598999994041
              ],
              [
                -121.68454400007462,
                47.85600599976592
              ],
              [
                -121.6845840002576,
                47.856024000166485
              ],
              [
                -121.68460900037196,
                47.85603600002822
              ],
              [
                -121.68462199989241,
                47.856042999946304
              ],
              [
                -121.68466999957299,
                47.85606099973125
              ],
              [
                -121.68473400004542,
                47.85609099996172
              ],
              [
                -121.68477900025127,
                47.85611200029358
              ],
              [
                -121.68481600006119,
                47.856133000014125
              ],
              [
                -121.684861000267,
                47.856145999836876
              ],
              [
                -121.6849020002749,
                47.85617200007538
              ],
              [
                -121.68495099978038,
                47.856196999712836
              ],
              [
                -121.6849859999405,
                47.85621700001687
              ],
              [
                -121.68502299975042,
                47.856233999756874
              ],
              [
                -121.68504899968968,
                47.85624400020412
              ],
              [
                -121.68506899978118,
                47.85625100009408
              ],
              [
                -121.68510399994126,
                47.856259999951256
              ],
              [
                -121.68516300039082,
                47.85626799982298
              ],
              [
                -121.68521400044443,
                47.85627399972595
              ],
              [
                -121.6852470000564,
                47.85627600029622
              ],
              [
                -121.68530599960765,
                47.85628000023098
              ],
              [
                -121.68539699984423,
                47.85627900024732
              ],
              [
                -121.68543000035453,
                47.85628000023098
              ],
              [
                -121.68545299992074,
                47.85627800026364
              ],
              [
                -121.68547499966205,
                47.85627900024732
              ],
              [
                -121.6855209996928,
                47.85628500014905
              ],
              [
                -121.6855430003324,
                47.85628800009963
              ],
              [
                -121.68560899955635,
                47.85629499998365
              ],
              [
                -121.68565700013522,
                47.85629699995038
              ],
              [
                -121.68567999970146,
                47.85629899991699
              ],
              [
                -121.6857170004097,
                47.856294000000275
              ],
              [
                -121.68584999958077,
                47.85630299984999
              ],
              [
                -121.68586600037261,
                47.85630699978266
              ],
              [
                -121.68586600037261,
                47.85639699999502
              ],
              [
                -121.68586499964937,
                47.8564299999735
              ],
              [
                -121.68586299999956,
                47.85691099994195
              ],
              [
                -121.68585600032687,
                47.85825099987127
              ],
              [
                -121.68585399977871,
                47.85865000015428
              ],
              [
                -121.68585399977871,
                47.858763000251976
              ],
              [
                -121.68592599974875,
                47.858764000187726
              ],
              [
                -121.68592699957367,
                47.858866000163864
              ],
              [
                -121.68592400009892,
                47.859214999988204
              ],
              [
                -121.68592499992383,
                47.859226999714124
              ],
              [
                -121.6859440001904,
                47.85939700025464
              ],
              [
                -121.68581699996882,
                47.8594050002451
              ],
              [
                -121.68570900001379,
                47.85941199970829
              ],
              [
                -121.68544000040023,
                47.85945900029887
              ],
              [
                -121.68531599965338,
                47.8594860000033
              ],
              [
                -121.68529200026225,
                47.85949000029316
              ],
              [
                -121.68522199994206,
                47.85950600024409
              ],
              [
                -121.68519900037585,
                47.85951199977239
              ],
              [
                -121.6851199998348,
                47.859532000003114
              ],
              [
                -121.68496199965104,
                47.8595750002019
              ],
              [
                -121.68488399983325,
                47.85959800016743
              ],
              [
                -121.68480699984038,
                47.85962200004201
              ],
              [
                -121.68451599958722,
                47.85974700003766
              ],
              [
                -121.68447999960222,
                47.8597649997422
              ],
              [
                -121.68431300009594,
                47.859854999979284
              ],
              [
                -121.68392999978131,
                47.860095000048595
              ],
              [
                -121.68357699960389,
                47.86034100024736
              ],
              [
                -121.68356499990834,
                47.86034999999727
              ],
              [
                -121.68329600029479,
                47.86056100004885
              ],
              [
                -121.68310799997383,
                47.86078399981266
              ],
              [
                -121.68298499995016,
                47.86094100024663
              ],
              [
                -121.68286799977432,
                47.86110900020746
              ],
              [
                -121.68276700039027,
                47.86125600017862
              ],
              [
                -121.68267899962842,
                47.861419000298866
              ],
              [
                -121.68252700019079,
                47.861755000194215
              ],
              [
                -121.6823460004408,
                47.862269999928806
              ],
              [
                -121.68212399978465,
                47.86295399983808
              ],
              [
                -121.68209500037065,
                47.8630420002567
              ],
              [
                -121.68194100038488,
                47.86351899977556
              ],
              [
                -121.6818819999353,
                47.86370599980435
              ],
              [
                -121.68200099976102,
                47.86371500017547
              ],
              [
                -121.68244599999994,
                47.86376599983824
              ],
              [
                -121.68306199994306,
                47.863735999829956
              ],
              [
                -121.68334800017334,
                47.86370499996392
              ],
              [
                -121.68374800020642,
                47.8636280001386
              ],
              [
                -121.68401199979705,
                47.86355999999427
              ],
              [
                -121.68434300023316,
                47.86352800017914
              ],
              [
                -121.68450300006674,
                47.86352999986682
              ],
              [
                -121.68471899997681,
                47.86358600013092
              ],
              [
                -121.6851759999113,
                47.86379800010915
              ],
              [
                -121.6853580003845,
                47.86393500012285
              ],
              [
                -121.6855979996857,
                47.86422499996919
              ],
              [
                -121.68571200038683,
                47.86431600012687
              ],
              [
                -121.68586100034975,
                47.86441700020092
              ],
              [
                -121.68599799971875,
                47.86448099991926
              ],
              [
                -121.6862939999948,
                47.864483999998285
              ],
              [
                -121.68683100029523,
                47.864607999898475
              ],
              [
                -121.6869700002124,
                47.86462700014858
              ],
              [
                -121.68795199985342,
                47.86464700021401
              ],
              [
                -121.68811199968701,
                47.86462199982969
              ],
              [
                -121.68824099955845,
                47.86457699995125
              ],
              [
                -121.68828400011445,
                47.86456200018398
              ],
              [
                -121.68844399994803,
                47.86444699981508
              ],
              [
                -121.68852400031396,
                47.86435800014579
              ],
              [
                -121.6887739996609,
                47.864199999984
              ],
              [
                -121.68880600034628,
                47.86418599993882
              ],
              [
                -121.68889699968454,
                47.864147999711015
              ],
              [
                -121.689025999556,
                47.86409500015559
              ],
              [
                -121.68926699958038,
                47.86402700002121
              ],
              [
                -121.68960600041244,
                47.86398200022887
              ],
              [
                -121.6898430002389,
                47.863950000071554
              ],
              [
                -121.69018299999753,
                47.86395300018132
              ],
              [
                -121.69071399955186,
                47.86407599971047
              ],
              [
                -121.69074100021436,
                47.864081999915236
              ],
              [
                -121.69075999958262,
                47.86409200005405
              ],
              [
                -121.69091600011653,
                47.86417400015537
              ],
              [
                -121.69116899983652,
                47.86410200019095
              ],
              [
                -121.69117100038466,
                47.863816000215174
              ],
              [
                -121.69117200020958,
                47.863734000150224
              ],
              [
                -121.69117300003447,
                47.86369300006907
              ],
              [
                -121.69119999979866,
                47.860950999786
              ],
              [
                -121.69120300017171,
                47.860577000271974
              ],
              [
                -121.69120499982152,
                47.86048899988785
              ],
              [
                -121.69145000004391,
                47.860543999919415
              ],
              [
                -121.69156499967163,
                47.8605699997606
              ],
              [
                -121.69167000015196,
                47.86059299988744
              ],
              [
                -121.69180200039641,
                47.86062299990649
              ],
              [
                -121.69198599962114,
                47.860664999903996
              ],
              [
                -121.69209199992632,
                47.8606889998873
              ],
              [
                -121.6921530000257,
                47.86070199977319
              ],
              [
                -121.69233700014871,
                47.860741000013924
              ],
              [
                -121.69239900007301,
                47.86075499978413
              ],
              [
                -121.69254100036322,
                47.86078600020891
              ],
              [
                -121.69263500007455,
                47.860806999844506
              ],
              [
                -121.6928640004034,
                47.86085899985277
              ],
              [
                -121.69315099956027,
                47.86368800026277
              ],
              [
                -121.69316200032925,
                47.863812000259124
              ],
              [
                -121.69325500021567,
                47.86376299971766
              ],
              [
                -121.69396499987015,
                47.863428999872504
              ],
              [
                -121.6941950000239,
                47.863369000051236
              ],
              [
                -121.69458400018632,
                47.86332800028409
              ],
              [
                -121.6955239999946,
                47.86331199970469
              ],
              [
                -121.695580999896,
                47.86332000029635
              ],
              [
                -121.69609800010494,
                47.863211999738276
              ],
              [
                -121.69656900028312,
                47.86334199995836
              ],
              [
                -121.69685299996526,
                47.86343500015215
              ],
              [
                -121.69692199956224,
                47.863458000213264
              ],
              [
                -121.69719299972388,
                47.86344499981315
              ],
              [
                -121.69779600014655,
                47.863392000141594
              ],
              [
                -121.6983209998531,
                47.8633290001318
              ],
              [
                -121.6984689999911,
                47.86330200001809
              ],
              [
                -121.69858399961885,
                47.86326799974323
              ],
              [
                -121.69868900009915,
                47.86324500020055
              ],
              [
                -121.69871199966536,
                47.863242000049816
              ],
              [
                -121.69880399972686,
                47.86323099989743
              ],
              [
                -121.69889599978838,
                47.86325000004959
              ],
              [
                -121.69899200004782,
                47.86326900019479
              ],
              [
                -121.69906499984276,
                47.86332299983988
              ],
              [
                -121.6990940001551,
                47.863352000239935
              ],
              [
                -121.69913299961483,
                47.863373999888324
              ],
              [
                -121.69920999960772,
                47.863403000259844
              ],
              [
                -121.69926800023238,
                47.863438000291715
              ],
              [
                -121.69934600005017,
                47.86345599992011
              ],
              [
                -121.69943499973863,
                47.86354000011213
              ],
              [
                -121.69948099976939,
                47.86356499981294
              ],
              [
                -121.69958299987664,
                47.863597000207974
              ],
              [
                -121.699679999961,
                47.863644000017814
              ],
              [
                -121.6997279996416,
                47.863666999986144
              ],
              [
                -121.6997910002891,
                47.863698999715524
              ],
              [
                -121.69988800037348,
                47.86374999999668
              ],
              [
                -121.69995100012268,
                47.863758999757465
              ],
              [
                -121.70003200031354,
                47.863752000278474
              ],
              [
                -121.70010900030641,
                47.86373800011229
              ],
              [
                -121.70016200000987,
                47.86374399975349
              ],
              [
                -121.70023900000277,
                47.8637820002775
              ],
              [
                -121.70028300038369,
                47.8637849997943
              ],
              [
                -121.70053100008082,
                47.863898999987136
              ],
              [
                -121.70083099965646,
                47.863983999899084
              ],
              [
                -121.70122499984176,
                47.86401699986985
              ],
              [
                -121.7014380002771,
                47.86403599973391
              ],
              [
                -121.7016089999813,
                47.86407300021051
              ],
              [
                -121.70181900004359,
                47.86422499996919
              ],
              [
                -121.70197600040244,
                47.86433899979708
              ],
              [
                -121.70231299978802,
                47.86463199986432
              ],
              [
                -121.70234299992524,
                47.86465800006595
              ],
              [
                -121.70251199997963,
                47.8648199999156
              ],
              [
                -121.70267400036136,
                47.86497599976104
              ],
              [
                -121.70299499985342,
                47.86525899993184
              ],
              [
                -121.70313299994565,
                47.86536800025199
              ],
              [
                -121.70369399963725,
                47.86576199979063
              ],
              [
                -121.70380499996531,
                47.86584299986152
              ],
              [
                -121.70400400015693,
                47.86598700027766
              ],
              [
                -121.70408399962457,
                47.865984000285636
              ],
              [
                -121.70433200021998,
                47.86600099983642
              ],
              [
                -121.7046629997578,
                47.866014000198156
              ],
              [
                -121.70466500030592,
                47.86563300001907
              ],
              [
                -121.70466699995575,
                47.86514499971669
              ],
              [
                -121.70467000032879,
                47.86424600001979
              ],
              [
                -121.70470999961346,
                47.86424600001979
              ],
              [
                -121.70519099983738,
                47.86424800028245
              ],
              [
                -121.7052760002262,
                47.864249000112416
              ],
              [
                -121.70536400008977,
                47.864249000112416
              ],
              [
                -121.7068179997339,
                47.86425900021902
              ],
              [
                -121.70881399970136,
                47.86426600023222
              ],
              [
                -121.70889400006729,
                47.86426600023222
              ],
              [
                -121.7089579996414,
                47.86426700006184
              ],
              [
                -121.709016000266,
                47.86426700006184
              ],
              [
                -121.70989999999779,
                47.86427099998279
              ],
              [
                -121.70990300037083,
                47.86368900010353
              ],
              [
                -121.71035500028245,
                47.86368999994427
              ],
              [
                -121.7105069997201,
                47.86369099978499
              ],
              [
                -121.71078299990464,
                47.86369200022839
              ],
              [
                -121.7110480002185,
                47.86369200022839
              ],
              [
                -121.71123099961828,
                47.86369300006907
              ],
              [
                -121.71123399999132,
                47.86323599974783
              ],
              [
                -121.71123499981624,
                47.863198000028945
              ],
              [
                -121.71123599964115,
                47.86307100021128
              ],
              [
                -121.71123599964115,
                47.86303900009422
              ],
              [
                -121.71123700036438,
                47.862895999781855
              ],
              [
                -121.71123800018927,
                47.86273200022765
              ],
              [
                -121.7112390000142,
                47.862567000292266
              ],
              [
                -121.7112390000142,
                47.86252000010863
              ],
              [
                -121.71123999983912,
                47.86240300029992
              ],
              [
                -121.71123999983912,
                47.86236199976873
              ],
              [
                -121.71124099966401,
                47.86223799992
              ],
              [
                -121.71124099966401,
                47.862191999910415
              ],
              [
                -121.71124099966401,
                47.86216300006681
              ],
              [
                -121.71124200038724,
                47.862079999926
              ],
              [
                -121.71124400003707,
                47.86179600000011
              ],
              [
                -121.71124400003707,
                47.861728999741956
              ],
              [
                -121.71124499986199,
                47.86161799984332
              ]
            ]
          ],
          [
            [
              [
                -121.69430200015404,
                47.851663999814505
              ],
              [
                -121.69437300029915,
                47.851596999724386
              ],
              [
                -121.693829000326,
                47.851061000107016
              ],
              [
                -121.69324299962177,
                47.850374999827025
              ],
              [
                -121.692659000364,
                47.8496319998017
              ],
              [
                -121.69243800043107,
                47.84935600014369
              ],
              [
                -121.69233399977568,
                47.84839499979693
              ],
              [
                -121.69175399981754,
                47.8468330000027
              ],
              [
                -121.69171199998475,
                47.846173999869464
              ],
              [
                -121.69135999963224,
                47.84560800002316
              ],
              [
                -121.69135700015748,
                47.84586600003098
              ],
              [
                -121.69135999963224,
                47.84588499991541
              ],
              [
                -121.69135499960935,
                47.84602400000042
              ],
              [
                -121.69135200013464,
                47.84629699998095
              ],
              [
                -121.69134799993667,
                47.846639000022535
              ],
              [
                -121.69134700011175,
                47.846711000124714
              ],
              [
                -121.69134499956361,
                47.84682099981986
              ],
              [
                -121.69133899971582,
                47.8474220002885
              ],
              [
                -121.69132600019535,
                47.84851699993381
              ],
              [
                -121.69131199995167,
                47.849641000204855
              ],
              [
                -121.69130899957861,
                47.84996900023413
              ],
              [
                -121.69130899957861,
                47.8499910001361
              ],
              [
                -121.69130799975369,
                47.85002799978585
              ],
              [
                -121.69131600014961,
                47.8501430001905
              ],
              [
                -121.69130699992877,
                47.850189000039805
              ],
              [
                -121.69130699992877,
                47.85021199994918
              ],
              [
                -121.69130600010388,
                47.85023499984831
              ],
              [
                -121.69130500027896,
                47.85035500028382
              ],
              [
                -121.69130399955574,
                47.85049200025564
              ],
              [
                -121.69130100008101,
                47.850716000015204
              ],
              [
                -121.69130100008101,
                47.85080099984026
              ],
              [
                -121.69129900043119,
                47.85097500001931
              ],
              [
                -121.69133700006601,
                47.85099299975507
              ],
              [
                -121.69157200024266,
                47.85110699974491
              ],
              [
                -121.69331299994197,
                47.852015000023655
              ],
              [
                -121.6937160003481,
                47.852225000177306
              ],
              [
                -121.6938989997479,
                47.85204899984211
              ],
              [
                -121.69397900011386,
                47.8519720001858
              ],
              [
                -121.6940739996501,
                47.851881000061
              ],
              [
                -121.69430200015404,
                47.851663999814505
              ]
            ]
          ]
        ]
      },
      "properties": {
        "AREALAND": "2743852",
        "AREAWATER": "0",
        "BASENAME": "Gold Bar",
        "CBSAPCI": "N",
        "CENTLAT": "+47.8563351",
        "CENTLON": "-121.6920060",
        "FUNCSTAT": "A",
        "GEOID": "5327365",
        "INTPTLAT": "+47.8563351",
        "INTPTLON": "-121.6920060",
        "LSADC": "25",
        "MTFCC": "G4110",
        "NAME": "Gold Bar city",
        "NECTAPCI": "N",
        "OBJECTID": 12167,
        "OID": "27890921610439",
        "PLACE": "27365",
        "PLACECC": "C1",
        "PLACENS": "02410608",
        "STATE": "53",
        "DISP_CLR": 2,
        "slug": "gold_bar",
        "jurisdiction_key": "gold_bar_city",
        "county_fips": [
          "53061"
        ]
      }
    }
  ]
}
