{"type":"FeatureCollection","features":[{"type":"Feature","geometry":{"type":"Polygon","coordinates":[[[-120.20908999979524,46.360693000051725],[-120.20914099984886,46.36069400001801],[-120.20893599980947,46.35983099996732],[-120.20886499966433,46.3595310001756],[-120.20862399963991,46.358196999832444],[-120.2085249999057,46.35695199984839],[-120.20843799986709,46.35587500013114],[-120.20840500025511,46.35359100029628],[-120.20844799991282,46.35017099984997],[-120.20845499958551,46.349679000076854],[-120.20842399962338,46.348987999998045],[-120.20841100010287,46.34869400008023],[-120.20848399989782,46.34864100012294],[-120.2085020003395,46.34862800017241],[-120.20850099961625,46.34857200020687],[-120.20849899996647,46.34847099971432],[-120.20848899992069,46.347636999847616],[-120.20848600044596,46.347412999920856],[-120.20848600044596,46.34738100003353],[-120.20848499972274,46.34728400004756],[-120.20848600044596,46.347233999981164],[-120.20836599989705,46.34721500027877],[-120.20822299978191,46.34719299992978],[-120.20791300016052,46.34711999980757],[-120.20753099967078,46.34695699991331],[-120.20737800040823,46.346881000058985],[-120.20645899961808,46.346475000140494],[-120.20562599993994,46.346154999894274],[-120.20455999973498,46.34552600018641],[-120.20419800023504,46.345312999916736],[-120.20327000012237,46.344914000060335],[-120.20244999996473,46.344562000300954],[-120.20129500007133,46.343627999844195],[-120.20078200006034,46.341788999812024],[-120.20039899974572,46.340412999980565],[-120.19986800019136,46.339829000123736],[-120.19977699995476,46.33972800022202],[-120.19913400024744,46.3390200002847],[-120.19815799955586,46.33820100020279],[-120.19774099980434,46.337851999927565],[-120.19759400038956,46.33765699969058],[-120.19729300009067,46.33725900017205],[-120.1965630003447,46.33629099985525],[-120.19651999978869,46.33603300003352],[-120.19650600044329,46.336015999754885],[-120.19618599987786,46.335634999858875],[-120.19616300031164,46.335505000296244],[-120.1961249997785,46.33527800022361],[-120.19605799983134,46.335127999817004],[-120.1960050001279,46.33500900012797],[-120.19597800036371,46.3349459998959],[-120.19589799999775,46.33476000008682],[-120.19587200005849,46.334698000009894],[-120.19571999972253,46.334361999950815],[-120.19526399961295,46.33335600010511],[-120.19511300000022,46.333020999716524],[-120.19456800020218,46.333241000295615],[-120.19410500041991,46.3334299998439],[-120.19384099993094,46.33353799973554],[-120.19369399961785,46.333439000308196],[-120.1936180003482,46.33338700029282],[-120.1924030001803,46.333877000025836],[-120.19131400040915,46.3343739997448],[-120.19042800012927,46.334952000039266],[-120.19016299981539,46.33531999971792],[-120.18863999967596,46.33479400017922],[-120.1879230003488,46.334436000189086],[-120.18581500022833,46.33403599988818],[-120.1847990002521,46.33373000025679],[-120.18432399987596,46.33327999995067],[-120.18361400022148,46.3330440000384],[-120.18341199965681,46.33304199971416],[-120.18314800006617,46.33304000001007],[-120.18314800006617,46.33286399971508],[-120.18314999971598,46.332439999892635],[-120.18335700030352,46.332475999911665],[-120.18349200002274,46.33244800003676],[-120.18356599964258,46.33240700006117],[-120.1836929998642,46.33233800012366],[-120.18380500001719,46.33227400004986],[-120.1840660001331,46.33212699969364],[-120.18378099972773,46.332120999860614],[-120.1837339998721,46.33211999999174],[-120.1826929997815,46.33210099999884],[-120.18237300011434,46.3320950001629],[-120.18023099965872,46.332056000283096],[-120.17898200005399,46.33203900000869],[-120.1781450001779,46.33202900006373],[-120.17797299975044,46.33201800024619],[-120.17797399957537,46.33396700014514],[-120.17791800039717,46.33463800012858],[-120.17792000004702,46.33524999992259],[-120.17790099978043,46.33789300016248],[-120.17790499997838,46.33811400012759],[-120.17790699962823,46.33820699998901],[-120.17790900017636,46.33828800013952],[-120.17796500025284,46.33829999969225],[-120.17799500039008,46.338308999975204],[-120.17803800004776,46.33832300027468],[-120.17811099984272,46.33833400006443],[-120.17820399972912,46.338334999819686],[-120.17825700033089,46.338334999819686],[-120.1783779998064,46.33832499978554],[-120.17850900022596,46.33829199978399],[-120.17866300021178,46.33828199974202],[-120.17884899998458,46.3382830001184],[-120.17900200014547,46.33832900004751],[-120.17910699972748,46.338374000183386],[-120.17925999988833,46.33848700023723],[-120.1792840001778,46.33851000012084],[-120.17931900033786,46.33860200017858],[-120.17935100012494,46.33864499997045],[-120.17942899994273,46.33867299977351],[-120.17949500006495,46.33866100030267],[-120.17961399989066,46.338625000013764],[-120.17972600004366,46.338585999829085],[-120.17980800005942,46.338572000217205],[-120.17986199958779,46.33856299997749],[-120.18000100040325,46.33854500011385],[-120.18011799968082,46.33850799999649],[-120.18025999997103,46.338424000290914],[-120.18043400004831,46.33835999989697],[-120.18050699984326,46.33834499985195],[-120.180560000445,46.338364000156375],[-120.18056799994264,46.338389999974666],[-120.18057799998834,46.33843099980612],[-120.18057899981326,46.338550000111006],[-120.18061300014845,46.33873600005313],[-120.18063599971467,46.338863999885874],[-120.18064499993551,46.33891499991019],[-120.18067699972256,46.33891799976421],[-120.18081200034007,46.33899799973856],[-120.180552999874,46.33900400005752],[-120.18049199977463,46.33900499980054],[-120.18042900002544,46.34250800005309],[-120.17843899990577,46.34255299985037],[-120.1772639999209,46.342579999834975],[-120.177118000331,46.34258300010807],[-120.17672699962046,46.34259200030617],[-120.17668300013783,46.34259100000863],[-120.17653800037287,46.34259100000863],[-120.1765409998476,46.34179800014089],[-120.17654900024353,46.33975600009064],[-120.17655199971826,46.3394189997449],[-120.17655599991623,46.33906400010998],[-120.17655699974114,46.339014999710315],[-120.17641199997617,46.33901600007328],[-120.17273499968553,46.339028999828976],[-120.17273600040878,46.33911999989279],[-120.17269299985274,46.33990900000556],[-120.17237800020848,46.34028099993411],[-120.17229600019272,46.3403779999429],[-120.17203599990172,46.34081300014854],[-120.17204900032051,46.34121299987086],[-120.1720400000997,46.34157799987791],[-120.17202199965801,46.34196499991014],[-120.17214899987962,46.342022000130505],[-120.17300300037247,46.3424719998165],[-120.1736319998361,46.34273000026463],[-120.17419900027375,46.342755000192874],[-120.17432099957418,46.34275599986731],[-120.17590599963788,46.34350100028263],[-120.17754000010538,46.344236000274556],[-120.17796000022997,46.34445599976378],[-120.17819799988135,46.34457699988062],[-120.17845099960132,46.344707000199755],[-120.17879299990808,46.34492600001921],[-120.17913400038995,46.34524200026252],[-120.1793269998355,46.34546399991405],[-120.17975600018089,46.345957000036265],[-120.18000800007596,46.34626300007829],[-120.18018499962797,46.34643900003577],[-120.18046500001047,46.34671800007217],[-120.18059100040713,46.346831000244066],[-120.18071799973043,46.34711999980757],[-120.18140099962075,46.34774200021428],[-120.18214899980835,46.348283999832354],[-120.18279499988874,46.34877299982756],[-120.18311499955587,46.349000999863],[-120.18309000033985,46.3493229999194],[-120.18310500040845,46.349723000005],[-120.18312399977671,46.34973500014836],[-120.18312700014977,46.349864999982394],[-120.18273200013955,46.3498730000575],[-120.18058399983613,46.349915000122465],[-120.18048500010194,46.34991699982947],[-120.18048400027705,46.35012700028247],[-120.18048400027705,46.350336999928636],[-120.18048299955382,46.350548000160046],[-120.18048299955382,46.35076700014116],[-120.18048199972888,46.350822000191094],[-120.18048199972888,46.35090399977942],[-120.18048199972888,46.35112399971568],[-120.18048099990396,46.35132899980338],[-120.18048099990396,46.35153499987615],[-120.18048000007904,46.35167300020095],[-120.18048000007904,46.35174400018288],[-120.18048400027705,46.353476999740494],[-120.18048400027705,46.35349500026829],[-120.18048699975176,46.353573999896696],[-120.18060399992761,46.35357100022686],[-120.18179399998112,46.35354099979897],[-120.18309799983744,46.3535140002678],[-120.18309799983744,46.353433999833506],[-120.18309799983744,46.35292300009336],[-120.18309899966238,46.35198799975821],[-120.18309199998966,46.35160899981505],[-120.18320199959453,46.351636999799375],[-120.18397499989649,46.351834000036156],[-120.18615599981189,46.3517699998388],[-120.18719600007756,46.3517069996973],[-120.18797600005223,46.35166099986302],[-120.18823100032037,46.35164699987882],[-120.18865200026983,46.35162100016439],[-120.18884499971537,46.35170299979409],[-120.18942499967352,46.351954999942876],[-120.1923260001874,46.3529949997987],[-120.19348299973065,46.35342000030348],[-120.19359400005874,46.353461000024176],[-120.19461099985986,46.35388499991424],[-120.1948800003717,46.35401800006327],[-120.19554099962238,46.35434299995134],[-120.1958860003022,46.35451300007678],[-120.19652099961361,46.354825999858136],[-120.19860199996987,46.355944000127714],[-120.1987180003208,46.35599200018175],[-120.19883600032159,46.356096999997966],[-120.19954400032626,46.35656000030651],[-120.20125400006343,46.3578800000688],[-120.20448500029025,46.36060799974879],[-120.20459999991796,46.360693000051725],[-120.20496999981381,46.360691000119054],[-120.20664399956598,46.3606989998493],[-120.20722400042244,46.36070199974787],[-120.20735900014166,46.36070299971398],[-120.20738000005807,46.36070199974787],[-120.20744299980726,46.36070199974787],[-120.20746500044689,46.36070199974787],[-120.20758799957221,46.36070199974787],[-120.20796000001619,46.36070400030004],[-120.20837299956975,46.360700999781685],[-120.2087280002953,46.360694999984325],[-120.20888899995377,46.360693000051725],[-120.2089390001825,46.360693000051725],[-120.20908999979524,46.360693000051725]]]},"properties":{"AREALAND":"4475146","AREAWATER":"36387","BASENAME":"Granger","CBSAPCI":"N","CENTLAT":"+46.3454720","CENTLON":"-120.1924816","FUNCSTAT":"A","GEOID":"5327960","INTPTLAT":"+46.3452951","INTPTLON":"-120.1926735","LSADC":"25","MTFCC":"G4110","NAME":"Granger city","NECTAPCI":"N","OBJECTID":16471,"OID":"27890483243442","PLACE":"27960","PLACECC":"C1","PLACENS":"02410640","STATE":"53","DISP_CLR":5,"slug":"granger","jurisdiction_key":"granger_city","county_fips":["53077"]}}]}
