{
  "type": "FeatureCollection",
  "features": [
    {
      "type": "Feature",
      "geometry": {
        "type": "MultiPolygon",
        "coordinates": [
          [
            [
              [
                -120.83852999993071,
                45.813537000125145
              ],
              [
                -120.83852200043313,
                45.8130509996872
              ],
              [
                -120.83851099966414,
                45.812272999706515
              ],
              [
                -120.83847499967914,
                45.80988000012416
              ],
              [
                -120.83765200004676,
                45.80987900014184
              ],
              [
                -120.837465000449,
                45.80987900014184
              ],
              [
                -120.83671800008626,
                45.80988000012416
              ],
              [
                -120.83583900037739,
                45.80987900014184
              ],
              [
                -120.83503699976312,
                45.80987900014184
              ],
              [
                -120.83443199969061,
                45.80987800015951
              ],
              [
                -120.83370899961734,
                45.80987800015951
              ],
              [
                -120.83332299982794,
                45.80987800015951
              ],
              [
                -120.83285199964978,
                45.809882000088756
              ],
              [
                -120.83183900004657,
                45.80988000012416
              ],
              [
                -120.8302709997013,
                45.809877000177096
              ],
              [
                -120.8254760002255,
                45.80987500021233
              ],
              [
                -120.8228350000026,
                45.809871000282534
              ],
              [
                -120.82272799987246,
                45.80986799970886
              ],
              [
                -120.82273000042059,
                45.80922599970717
              ],
              [
                -120.82273000042059,
                45.80921099979423
              ],
              [
                -120.82274299994108,
                45.808851000045564
              ],
              [
                -120.82275999965951,
                45.80800599985308
              ],
              [
                -120.82276200020765,
                45.807922999718556
              ],
              [
                -120.82275499963667,
                45.80768200000015
              ],
              [
                -120.82276200020765,
                45.80724099992037
              ],
              [
                -120.82277499972814,
                45.80689799994928
              ],
              [
                -120.82279099962165,
                45.8064920001933
              ],
              [
                -120.82279200034489,
                45.80632000002125
              ],
              [
                -120.82279499981962,
                45.806128000206776
              ],
              [
                -120.82279499981962,
                45.80595500011047
              ],
              [
                -120.82279800019268,
                45.80543699979108
              ],
              [
                -120.8227990000176,
                45.80526500011885
              ],
              [
                -120.822455000061,
                45.805216000034946
              ],
              [
                -120.82179499973692,
                45.80512400014436
              ],
              [
                -120.82142400001615,
                45.80508900026864
              ],
              [
                -120.82107900023466,
                45.805056999951475
              ],
              [
                -120.82102499980796,
                45.80505300030192
              ],
              [
                -120.82095000036323,
                45.80504699988773
              ],
              [
                -120.82056399967554,
                45.80502099996407
              ],
              [
                -120.82057500044449,
                45.804940999978385
              ],
              [
                -120.82058899978988,
                45.80484399989645
              ],
              [
                -120.82061700027728,
                45.80465400015678
              ],
              [
                -120.82000299998397,
                45.80459500001679
              ],
              [
                -120.8199209999682,
                45.80458800010214
              ],
              [
                -120.81944700031528,
                45.80454599996974
              ],
              [
                -120.81891000001484,
                45.80449799995858
              ],
              [
                -120.81835000014819,
                45.804447999746436
              ],
              [
                -120.81778799973341,
                45.80439700003487
              ],
              [
                -120.81777500021292,
                45.80451099973087
              ],
              [
                -120.81672200042676,
                45.80451399996689
              ],
              [
                -120.81464400044355,
                45.80452099989084
              ],
              [
                -120.8136050000028,
                45.804525000204784
              ],
              [
                -120.81268299973789,
                45.80452799981386
              ],
              [
                -120.8125139996835,
                45.80452699973545
              ],
              [
                -120.81251200003366,
                45.80458299971533
              ],
              [
                -120.81250000033808,
                45.80505499981359
              ],
              [
                -120.81246000015513,
                45.80616999977262
              ],
              [
                -120.81243000001791,
                45.80735900016881
              ],
              [
                -120.81239800023084,
                45.80875599988909
              ],
              [
                -120.81239800023084,
                45.80887100005784
              ],
              [
                -120.81239700040594,
                45.808985999989176
              ],
              [
                -120.8123959996827,
                45.809207999811136
              ],
              [
                -120.8123959996827,
                45.809242000236004
              ],
              [
                -120.81246199980495,
                45.809241000242224
              ],
              [
                -120.81301699964872,
                45.80924000024844
              ],
              [
                -120.81429499956576,
                45.80923700026694
              ],
              [
                -120.81453800013834,
                45.80923600027303
              ],
              [
                -120.8145359995902,
                45.80940200026246
              ],
              [
                -120.81453200029057,
                45.80954500003022
              ],
              [
                -120.81452700026767,
                45.80972500014423
              ],
              [
                -120.81452100041992,
                45.809921999991914
              ],
              [
                -120.81433300009893,
                45.80992299997351
              ],
              [
                -120.81428600024327,
                45.809910000211815
              ],
              [
                -120.81353399985768,
                45.80991300015711
              ],
              [
                -120.81296099957223,
                45.80991600010219
              ],
              [
                -120.8126479995778,
                45.80991800006554
              ],
              [
                -120.8124020004288,
                45.80991900004715
              ],
              [
                -120.8123959996827,
                45.809658999835975
              ],
              [
                -120.8123959996827,
                45.80957099972083
              ],
              [
                -120.8123959996827,
                45.80944699983486
              ],
              [
                -120.8123959996827,
                45.80933100023703
              ],
              [
                -120.8123959996827,
                45.80929099990939
              ],
              [
                -120.8122469997198,
                45.80929399988803
              ],
              [
                -120.81212399969615,
                45.80929499988085
              ],
              [
                -120.80821899979988,
                45.80933900017385
              ],
              [
                -120.80796400043006,
                45.809336000197646
              ],
              [
                -120.80792599989691,
                45.80949199999707
              ],
              [
                -120.80788499988904,
                45.80966099980854
              ],
              [
                -120.80755199980311,
                45.811125999849196
              ],
              [
                -120.80740200001529,
                45.811663000173255
              ],
              [
                -120.80725700025033,
                45.812185999905424
              ],
              [
                -120.80721200004449,
                45.812382999814595
              ],
              [
                -120.80716500018882,
                45.81258900030917
              ],
              [
                -120.80697900041596,
                45.813307000034236
              ],
              [
                -120.80697199984496,
                45.81333800007469
              ],
              [
                -120.80682399970696,
                45.8140589998833
              ],
              [
                -120.80676099995779,
                45.814366999904294
              ],
              [
                -120.80663299991126,
                45.815083999983784
              ],
              [
                -120.80635099987894,
                45.816225999751026
              ],
              [
                -120.8061159997023,
                45.81718300017797
              ],
              [
                -120.80605799997598,
                45.81741600008008
              ],
              [
                -120.80588600044686,
                45.81811500019745
              ],
              [
                -120.80583899969288,
                45.81830900030091
              ],
              [
                -120.80583000037036,
                45.81834899978644
              ],
              [
                -120.80581699995157,
                45.81839699975712
              ],
              [
                -120.80571200036957,
                45.81880500002887
              ],
              [
                -120.80542899961404,
                45.81991499994474
              ],
              [
                -120.80536800041301,
                45.82017799987505
              ],
              [
                -120.80526399975761,
                45.82063899973582
              ],
              [
                -120.80508399983255,
                45.82142499998801
              ],
              [
                -120.80456300032395,
                45.82370999995869
              ],
              [
                -120.8045449998823,
                45.82378499998998
              ],
              [
                -120.80436300030743,
                45.82457199999298
              ],
              [
                -120.80428100029164,
                45.82492399995687
              ],
              [
                -120.80403600006926,
                45.82598000026604
              ],
              [
                -120.8039549998784,
                45.826332999777634
              ],
              [
                -120.80394800020572,
                45.82635800008198
              ],
              [
                -120.80393099958896,
                45.8264339999868
              ],
              [
                -120.80392599956609,
                45.82645999993039
              ],
              [
                -120.8039189998934,
                45.82648599986185
              ],
              [
                -120.80389999962682,
                45.826566999883504
              ],
              [
                -120.80389499960395,
                45.826594000073165
              ],
              [
                -120.80386899966469,
                45.82670299975524
              ],
              [
                -120.80379300039503,
                45.82703300029957
              ],
              [
                -120.80376800028066,
                45.82714300004629
              ],
              [
                -120.80375700041,
                45.82719000027583
              ],
              [
                -120.80371300002908,
                45.82736199984515
              ],
              [
                -120.80354800017264,
                45.82802199992746
              ],
              [
                -120.80349399974595,
                45.82824200030242
              ],
              [
                -120.80357599976175,
                45.828237000161295
              ],
              [
                -120.80382500018209,
                45.82822499994592
              ],
              [
                -120.80390800002274,
                45.82822199973519
              ],
              [
                -120.80418500003219,
                45.828221000082216
              ],
              [
                -120.80501900043353,
                45.82821900015027
              ],
              [
                -120.80520900040435,
                45.82821900015027
              ],
              [
                -120.80529700026787,
                45.82821799987128
              ],
              [
                -120.80581600012664,
                45.828215000286136
              ],
              [
                -120.80623799990104,
                45.828212999727995
              ],
              [
                -120.80646100038211,
                45.82821099979575
              ],
              [
                -120.80662000039077,
                45.82821000014259
              ],
              [
                -120.80705200021092,
                45.82820800021024
              ],
              [
                -120.80705300003584,
                45.82817700031057
              ],
              [
                -120.80706200025666,
                45.826846999846374
              ],
              [
                -120.80706200025666,
                45.82682199976164
              ],
              [
                -120.80706300008156,
                45.82677899981497
              ],
              [
                -120.80706700027953,
                45.826600000044024
              ],
              [
                -120.80793799959248,
                45.82659600006355
              ],
              [
                -120.80810499999707,
                45.82659099977453
              ],
              [
                -120.80897200001037,
                45.82659099977453
              ],
              [
                -120.80968800041096,
                45.82658699979341
              ],
              [
                -120.80968800041096,
                45.82674700006601
              ],
              [
                -120.80968800041096,
                45.82676800021632
              ],
              [
                -120.80968300038809,
                45.828192000122826
              ],
              [
                -120.81091399955115,
                45.82818300011078
              ],
              [
                -120.81111799976567,
                45.82818199983115
              ],
              [
                -120.81107699975779,
                45.82821799987128
              ],
              [
                -120.81104499997072,
                45.82823500022986
              ],
              [
                -120.81099999976489,
                45.828260999958275
              ],
              [
                -120.81088799961188,
                45.82831300000449
              ],
              [
                -120.81068299957248,
                45.82837700018733
              ],
              [
                -120.81055899972391,
                45.82841699995128
              ],
              [
                -120.81029799960803,
                45.82846500000564
              ],
              [
                -120.81001800012385,
                45.8285180001349
              ],
              [
                -120.80971099997717,
                45.82858299972855
              ],
              [
                -120.80952000018146,
                45.8286299999941
              ],
              [
                -120.80947199960256,
                45.828642000122116
              ],
              [
                -120.80926699956316,
                45.828707000196935
              ],
              [
                -120.80923200030136,
                45.82871800003835
              ],
              [
                -120.80919200011841,
                45.82873599988802
              ],
              [
                -120.80897299983529,
                45.828840000296346
              ],
              [
                -120.80890199969019,
                45.82887700017807
              ],
              [
                -120.8088249996973,
                45.82891599994218
              ],
              [
                -120.80871400026751,
                45.82897399971742
              ],
              [
                -120.80859899974148,
                45.82904299983536
              ],
              [
                -120.8085440003882,
                45.82907700004346
              ],
              [
                -120.80852699977144,
                45.829090999975854
              ],
              [
                -120.8083329996027,
                45.829252999831304
              ],
              [
                -120.80790400015559,
                45.82961299976948
              ],
              [
                -120.80779299982753,
                45.82977600023456
              ],
              [
                -120.80765300008544,
                45.82998599996875
              ],
              [
                -120.80747599963512,
                45.83024800027885
              ],
              [
                -120.80706599955629,
                45.83085599981588
              ],
              [
                -120.80701299985284,
                45.83097700016569
              ],
              [
                -120.80697699986784,
                45.83105100019311
              ],
              [
                -120.80694699973063,
                45.831114999731454
              ],
              [
                -120.80691900014152,
                45.831304999961624
              ],
              [
                -120.80691699959338,
                45.83135900011294
              ],
              [
                -120.80691499994357,
                45.83139999983345
              ],
              [
                -120.80691900014152,
                45.83149299972886
              ],
              [
                -120.80693300038523,
                45.831586999687275
              ],
              [
                -120.80694699973063,
                45.831678000088424
              ],
              [
                -120.80699100011155,
                45.83187900011706
              ],
              [
                -120.80705600040886,
                45.832098000059915
              ],
              [
                -120.80709999989148,
                45.832204999815794
              ],
              [
                -120.80712099980789,
                45.83224799995225
              ],
              [
                -120.80714900029527,
                45.83230499980532
              ],
              [
                -120.80720399964856,
                45.83240299983353
              ],
              [
                -120.80723799998376,
                45.832445999817025
              ],
              [
                -120.80736600003026,
                45.83262200021816
              ],
              [
                -120.80760799987962,
                45.832908999877645
              ],
              [
                -120.80769300026844,
                45.83302100028975
              ],
              [
                -120.80778500032993,
                45.833158000230284
              ],
              [
                -120.8078670003457,
                45.8332970002091
              ],
              [
                -120.80801799995841,
                45.83358000003855
              ],
              [
                -120.80815100002782,
                45.833848999696926
              ],
              [
                -120.80827300022656,
                45.834094000157585
              ],
              [
                -120.80842399983929,
                45.834305000042406
              ],
              [
                -120.80848400011374,
                45.83436999976271
              ],
              [
                -120.80861499963498,
                45.83447099978408
              ],
              [
                -120.80879000043552,
                45.834577999984745
              ],
              [
                -120.80931000011917,
                45.83484699982617
              ],
              [
                -120.80960300002214,
                45.83501299982874
              ],
              [
                -120.80974299976423,
                45.83510099979516
              ],
              [
                -120.8098750000087,
                45.83519499991852
              ],
              [
                -120.8100929995686,
                45.83538100001429
              ],
              [
                -120.81016100023896,
                45.83544500020631
              ],
              [
                -120.81020200024686,
                45.83547999978147
              ],
              [
                -120.81051799971604,
                45.83584800000817
              ],
              [
                -120.81058899986115,
                45.83594799971053
              ],
              [
                -120.8108960000078,
                45.83646000022777
              ],
              [
                -120.81095999958191,
                45.83659799996707
              ],
              [
                -120.81100700033589,
                45.836798000251676
              ],
              [
                -120.81099999976489,
                45.83691199996711
              ],
              [
                -120.81087199971836,
                45.83712899989445
              ],
              [
                -120.81084199958111,
                45.837168000134895
              ],
              [
                -120.81078700022788,
                45.837222000230135
              ],
              [
                -120.81061499980042,
                45.837346000227306
              ],
              [
                -120.8105360001577,
                45.83741299975241
              ],
              [
                -120.81041599960878,
                45.83751799970534
              ],
              [
                -120.81027000001892,
                45.83767400003842
              ],
              [
                -120.81020499972159,
                45.83778199982024
              ],
              [
                -120.8101339995765,
                45.83792399982864
              ],
              [
                -120.81009400029183,
                45.83806199969233
              ],
              [
                -120.81006499997949,
                45.83832300006339
              ],
              [
                -120.81007699967506,
                45.838523999874404
              ],
              [
                -120.81013600012461,
                45.838936000060336
              ],
              [
                -120.81014899964507,
                45.83902999996393
              ],
              [
                -120.81019600039907,
                45.83914899990043
              ],
              [
                -120.81039600041561,
                45.83914899990043
              ],
              [
                -120.81111699994075,
                45.839146000278554
              ],
              [
                -120.81212399969615,
                45.83914300003068
              ],
              [
                -120.81385000022517,
                45.83913700016032
              ],
              [
                -120.8150700004159,
                45.83913399991195
              ],
              [
                -120.81538800043322,
                45.83913199974629
              ],
              [
                -120.8159089999418,
                45.839130000206396
              ],
              [
                -120.81597199969099,
                45.8391290001235
              ],
              [
                -120.81598699975963,
                45.839147999817875
              ],
              [
                -120.81603600016342,
                45.83917999994729
              ],
              [
                -120.81607299997334,
                45.839185999813054
              ],
              [
                -120.8163220003937,
                45.83918400027511
              ],
              [
                -120.81690800019962,
                45.839168000213824
              ],
              [
                -120.81716500011755,
                45.839166000049424
              ],
              [
                -120.81756900034858,
                45.83917799978328
              ],
              [
                -120.81767300010567,
                45.83918200011124
              ],
              [
                -120.81812199964425,
                45.83920400003226
              ],
              [
                -120.81902899984053,
                45.839222999701086
              ],
              [
                -120.81918100017648,
                45.83923600012948
              ],
              [
                -120.81931099987284,
                45.83925699994856
              ],
              [
                -120.82029900025996,
                45.83911699975319
              ],
              [
                -120.82247299960433,
                45.83910999979679
              ],
              [
                -120.82247400032757,
                45.83899400003295
              ],
              [
                -120.82247900035044,
                45.83852100021884
              ],
              [
                -120.8224900002211,
                45.83734899994621
              ],
              [
                -120.82250000026684,
                45.83642700028025
              ],
              [
                -120.82250799976444,
                45.835620999885485
              ],
              [
                -120.82250899958933,
                45.83545300014691
              ],
              [
                -120.82276800005543,
                45.83545199999793
              ],
              [
                -120.82277200025338,
                45.83509500011481
              ],
              [
                -120.82277399990322,
                45.83485300015914
              ],
              [
                -120.82288500023131,
                45.83480200012473
              ],
              [
                -120.8233709995798,
                45.83458099985287
              ],
              [
                -120.8238409999331,
                45.83436800005168
              ],
              [
                -120.82473100041095,
                45.83395800019343
              ],
              [
                -120.82483000014511,
                45.83391299977313
              ],
              [
                -120.82481500007653,
                45.833898000250855
              ],
              [
                -120.82477700044166,
                45.83385900022219
              ],
              [
                -120.82470399974845,
                45.83378599972602
              ],
              [
                -120.82464500019721,
                45.83372600022386
              ],
              [
                -120.82455800015856,
                45.833636999779266
              ],
              [
                -120.8265669996465,
                45.83357000008902
              ],
              [
                -120.82773300030888,
                45.833532000014
              ],
              [
                -120.8277369996085,
                45.833263000075256
              ],
              [
                -120.82773800033175,
                45.83310099999902
              ],
              [
                -120.8277419996314,
                45.83271199998057
              ],
              [
                -120.82815799955799,
                45.83271000020998
              ],
              [
                -120.82824700014476,
                45.831621999811055
              ],
              [
                -120.82829800019839,
                45.8310020002621
              ],
              [
                -120.82833099981035,
                45.83060100026586
              ],
              [
                -120.82835299955165,
                45.83033300017184
              ],
              [
                -120.82834800042711,
                45.829878000079205
              ],
              [
                -120.828341999681,
                45.82925200019685
              ],
              [
                -120.82834000003119,
                45.82864700022691
              ],
              [
                -120.82866899991916,
                45.82864599995561
              ],
              [
                -120.82877199985133,
                45.82864599995561
              ],
              [
                -120.82967700039778,
                45.82864400003892
              ],
              [
                -120.82999700006494,
                45.82864299976757
              ],
              [
                -120.83055699993159,
                45.828642000122116
              ],
              [
                -120.83086499990316,
                45.828368000205195
              ],
              [
                -120.83103300013265,
                45.82821700021824
              ],
              [
                -120.83106400009478,
                45.82818899991032
              ],
              [
                -120.83075399957505,
                45.827917999868625
              ],
              [
                -120.83065400001595,
                45.82783100009751
              ],
              [
                -120.83057500037324,
                45.8277449998519
              ],
              [
                -120.83050300040321,
                45.827666999907315
              ],
              [
                -120.83040299994578,
                45.827534999800264
              ],
              [
                -120.8303400001966,
                45.827421999948406
              ],
              [
                -120.83037199998365,
                45.82742599986952
              ],
              [
                -120.83076299979591,
                45.82742300024165
              ],
              [
                -120.83084599963658,
                45.827421999948406
              ],
              [
                -120.83111599997333,
                45.82716099977929
              ],
              [
                -120.83120999968463,
                45.82705599968982
              ],
              [
                -120.8313400002793,
                45.8269149997947
              ],
              [
                -120.83133899955608,
                45.82688500010392
              ],
              [
                -120.8313689996933,
                45.82687399990023
              ],
              [
                -120.83142399994489,
                45.82685600007442
              ],
              [
                -120.83161800011364,
                45.82673700014071
              ],
              [
                -120.83171699984786,
                45.826676999925084
              ],
              [
                -120.83176000040386,
                45.826698000101814
              ],
              [
                -120.83181499975714,
                45.8267239999221
              ],
              [
                -120.83190099997087,
                45.8267190002706
              ],
              [
                -120.83190099997087,
                45.826672999950155
              ],
              [
                -120.83190000014595,
                45.82643799997891
              ],
              [
                -120.83189500012307,
                45.82565900016067
              ],
              [
                -120.83189500012307,
                45.82559499998272
              ],
              [
                -120.8318830004275,
                45.825586999877075
              ],
              [
                -120.83189000010023,
                45.825387999695536
              ],
              [
                -120.83313000038243,
                45.82445599997255
              ],
              [
                -120.83469299980652,
                45.824446000261666
              ],
              [
                -120.83469399963144,
                45.82423900008398
              ],
              [
                -120.83469000033178,
                45.824141000079194
              ],
              [
                -120.83468100011096,
                45.823645000308936
              ],
              [
                -120.83467500026318,
                45.82335000002968
              ],
              [
                -120.83433100030659,
                45.82327200018688
              ],
              [
                -120.83401999996197,
                45.823206000282674
              ],
              [
                -120.83394600034212,
                45.82319599972128
              ],
              [
                -120.83378599961021,
                45.82317399973185
              ],
              [
                -120.8334319996079,
                45.82312600012319
              ],
              [
                -120.83330600010952,
                45.82311600017341
              ],
              [
                -120.83314600027596,
                45.8231040001061
              ],
              [
                -120.83297600039666,
                45.82308999991998
              ],
              [
                -120.83297800004647,
                45.82296399996458
              ],
              [
                -120.83298600044239,
                45.82269000026956
              ],
              [
                -120.8329880000922,
                45.822652000278474
              ],
              [
                -120.83311799978853,
                45.822653000031494
              ],
              [
                -120.83315899979642,
                45.82265399978445
              ],
              [
                -120.83334100026963,
                45.82265399978445
              ],
              [
                -120.83335200014028,
                45.822379999815816
              ],
              [
                -120.83316899984217,
                45.822379999815816
              ],
              [
                -120.83312600018448,
                45.822379000057936
              ],
              [
                -120.83303599977279,
                45.82237800029999
              ],
              [
                -120.83299899996287,
                45.82237800029999
              ],
              [
                -120.83300399998573,
                45.822301000106755
              ],
              [
                -120.8330090000086,
                45.82219700000186
              ],
              [
                -120.83302800027518,
                45.82188400000683
              ],
              [
                -120.83305400021445,
                45.821428999714044
              ],
              [
                -120.83306599991,
                45.82121900025102
              ],
              [
                -120.8330709999329,
                45.82114999982526
              ],
              [
                -120.83308699982639,
                45.82088100014351
              ],
              [
                -120.83308500017658,
                45.820773999904134
              ],
              [
                -120.83308400035169,
                45.820691999803834
              ],
              [
                -120.83308500017658,
                45.82008100003345
              ],
              [
                -120.83331500033036,
                45.82008300025777
              ],
              [
                -120.83359200033978,
                45.8196819998566
              ],
              [
                -120.83425699978844,
                45.81968400009526
              ],
              [
                -120.83436399991855,
                45.81968400009526
              ],
              [
                -120.8343610004438,
                45.81927999988419
              ],
              [
                -120.8343539998728,
                45.81823399977954
              ],
              [
                -120.83436999976634,
                45.81822899999159
              ],
              [
                -120.83454200019376,
                45.81817200012372
              ],
              [
                -120.83466900041539,
                45.81812899975635
              ],
              [
                -120.83487000025684,
                45.81806200018068
              ],
              [
                -120.83505299965663,
                45.818001000169865
              ],
              [
                -120.83512200015191,
                45.81797800016897
              ],
              [
                -120.83518200042637,
                45.81795900013384
              ],
              [
                -120.83576200038452,
                45.817773000040646
              ],
              [
                -120.83662500019987,
                45.81749700015088
              ],
              [
                -120.83738099988511,
                45.81725999993644
              ],
              [
                -120.8375070002818,
                45.817222999846265
              ],
              [
                -120.83765399969657,
                45.81718199970068
              ],
              [
                -120.83786299993396,
                45.817150999921815
              ],
              [
                -120.8381049997833,
                45.817107000165635
              ],
              [
                -120.83812400004985,
                45.817107000165635
              ],
              [
                -120.83818199977617,
                45.817107000165635
              ],
              [
                -120.83820199986766,
                45.81710800001819
              ],
              [
                -120.83840199988418,
                45.81710899987076
              ],
              [
                -120.8384029997091,
                45.817013000171656
              ],
              [
                -120.8384029997091,
                45.81693799978291
              ],
              [
                -120.838415000303,
                45.81353000008195
              ],
              [
                -120.83852999993071,
                45.813537000125145
              ]
            ],
            [
              [
                -120.82519099982014,
                45.83078299976215
              ],
              [
                -120.82518400014746,
                45.831797000099634
              ],
              [
                -120.82373299997803,
                45.831792000277865
              ],
              [
                -120.82373600035109,
                45.83124400006384
              ],
              [
                -120.82416800017123,
                45.83124500028845
              ],
              [
                -120.82434700027137,
                45.8312459998871
              ],
              [
                -120.82433399985257,
                45.83120000017814
              ],
              [
                -120.82431600030924,
                45.83110999984842
              ],
              [
                -120.8243010002406,
                45.83098099983138
              ],
              [
                -120.82429899969247,
                45.830958000185085
              ],
              [
                -120.8243000004157,
                45.83086800008997
              ],
              [
                -120.8243010002406,
                45.8307799996893
              ],
              [
                -120.82519099982014,
                45.83078299976215
              ]
            ]
          ],
          [
            [
              [
                -120.85430500022478,
                45.79924599973168
              ],
              [
                -120.85431000024768,
                45.799113999882735
              ],
              [
                -120.85215699992136,
                45.79906500002528
              ],
              [
                -120.8506239997362,
                45.79907000028112
              ],
              [
                -120.84923200001634,
                45.79906300029857
              ],
              [
                -120.84772399994549,
                45.79905599968889
              ],
              [
                -120.84388299962335,
                45.799037000087345
              ],
              [
                -120.84388000014863,
                45.79911299970715
              ],
              [
                -120.84384800036158,
                45.800196000247865
              ],
              [
                -120.84383300029295,
                45.80136400006281
              ],
              [
                -120.84383300029295,
                45.80144199990752
              ],
              [
                -120.84383400011784,
                45.8017269997363
              ],
              [
                -120.84383400011784,
                45.80177900014112
              ],
              [
                -120.84383499994276,
                45.80192499981387
              ],
              [
                -120.843829000095,
                45.80270300030039
              ],
              [
                -120.84382999991992,
                45.80272799994266
              ],
              [
                -120.84383499994276,
                45.80280300005473
              ],
              [
                -120.8438369995926,
                45.80282899976104
              ],
              [
                -120.84385099983629,
                45.80306299970314
              ],
              [
                -120.84384300033871,
                45.80423900020232
              ],
              [
                -120.84383199956972,
                45.80617700011471
              ],
              [
                -120.84381800022435,
                45.80671800009255
              ],
              [
                -120.84377100036868,
                45.808264000243476
              ],
              [
                -120.84376100032291,
                45.80846900031083
              ],
              [
                -120.84375100027718,
                45.80869699971038
              ],
              [
                -120.84371500029218,
                45.80987900014184
              ],
              [
                -120.84447600000028,
                45.809889999946435
              ],
              [
                -120.84455899984094,
                45.8098889999643
              ],
              [
                -120.84477899994899,
                45.80988699999996
              ],
              [
                -120.84635800016491,
                45.80990399969468
              ],
              [
                -120.84709100028392,
                45.80991100019363
              ],
              [
                -120.84789100035009,
                45.80990199973083
              ],
              [
                -120.84798599988633,
                45.809160000059975
              ],
              [
                -120.84904200004553,
                45.80912900019871
              ],
              [
                -120.84913099973399,
                45.809933999769406
              ],
              [
                -120.85016000012901,
                45.809920000028754
              ],
              [
                -120.85128900008317,
                45.80991700008389
              ],
              [
                -120.85314199993546,
                45.80989999976696
              ],
              [
                -120.85413600017039,
                45.809890999928605
              ],
              [
                -120.85414299984309,
                45.80946600026958
              ],
              [
                -120.85413600017039,
                45.80882500001886
              ],
              [
                -120.85413500034548,
                45.80835399993833
              ],
              [
                -120.85413500034548,
                45.80701999980672
              ],
              [
                -120.85417600035338,
                45.80515899999814
              ],
              [
                -120.85418800004894,
                45.80420499985474
              ],
              [
                -120.8541999997445,
                45.80374499992779
              ],
              [
                -120.85423400007967,
                45.80252500026856
              ],
              [
                -120.85426000001897,
                45.802295999911884
              ],
              [
                -120.85426099984386,
                45.80221099979699
              ],
              [
                -120.85426500004183,
                45.80186200003632
              ],
              [
                -120.85425699964588,
                45.80142100022501
              ],
              [
                -120.854263000392,
                45.80110100020722
              ],
              [
                -120.85427599991247,
                45.800897000097706
              ],
              [
                -120.85427799956231,
                45.80085199988087
              ],
              [
                -120.85428299958518,
                45.800789000142565
              ],
              [
                -120.854291999806,
                45.800399000266445
              ],
              [
                -120.85429000015618,
                45.80029899995481
              ],
              [
                -120.85428699978313,
                45.80001200001771
              ],
              [
                -120.85430500022478,
                45.79924599973168
              ]
            ]
          ]
        ]
      },
      "properties": {
        "AREALAND": "7666960",
        "AREAWATER": "0",
        "BASENAME": "Goldendale",
        "CBSAPCI": "N",
        "CENTLAT": "+45.8191455",
        "CENTLON": "-120.8233658",
        "FUNCSTAT": "A",
        "GEOID": "5327435",
        "INTPTLAT": "+45.8191455",
        "INTPTLON": "-120.8233658",
        "LSADC": "25",
        "MTFCC": "G4110",
        "NAME": "Goldendale city",
        "NECTAPCI": "N",
        "OBJECTID": 20836,
        "OID": "27890480139233",
        "PLACE": "27435",
        "PLACECC": "C1",
        "PLACENS": "02410612",
        "STATE": "53",
        "DISP_CLR": 3,
        "slug": "goldendale",
        "jurisdiction_key": "goldendale_city",
        "county_fips": [
          "53039"
        ]
      }
    }
  ]
}
