{
  "type": "FeatureCollection",
  "features": [
    {
      "type": "Feature",
      "geometry": {
        "type": "Polygon",
        "coordinates": [
          [
            [
              -122.00057000009767,
              48.08670600012114
            ],
            [
              -122.00053499993759,
              48.086192000217245
            ],
            [
              -122.00052700043994,
              48.086097999767965
            ],
            [
              -122.00049999977747,
              48.08577800029574
            ],
            [
              -122.00045299992179,
              48.08489800018306
            ],
            [
              -122.0004250003327,
              48.08443300007891
            ],
            [
              -122.00041699993679,
              48.084274999771964
            ],
            [
              -122.00040000021836,
              48.08392300000935
            ],
            [
              -122.00037699975383,
              48.08366799987866
            ],
            [
              -122.00032999989814,
              48.083112999954714
            ],
            [
              -122.00032300022546,
              48.08303900015257
            ],
            [
              -122.00019199980589,
              48.08303900015257
            ],
            [
              -121.996199999871,
              48.08300099980732
            ],
            [
              -121.99616800008394,
              48.08295700000414
            ],
            [
              -121.99614899981736,
              48.081884999827594
            ],
            [
              -121.99614700016755,
              48.08175900001238
            ],
            [
              -121.99614600034263,
              48.08170699991293
            ],
            [
              -121.99574499958631,
              48.081855000242506
            ],
            [
              -121.99533100020786,
              48.08198699996632
            ],
            [
              -121.99480899997603,
              48.08212599990041
            ],
            [
              -121.99428000007151,
              48.08225500007313
            ],
            [
              -121.99217500032412,
              48.08279200010707
            ],
            [
              -121.99059500028328,
              48.08319199985313
            ],
            [
              -121.99043100025173,
              48.083233999856056
            ],
            [
              -121.9904279998787,
              48.08326600003531
            ],
            [
              -121.990421000206,
              48.08329399980077
            ],
            [
              -121.99040699996232,
              48.08331499976485
            ],
            [
              -121.99038799969574,
              48.083334000125085
            ],
            [
              -121.9903640003046,
              48.083357000267476
            ],
            [
              -121.9903369996421,
              48.08337500021518
            ],
            [
              -121.99029800018236,
              48.083391999759975
            ],
            [
              -121.9902570001745,
              48.08340599991033
            ],
            [
              -121.99021799981644,
              48.08341100009172
            ],
            [
              -121.99016400028806,
              48.083413000284175
            ],
            [
              -121.99011400005935,
              48.08340800010298
            ],
            [
              -121.9900680000286,
              48.08339699994272
            ],
            [
              -121.99002399964768,
              48.08338100019637
            ],
            [
              -121.98998400036302,
              48.08336100005637
            ],
            [
              -121.9899759999671,
              48.08335299987818
            ],
            [
              -121.98904899967933,
              48.08359599986002
            ],
            [
              -121.98867600030871,
              48.08367600000787
            ],
            [
              -121.98867399976058,
              48.08343200000808
            ],
            [
              -121.9886339995776,
              48.08344099996958
            ],
            [
              -121.98858800044518,
              48.08334999988602
            ],
            [
              -121.98834099967463,
              48.08340399971761
            ],
            [
              -121.98809100032773,
              48.083452000120474
            ],
            [
              -121.98783900043266,
              48.083493999911106
            ],
            [
              -121.98783199986163,
              48.083546999798024
            ],
            [
              -121.98738900017086,
              48.08355299975912
            ],
            [
              -121.98543900023417,
              48.08358000017558
            ],
            [
              -121.98541800031776,
              48.082622000023285
            ],
            [
              -121.98500800023892,
              48.08274800012516
            ],
            [
              -121.98481800026815,
              48.08281300027614
            ],
            [
              -121.98462499992429,
              48.08286700007134
            ],
            [
              -121.98451699996926,
              48.08293700029941
            ],
            [
              -121.98441800023507,
              48.08298899975562
            ],
            [
              -121.98430899955679,
              48.08306199982677
            ],
            [
              -121.98412000030922,
              48.083064999835685
            ],
            [
              -121.98369599998667,
              48.08307200025593
            ],
            [
              -121.98360099955214,
              48.08298599974223
            ],
            [
              -121.98355100022171,
              48.082939999715535
            ],
            [
              -121.98349599997016,
              48.082891000228855
            ],
            [
              -121.98326499999145,
              48.08268100027138
            ],
            [
              -121.98369199978875,
              48.08246599978393
            ],
            [
              -121.98379800009394,
              48.08241399979902
            ],
            [
              -121.9839219999425,
              48.082351999794504
            ],
            [
              -121.9839939999125,
              48.082315999776995
            ],
            [
              -121.98391799974455,
              48.082258000129116
            ],
            [
              -121.98369599998667,
              48.08211100018035
            ],
            [
              -121.98332400044102,
              48.081863000053524
            ],
            [
              -121.9828809998519,
              48.08159399987339
            ],
            [
              -121.9826480002234,
              48.08144100022097
            ],
            [
              -121.98249400023764,
              48.081340000036285
            ],
            [
              -121.98239399978019,
              48.08125199995142
            ],
            [
              -121.98170000001923,
              48.08051999979474
            ],
            [
              -121.98146200036784,
              48.080269000228064
            ],
            [
              -121.98137899962887,
              48.08016999986134
            ],
            [
              -121.98129900016123,
              48.08006199995331
            ],
            [
              -121.98123300003901,
              48.07994399998353
            ],
            [
              -121.98119100020622,
              48.07981800021539
            ],
            [
              -121.98116100006898,
              48.07963099972393
            ],
            [
              -121.98108599972592,
              48.07897099989942
            ],
            [
              -121.98104800009105,
              48.07841800009991
            ],
            [
              -121.98103999969516,
              48.07830099985584
            ],
            [
              -121.98102499962656,
              48.078072999769944
            ],
            [
              -121.97985899986247,
              48.078089999866506
            ],
            [
              -121.97988800017481,
              48.0794780002348
            ],
            [
              -121.97843700000539,
              48.07951100022193
            ],
            [
              -121.97670700017672,
              48.07955099988698
            ],
            [
              -121.9763409995805,
              48.07955999992737
            ],
            [
              -121.97631700018937,
              48.078653000278635
            ],
            [
              -121.97574700027698,
              48.07876899983582
            ],
            [
              -121.97556700035192,
              48.07876999972219
            ],
            [
              -121.9752409999387,
              48.078778999899214
            ],
            [
              -121.97483800043086,
              48.07879099973265
            ],
            [
              -121.97456899991903,
              48.07879300010474
            ],
            [
              -121.97456899991903,
              48.078767999949385
            ],
            [
              -121.97456800009414,
              48.078693000010624
            ],
            [
              -121.97456999974395,
              48.07847599987604
            ],
            [
              -121.97454600035282,
              48.07758799980396
            ],
            [
              -121.97349400039158,
              48.07760599996978
            ],
            [
              -121.97318899989475,
              48.07760900029688
            ],
            [
              -121.9728769997252,
              48.07761299993252
            ],
            [
              -121.97257200012668,
              48.077625000037926
            ],
            [
              -121.97254899966217,
              48.07690299971714
            ],
            [
              -121.97453200010911,
              48.0768639997173
            ],
            [
              -121.97453399975895,
              48.076939999843525
            ],
            [
              -121.97563699977381,
              48.076911000298246
            ],
            [
              -121.97859600001406,
              48.07683099983285
            ],
            [
              -121.97982299987747,
              48.07679799992724
            ],
            [
              -121.97979299974023,
              48.07589200014396
            ],
            [
              -121.97946499967718,
              48.07576699999997
            ],
            [
              -121.97921000030736,
              48.07573300006673
            ],
            [
              -121.97911400004791,
              48.075721000120254
            ],
            [
              -121.97859600001406,
              48.07580800011908
            ],
            [
              -121.97751100044083,
              48.075988999859156
            ],
            [
              -121.97714300019481,
              48.07595999977785
            ],
            [
              -121.97663900040466,
              48.07568399971741
            ],
            [
              -121.97646100012943,
              48.07555299997524
            ],
            [
              -121.97632300003715,
              48.07539699990673
            ],
            [
              -121.97631299999142,
              48.07538299997752
            ],
            [
              -121.97623599999852,
              48.07524299987538
            ],
            [
              -121.9761620003787,
              48.07495600000574
            ],
            [
              -121.97606699994411,
              48.07476200009886
            ],
            [
              -121.9760369998069,
              48.074537999810175
            ],
            [
              -121.97581000002617,
              48.0742980001765
            ],
            [
              -121.97541300036615,
              48.073936000166995
            ],
            [
              -121.97446199978891,
              48.0733489999616
            ],
            [
              -121.97358300008004,
              48.07306699971801
            ],
            [
              -121.97315399973463,
              48.072825999824005
            ],
            [
              -121.97276799994526,
              48.072537000263516
            ],
            [
              -121.9723539996685,
              48.07215100011552
            ],
            [
              -121.97216799989565,
              48.071961999930984
            ],
            [
              -121.97198799997058,
              48.0718359998225
            ],
            [
              -121.97168500002188,
              48.07187500003196
            ],
            [
              -121.97130500008029,
              48.07189099975535
            ],
            [
              -121.9696739999858,
              48.07195799985606
            ],
            [
              -121.96915799960179,
              48.071968000042794
            ],
            [
              -121.96917100002058,
              48.072477999786145
            ],
            [
              -121.96918299971614,
              48.07321700028261
            ],
            [
              -121.96922799992198,
              48.076099999729635
            ],
            [
              -121.96790899999705,
              48.076117999815885
            ],
            [
              -121.96382199962758,
              48.07617200003673
            ],
            [
              -121.96389000029797,
              48.07827500016558
            ],
            [
              -121.96389399959759,
              48.07835600008068
            ],
            [
              -121.96389600014572,
              48.078434000189546
            ],
            [
              -121.963962000268,
              48.07843300029664
            ],
            [
              -121.9639699997656,
              48.07882099990424
            ],
            [
              -121.96397499978846,
              48.07906699993088
            ],
            [
              -121.96396599956762,
              48.07929899991757
            ],
            [
              -121.96397300013865,
              48.07957099970785
            ],
            [
              -121.96397999981133,
              48.07982200027947
            ],
            [
              -121.964026999667,
              48.07982099981333
            ],
            [
              -121.96408699994147,
              48.07981999994739
            ],
            [
              -121.96409100013939,
              48.08007300022658
            ],
            [
              -121.96409899963703,
              48.080441999847764
            ],
            [
              -121.9641039996599,
              48.08083499973936
            ],
            [
              -121.96410600020803,
              48.080972999941984
            ],
            [
              -121.9639560004202,
              48.080975000229195
            ],
            [
              -121.96339200035558,
              48.08098300017711
            ],
            [
              -121.96087699963105,
              48.081014999956224
            ],
            [
              -121.95874699976932,
              48.08104100006219
            ],
            [
              -121.95871199960919,
              48.08084199986292
            ],
            [
              -121.95868499984503,
              48.08071400019645
            ],
            [
              -121.95867200032453,
              48.08061800023761
            ],
            [
              -121.95865800008085,
              48.08051000006976
            ],
            [
              -121.95864899986003,
              48.08044599986328
            ],
            [
              -121.95859000030879,
              48.079987000100466
            ],
            [
              -121.95858399956268,
              48.079931999818854
            ],
            [
              -121.95858199991287,
              48.0799059997525
            ],
            [
              -121.95844800001856,
              48.07990800008125
            ],
            [
              -121.95811599975754,
              48.07991399986667
            ],
            [
              -121.95803999958956,
              48.07991399986667
            ],
            [
              -121.95781199998392,
              48.07991799992323
            ],
            [
              -121.95773699964086,
              48.07992000025151
            ],
            [
              -121.95770599967872,
              48.07992000025151
            ],
            [
              -121.95711800022296,
              48.07993000009121
            ],
            [
              -121.95636900021044,
              48.07994300011992
            ],
            [
              -121.9553380001656,
              48.079953999818514
            ],
            [
              -121.95526299982254,
              48.07994300011992
            ],
            [
              -121.9551120002098,
              48.07992199997954
            ],
            [
              -121.95490200014748,
              48.07985900010713
            ],
            [
              -121.95480599988804,
              48.079815999883145
            ],
            [
              -121.95468299986439,
              48.079747000076736
            ],
            [
              -121.95463000016095,
              48.079716999845004
            ],
            [
              -121.95447799982499,
              48.07960500010564
            ],
            [
              -121.95441300042596,
              48.079548000273306
            ],
            [
              -121.95435999982419,
              48.07950099970064
            ],
            [
              -121.95427799980844,
              48.07942899985113
            ],
            [
              -121.95417300022643,
              48.07942799997751
            ],
            [
              -121.95408500036291,
              48.07942799997751
            ],
            [
              -121.95395099957027,
              48.07942999972467
            ],
            [
              -121.95350100020681,
              48.07943500029254
            ],
            [
              -121.95308199990714,
              48.079440000259744
            ],
            [
              -121.95308299973206,
              48.079476999762015
            ],
            [
              -121.9530850002802,
              48.07956599975338
            ],
            [
              -121.95309500032592,
              48.079788000025054
            ],
            [
              -121.95310199999865,
              48.07994700017427
            ],
            [
              -121.95310299982354,
              48.08001800003691
            ],
            [
              -121.95310700002149,
              48.08019300021814
            ],
            [
              -121.95311100021947,
              48.08039599994669
            ],
            [
              -121.95311700006722,
              48.08069400021978
            ],
            [
              -121.95366600006324,
              48.08068799992521
            ],
            [
              -121.95374300005614,
              48.080781000211644
            ],
            [
              -121.95384099996541,
              48.080898000217005
            ],
            [
              -121.9540169996925,
              48.08110800025165
            ],
            [
              -121.95420099981551,
              48.08132699976044
            ],
            [
              -121.95432100036444,
              48.081471000047486
            ],
            [
              -121.95444199983996,
              48.08161499993139
            ],
            [
              -121.95456999988649,
              48.08176800026659
            ],
            [
              -121.95469000043539,
              48.08191199991929
            ],
            [
              -121.95487600020823,
              48.082132999848305
            ],
            [
              -121.95494399998029,
              48.08221400029058
            ],
            [
              -121.95520900029418,
              48.08253100029125
            ],
            [
              -121.95524699992899,
              48.08257600027118
            ],
            [
              -121.95536999995262,
              48.0827230000914
            ],
            [
              -121.95549299997627,
              48.082869000284944
            ],
            [
              -121.95561500017502,
              48.08301500006411
            ],
            [
              -121.95574800024443,
              48.083173000040574
            ],
            [
              -121.95587600029093,
              48.0833259999427
            ],
            [
              -121.95597099982717,
              48.08344000017399
            ],
            [
              -121.95604500034534,
              48.08352899991047
            ],
            [
              -121.95555800027361,
              48.083534999873706
            ],
            [
              -121.95349399963578,
              48.083562000299615
            ],
            [
              -121.95336700031251,
              48.08356300009282
            ],
            [
              -121.95317499979357,
              48.083566000072516
            ],
            [
              -121.95317599961847,
              48.0835989998378
            ],
            [
              -121.95318999986218,
              48.08436399986401
            ],
            [
              -121.95324400028885,
              48.08711600027732
            ],
            [
              -121.95324299956563,
              48.087158999799875
            ],
            [
              -121.95323900026598,
              48.0872709998948
            ],
            [
              -121.95322599984718,
              48.087765000189044
            ],
            [
              -121.95320999995366,
              48.08811100003305
            ],
            [
              -121.9531709995956,
              48.08933699977518
            ],
            [
              -121.9531210002652,
              48.090803000256386
            ],
            [
              -121.95304599992214,
              48.09299200002291
            ],
            [
              -121.95304099989927,
              48.093134000239466
            ],
            [
              -121.95300900011219,
              48.09315199976566
            ],
            [
              -121.95278700035436,
              48.09327000003693
            ],
            [
              -121.95272399970686,
              48.09330499998399
            ],
            [
              -121.95270000031573,
              48.09331899983616
            ],
            [
              -121.95249399955308,
              48.09343799992551
            ],
            [
              -121.95207599997666,
              48.093669999897806
            ],
            [
              -121.95073799978513,
              48.094412000141936
            ],
            [
              -121.95061399993658,
              48.09448100007658
            ],
            [
              -121.95042800016374,
              48.09448299983848
            ],
            [
              -121.94751199958121,
              48.09452400004117
            ],
            [
              -121.94755199976419,
              48.095868000202046
            ],
            [
              -121.94757400040382,
              48.09595499972769
            ],
            [
              -121.94760100016798,
              48.09606500016536
            ],
            [
              -121.94762399973422,
              48.09689999998677
            ],
            [
              -121.94765600041957,
              48.0977539998791
            ],
            [
              -121.94765499969635,
              48.09812299984924
            ],
            [
              -121.94762000043457,
              48.09817199982327
            ],
            [
              -121.94763200013011,
              48.098594999873725
            ],
            [
              -121.94777500024529,
              48.103458999855114
            ],
            [
              -121.94837600011981,
              48.10346999992365
            ],
            [
              -121.94974000025059,
              48.10303100016033
            ],
            [
              -121.95030199976705,
              48.10260199987829
            ],
            [
              -121.95049799958562,
              48.10244600025148
            ],
            [
              -121.95132299976615,
              48.10222399998934
            ],
            [
              -121.95195700015095,
              48.10233200015555
            ],
            [
              -121.95239399999396,
              48.10257599987337
            ],
            [
              -121.95276700026288,
              48.10266200002402
            ],
            [
              -121.95297300012719,
              48.102770999889614
            ],
            [
              -121.95308600010509,
              48.102804999948994
            ],
            [
              -121.95418300027218,
              48.102209000131616
            ],
            [
              -121.95431799999139,
              48.10213700027369
            ],
            [
              -121.95542000018135,
              48.10173500021328
            ],
            [
              -121.95596300032956,
              48.10157600022609
            ],
            [
              -121.956789000335,
              48.101324000178515
            ],
            [
              -121.95699500019933,
              48.10125299973015
            ],
            [
              -121.9571890003681,
              48.101173999977924
            ],
            [
              -121.95737900033888,
              48.10108799973747
            ],
            [
              -121.95756199973866,
              48.10099700028206
            ],
            [
              -121.95769399998316,
              48.10092399987073
            ],
            [
              -121.95773699964086,
              48.100900999785416
            ],
            [
              -121.95790700041847,
              48.100798999961135
            ],
            [
              -121.95806899990188,
              48.10069300029396
            ],
            [
              -121.95822100023784,
              48.100584000221545
            ],
            [
              -121.95851199959267,
              48.100349000049654
            ],
            [
              -121.95864300001223,
              48.100225000010965
            ],
            [
              -121.95868800021807,
              48.100176000193905
            ],
            [
              -121.9587619998379,
              48.100094999842874
            ],
            [
              -121.95886599959499,
              48.09996000017403
            ],
            [
              -121.95889699955715,
              48.09991200017968
            ],
            [
              -121.95895500018179,
              48.099822999996604
            ],
            [
              -121.9589729997251,
              48.09979699978594
            ],
            [
              -121.95900399968727,
              48.09975099979639
            ],
            [
              -121.95918399961232,
              48.09939399993889
            ],
            [
              -121.95934699981895,
              48.099007999715134
            ],
            [
              -121.95947999988833,
              48.09869799997042
            ],
            [
              -121.95954900038359,
              48.09852000004629
            ],
            [
              -121.9595769999727,
              48.098450000028635
            ],
            [
              -121.95976600011858,
              48.097992999765204
            ],
            [
              -121.95983999973843,
              48.0978180001483
            ],
            [
              -121.96004800015089,
              48.09731399977134
            ],
            [
              -121.96033199983302,
              48.096630999852955
            ],
            [
              -121.9606749999647,
              48.09580500006058
            ],
            [
              -121.96088500002698,
              48.09530199991477
            ],
            [
              -121.96108599986844,
              48.09481900014024
            ],
            [
              -121.96128599988498,
              48.094330999709264
            ],
            [
              -121.96132199986998,
              48.09424399983569
            ],
            [
              -121.96159300003164,
              48.0935879998979
            ],
            [
              -121.96186800039123,
              48.09362300022847
            ],
            [
              -121.9620890003242,
              48.093620000235354
            ],
            [
              -121.96240899999133,
              48.093593000289424
            ],
            [
              -121.9627589997957,
              48.09353500015764
            ],
            [
              -121.96314499958507,
              48.0934469999362
            ],
            [
              -121.96345900030275,
              48.09335600015561
            ],
            [
              -121.96376700027432,
              48.093250000142255
            ],
            [
              -121.96398900003217,
              48.09315499978608
            ],
            [
              -121.96404900030663,
              48.09313000001053
            ],
            [
              -121.96405099995644,
              48.09329299993626
            ],
            [
              -121.96405199978135,
              48.09340300006899
            ],
            [
              -121.96405299960627,
              48.093472999758184
            ],
            [
              -121.96526000027652,
              48.09345400014342
            ],
            [
              -121.9652650002994,
              48.094233999778744
            ],
            [
              -121.9669120002874,
              48.09423900010748
            ],
            [
              -121.96708299999162,
              48.0942360001503
            ],
            [
              -121.97192299967325,
              48.0941850002515
            ],
            [
              -121.97388699985363,
              48.09417899973066
            ],
            [
              -121.97502500002861,
              48.09417399999608
            ],
            [
              -121.97507600008225,
              48.09411599991965
            ],
            [
              -121.97515899992291,
              48.09402099996347
            ],
            [
              -121.97534800006879,
              48.09383700008595
            ],
            [
              -121.97552100032118,
              48.09368400025055
            ],
            [
              -121.9757549997746,
              48.093478999761395
            ],
            [
              -121.97693300013252,
              48.09247199982078
            ],
            [
              -121.97727899973894,
              48.09217800028264
            ],
            [
              -121.97741199980831,
              48.09207799980766
            ],
            [
              -121.97749899984696,
              48.09201199973563
            ],
            [
              -121.97757800038798,
              48.09196200026108
            ],
            [
              -121.97774700044239,
              48.091870000020805
            ],
            [
              -121.97793599968996,
              48.091791000250566
            ],
            [
              -121.97823699998885,
              48.09170199980955
            ],
            [
              -121.97844500040131,
              48.091648999925475
            ],
            [
              -121.9792470001173,
              48.091464999960465
            ],
            [
              -121.97945499963144,
              48.0913790002793
            ],
            [
              -121.97948899996662,
              48.09136199977415
            ],
            [
              -121.97965999967084,
              48.09127799980733
            ],
            [
              -121.97982799990034,
              48.091171999710554
            ],
            [
              -121.97996199979464,
              48.09106299985302
            ],
            [
              -121.9799819998861,
              48.09104500019564
            ],
            [
              -121.98011900015348,
              48.090900999709454
            ],
            [
              -121.98023999962899,
              48.090717000068196
            ],
            [
              -121.98029099968261,
              48.090611000015095
            ],
            [
              -121.98030599975124,
              48.09055199986263
            ],
            [
              -121.98033500006353,
              48.09044900024776
            ],
            [
              -121.98034199973624,
              48.090375999859845
            ],
            [
              -121.98034799958403,
              48.09031700003778
            ],
            [
              -121.98035099995708,
              48.09029099982011
            ],
            [
              -121.98034799958403,
              48.090251000105724
            ],
            [
              -121.98035199978197,
              48.09020300004741
            ],
            [
              -121.98035199978197,
              48.09013899989995
            ],
            [
              -121.98035599997995,
              48.08984099973965
            ],
            [
              -121.98042299992711,
              48.08983699985464
            ],
            [
              -121.9804510004145,
              48.08983600018333
            ],
            [
              -121.98294000030145,
              48.08982500019766
            ],
            [
              -121.98296100021786,
              48.0904479999883
            ],
            [
              -121.98397399982103,
              48.09043999971236
            ],
            [
              -121.98722900033727,
              48.090412999896785
            ],
            [
              -121.98762400034748,
              48.0904099997164
            ],
            [
              -121.98762599999732,
              48.09049700007646
            ],
            [
              -121.9876469999137,
              48.09127799980733
            ],
            [
              -121.9876970001424,
              48.09283199978232
            ],
            [
              -121.99107200030926,
              48.09284200011193
            ],
            [
              -121.99641099975817,
              48.091708000019416
            ],
            [
              -121.99639599968957,
              48.091233000240116
            ],
            [
              -121.99625299957445,
              48.08667099988323
            ],
            [
              -121.99635700022984,
              48.086672000216105
            ],
            [
              -121.99721599984723,
              48.086681999943416
            ],
            [
              -121.99757999989528,
              48.08669200026888
            ],
            [
              -121.9981780002951,
              48.086693999733654
            ],
            [
              -121.99983399960561,
              48.08670199999231
            ],
            [
              -121.99997199969785,
              48.08670299972449
            ],
            [
              -122.00028300004249,
              48.086706999853284
            ],
            [
              -122.00057000009767,
              48.08670600012114
            ]
          ]
        ]
      },
      "properties": {
        "AREALAND": "5695502",
        "AREAWATER": "45017",
        "BASENAME": "Granite Falls",
        "CBSAPCI": "N",
        "CENTLAT": "+48.0874138",
        "CENTLON": "-121.9705401",
        "FUNCSTAT": "A",
        "GEOID": "5327995",
        "INTPTLAT": "+48.0897129",
        "INTPTLON": "-121.9688912",
        "LSADC": "25",
        "MTFCC": "G4110",
        "NAME": "Granite Falls city",
        "NECTAPCI": "N",
        "OBJECTID": 18777,
        "OID": "27890921610440",
        "PLACE": "27995",
        "PLACECC": "C1",
        "PLACENS": "02410643",
        "STATE": "53",
        "DISP_CLR": 5,
        "slug": "granite_falls",
        "jurisdiction_key": "granite_falls_city",
        "county_fips": [
          "53061"
        ]
      }
    }
  ]
}
