{"type":"FeatureCollection","features":[{"type":"Feature","geometry":{"type":"MultiPolygon","coordinates":[[[[-119.93665700011219,46.2585260001763],[-119.93665799993711,46.258482000179825],[-119.93449999958796,46.2584919998998],[-119.93351299992403,46.2584969997591],[-119.9330450001189,46.258503000210766],[-119.9330450001189,46.25810200015279],[-119.93306799968511,46.2577950001446],[-119.93312999960938,46.25766300015285],[-119.93319499990673,46.257457999945096],[-119.93328199994536,46.25731599983061],[-119.93341099981677,46.25710700020045],[-119.9335959997647,46.25697799979337],[-119.93362699972687,46.25696999979668],[-119.93386899957619,46.256954999799696],[-119.93391799998,46.256954999799696],[-119.93554700042466,46.25694099979879],[-119.93558900025745,46.25575099970221],[-119.93665299991424,46.25574600021366],[-119.93665200008932,46.25558300011485],[-119.93665100026442,46.255549999902485],[-119.9366500004395,46.255451999794765],[-119.9366500004395,46.25542000015262],[-119.9366439996934,46.25505299985516],[-119.93663700002071,46.25454599983494],[-119.93663199999784,46.253952999809606],[-119.936630000348,46.253586999694384],[-119.93662600015006,46.25310300016312],[-119.9366150002794,46.251653999835284],[-119.93661199990638,46.25117100012232],[-119.93661100008146,46.2503830002275],[-119.93661100008146,46.248021000032324],[-119.93661100008146,46.24723399978745],[-119.93661100008146,46.2472050002321],[-119.93661100008146,46.247118999789656],[-119.93661100008146,46.24709099973212],[-119.93661100008146,46.24700199980922],[-119.93661100008146,46.246734999795414],[-119.93661100008146,46.246647000104055],[-119.93606299991036,46.2466489998586],[-119.93592999984098,46.24665000004644],[-119.93530600040022,46.24664199978556],[-119.93503400041365,46.24663000001331],[-119.934763000252,46.246608999784264],[-119.93442199977014,46.246569000302],[-119.93414300011088,46.24652699978917],[-119.93388299981991,46.246474999819704],[-119.93378300026077,46.24645100019946],[-119.93358900009201,46.24640500006966],[-119.93348600015986,46.24637399969035],[-119.93338900007548,46.24634599987373],[-119.93329899966379,46.24631900023672],[-119.93327600009758,46.24631299969437],[-119.93307000023324,46.246242999737596],[-119.93303300042335,46.246229000108265],[-119.93297599962361,46.2462079997257],[-119.93294600038469,46.24619599985851],[-119.93286199982079,46.24616399978561],[-119.9327570002388,46.24611999981022],[-119.93273100029954,46.24610799992373],[-119.93240900008425,46.24596399983893],[-119.93210399958744,46.245808000045265],[-119.93190299974597,46.245693999748255],[-119.93132100013801,46.246175000084556],[-119.93100999979339,46.24643299985615],[-119.93099499972477,46.246441000147506],[-119.93092799977761,46.2464809997231],[-119.93079700025636,46.24658699997945],[-119.92989000006008,46.24732599986056],[-119.92981899991496,46.247384000070454],[-119.92788300022197,46.24709700018938],[-119.9270610004145,46.246974999873885],[-119.92708099960768,46.24807600026434],[-119.92708399998072,46.248215999758884],[-119.92690200040585,46.24820300017144],[-119.92673599982618,46.248191000119434],[-119.92628399991456,46.24811999991326],[-119.92613499995163,46.248117000051266],[-119.92601600012594,46.2481140001891],[-119.92463799975147,46.24808000029035],[-119.9238500002792,46.24806000015737],[-119.92312800003083,46.248041999720805],[-119.92303000012154,46.2480530002644],[-119.92297200039522,46.24804900023641],[-119.9226479996318,46.24804900023641],[-119.92227000023836,46.24804699991168],[-119.92247699992758,46.24786499987624],[-119.92249700001905,46.247879999874684],[-119.92261699966967,46.24797200010675],[-119.92265699985265,46.24800300020421],[-119.92268699998988,46.247912999732556],[-119.9227320001957,46.24782799994534],[-119.92278599972404,46.24775200029443],[-119.92293100038735,46.24755700016079],[-119.92296800019727,46.24750799982072],[-119.92303900034238,46.24742599992707],[-119.92308399964989,46.24736199995521],[-119.92308899967279,46.24735099989429],[-119.92314700029739,46.24723799987486],[-119.92318499993226,46.24710899985952],[-119.92319599980289,46.247018999784714],[-119.92315700034315,46.24500800001053],[-119.92314599957417,46.244376999984],[-119.92314399992436,46.24433899995549],[-119.92314499974925,46.244308999881675],[-119.92315300014518,46.24425199975842],[-119.92316200036602,46.24422299986912],[-119.9231680002138,46.24420399980485],[-119.9231899999551,46.244157000042584],[-119.92320699967355,46.24412999994945],[-119.92323699981077,46.2440869998197],[-119.92324799968142,46.24407500010982],[-119.92318800030529,46.24399799999315],[-119.92308899967279,46.24387199990804],[-119.92305500023588,46.24382799995806],[-119.92278900009713,46.24382999981532],[-119.92184799956564,46.24383900010416],[-119.92079800015253,46.24384799977025],[-119.92069799969511,46.24384799977025],[-119.92000099956111,46.24385500019982],[-119.91928800043189,46.243850999865714],[-119.91923499983012,46.24384099996108],[-119.9191620000352,46.24380899975692],[-119.91912199985222,46.24377799977437],[-119.91910099993584,46.24370700006896],[-119.91913000024815,46.24356999973888],[-119.91920300004307,46.2433759998971],[-119.91936200005175,46.24306599994283],[-119.91953100010615,46.24293399991154],[-119.91978899984902,46.24273399999326],[-119.91992399956821,46.24264999989712],[-119.92026400022515,46.24243899976145],[-119.92069199984732,46.24224900009914],[-119.92102400010836,46.241951999818966],[-119.92131100016354,46.24186599983927],[-119.92162400015796,46.24186599983927],[-119.92193200012956,46.241840000136754],[-119.92208000026754,46.24181800028325],[-119.92219300024546,46.24177000006399],[-119.92226600004041,46.24169200016164],[-119.92231399972098,46.241570000251386],[-119.92238400004115,46.241396999918685],[-119.92245799966102,46.24125800008209],[-119.9225289998061,46.24119699998899],[-119.92085300040412,46.24118599993445],[-119.92085900025191,46.240693000138684],[-119.91913199989797,46.240687000223524],[-119.91915100016455,46.24066899985279],[-119.91928400023394,46.240541000221846],[-119.91948000005252,46.24038099995264],[-119.91960999974884,46.240257000246274],[-119.91967800041924,46.240171000094975],[-119.91971799970388,46.2401020000639],[-119.91975600023703,46.2399850000291],[-119.91978300000122,46.23985500004295],[-119.91979399987189,46.23979000024503],[-119.91979399987189,46.23972800006972],[-119.91905300025525,46.23971400002045],[-119.91722600034223,46.2396810002008],[-119.91697199989899,46.239675999868645],[-119.91738700000067,46.23908200028836],[-119.91753699978851,46.23891399996853],[-119.91759899971278,46.238843000181724],[-119.9178740000724,46.23853999995383],[-119.91792000010317,46.23848900020618],[-119.91792799960078,46.238478999945535],[-119.9179719999817,46.238404000107224],[-119.91798000037761,46.23838699994735],[-119.91799899974588,46.23834700006213],[-119.91804099957868,46.23822599989006],[-119.91809400018045,46.238123000041675],[-119.91812299959444,46.23807699976344],[-119.91817199999824,46.23799799985747],[-119.91821399983102,46.23792099991042],[-119.91796699995882,46.237906000295496],[-119.91753900033663,46.2378820000332],[-119.91753900033663,46.23750999990674],[-119.91742299998569,46.23750999990674],[-119.91550300018622,46.237514000081845],[-119.91550300018622,46.23745399990982],[-119.91550300018622,46.23743799981141],[-119.91293200028352,46.237463999735915],[-119.91289200010054,46.237463000001945],[-119.9128960002985,46.23658600010567],[-119.90706499985666,46.23659100009806],[-119.90559899961863,46.23659300021912],[-119.90495400026148,46.236574999748015],[-119.90495099988843,46.237251999801124],[-119.90494500004067,46.2392830001727],[-119.90494400021575,46.23965199975926],[-119.90494599986556,46.23996100005482],[-119.9049480004137,46.24049900006432],[-119.90495699973621,46.242113000126444],[-119.90496099993419,46.24265100015787],[-119.9049619997591,46.242785999781184],[-119.9049619997591,46.24290499994682],[-119.9049619997591,46.24305900003387],[-119.9049619997591,46.24307400010394],[-119.9048370000856,46.24301100027902],[-119.90480000027571,46.24292000005905],[-119.90471700043501,46.24284500007831],[-119.90459100003832,46.242768999736455],[-119.90411099963929,46.24258400004201],[-119.90392200039174,46.242521999917514],[-119.90361199987201,46.24244399984178],[-119.90317800040206,46.24232899974284],[-119.9028009999352,46.24221500029288],[-119.90269399980508,46.24219400023758],[-119.90261099996442,46.24219499988537],[-119.90254400001726,46.24220800027533],[-119.9023630002673,46.242263999769435],[-119.9022729998556,46.24232199973984],[-119.90221099993134,46.24235100001273],[-119.90193899994473,46.24238900017572],[-119.90142599993378,46.242415000239355],[-119.90132499965145,46.242408000247295],[-119.90121500004658,46.24237200000797],[-119.90104799964199,46.242289999892265],[-119.90103299957339,46.24326200013756],[-119.90103199974848,46.24392500009741],[-119.90057900001196,46.24392500009741],[-119.90042500002617,46.24392500009741],[-119.89992600025887,46.24392500009741],[-119.89975600037955,46.24392500009741],[-119.89969799975493,46.24392500009741],[-119.89970500032592,46.244918000216195],[-119.89972000039455,46.246621000182365],[-119.8997379999379,46.24730799980436],[-119.89973700011298,46.24757200024346],[-119.89917499969819,46.247580999918384],[-119.89903900015408,46.24758300026008],[-119.89717999955565,46.247611000066506],[-119.89713299969999,46.24761200023681],[-119.89713199987507,46.247584999980496],[-119.89704400001153,46.247584999980496],[-119.89704300018661,46.247267000034],[-119.89704300018661,46.24720100014228],[-119.89704300018661,46.24707600013911],[-119.89560600026091,46.24616099981664],[-119.89497000022628,46.24615000013612],[-119.89482700011114,46.24615000013612],[-119.89480399964661,46.24612200020517],[-119.8947910001261,46.24610499995168],[-119.89475199976808,46.24605600017833],[-119.8947400000725,46.24604000010335],[-119.89471999998102,46.246012999694514],[-119.89466499972944,46.24592800006929],[-119.89465800005674,46.245916999720805],[-119.89464800001099,46.24590000002504],[-119.89458699991162,46.24579099969447],[-119.89449499985014,46.24562300003754],[-119.89445999969001,46.24552399999874],[-119.89443899977364,46.24545000006015],[-119.89443399975077,46.24543099979958],[-119.894431000276,46.245327000218445],[-119.89442000040535,46.24544100003566],[-119.89440799981148,46.245579999835535],[-119.89440299978864,46.24574899982846],[-119.89440399961353,46.245787000122796],[-119.89440699998656,46.24590300000828],[-119.8944089996364,46.24600300018396],[-119.8944089996364,46.2460379997054],[-119.89441200000945,46.246145999969364],[-119.89441700003232,46.24630500000555],[-119.89442000040535,46.24640600026195],[-119.89442100023027,46.246634000144766],[-119.89442700007805,46.24731799969827],[-119.8944299995528,46.24754600013897],[-119.8944299995528,46.24760100022602],[-119.89435000008518,46.24760100022602],[-119.89342299979741,46.2475959999945],[-119.89295300034243,46.24759400027447],[-119.89225899968316,46.247590000213016],[-119.89222299969816,46.24758200008924],[-119.89204500032123,46.247557999710885],[-119.89196099975734,46.24755199992526],[-119.89101799957605,46.24754900003219],[-119.8879370000354,46.24754099990243],[-119.88786699971516,46.247539999730826],[-119.88789400037766,46.251213000185174],[-119.88756200011666,46.25120800028293],[-119.887078000418,46.2512010001705],[-119.88686900018061,46.25119799985586],[-119.88644300020825,46.25119299995218],[-119.8845379995791,46.25117200022772],[-119.88390300026768,46.25116500011074],[-119.8833120004389,46.25115699988717],[-119.8815390000542,46.25113299983068],[-119.88094800022542,46.25112500022364],[-119.88084100009527,46.25112400011734],[-119.88059199967495,46.2511219999048],[-119.87943099993376,46.25111099997671],[-119.87680800015251,46.251088000007044],[-119.8764569996249,46.251083000093345],[-119.87488099978202,46.251061000219366],[-119.8734370001836,46.25104099993094],[-119.87345499972697,46.25186000009214],[-119.87346200029798,46.25214099999402],[-119.87345999974984,46.252466000209374],[-119.87345899992492,46.25279099974112],[-119.87345999974984,46.25292200020613],[-119.87346200029798,46.25314299984993],[-119.87346399994782,46.25325199985788],[-119.87346399994782,46.25331300021227],[-119.87346700032084,46.25351999989081],[-119.87340600022148,46.25427000007721],[-119.87338699995489,46.254522000019186],[-119.87338600013,46.255280999821174],[-119.87338799977981,46.25756000015033],[-119.87338899960473,46.258320000114395],[-119.87338899960473,46.25834999997859],[-119.87339799982556,46.2586449997358],[-119.87338699995489,46.25904900005573],[-119.87338399958186,46.259165999803166],[-119.87341100024436,46.26105000004079],[-119.8734139997191,46.26124599994635],[-119.87343499963548,46.26197899974568],[-119.87343399981057,46.26206900011485],[-119.8734370001836,46.26229500029391],[-119.8734370001836,46.26234399984437],[-119.87343899983345,46.2624379998353],[-119.8734370001836,46.26272500017801],[-119.87343800000853,46.26312900024597],[-119.87344800005427,46.26359100028119],[-119.87345499972697,46.263875999808974],[-119.87394500017174,46.26386900007149],[-119.87541899990738,46.263849000106845],[-119.87591000017704,46.26384300024022],[-119.87614799982843,46.26383999999613],[-119.87649299960994,46.263844000114524],[-119.87824500007822,46.26386900007149],[-119.87867000022567,46.263875999808974],[-119.87862699966965,46.26099800017642],[-119.87862099982185,46.26059499986572],[-119.87872200010418,46.26053200028921],[-119.87869399961679,46.25906899990815],[-119.87867600007344,46.25887099974353],[-119.87867699989836,46.25884300009541],[-119.87868000027139,46.25871200011006],[-119.87878200037865,46.2586449997358],[-119.87886000019645,46.258598999894915],[-119.87909799984782,46.2584620001133],[-119.87917700038886,46.2584170000922],[-119.87926000022954,46.25841800006551],[-119.8795110002997,46.25842099998516],[-119.87959499996529,46.25842199995835],[-119.87990499958669,46.25842499987783],[-119.88006299977043,46.258426999824074],[-119.88121000016622,46.25844100006665],[-119.88183100013225,46.258449999821444],[-119.88215400017245,46.25845600027825],[-119.8823490001661,46.258480000235636],[-119.8826089995588,46.25853299997484],[-119.88351999995302,46.25855799986922],[-119.88364899982446,46.25856199975189],[-119.88396000016908,46.258567000225916],[-119.88394900029843,46.258344000131295],[-119.88394599992537,46.25827300002503],[-119.88393500005473,46.25807000019371],[-119.88391900016121,46.257754000138846],[-119.88394299955235,46.25703999972836],[-119.88394299955235,46.2554610000401],[-119.88394299955235,46.2553100000758],[-119.88357500020462,46.25516399985893],[-119.88335599992152,46.25495700017433],[-119.88323700009582,46.25467999995908],[-119.88351999995302,46.254761000148825],[-119.8839469997503,46.254882999917406],[-119.88395000012335,46.25494799984624],[-119.88395699979603,46.25512999998239],[-119.88713299977127,46.25594299984272],[-119.8883820002743,46.256261999812686],[-119.88902499998164,46.25643399984228],[-119.88931700005966,46.25649299974625],[-119.89010500043027,46.25663500012861],[-119.89058300028117,46.25669299981158],[-119.89068200001536,46.25676800011387],[-119.89108100022355,46.25704299972347],[-119.89128500043805,46.25721899976847],[-119.89131600040017,46.25724600025125],[-119.89144299972347,46.25724600025125],[-119.89155400005156,46.25738099998117],[-119.89165299978575,46.25765100030726],[-119.89178599985516,46.25794700008026],[-119.89178099983226,46.258081999947656],[-119.89178000000736,46.25812700024367],[-119.89180799959647,46.25863799995151],[-119.89204000029835,46.2586429997975],[-119.89249399985978,46.258639999889986],[-119.89273200040948,46.258638999920734],[-119.89308899988656,46.258636999982265],[-119.89310899997804,46.258636999982265],[-119.8931120003511,46.25871500001363],[-119.89312300022172,46.259077000219754],[-119.89312599969647,46.259161000004866],[-119.894431000276,46.25919000007088],[-119.89451999996449,46.259191999989184],[-119.89451999996449,46.25939400005883],[-119.89452099978938,46.259450000020195],[-119.89452599981227,46.26049400027301],[-119.89444399979651,46.26049199978112],[-119.89298400030458,46.2604739996982],[-119.89174999987013,46.26103200014109],[-119.8917540000681,46.26106300030975],[-119.8917690001367,46.261172000102334],[-119.89184199993163,46.26174400029352],[-119.89186600022109,46.262031999829176],[-119.89186799987093,46.26221300014976],[-119.89182199984016,46.262359000230305],[-119.89178500003024,46.262426999692714],[-119.8917699999616,46.26245400009517],[-119.89165399961064,46.26256500002294],[-119.89147899970847,46.26265900025602],[-119.89135999988281,46.26273200006159],[-119.89097400009341,46.262906000073905],[-119.89080800041205,46.262974999990135],[-119.88994200022366,46.263325000171825],[-119.88989000034512,46.26337099977406],[-119.88985000016214,46.26342600013888],[-119.88979599973548,46.26364200029244],[-119.88983799956827,46.26388800015537],[-119.88958499984828,46.263897000258154],[-119.88932499955729,46.263905999738455],[-119.88926299963302,46.263902000245636],[-119.88926299963302,46.26387400006152],[-119.88926400035623,46.26382699976463],[-119.88926400035623,46.263759000175554],[-119.88926600000605,46.263552000021335],[-119.88926699983095,46.26344499975523],[-119.88926699983095,46.26338099984447],[-119.88926699983095,46.26336200020594],[-119.88926400035623,46.26305999990254],[-119.8892569997852,46.262169999911514],[-119.8892540003105,46.26215699990509],[-119.88666800033916,46.262132999694],[-119.88668099985962,46.26284499983263],[-119.88670400032417,46.264079999750955],[-119.88672000021771,46.26566599978262],[-119.88809500021912,46.265677999737186],[-119.88925500013539,46.2656880000078],[-119.89013300001935,46.2656990001171],[-119.89070600030482,46.26570700008227],[-119.89251999979908,46.265707999922576],[-119.89276900021942,46.265710000224196],[-119.89333900013182,46.265715999886474],[-119.89350399998825,46.2657089997629],[-119.8936470001034,46.26569100015077],[-119.89368300008837,46.265687000167134],[-119.89380299973898,46.26566000011487],[-119.89384200009704,46.26565200014283],[-119.89453500003309,46.26655799980228],[-119.89490599975386,46.267043000246225],[-119.89520399967967,46.26731700005462],[-119.89560100023805,46.267665000230245],[-119.89771900040422,46.26931599990958],[-119.89798200016995,46.2693180000795],[-119.89822900004218,46.269320000249344],[-119.89948100001995,46.26932999985554],[-119.89986799963422,46.26931099979491],[-119.89982699962637,46.26546200015325],[-119.89981699958061,46.26517800002617],[-119.90205199992266,46.26567399975261],[-119.90492800032222,46.26630299979394],[-119.90509200035376,46.26633899985246],[-119.90685899999234,46.26674099972739],[-119.90953399965213,46.2673309998902],[-119.91033200006848,46.2675060000173],[-119.91147100006836,46.26775799998874],[-119.91286799981108,46.26805399984577],[-119.91292800008554,46.26806699969586],[-119.91349100032524,46.26819200029434],[-119.91549300014049,46.26863500021458],[-119.91560199992041,46.26865900006315],[-119.91565200014914,46.26867000019722],[-119.91565100032423,46.268975999768074],[-119.91565100032423,46.268988000239986],[-119.91564799995119,46.269743000069454],[-119.91564299992831,46.27101100007014],[-119.91558500020197,46.271011999813695],[-119.91033799991627,46.271057000053524],[-119.91034399976407,46.27124699989987],[-119.91033700009135,46.272828999884275],[-119.91310999966042,46.2728070000414],[-119.91563600025563,46.27281599992174],[-119.91594599987702,46.272817000253326],[-119.9159240001357,46.27388899997114],[-119.9159240001357,46.27556699984116],[-119.91590099967118,46.27649200021798],[-119.9158599996633,46.27816499992911],[-119.91585800001346,46.27827399986546],[-119.91584600031791,46.279006999837804],[-119.9158260002264,46.28036799979205],[-119.91580500031002,46.28120800025817],[-119.91578900041651,46.28187000012644],[-119.9158320000742,46.28187000012644],[-119.91753199976564,46.28189399976695],[-119.92391300002836,46.28193199984889],[-119.92387500039355,46.281950999879925],[-119.92381199974604,46.2819830001788],[-119.92341099988806,46.28218399992118],[-119.92338800032182,46.284592999800765],[-119.92342400030685,46.284590000071674],[-119.92357800029264,46.28456300001914],[-119.92367600020191,46.28451899981306],[-119.92379900022554,46.28441599998257],[-119.92386600017274,46.284368999917234],[-119.92396300025707,46.284336000269946],[-119.92448299994078,46.284181999997564],[-119.92459900029174,46.28416900024502],[-119.92471100044472,46.2841930001201],[-119.9247869997144,46.284230999849036],[-119.92535199960392,46.28440399978481],[-119.92565299990278,46.28449699969675],[-119.92574400013939,46.28451499996189],[-119.925795000193,46.2845129997258],[-119.92592700043751,46.2844679999815],[-119.92595400020167,46.284455999795085],[-119.92607300002736,46.28440300028556],[-119.92607300002736,46.28392200001462],[-119.92607300002736,46.28376600017754],[-119.92607399985226,46.28354300015241],[-119.92607399985226,46.283001000240915],[-119.92607399985226,46.281376999726334],[-119.92607499967718,46.28086399989191],[-119.92607499967718,46.280836000301235],[-119.92608100042328,46.280139999846966],[-119.92744600037896,46.280139999846966],[-119.93304099992092,46.28019599972531],[-119.93468799990895,46.28015499970913],[-119.93473599958949,46.280158000301924],[-119.93577400020536,46.280180000298074],[-119.93610300009334,46.28017199996186],[-119.93639400034645,46.280164999821885],[-119.93651499982197,46.28016300004783],[-119.93651099962402,46.27989000009104],[-119.93650399995131,46.27946000012736],[-119.93649599955542,46.27886200023673],[-119.93651399999708,46.27767499982675],[-119.93651900001994,46.27741399976018],[-119.93652599969263,46.27593400004816],[-119.93654099976123,46.27411400016641],[-119.93655199963189,46.27292800030991],[-119.93622600011697,46.272924999942134],[-119.93524899960047,46.27291800011823],[-119.93492399991048,46.27291600007968],[-119.93472899991681,46.27291400004107],[-119.93465699994681,46.27291299971127],[-119.9348960003214,46.27272799985535],[-119.93562500024242,46.27214499996031],[-119.93564600015883,46.27210600019763],[-119.93559799957995,46.272082999719515],[-119.93542500022592,46.27207999992643],[-119.93134200005439,46.27199800013676],[-119.93137600038959,46.26929500029435],[-119.93657699974626,46.269329000081306],[-119.9365790002944,46.269120000290016],[-119.93658199976913,46.26888000024488],[-119.93658900034013,46.26824899975726],[-119.93659699983773,46.26753800005815],[-119.93150699991084,46.26750900006071],[-119.93139899995583,46.267508000253265],[-119.93054799983604,46.267500999737514],[-119.93046499999534,46.267486000137495],[-119.92818000032291,46.267463000204636],[-119.9269550001093,46.26744400011778],[-119.9269140001014,46.267444999926404],[-119.92687999976621,46.267500999737514],[-119.92611499986016,46.267519999804605],[-119.92611499986016,46.2674950002706],[-119.92606399980652,46.267486999945355],[-119.92593900013307,46.267441000070804],[-119.92538699976403,46.26743899983235],[-119.92539000013709,46.26717599982568],[-119.92539199978687,46.26706300028765],[-119.92539199978687,46.26704499987807],[-119.92539299961179,46.2669420001119],[-119.92500299962447,46.26693800021955],[-119.9245840002231,46.266941000294096],[-119.92455300026097,46.266932999888],[-119.92453399999438,46.266928000176975],[-119.92452499977357,46.26646000011721],[-119.92500400034768,46.26645900029063],[-119.92594599980575,46.26645900029063],[-119.92610599963932,46.26645499974202],[-119.92610599963932,46.26636399991363],[-119.9261039999895,46.26621899977257],[-119.92610099961647,46.265785999830996],[-119.92609999979155,46.26564199986565],[-119.92622100016536,46.26564199986565],[-119.92658400038853,46.26564400016964],[-119.92670499986404,46.26564500001109],[-119.92750099973223,46.26564899999779],[-119.92759199996884,46.26564899999779],[-119.93025400010815,46.265668000085725],[-119.9309620001128,46.26567399975261],[-119.93114200003787,46.26567600005547],[-119.93129199982569,46.26567699989634],[-119.93174499956223,46.26568199972147],[-119.93189600007327,46.265684000023995],[-119.93234299996203,46.2656880000078],[-119.93368399962826,46.26570200025942],[-119.93384699983488,46.26570399994023],[-119.93413200024021,46.26570399994023],[-119.93441199972439,46.26570399994023],[-119.93462599998468,46.26570700008227],[-119.93571599958072,46.26572399984917],[-119.93611099959094,46.26572500031019],[-119.93660600005857,46.265727999830055],[-119.93660699988348,46.265486999993385],[-119.93661299973127,46.264766000051665],[-119.9366150002794,46.26452600019486],[-119.93662199995211,46.263397999711614],[-119.93664700006646,46.26001699982361],[-119.93665499956406,46.25888999969625],[-119.93665499956406,46.258871999708504],[-119.93665499956406,46.25882000026289],[-119.9366560002873,46.2588030002184],[-119.9366560002873,46.258783000268956],[-119.9366560002873,46.25872199978809],[-119.9366560002873,46.25870299977716],[-119.9366560002873,46.25865799995385],[-119.93665700011219,46.2585260001763]]],[[[-119.89454099988086,46.27737800014585],[-119.89454000005595,46.277263000029414],[-119.89454000005595,46.27715200006065],[-119.89454000005595,46.27705400006916],[-119.89453699968293,46.27649400012602],[-119.89453500003309,46.27580600013156],[-119.89452400016243,46.27481400010971],[-119.89451800031465,46.27425499993386],[-119.89451599976651,46.27414400008127],[-119.89451300029178,46.273812999801336],[-119.89451300029178,46.2737829997053],[-119.89445999969001,46.27375700022968],[-119.89438699989508,46.27371100002872],[-119.89360299972245,46.27322000013484],[-119.89363399968458,46.27315300010414],[-119.89373300031711,46.272937000170394],[-119.89377299960178,46.272935999841],[-119.89381000030998,46.27293500013254],[-119.89408300012148,46.272566000280925],[-119.89399500025792,46.272549999867714],[-119.89393499998347,46.27254099994367],[-119.89375400023351,46.27243100006281],[-119.8909599998497,46.27125399993716],[-119.89069999955873,46.27114499969819],[-119.88893600029319,46.27041700013729],[-119.8883549996118,46.270445000084244],[-119.88808099997541,46.27057800010273],[-119.88799499976169,46.270813999934006],[-119.8882220004407,46.27111700010884],[-119.8892059997316,46.271655999781935],[-119.88963799955171,46.27183600026742],[-119.89071299997752,46.27236500002832],[-119.891422999632,46.272935999841],[-119.89166799985436,46.27310099992193],[-119.89215900012405,46.27348400002383],[-119.89234700044504,46.27382000013183],[-119.8923170003078,46.27396799972544],[-119.89223699994184,46.27407899993455],[-119.89180299957357,46.27437600011],[-119.89058400010609,46.27476299993681],[-119.88996700033802,46.27486599990835],[-119.88964599994766,46.27495100001037],[-119.88973700018424,46.275118000192],[-119.8898819999492,46.27526299976595],[-119.8903830002646,46.275366999703685],[-119.89079400016837,46.27518200005983],[-119.89108299987336,46.27515200009228],[-119.89204199994818,46.27505400024948],[-119.89225299983538,46.275058999840184],[-119.89256099980695,46.27511699990242],[-119.89280600002934,46.27517699985942],[-119.8931409997651,46.27530500000334],[-119.89340799972878,46.275441000255626],[-119.89365299995116,46.27563599996445],[-119.89384799994482,46.27581700007307],[-119.893994000433,46.27600099978339],[-119.89408099957335,46.2761379998211],[-119.89418400040383,46.27648099979105],[-119.8943030002295,46.27720700025787],[-119.89440000031387,46.27731600023725],[-119.89454099988086,46.27737800014585]]],[[[-119.92371899985962,46.205699999831914],[-119.92373999977602,46.203348999941774],[-119.92216700030619,46.203390000196265],[-119.92059700031109,46.20343099979847],[-119.91877600024583,46.20347899997622],[-119.91850699973399,46.20348899977479],[-119.91850900028213,46.20344199995948],[-119.91848400016777,46.201923000059736],[-119.91844499980971,46.19980300006293],[-119.91236599967075,46.19975199976339],[-119.90920099956618,46.199723999786045],[-119.90835000034473,46.199717999744664],[-119.90336199962677,46.19971099990278],[-119.90006299962792,46.19970700008154],[-119.89908199981177,46.19970700008154],[-119.89739100034117,46.19970499985993],[-119.891718999908,46.199701000038296],[-119.89116800026217,46.199701000038296],[-119.89077999992466,46.199701000038296],[-119.88705999997633,46.19970400006002],[-119.88175300031445,46.20024700004884],[-119.87817800013106,46.2006129997172],[-119.87699399992533,46.200754000085574],[-119.87697300000895,46.2006129997172],[-119.87695799994033,46.196542000063886],[-119.87171099965458,46.19645900001523],[-119.87171599967748,46.19771500008135],[-119.87171800022561,46.19802100007706],[-119.87171200037783,46.198257999829345],[-119.87228300011513,46.198591999856724],[-119.87235599991008,46.1986350001912],[-119.87238799969711,46.19866600018005],[-119.87247700028388,46.19875200007769],[-119.87265600038403,46.19885199974607],[-119.87382600034606,46.1995039999119],[-119.87465200035149,46.20008099982705],[-119.87551400034192,46.200536999959425],[-119.87614799982843,46.20061700009422],[-119.8763229997306,46.20076699972206],[-119.87698999972739,46.20135299984789],[-119.87791399964212,46.20216400003289],[-119.87847900042995,46.202648999777324],[-119.8795969996151,46.20361099978248],[-119.88208800005019,46.205755999898244],[-119.88404300000975,46.20774400008147],[-119.88418500029996,46.20788900002462],[-119.88570800043942,46.20926199979493],[-119.88832700002271,46.21081200002239],[-119.88966600003916,46.211555000153396],[-119.89148899975422,46.212357999878925],[-119.89208999962875,46.21239500010666],[-119.89256300035508,46.21244700004853],[-119.89368300008837,46.21258499994247],[-119.89463899979017,46.21276899988333],[-119.89555100000932,46.212913000055664],[-119.89719299997445,46.21350599986867],[-119.89901700041275,46.21434100028637],[-119.8998869999008,46.21476599994866],[-119.90206199996841,46.215410999887624],[-119.90301900039341,46.2156199998791],[-119.90410599961645,46.215612000066564],[-119.90525399983716,46.21559699994874],[-119.90690699967291,46.215576999785284],[-119.90856299988175,46.21550100021645],[-119.9094530003596,46.21550799991121],[-119.91167500028284,46.2154839997996],[-119.91300500007847,46.21553499979117],[-119.91404600016904,46.215558999880535],[-119.9144040003693,46.215585000224465],[-119.91504999955137,46.215662999939305],[-119.9154649996531,46.215736000137845],[-119.91557400033133,46.21576000013937],[-119.91557299960813,46.21525000018158],[-119.91557199978321,46.214809000055965],[-119.91558900039995,46.214639999874024],[-119.91560399957027,46.214490999738324],[-119.9156909996089,46.2145230002563],[-119.9157900002414,46.21454200003052],[-119.9161690003581,46.21455900011743],[-119.916719000179,46.21458599984237],[-119.91694900033275,46.214600000085916],[-119.91728800026648,46.21460400006603],[-119.91775799972145,46.214596000105495],[-119.91778600020886,46.214597999784935],[-119.91788599976798,46.214610999875134],[-119.91794000019465,46.2146189998335],[-119.9180709997159,46.214651000276895],[-119.91820799998324,46.21470000012325],[-119.91841499967249,46.21481900027848],[-119.9184299997411,46.213658000071746],[-119.91847599977184,46.210178000207556],[-119.91849099984047,46.209067999891865],[-119.91849199966536,46.20901799974172],[-119.92188400044898,46.209054999732864],[-119.92369700011832,46.20907499978494],[-119.92370200014119,46.20839099971399],[-119.92371899985962,46.205699999831914]]]]},"properties":{"AREALAND":"17642045","AREAWATER":"207236","BASENAME":"Grandview","CBSAPCI":"N","CENTLAT":"+46.2445819","CENTLON":"-119.9091134","FUNCSTAT":"A","GEOID":"5327925","INTPTLAT":"+46.2443347","INTPTLON":"-119.9089980","LSADC":"25","MTFCC":"G4110","NAME":"Grandview city","NECTAPCI":"N","OBJECTID":27120,"OID":"27890483243441","PLACE":"27925","PLACECC":"C1","PLACENS":"02410638","STATE":"53","DISP_CLR":2,"slug":"grandview","jurisdiction_key":"grandview_city","county_fips":["53077"]}}]}
