{
  "type": "FeatureCollection",
  "features": [
    {
      "type": "Feature",
      "geometry": {
        "type": "Polygon",
        "coordinates": [
          [
            [
              -118.26075700029588,
              47.48101899973773
            ],
            [
              -118.26075700029588,
              47.48074899977391
            ],
            [
              -118.26075499974775,
              47.480356000294755
            ],
            [
              -118.26075399992283,
              47.47994299979511
            ],
            [
              -118.26074800007504,
              47.47883100006378
            ],
            [
              -118.26073499965625,
              47.47480999988482
            ],
            [
              -118.25683300013304,
              47.4747929999407
            ],
            [
              -118.2565069997198,
              47.4747919999081
            ],
            [
              -118.25615000024276,
              47.47478999984283
            ],
            [
              -118.2555560000409,
              47.47478799977751
            ],
            [
              -118.2554000004053,
              47.474786999744815
            ],
            [
              -118.25492199965609,
              47.474785000286545
            ],
            [
              -118.25459799979099,
              47.47478400025378
            ],
            [
              -118.25404499959703,
              47.474781000155424
            ],
            [
              -118.25394099983994,
              47.474781000155424
            ],
            [
              -118.25335300038421,
              47.47477900008973
            ],
            [
              -118.25332700044494,
              47.474158000303454
            ],
            [
              -118.25303299981874,
              47.474157000258806
            ],
            [
              -118.25266999959561,
              47.47415500016936
            ],
            [
              -118.25266299992289,
              47.47434699990652
            ],
            [
              -118.2525640001887,
              47.47434299974206
            ],
            [
              -118.2525630003638,
              47.474320000004845
            ],
            [
              -118.25245399968554,
              47.4743179999216
            ],
            [
              -118.25212800017061,
              47.47431200027867
            ],
            [
              -118.25140000007445,
              47.4742999997764
            ],
            [
              -118.25129299994435,
              47.4742980002996
            ],
            [
              -118.25127100020306,
              47.47419099994584
            ],
            [
              -118.25120500008082,
              47.473949000265804
            ],
            [
              -118.25100400023935,
              47.47361299984583
            ],
            [
              -118.25083900038292,
              47.47331400014494
            ],
            [
              -118.25058400011477,
              47.47280099987913
            ],
            [
              -118.25024000015819,
              47.47273500004237
            ],
            [
              -118.25013399985298,
              47.47270599977509
            ],
            [
              -118.25013300002807,
              47.47290900009558
            ],
            [
              -118.25013200020315,
              47.47298200018362
            ],
            [
              -118.25013200020315,
              47.473028000212
            ],
            [
              -118.25013200020315,
              47.473060999956765
            ],
            [
              -118.25011999960928,
              47.4733850001589
            ],
            [
              -118.25011600030963,
              47.473503999804656
            ],
            [
              -118.2501139997615,
              47.47354400025268
            ],
            [
              -118.25011100028676,
              47.47374799981733
            ],
            [
              -118.25010200006595,
              47.47448199981398
            ],
            [
              -118.2501000004161,
              47.474727000177
            ],
            [
              -118.25009799986798,
              47.474909999980454
            ],
            [
              -118.25009200002017,
              47.47545899981726
            ],
            [
              -118.25009000037039,
              47.47564200010739
            ],
            [
              -118.25008799982223,
              47.47584600002798
            ],
            [
              -118.25008299979936,
              47.476459999896875
            ],
            [
              -118.25008199997444,
              47.476665000281734
            ],
            [
              -118.25007899960139,
              47.47687199985281
            ],
            [
              -118.25007399957852,
              47.47749299974484
            ],
            [
              -118.2500719999287,
              47.47770100028135
            ],
            [
              -118.2500700002789,
              47.47783200017331
            ],
            [
              -118.25006799973073,
              47.47822800021981
            ],
            [
              -118.25006699990584,
              47.478359999976824
            ],
            [
              -118.25011200011166,
              47.47865299974736
            ],
            [
              -118.25010500043898,
              47.478756000293906
            ],
            [
              -118.2501000004161,
              47.47883499988659
            ],
            [
              -118.25004299961638,
              47.47978299969783
            ],
            [
              -118.25003199974573,
              47.480271999704954
            ],
            [
              -118.2500230004232,
              47.48075200013869
            ],
            [
              -118.25001900022525,
              47.48094699980213
            ],
            [
              -118.2500219997,
              47.48153100000944
            ],
            [
              -118.2500230004232,
              47.481680000117564
            ],
            [
              -118.2500230004232,
              47.481726999717665
            ],
            [
              -118.25002500007304,
              47.48224700010819
            ],
            [
              -118.25002000005016,
              47.4823470000135
            ],
            [
              -118.25000699963135,
              47.48268100006602
            ],
            [
              -118.24998200041533,
              47.483259999853495
            ],
            [
              -118.24997700039246,
              47.48376400003149
            ],
            [
              -118.2499720003696,
              47.484210000268405
            ],
            [
              -118.24996599962351,
              47.48483100024113
            ],
            [
              -118.24996300014875,
              47.48500399986157
            ],
            [
              -118.24995800012589,
              47.48552300016097
            ],
            [
              -118.24995800012589,
              47.48557900023299
            ],
            [
              -118.24994399988219,
              47.48561400024769
            ],
            [
              -118.25078199958321,
              47.48561899998773
            ],
            [
              -118.25086899962182,
              47.48561999981423
            ],
            [
              -118.25141199977004,
              47.48562399972725
            ],
            [
              -118.25168200010677,
              47.48562500016077
            ],
            [
              -118.25249300004359,
              47.48562999989976
            ],
            [
              -118.25276400020525,
              47.485632000159434
            ],
            [
              -118.25274900013663,
              47.48569800018783
            ],
            [
              -118.25429099964433,
              47.485736000203346
            ],
            [
              -118.25376199973982,
              47.48629600021566
            ],
            [
              -118.25277400025098,
              47.48628199978726
            ],
            [
              -118.25272499984719,
              47.4865229999196
            ],
            [
              -118.25266000044819,
              47.48652200011024
            ],
            [
              -118.25252999985352,
              47.48684500006587
            ],
            [
              -118.25218500007202,
              47.48770799979681
            ],
            [
              -118.25225700004205,
              47.48778199974956
            ],
            [
              -118.25242000024863,
              47.48765800011426
            ],
            [
              -118.25285799991657,
              47.48732599972783
            ],
            [
              -118.2530079997044,
              47.487212999810595
            ],
            [
              -118.25342600017913,
              47.48688700028257
            ],
            [
              -118.25358099998984,
              47.48675899992216
            ],
            [
              -118.25369099959471,
              47.48666100013726
            ],
            [
              -118.25375199969407,
              47.48660700022724
            ],
            [
              -118.25393800036522,
              47.48642900015317
            ],
            [
              -118.25406600041174,
              47.486300999890744
            ],
            [
              -118.25410800024453,
              47.48625499994793
            ],
            [
              -118.2542110001767,
              47.48614500021157
            ],
            [
              -118.25446700026974,
              47.48584000004129
            ],
            [
              -118.25449499985882,
              47.48580399974713
            ],
            [
              -118.25458000024764,
              47.48569900001283
            ],
            [
              -118.25460899966164,
              47.485664000054804
            ],
            [
              -118.25487999982329,
              47.48565899971198
            ],
            [
              -118.25542299997151,
              47.48564799980602
            ],
            [
              -118.25595299970092,
              47.48565199971691
            ],
            [
              -118.25609599981607,
              47.48565300014985
            ],
            [
              -118.26071100026512,
              47.485681000124046
            ],
            [
              -118.26072499961053,
              47.484350000193515
            ],
            [
              -118.26075700029588,
              47.48101899973773
            ]
          ]
        ]
      },
      "properties": {
        "AREALAND": "1010558",
        "AREAWATER": "0",
        "BASENAME": "Harrington",
        "CBSAPCI": "N",
        "CENTLAT": "+47.4801585",
        "CENTLON": "-118.2552652",
        "FUNCSTAT": "A",
        "GEOID": "5329745",
        "INTPTLAT": "+47.4801585",
        "INTPTLON": "-118.2552652",
        "LSADC": "25",
        "MTFCC": "G4110",
        "NAME": "Harrington city",
        "NECTAPCI": "N",
        "OBJECTID": 4820,
        "OID": "27890480264305",
        "PLACE": "29745",
        "PLACECC": "C1",
        "PLACENS": "02410706",
        "STATE": "53",
        "DISP_CLR": 3,
        "slug": "harrington",
        "jurisdiction_key": "harrington_city",
        "county_fips": [
          "53043"
        ]
      }
    }
  ]
}
