{
  "type": "FeatureCollection",
  "features": [
    {
      "type": "Feature",
      "geometry": {
        "type": "Polygon",
        "coordinates": [
          [
            [
              -119.11366800018826,
              47.68491800006794
            ],
            [
              -119.11366900001318,
              47.68476699985175
            ],
            [
              -119.11164799993135,
              47.68476300000826
            ],
            [
              -119.10986799987396,
              47.68475900016451
            ],
            [
              -119.10971100041344,
              47.68475900016451
            ],
            [
              -119.10941500013745,
              47.68475900016451
            ],
            [
              -119.10852600038281,
              47.68475900016451
            ],
            [
              -119.10823099993173,
              47.68475999982308
            ],
            [
              -119.1077089996999,
              47.684761000086446
            ],
            [
              -119.10697300010614,
              47.68476300000826
            ],
            [
              -119.10614399972765,
              47.68476699985175
            ],
            [
              -119.10562300021907,
              47.68476899977334
            ],
            [
              -119.10435100014979,
              47.684754999715686
            ],
            [
              -119.10234199976357,
              47.68473299996303
            ],
            [
              -119.10197400041585,
              47.68473299996303
            ],
            [
              -119.10197699989058,
              47.68482199978487
            ],
            [
              -119.10197699989058,
              47.68494600009205
            ],
            [
              -119.10195199977622,
              47.6871260001468
            ],
            [
              -119.10191999998916,
              47.689716999829436
            ],
            [
              -119.10190400009563,
              47.69097599997141
            ],
            [
              -119.10198799976125,
              47.69095200013474
            ],
            [
              -119.1042440000197,
              47.690322000169054
            ],
            [
              -119.10434000027915,
              47.69029500016455
            ],
            [
              -119.10442099957169,
              47.690272999725096
            ],
            [
              -119.1044199997468,
              47.690361000218
            ],
            [
              -119.1044149997239,
              47.69120899977709
            ],
            [
              -119.10441100042426,
              47.69202999974407
            ],
            [
              -119.1050059995527,
              47.69203099986797
            ],
            [
              -119.10555899974666,
              47.692031999991855
            ],
            [
              -119.10555899974666,
              47.6920930002571
            ],
            [
              -119.10555899974666,
              47.69211999993538
            ],
            [
              -119.10555899974666,
              47.69213799971314
            ],
            [
              -119.1055610002948,
              47.69259799992044
            ],
            [
              -119.10556200011969,
              47.692752000169016
            ],
            [
              -119.10556200011969,
              47.692799999988615
            ],
            [
              -119.10555999957155,
              47.69286800011091
            ],
            [
              -119.10555299989888,
              47.693215000101226
            ],
            [
              -119.10555100024904,
              47.69333199971683
            ],
            [
              -119.10555299989888,
              47.69378699982476
            ],
            [
              -119.10555600027193,
              47.694438000080126
            ],
            [
              -119.10554200002822,
              47.69515199990914
            ],
            [
              -119.10553500035553,
              47.695532999943254
            ],
            [
              -119.1055339996323,
              47.69557800005865
            ],
            [
              -119.10973200032984,
              47.695582999733155
            ],
            [
              -119.11172099972627,
              47.69558599990044
            ],
            [
              -119.11184600029807,
              47.69200199989471
            ],
            [
              -119.11193900018448,
              47.692000999770244
            ],
            [
              -119.11222000039189,
              47.692000999770244
            ],
            [
              -119.11231400010321,
              47.692000999770244
            ],
            [
              -119.1125309998382,
              47.69200300001919
            ],
            [
              -119.11318199994146,
              47.6920100002851
            ],
            [
              -119.11340000039964,
              47.69201300005327
            ],
            [
              -119.11349999995875,
              47.69201300005327
            ],
            [
              -119.11363399985305,
              47.69201099980476
            ],
            [
              -119.11363899987595,
              47.6907969998652
            ],
            [
              -119.11364100042407,
              47.69034100011902
            ],
            [
              -119.11364200024897,
              47.690099999986046
            ],
            [
              -119.1136499997466,
              47.68852599987152
            ],
            [
              -119.11365399994452,
              47.68766999977666
            ],
            [
              -119.11366800018826,
              47.68491800006794
            ]
          ]
        ]
      },
      "properties": {
        "AREALAND": "865883",
        "AREAWATER": "0",
        "BASENAME": "Hartline",
        "CBSAPCI": "N",
        "CENTLAT": "+47.6894488",
        "CENTLON": "-119.1081301",
        "FUNCSTAT": "A",
        "GEOID": "5329920",
        "INTPTLAT": "+47.6894488",
        "INTPTLON": "-119.1081301",
        "LSADC": "43",
        "MTFCC": "G4110",
        "NAME": "Hartline town",
        "NECTAPCI": "N",
        "OBJECTID": 3491,
        "OID": "27890249576484",
        "PLACE": "29920",
        "PLACECC": "C1",
        "PLACENS": "02412729",
        "STATE": "53",
        "DISP_CLR": 5,
        "slug": "hartline",
        "jurisdiction_key": "hartline_city",
        "county_fips": [
          "53025"
        ]
      }
    }
  ]
}
