{"type":"FeatureCollection","features":[{"type":"Feature","geometry":{"type":"MultiPolygon","coordinates":[[[[-122.00618100043147,48.52622100002456],[-122.00618300008128,48.526109000052074],[-122.00599599958524,48.52610200004556],[-122.00543800026672,48.526081000020255],[-122.00525199959559,48.5260750000964],[-122.00434500029758,48.52604100011789],[-122.00162399970874,48.52594199971805],[-122.00149200036257,48.52593799995626],[-122.00110400002504,48.52591400018885],[-122.00096900030584,48.52589799994096],[-122.00085399977979,48.525863999843665],[-122.00074800037288,48.52578800003352],[-122.0007190000606,48.52572400004234],[-122.00066600035714,48.52560500008544],[-122.00066999965678,48.52552500009217],[-122.00067499967965,48.52545599987013],[-122.00070099961891,48.52500699994851],[-122.00078299963471,48.523653999888104],[-122.00080699992412,48.52304200025094],[-122.0008060000992,48.523022000293544],[-121.99987999963638,48.52249600006701],[-121.99858400017594,48.52174200027991],[-121.99839500003006,48.52161100017698],[-121.99661099977475,48.5206090002878],[-121.99530100007063,48.519896000017795],[-121.99445099977576,48.519455000145896],[-121.99353699990675,48.519055999956954],[-121.99332000017179,48.518978999819716],[-121.991150999952,48.5182069998565],[-121.99001299977702,48.51768399977278],[-121.98966399979756,48.51771600009793],[-121.98940600005469,48.517662000169715],[-121.98909499971006,48.51759800002598],[-121.98886100025665,48.5175490000565],[-121.98863799977558,48.51750300021205],[-121.98827799992547,48.51742800001391],[-121.98797999999964,48.51736600009156],[-121.9874970001259,48.517265999730625],[-121.98640499998166,48.51703999986572],[-121.98618599969853,48.517016000047306],[-121.98365099978085,48.51673799988375],[-121.98236799984092,48.516413000059366],[-121.97887700022144,48.516530000236315],[-121.97888200024431,48.516669000186894],[-121.97889599958968,48.51703400006095],[-121.97911400004791,48.522724000290694],[-121.98427599994481,48.52277400016602],[-121.9853160002105,48.52278299974567],[-121.98552000042498,48.522785000048685],[-121.98573899980981,48.522786999756626],[-121.98592999960549,48.52341399980347],[-121.98613800001796,48.52375699993512],[-121.98670100025768,48.52433499992333],[-121.98719599982701,48.52465899997557],[-121.98719699965193,48.52468899983151],[-121.98721199972053,48.52504100002622],[-121.98722099994134,48.52524500001316],[-121.98720699969766,48.52545699996886],[-121.98716999988774,48.52605500014682],[-121.98714800014642,48.52635100002199],[-121.98715300016929,48.52647200016825],[-121.98715099962115,48.52675599970536],[-121.98715099962115,48.52683399999075],[-121.98714899997131,48.52701600018948],[-121.98714899997131,48.5271950001359],[-121.98714200029863,48.5281899997115],[-121.98713399990271,48.529544999989305],[-121.98440399999136,48.52949700029245],[-121.98442499990774,48.529732000035104],[-121.98442900010569,48.52976499990154],[-121.98434100024217,48.52976699992879],[-121.98351500023674,48.529780000104104],[-121.98114099997751,48.52982000002767],[-121.98067499982216,48.529828000127594],[-121.97954599986805,48.52976399988787],[-121.97942600021743,48.529750999708455],[-121.97921699998008,48.529740000148934],[-121.9788250003429,48.52973500007792],[-121.97879500020568,48.52973500007792],[-121.97785500039743,48.52974900027547],[-121.97744100012063,48.529740000148934],[-121.97723400043141,48.529741000163064],[-121.9770500003084,48.529750000289425],[-121.97668299988726,48.529784000157356],[-121.97666199997087,48.52978600018391],[-121.97646899962703,48.52981199992653],[-121.97597800025567,48.529882000173984],[-121.9753759996579,48.52987800012846],[-121.97494499966267,48.52987500009413],[-121.97490000035516,48.529882000173984],[-121.97428400041201,48.52988100016263],[-121.97425000007682,48.52988100016263],[-121.97405500008315,48.52988100016263],[-121.9738259997543,48.52988000015126],[-121.97364800037738,48.52986900002487],[-121.96485699987038,48.52974400020534],[-121.96317899992027,48.52971699981832],[-121.96316899987451,48.529837000238494],[-121.96315800000386,48.529998000167105],[-121.96311299979804,48.53074900020614],[-121.96276200016875,48.53642399975052],[-121.9625060000757,48.54055600020777],[-121.97335899977408,48.54061900009213],[-121.97350899956187,48.5370410000036],[-121.97363300030875,48.53411800012183],[-121.97364599982924,48.53384200029336],[-121.97365300040025,48.533694999796474],[-121.97366400027089,48.53344600023909],[-121.976332000258,48.53346099994609],[-121.97644199986286,48.53058700028838],[-121.97646399960416,48.529994000130756],[-121.97646799980211,48.52988400019667],[-121.97678199962148,48.52988600021923],[-121.97783500030594,48.52989100027528],[-121.97838900032481,48.52987800012846],[-121.97907300004002,48.529901999802],[-121.97963200008176,48.52996099981866],[-121.98086099959501,48.530109999867264],[-121.9811700002898,48.530161000190425],[-121.98146999986548,48.5301790002922],[-121.98215799977864,48.53012499996763],[-121.98328500008296,48.53003399988528],[-121.98395899975242,48.530005000229956],[-121.98409500019486,48.53000200020314],[-121.98441200038727,48.53000800025665],[-121.98436899983125,48.53200699991409],[-121.98433799986911,48.53350700016985],[-121.98975699968398,48.53356199980062],[-121.99093300039209,48.53358700004564],[-121.99121299987627,48.53359300026921],[-121.99121799989913,48.532776000268434],[-121.99123200014283,48.5321300001621],[-121.99123399979264,48.53207100029321],[-121.99124300001348,48.531895000245676],[-121.99124600038654,48.53183700007574],[-121.99147200034234,48.53184699980206],[-121.99181399975079,48.53184999971962],[-121.99216799975312,48.53183300018462],[-121.9952070003593,48.53186000003825],[-121.99523499994838,48.53004900000817],[-121.99523800032145,48.52988400019667],[-121.9959610003947,48.52989499972492],[-121.99647900042858,48.529901999802],[-121.99803400035506,48.529924000038086],[-121.9985530002138,48.52993200012158],[-121.99859699969645,48.529813999951934],[-121.9986150001381,48.52979999977241],[-121.99929700020347,48.529727999977744],[-121.9993619996025,48.529727999977744],[-121.9995309996569,48.52972699996336],[-121.99959900032728,48.529721999891066],[-121.99968800001575,48.52971499978908],[-121.99995800035248,48.52969700011723],[-122.00004799986586,48.52969100002692],[-122.00011300016318,48.52968599995107],[-122.00031099963157,48.52967299975163],[-122.00034400014185,48.52967099972066],[-122.0003619996852,48.529642999873566],[-122.00039099999752,48.52959999975949],[-122.00039000017262,48.52958700013288],[-122.00093400014575,48.529598999742575],[-122.00091900007713,48.52976699992879],[-122.00091800025221,48.52977700006395],[-122.00092599974982,48.529956999779394],[-122.00097199978059,48.52995799978924],[-122.00100699994067,48.52995799978924],[-122.00161200001318,48.52998800007559],[-122.00201200004624,48.53001999976658],[-122.00218000027576,48.53003399988528],[-122.00235699982774,48.53006100010328],[-122.00310400019045,48.53017500027014],[-122.00344300012416,48.530226999937476],[-122.00458200012403,48.53037699979985],[-122.00485900013351,48.53040299983392],[-122.00525699961842,48.530421999850354],[-122.00535700007588,48.53042499985233],[-122.00611299976109,48.53045599986203],[-122.00612299980683,48.5298059998498],[-122.00614200007341,48.528578000122856],[-122.00566000002456,48.52857299993715],[-122.00553700000091,48.52857199989995],[-122.00553799982582,48.52829700022298],[-122.00614600027136,48.528307000053516],[-122.00615399976898,48.52785999992926],[-122.00616499963962,48.52721099997402],[-122.00616600036285,48.52710300007629],[-122.00617200021065,48.52677900019098],[-122.00617399986047,48.52667200004165],[-122.00617499968536,48.52655899979973],[-122.00618100043147,48.52622100002456]]],[[[-121.98285699956247,48.539951000101894],[-121.9828809998519,48.538878000204996],[-121.98153199978975,48.53886999975061],[-121.98148300028427,48.540663999961524],[-121.98284099966895,48.540672000132375],[-121.98285699956247,48.539951000101894]]]]},"properties":{"AREALAND":"3099601","AREAWATER":"0","BASENAME":"Hamilton","CBSAPCI":"N","CENTLAT":"+48.5283259","CENTLON":"-121.9838289","FUNCSTAT":"A","GEOID":"5329255","INTPTLAT":"+48.5224775","INTPTLON":"-121.9952640","LSADC":"43","MTFCC":"G4110","NAME":"Hamilton town","NECTAPCI":"N","OBJECTID":13326,"OID":"27890481269326","PLACE":"29255","PLACECC":"C1","PLACENS":"02412721","STATE":"53","DISP_CLR":1,"slug":"hamilton","jurisdiction_key":"hamilton_city","county_fips":["53057"]}}]}
