{
  "type": "FeatureCollection",
  "features": [
    {
      "type": "Feature",
      "geometry": {
        "type": "Polygon",
        "coordinates": [
          [
            [
              -120.5474919995848,
              46.4047110003061
            ],
            [
              -120.54749499995786,
              46.40462599975
            ],
            [
              -120.54740000042162,
              46.404627000150846
            ],
            [
              -120.54680500039487,
              46.404630000114345
            ],
            [
              -120.54680500039487,
              46.404528999806196
            ],
            [
              -120.54680500039487,
              46.40443200030942
            ],
            [
              -120.54680600021976,
              46.40403400019805
            ],
            [
              -120.54683399980887,
              46.40398400003168
            ],
            [
              -120.5468370001819,
              46.40396600003489
            ],
            [
              -120.54683399980887,
              46.40391599980615
            ],
            [
              -120.54682200011331,
              46.4037119998601
            ],
            [
              -120.54681899974024,
              46.40364399991501
            ],
            [
              -120.5468150004406,
              46.40355499973132
            ],
            [
              -120.54680500039487,
              46.4032889999734
            ],
            [
              -120.54680200002181,
              46.40320100025702
            ],
            [
              -120.54680200002181,
              46.40287899995813
            ],
            [
              -120.54682700013618,
              46.40279400026436
            ],
            [
              -120.54658000026396,
              46.40279400026436
            ],
            [
              -120.54584200012208,
              46.40279400026436
            ],
            [
              -120.54559600007478,
              46.40279400026436
            ],
            [
              -120.54544999958661,
              46.40279400026436
            ],
            [
              -120.5450139995685,
              46.40279400026436
            ],
            [
              -120.54486899980354,
              46.40279400026436
            ],
            [
              -120.54472700041165,
              46.40279500007932
            ],
            [
              -120.54430399991402,
              46.402798000143605
            ],
            [
              -120.54416300034704,
              46.40279999977336
            ],
            [
              -120.54390999972874,
              46.40279999977336
            ],
            [
              -120.54315099967044,
              46.40280200002255
            ],
            [
              -120.54289899977537,
              46.40280400027163
            ],
            [
              -120.54264900042841,
              46.40280299983736
            ],
            [
              -120.5419010002408,
              46.40280299983736
            ],
            [
              -120.54165199982046,
              46.40280299983736
            ],
            [
              -120.5415840000484,
              46.40280100020772
            ],
            [
              -120.54138300020695,
              46.40279500007932
            ],
            [
              -120.54131600025978,
              46.40279400026436
            ],
            [
              -120.54082800036313,
              46.40279400026436
            ],
            [
              -120.53936499959987,
              46.40279400026436
            ],
            [
              -120.53919200024583,
              46.40279400026436
            ],
            [
              -120.5389870002064,
              46.40279400026436
            ],
            [
              -120.53887800042646,
              46.40279400026436
            ],
            [
              -120.538886999749,
              46.401006000101106
            ],
            [
              -120.538886999749,
              46.400989000208774
            ],
            [
              -120.53366100027796,
              46.40098799974122
            ],
            [
              -120.53365899972981,
              46.40280400027163
            ],
            [
              -120.53362100009498,
              46.40415099992511
            ],
            [
              -120.53377300043094,
              46.40421700027988
            ],
            [
              -120.53383899965489,
              46.40432600008097
            ],
            [
              -120.53384700005078,
              46.40434000019307
            ],
            [
              -120.53385399972348,
              46.40448299984921
            ],
            [
              -120.53445799997107,
              46.404485999820665
            ],
            [
              -120.53699700008673,
              46.404499000108004
            ],
            [
              -120.53784400000858,
              46.404504000265334
            ],
            [
              -120.53784200035874,
              46.40453300017769
            ],
            [
              -120.5378399998106,
              46.404622999786255
            ],
            [
              -120.5378399998106,
              46.40465300003571
            ],
            [
              -120.53783499978773,
              46.40510899981448
            ],
            [
              -120.53782700029014,
              46.405913999710236
            ],
            [
              -120.5378449998335,
              46.40599100020893
            ],
            [
              -120.5388459997411,
              46.40599499985377
            ],
            [
              -120.53883999989331,
              46.40707699986478
            ],
            [
              -120.53882300017486,
              46.41050299974255
            ],
            [
              -120.53881800015199,
              46.411644999779796
            ],
            [
              -120.53883300022062,
              46.41176800028654
            ],
            [
              -120.54062900017155,
              46.41177900015722
            ],
            [
              -120.54413999988249,
              46.41180200016117
            ],
            [
              -120.5444779999913,
              46.4117979997034
            ],
            [
              -120.54545700015761,
              46.411786999836565
            ],
            [
              -120.54547700024911,
              46.41169700027965
            ],
            [
              -120.54547899989893,
              46.407284999785524
            ],
            [
              -120.54537699979169,
              46.407284999785524
            ],
            [
              -120.5453790003398,
              46.40701299996783
            ],
            [
              -120.54538000016471,
              46.40680699973166
            ],
            [
              -120.54538199981452,
              46.40616300015804
            ],
            [
              -120.5453860000125,
              46.405927000276705
            ],
            [
              -120.54538699983739,
              46.40578799972972
            ],
            [
              -120.54539199986026,
              46.405371000299645
            ],
            [
              -120.54539199986026,
              46.405323000276496
            ],
            [
              -120.54674900031836,
              46.40532199988843
            ],
            [
              -120.54674699977024,
              46.405230000034145
            ],
            [
              -120.54674199974735,
              46.404984000227145
            ],
            [
              -120.54702999962744,
              46.404985000002014
            ],
            [
              -120.54748400008721,
              46.40498899972062
            ],
            [
              -120.5474919995848,
              46.4047110003061
            ]
          ]
        ]
      },
      "properties": {
        "AREALAND": "708079",
        "AREAWATER": "0",
        "BASENAME": "Harrah",
        "CBSAPCI": "N",
        "CENTLAT": "+46.4061186",
        "CENTLON": "-120.5409612",
        "FUNCSTAT": "A",
        "GEOID": "5329710",
        "INTPTLAT": "+46.4061186",
        "INTPTLON": "-120.5409612",
        "LSADC": "43",
        "MTFCC": "G4110",
        "NAME": "Harrah town",
        "NECTAPCI": "N",
        "OBJECTID": 2292,
        "OID": "27890483243443",
        "PLACE": "29710",
        "PLACECC": "C1",
        "PLACENS": "02412728",
        "STATE": "53",
        "DISP_CLR": 5,
        "slug": "harrah",
        "jurisdiction_key": "harrah_city",
        "county_fips": [
          "53077"
        ]
      }
    }
  ]
}
