{"type":"FeatureCollection","features":[{"type":"Feature","geometry":{"type":"Polygon","coordinates":[[[-118.83296799987987,46.77172900013109],[-118.83298799997137,46.76813499977527],[-118.8291259997328,46.768142999947194],[-118.82700799956662,46.76814899976772],[-118.8264290003317,46.768150000250465],[-118.82553899985385,46.7681470000327],[-118.82509100014019,46.76814500029766],[-118.8224590001381,46.76814899976772],[-118.82244700044255,46.76991500013332],[-118.822423999978,46.771717000056434],[-118.8224230001531,46.77178299981865],[-118.8223600004039,46.77746600010187],[-118.82234399961207,46.77890199998542],[-118.82239999968857,46.77890000003446],[-118.82260599955288,46.77889499984924],[-118.82330000021214,46.778879999905925],[-118.82363999997077,46.77892000015562],[-118.82389100004094,46.778913000021774],[-118.82432100021126,46.77890199998542],[-118.82437899993758,46.77890000003446],[-118.82455300001483,46.77889499984924],[-118.82461199956607,46.77889400018123],[-118.82465799959684,46.77889200023002],[-118.82479800023722,46.77888899999546],[-118.8248450000929,46.77888799971215],[-118.82498900003294,46.778883000141],[-118.82511999955419,46.778879999905925],[-118.82533600036257,46.7788749997188],[-118.8254240002261,46.77887299976689],[-118.82556999981598,46.77887000014645],[-118.82669000044763,46.77885000000673],[-118.82812999984804,46.77885999976992],[-118.82873999994342,46.77890999978837],[-118.82960000028405,46.77892999990581],[-118.83283800018354,46.77895799981164],[-118.83292600004708,46.77895900009361],[-118.83296799987987,46.77172900013109]]]},"properties":{"AREALAND":"963998","AREAWATER":"0","BASENAME":"Hatton","CBSAPCI":"N","CENTLAT":"+46.7735281","CENTLON":"-118.8276881","FUNCSTAT":"A","GEOID":"5330060","INTPTLAT":"+46.7735281","INTPTLON":"-118.8276881","LSADC":"43","MTFCC":"G4110","NAME":"Hatton town","NECTAPCI":"N","OBJECTID":5132,"OID":"27890225708846","PLACE":"30060","PLACECC":"C1","PLACENS":"02412736","STATE":"53","DISP_CLR":1,"slug":"hatton","jurisdiction_key":"hatton_city","county_fips":["53001"]}}]}
