{
  "type": "FeatureCollection",
  "features": [
    {
      "type": "Feature",
      "geometry": {
        "type": "Polygon",
        "coordinates": [
          [
            [
              -123.9546670000917,
              46.98270500005288
            ],
            [
              -123.95466600026678,
              46.98265599978162
            ],
            [
              -123.95466100024392,
              46.98247100014108
            ],
            [
              -123.95458099987796,
              46.97801000012775
            ],
            [
              -123.95449399983936,
              46.976060999860174
            ],
            [
              -123.9543840002345,
              46.9655470002819
            ],
            [
              -123.95421400035518,
              46.95786800004356
            ],
            [
              -123.9541449998599,
              46.952708999866125
            ],
            [
              -123.95080499985313,
              46.95260899987215
            ],
            [
              -123.92226000043432,
              46.9520030001181
            ],
            [
              -123.91792899966737,
              46.95198699989601
            ],
            [
              -123.90223299991433,
              46.951932000130896
            ],
            [
              -123.88944600017281,
              46.951856000005705
            ],
            [
              -123.88563900018583,
              46.95179600005656
            ],
            [
              -123.88432100008582,
              46.95177699998711
            ],
            [
              -123.88318299991083,
              46.95176000017745
            ],
            [
              -123.88204899993383,
              46.95174299974918
            ],
            [
              -123.88002000035445,
              46.95171199989209
            ],
            [
              -123.8683819997602,
              46.951677000091266
            ],
            [
              -123.8657330000397,
              46.95163799972563
            ],
            [
              -123.86453399976534,
              46.95161500028278
            ],
            [
              -123.86407799965578,
              46.951610000215986
            ],
            [
              -123.8608840001372,
              46.95155699972437
            ],
            [
              -123.86051800043934,
              46.95156000013538
            ],
            [
              -123.85737800044912,
              46.95159799980845
            ],
            [
              -123.85230699989047,
              46.95164699971817
            ],
            [
              -123.8522879996239,
              46.952531999976344
            ],
            [
              -123.8522590002099,
              46.95345000000236
            ],
            [
              -123.85224699961603,
              46.953789000280935
            ],
            [
              -123.85223200044574,
              46.95420799995323
            ],
            [
              -123.85219200026276,
              46.955615999775766
            ],
            [
              -123.85210699987394,
              46.95858999976462
            ],
            [
              -123.85211899956951,
              46.96431399971335
            ],
            [
              -123.85212199994254,
              46.9652340003023
            ],
            [
              -123.85212699996544,
              46.96641400001925
            ],
            [
              -123.85212899961523,
              46.96689999996424
            ],
            [
              -123.85213600018625,
              46.96771599969641
            ],
            [
              -123.85214100020913,
              46.968098000295036
            ],
            [
              -123.85213500036133,
              46.968460999728926
            ],
            [
              -123.85215700010265,
              46.968972000277525
            ],
            [
              -123.85214700005692,
              46.969083000087196
            ],
            [
              -123.852146000232,
              46.969338999741886
            ],
            [
              -123.85214500040708,
              46.969573000116796
            ],
            [
              -123.85214799988181,
              46.969747000030566
            ],
            [
              -123.85215000042997,
              46.96986199986371
            ],
            [
              -123.8521679999733,
              46.971360000239486
            ],
            [
              -123.85216899979824,
              46.971442000066126
            ],
            [
              -123.85219700028563,
              46.972922999880105
            ],
            [
              -123.85220499978324,
              46.973332000141845
            ],
            [
              -123.85220499978324,
              46.97423799982011
            ],
            [
              -123.8522099998061,
              46.97513800006955
            ],
            [
              -123.85221499982894,
              46.976045000089805
            ],
            [
              -123.85221999985184,
              46.97693900014617
            ],
            [
              -123.85221900002695,
              46.97807000010169
            ],
            [
              -123.85221800020203,
              46.97902100004383
            ],
            [
              -123.85218200021703,
              46.980564999825084
            ],
            [
              -123.85452499961578,
              46.9805029997818
            ],
            [
              -123.8603550002327,
              46.98055200018774
            ],
            [
              -123.86030599982888,
              46.982913999755084
            ],
            [
              -123.86029699960807,
              46.98354299977885
            ],
            [
              -123.8602909997603,
              46.98438199998771
            ],
            [
              -123.86028699956232,
              46.984775000017
            ],
            [
              -123.86026499982101,
              46.98695700028812
            ],
            [
              -123.86025599960018,
              46.98810599972019
            ],
            [
              -123.86020399972163,
              46.99166100006906
            ],
            [
              -123.86017500030766,
              46.99363799986601
            ],
            [
              -123.8601510000182,
              46.99528799992747
            ],
            [
              -123.86014900036837,
              46.99545599992124
            ],
            [
              -123.86007300020042,
              46.99980700014881
            ],
            [
              -123.86005399993383,
              47.0009600001649
            ],
            [
              -123.86003200019252,
              47.002193999837324
            ],
            [
              -123.86000100023038,
              47.00390799982271
            ],
            [
              -123.86565400039696,
              47.004117999701464
            ],
            [
              -123.87344499992291,
              47.00425399969591
            ],
            [
              -123.88081799987245,
              47.00441500012472
            ],
            [
              -123.88081100019974,
              47.004588000231095
            ],
            [
              -123.88139799983057,
              47.00459600013394
            ],
            [
              -123.88262300004419,
              47.00458999974745
            ],
            [
              -123.8830599998872,
              47.004594000005156
            ],
            [
              -123.88347099979093,
              47.004402000161356
            ],
            [
              -123.88361300008116,
              47.0040359997537
            ],
            [
              -123.88385300028065,
              47.00351800013312
            ],
            [
              -123.88374199995259,
              47.002788000209215
            ],
            [
              -123.88372600005906,
              47.00252799977418
            ],
            [
              -123.88314299972788,
              47.00093100029898
            ],
            [
              -123.883321999828,
              47.0001629998749
            ],
            [
              -123.88337799990451,
              46.99992200027493
            ],
            [
              -123.88344300020185,
              46.99963799989253
            ],
            [
              -123.88438200018518,
              46.998470000216315
            ],
            [
              -123.88524099980256,
              46.99760300001267
            ],
            [
              -123.88579499982141,
              46.996956999857076
            ],
            [
              -123.8859830001424,
              46.99659500015484
            ],
            [
              -123.88601999995232,
              46.996523000006334
            ],
            [
              -123.88613200010533,
              46.99631099985654
            ],
            [
              -123.88618999983163,
              46.99620100011215
            ],
            [
              -123.88630899965734,
              46.99597499981529
            ],
            [
              -123.88700300031661,
              46.99627800026334
            ],
            [
              -123.88830399979989,
              46.99684800012017
            ],
            [
              -123.88901699982742,
              46.99711699970893
            ],
            [
              -123.8896500003873,
              46.99735699981381
            ],
            [
              -123.89011599964431,
              46.997534000280375
            ],
            [
              -123.8910220000157,
              46.997396999828624
            ],
            [
              -123.89172099979952,
              46.99666499978078
            ],
            [
              -123.89192800038705,
              46.99644899993979
            ],
            [
              -123.89260799990431,
              46.99575300009505
            ],
            [
              -123.89289099976155,
              46.99546200010819
            ],
            [
              -123.89342499968892,
              46.99546699975288
            ],
            [
              -123.89417100022673,
              46.99547299993859
            ],
            [
              -123.89452400040416,
              46.99547399986735
            ],
            [
              -123.89464599970457,
              46.995474999796144
            ],
            [
              -123.89496700009494,
              46.995483999766726
            ],
            [
              -123.89573100017608,
              46.99548900002207
            ],
            [
              -123.89646699976983,
              46.995506999957065
            ],
            [
              -123.89659599964124,
              46.995616999904726
            ],
            [
              -123.89718499982023,
              46.996077000073065
            ],
            [
              -123.89746900040066,
              46.99622699973795
            ],
            [
              -123.89784599996922,
              46.99644399977428
            ],
            [
              -123.89834599956141,
              46.996697999747695
            ],
            [
              -123.89905100009133,
              46.99697599981094
            ],
            [
              -123.89974900005025,
              46.99722299982179
            ],
            [
              -123.89982299967008,
              46.997249000175756
            ],
            [
              -123.90111700037899,
              46.99763900029046
            ],
            [
              -123.9018649996683,
              46.99788700018359
            ],
            [
              -123.90200399958547,
              46.997932999711125
            ],
            [
              -123.90202899969981,
              46.99794199988042
            ],
            [
              -123.90204899979132,
              46.99717300009534
            ],
            [
              -123.90205899983705,
              46.99693600009367
            ],
            [
              -123.90207300008076,
              46.99693600009367
            ],
            [
              -123.90266200025972,
              46.9968749999464
            ],
            [
              -123.9036039997178,
              46.99684599970131
            ],
            [
              -123.90383100039683,
              46.9968369999601
            ],
            [
              -123.90409499998749,
              46.99691700012555
            ],
            [
              -123.90500300000869,
              46.99699700017128
            ],
            [
              -123.90580499972467,
              46.99705800017928
            ],
            [
              -123.90682900009682,
              46.99716799999758
            ],
            [
              -123.90703499996113,
              46.99722299982179
            ],
            [
              -123.90723300032785,
              46.99727400000926
            ],
            [
              -123.90728799968112,
              47.00013999985071
            ],
            [
              -123.9073010000999,
              47.00083099977443
            ],
            [
              -123.90732100019142,
              47.00494399995499
            ],
            [
              -123.90855599955242,
              47.00498599991739
            ],
            [
              -123.90852399976536,
              47.00621299977834
            ],
            [
              -123.91235300039199,
              47.006270000159226
            ],
            [
              -123.91235699969164,
              47.00638299978875
            ],
            [
              -123.91235400021688,
              47.00647500010209
            ],
            [
              -123.91236900028551,
              47.00806199986114
            ],
            [
              -123.91238299963088,
              47.00902900008744
            ],
            [
              -123.91243500040773,
              47.00970900023723
            ],
            [
              -123.91242100016404,
              47.00971500004866
            ],
            [
              -123.91242100016404,
              47.00977300002895
            ],
            [
              -123.91241500031626,
              47.01048099984401
            ],
            [
              -123.91240100007256,
              47.01227899989782
            ],
            [
              -123.91239400039986,
              47.01318600003587
            ],
            [
              -123.91241399959301,
              47.01321900021103
            ],
            [
              -123.91307599956694,
              47.013213999777484
            ],
            [
              -123.91343799996517,
              47.01321199997143
            ],
            [
              -123.91747900030389,
              47.01322400003161
            ],
            [
              -123.91744699961855,
              47.01407899983128
            ],
            [
              -123.91734500040958,
              47.01899300028715
            ],
            [
              -123.91734500040958,
              47.01902800013672
            ],
            [
              -123.91733700001367,
              47.01921600030112
            ],
            [
              -123.91731600009727,
              47.02003100012802
            ],
            [
              -123.91629699974798,
              47.020033999760244
            ],
            [
              -123.91607800036319,
              47.020033999760244
            ],
            [
              -123.91567400013213,
              47.020047000206
            ],
            [
              -123.91454500017802,
              47.020046000124715
            ],
            [
              -123.9140580001063,
              47.020046000124715
            ],
            [
              -123.91453299958413,
              47.020617000009196
            ],
            [
              -123.91477299978364,
              47.02087499984059
            ],
            [
              -123.91532299960454,
              47.02146199969921
            ],
            [
              -123.91603399998226,
              47.021449000210374
            ],
            [
              -123.91656899973457,
              47.0214439999351
            ],
            [
              -123.91960099976973,
              47.021373999705965
            ],
            [
              -123.92172499978368,
              47.02133900016941
            ],
            [
              -123.92237900025998,
              47.021331999769416
            ],
            [
              -123.92238699975759,
              47.02104899997716
            ],
            [
              -123.92248300001707,
              47.01768800010611
            ],
            [
              -123.92249200023788,
              47.017222000239556
            ],
            [
              -123.9224930000628,
              47.017141999856044
            ],
            [
              -123.92249399988772,
              47.01709299992177
            ],
            [
              -123.92336400027408,
              47.01711999992862
            ],
            [
              -123.92357400033639,
              47.017126000132414
            ],
            [
              -123.9277009999905,
              47.01725300010329
            ],
            [
              -123.93007400042478,
              47.017323999743134
            ],
            [
              -123.93297500004039,
              47.01741500006652
            ],
            [
              -123.93295999997176,
              47.01523000016587
            ],
            [
              -123.93295099975094,
              47.01382499980206
            ],
            [
              -123.93203900043011,
              47.013803999931255
            ],
            [
              -123.92773100012772,
              47.01371000020419
            ],
            [
              -123.92257300042873,
              47.013595999948244
            ],
            [
              -123.92263600017795,
              47.01048500027311
            ],
            [
              -123.92263700000284,
              47.01025899975444
            ],
            [
              -123.92265600026943,
              47.00977699989857
            ],
            [
              -123.92322100015896,
              47.0098019999955
            ],
            [
              -123.9280409997491,
              47.01001300024949
            ],
            [
              -123.93023699973308,
              47.01010900028075
            ],
            [
              -123.93299199975884,
              47.010231999953774
            ],
            [
              -123.93301400039844,
              47.00956500027223
            ],
            [
              -123.93304299981244,
              47.00866900007047
            ],
            [
              -123.93310300008692,
              47.00685000023269
            ],
            [
              -123.93310999975961,
              47.006679999870755
            ],
            [
              -123.93647200040598,
              47.00675100009134
            ],
            [
              -123.93705300018902,
              47.006762999765535
            ],
            [
              -123.93737200003126,
              47.00676899990794
            ],
            [
              -123.9381710002725,
              47.006786000001426
            ],
            [
              -123.94075600041893,
              47.006868999731445
            ],
            [
              -123.94083199968857,
              47.00687000005952
            ],
            [
              -123.94248299987456,
              47.006923999983414
            ],
            [
              -123.94270999965528,
              47.006932000149
            ],
            [
              -123.94362699989728,
              47.00696099982032
            ],
            [
              -123.9436689997301,
              47.005946000118364
            ],
            [
              -123.94375800031686,
              47.00338099970939
            ],
            [
              -123.94376599981446,
              47.003222999804
            ],
            [
              -123.9439509997624,
              46.99951700003681
            ],
            [
              -123.94412400001475,
              46.99607099995517
            ],
            [
              -123.9440989999004,
              46.99491699988279
            ],
            [
              -123.94410200027343,
              46.99412399995005
            ],
            [
              -123.94410700029633,
              46.99302699991535
            ],
            [
              -123.9440989999004,
              46.99164500006496
            ],
            [
              -123.94409700025057,
              46.99130100004347
            ],
            [
              -123.94409100040278,
              46.990083999918326
            ],
            [
              -123.94408899985464,
              46.98984000010145
            ],
            [
              -123.9440770001591,
              46.987972999885656
            ],
            [
              -123.94407399978604,
              46.98766699992212
            ],
            [
              -123.94406299991537,
              46.98623100001622
            ],
            [
              -123.94405700006762,
              46.9855400000357
            ],
            [
              -123.94405200004472,
              46.98497300005534
            ],
            [
              -123.94405299986964,
              46.98472000025071
            ],
            [
              -123.9440489996717,
              46.98457299994021
            ],
            [
              -123.94404600019696,
              46.984218000058256
            ],
            [
              -123.94404600019696,
              46.9836949999906
            ],
            [
              -123.94404199999899,
              46.98351700011059
            ],
            [
              -123.94550200038923,
              46.98353499978799
            ],
            [
              -123.94631900017383,
              46.98356100006034
            ],
            [
              -123.9479850004284,
              46.98345300011905
            ],
            [
              -123.94981999983906,
              46.9832849997767
            ],
            [
              -123.95013799985638,
              46.983273999889086
            ],
            [
              -123.95064500001958,
              46.98322800000025
            ],
            [
              -123.9513789999635,
              46.98316199995735
            ],
            [
              -123.95184299957069,
              46.98311000023761
            ],
            [
              -123.95362199980316,
              46.98285700019587
            ],
            [
              -123.95466200006884,
              46.98272899978161
            ],
            [
              -123.9546670000917,
              46.98270500005288
            ]
          ]
        ]
      },
      "properties": {
        "AREALAND": "24718209",
        "AREAWATER": "17817648",
        "BASENAME": "Hoquiam",
        "CBSAPCI": "N",
        "CENTLAT": "+46.9778410",
        "CENTLON": "-123.9042664",
        "FUNCSTAT": "A",
        "GEOID": "5332300",
        "INTPTLAT": "+46.9772017",
        "INTPTLON": "-123.9097161",
        "LSADC": "25",
        "MTFCC": "G4110",
        "NAME": "Hoquiam city",
        "NECTAPCI": "N",
        "OBJECTID": 28563,
        "OID": "27890479425094",
        "PLACE": "32300",
        "PLACECC": "C1",
        "PLACENS": "02410792",
        "STATE": "53",
        "DISP_CLR": 2,
        "slug": "hoquiam",
        "jurisdiction_key": "hoquiam_city",
        "county_fips": [
          "53027"
        ]
      }
    }
  ]
}
