{
  "type": "FeatureCollection",
  "features": [
    {
      "type": "Feature",
      "geometry": {
        "type": "Polygon",
        "coordinates": [
          [
            [
              -117.43261499979752,
              48.743351999798385
            ],
            [
              -117.43261800017058,
              48.74148999972049
            ],
            [
              -117.43259200023131,
              48.74065599979718
            ],
            [
              -117.43256000044425,
              48.74026100021035
            ],
            [
              -117.43258600038352,
              48.74011399986103
            ],
            [
              -117.4325289995838,
              48.74011299986119
            ],
            [
              -117.43193600010518,
              48.74011299986119
            ],
            [
              -117.43185200043959,
              48.74011699986035
            ],
            [
              -117.43182899997507,
              48.74006599984727
            ],
            [
              -117.43163999982919,
              48.74007399985274
            ],
            [
              -117.43149900026218,
              48.740071999851494
            ],
            [
              -117.43133400040574,
              48.740069999850164
            ],
            [
              -117.43050900022523,
              48.74006199984405
            ],
            [
              -117.43017899961403,
              48.74005899984146
            ],
            [
              -117.42988700043429,
              48.74005599983863
            ],
            [
              -117.42977399955808,
              48.74005499983768
            ],
            [
              -117.42987099964242,
              48.73984999981066
            ],
            [
              -117.42996100005413,
              48.739062999737946
            ],
            [
              -117.42928099963856,
              48.7390610002889
            ],
            [
              -117.42873699966545,
              48.73906000026816
            ],
            [
              -117.42869599965755,
              48.739059000247344
            ],
            [
              -117.42869499983266,
              48.73899400003835
            ],
            [
              -117.42869300018282,
              48.738776000081764
            ],
            [
              -117.42869200035788,
              48.7387039999047
            ],
            [
              -117.42867499974115,
              48.73725999995562
            ],
            [
              -117.42866899989339,
              48.73672700014635
            ],
            [
              -117.42867700028931,
              48.73593700010433
            ],
            [
              -117.42863000043363,
              48.73593700010433
            ],
            [
              -117.42755099980988,
              48.73593700010433
            ],
            [
              -117.42719199978468,
              48.735938000187204
            ],
            [
              -117.42720400037857,
              48.73556900024104
            ],
            [
              -117.4272350003407,
              48.73464000026203
            ],
            [
              -117.42723000031783,
              48.73446200014882
            ],
            [
              -117.42722100009702,
              48.73409400015324
            ],
            [
              -117.4272200002721,
              48.73402000013794
            ],
            [
              -117.42721799972396,
              48.73380000028196
            ],
            [
              -117.42721799972396,
              48.73372699996082
            ],
            [
              -117.42697400022479,
              48.73372300004568
            ],
            [
              -117.42684799982813,
              48.733720999791736
            ],
            [
              -117.42628200011366,
              48.733661999967126
            ],
            [
              -117.42624799977848,
              48.73365800004681
            ],
            [
              -117.42602000017285,
              48.733675999982
            ],
            [
              -117.42583299967679,
              48.73368999999294
            ],
            [
              -117.42575900005694,
              48.733695000038246
            ],
            [
              -117.42530999962004,
              48.73379099974486
            ],
            [
              -117.42495800016586,
              48.73385700028855
            ],
            [
              -117.42466000024002,
              48.733913000107385
            ],
            [
              -117.42432899980392,
              48.733975000003326
            ],
            [
              -117.42382400018887,
              48.73404299995421
            ],
            [
              -117.4232490002536,
              48.73414999970809
            ],
            [
              -117.42297499971889,
              48.734283999997864
            ],
            [
              -117.42295899982537,
              48.73430199970889
            ],
            [
              -117.42290399957379,
              48.73436200008166
            ],
            [
              -117.42266400027258,
              48.73460700021875
            ],
            [
              -117.42263400013537,
              48.73464000026203
            ],
            [
              -117.42257800005883,
              48.73470199985392
            ],
            [
              -117.42252199998237,
              48.73473200010682
            ],
            [
              -117.42248299962431,
              48.73475199987044
            ],
            [
              -117.42246300043112,
              48.73475299997693
            ],
            [
              -117.4223909995628,
              48.734754000083356
            ],
            [
              -117.42228199978284,
              48.73472399984364
            ],
            [
              -117.4222630004146,
              48.73471899990067
            ],
            [
              -117.42210299968269,
              48.734667999743166
            ],
            [
              -117.42207500009361,
              48.734639000153344
            ],
            [
              -117.42192399958256,
              48.73468400028607
            ],
            [
              -117.42188900032079,
              48.73465699973726
            ],
            [
              -117.42184199956681,
              48.73463800004458
            ],
            [
              -117.42172399956601,
              48.73456499975528
            ],
            [
              -117.42120899990522,
              48.73419500027852
            ],
            [
              -117.42107599983584,
              48.73413400018019
            ],
            [
              -117.42088599986504,
              48.73406599975992
            ],
            [
              -117.42083700035953,
              48.73405199985365
            ],
            [
              -117.42068199965051,
              48.73402000013794
            ],
            [
              -117.4204320003036,
              48.733953999808236
            ],
            [
              -117.4202980004093,
              48.73389400013353
            ],
            [
              -117.42012099995898,
              48.73380000028196
            ],
            [
              -117.42071699981062,
              48.73327300015365
            ],
            [
              -117.42097899975145,
              48.73255399980151
            ],
            [
              -117.42123700039261,
              48.73228599971546
            ],
            [
              -117.42090400030666,
              48.73228599971546
            ],
            [
              -117.42015600011906,
              48.73228500015241
            ],
            [
              -117.42000600033123,
              48.73263799990589
            ],
            [
              -117.41991099989667,
              48.732673999907625
            ],
            [
              -117.41904200023353,
              48.73290599989316
            ],
            [
              -117.41826100043394,
              48.73312300028209
            ],
            [
              -117.41738100000185,
              48.73373200000244
            ],
            [
              -117.41649499972195,
              48.73448800009815
            ],
            [
              -117.41627100031427,
              48.7346809999625
            ],
            [
              -117.41536199956987,
              48.73560399983201
            ],
            [
              -117.41527700007936,
              48.73573199987205
            ],
            [
              -117.4152029995612,
              48.73587300008974
            ],
            [
              -117.41391200012369,
              48.735884999913566
            ],
            [
              -117.41346799970965,
              48.73590699997802
            ],
            [
              -117.41330700005119,
              48.73591600013631
            ],
            [
              -117.41213600026424,
              48.73591299988622
            ],
            [
              -117.41169299967515,
              48.735911999802845
            ],
            [
              -117.41138999972644,
              48.73591399996962
            ],
            [
              -117.41101099960976,
              48.735917000219594
            ],
            [
              -117.4108449999284,
              48.73590699997802
            ],
            [
              -117.41083400005775,
              48.73593999976046
            ],
            [
              -117.41083400005775,
              48.73603100010755
            ],
            [
              -117.41083200040794,
              48.736370999849235
            ],
            [
              -117.41083300023283,
              48.7365689999462
            ],
            [
              -117.41084199955536,
              48.7366750001803
            ],
            [
              -117.41084099973045,
              48.737993999992206
            ],
            [
              -117.41218499976974,
              48.73884200000536
            ],
            [
              -117.41245400028157,
              48.739197999983865
            ],
            [
              -117.41255200019087,
              48.739576000046874
            ],
            [
              -117.41255499966559,
              48.73979300008229
            ],
            [
              -117.41255999968845,
              48.74009099986013
            ],
            [
              -117.41246299960407,
              48.74053099982873
            ],
            [
              -117.41237700028867,
              48.740939000041614
            ],
            [
              -117.41246099995426,
              48.74143999988915
            ],
            [
              -117.41251299983278,
              48.74150799981344
            ],
            [
              -117.41274100033672,
              48.7418030001883
            ],
            [
              -117.41279800023815,
              48.74187600003793
            ],
            [
              -117.41298700038404,
              48.74211799981165
            ],
            [
              -117.41330600022627,
              48.742312999914994
            ],
            [
              -117.41355899994623,
              48.74246799997386
            ],
            [
              -117.41361800039579,
              48.742504000045265
            ],
            [
              -117.41399199959129,
              48.74266199995495
            ],
            [
              -117.41450999962514,
              48.74288200012666
            ],
            [
              -117.41534700039955,
              48.74309299987138
            ],
            [
              -117.41536999996576,
              48.74309900010661
            ],
            [
              -117.41582100005247,
              48.743134999726045
            ],
            [
              -117.41592300015972,
              48.74314499971451
            ],
            [
              -117.41596199961948,
              48.7431480001253
            ],
            [
              -117.416025000267,
              48.74315500029332
            ],
            [
              -117.41625399969753,
              48.74317700013801
            ],
            [
              -117.41627600033715,
              48.74338400009014
            ],
            [
              -117.4162460001999,
              48.74355699975955
            ],
            [
              -117.41625500042078,
              48.7445000001843
            ],
            [
              -117.4162649995682,
              48.74621800006207
            ],
            [
              -117.41626700011632,
              48.74676700018261
            ],
            [
              -117.41626000044361,
              48.74697900006542
            ],
            [
              -117.41495999988695,
              48.74698899988136
            ],
            [
              -117.41491300003128,
              48.74698899988136
            ],
            [
              -117.41489999961249,
              48.74804400008265
            ],
            [
              -117.41673200044673,
              48.74805400027895
            ],
            [
              -117.41685100027242,
              48.74805500012081
            ],
            [
              -117.41678199977713,
              48.74824899985921
            ],
            [
              -117.41666200012654,
              48.74858400013562
            ],
            [
              -117.4168010000437,
              48.748589999715335
            ],
            [
              -117.41725600032838,
              48.74859299980106
            ],
            [
              -117.41744399975101,
              48.74860100022625
            ],
            [
              -117.41799699994498,
              48.748066999998116
            ],
            [
              -117.42136600026404,
              48.74508699991913
            ],
            [
              -117.42180899995483,
              48.74462700017232
            ],
            [
              -117.4221160001015,
              48.744252999852975
            ],
            [
              -117.42221700038384,
              48.74408900008956
            ],
            [
              -117.42233100018666,
              48.74384399995904
            ],
            [
              -117.42203599973556,
              48.7437579997678
            ],
            [
              -117.42210400040591,
              48.74355800028322
            ],
            [
              -117.42217100035307,
              48.743458999879564
            ],
            [
              -117.4222700000873,
              48.74321899992253
            ],
            [
              -117.42255899979229,
              48.743219999860536
            ],
            [
              -117.42312799987977,
              48.7432230002669
            ],
            [
              -117.42376100043967,
              48.74322500014277
            ],
            [
              -117.42380300027246,
              48.74322600008066
            ],
            [
              -117.42379700042467,
              48.7437460000463
            ],
            [
              -117.4237920004018,
              48.744127999944546
            ],
            [
              -117.4237920004018,
              48.74416499993088
            ],
            [
              -117.42387699989233,
              48.744208999911194
            ],
            [
              -117.42395300006028,
              48.7442249997868
            ],
            [
              -117.42408000028189,
              48.74425600019763
            ],
            [
              -117.42423799956732,
              48.74432299995024
            ],
            [
              -117.4243620003142,
              48.74440199977365
            ],
            [
              -117.4244610000484,
              48.74447099975024
            ],
            [
              -117.42447799976685,
              48.744480000152286
            ],
            [
              -117.42462599990486,
              48.74456200005528
            ],
            [
              -117.42470999957044,
              48.744588000112195
            ],
            [
              -117.42474100043087,
              48.74459799981154
            ],
            [
              -117.42476200034729,
              48.744603999867095
            ],
            [
              -117.42492700020372,
              48.74462899999233
            ],
            [
              -117.42510399975573,
              48.74463599995406
            ],
            [
              -117.42529200007672,
              48.74462299993971
            ],
            [
              -117.42541299955221,
              48.74460499977759
            ],
            [
              -117.42677500003317,
              48.74461400015564
            ],
            [
              -117.42698799957019,
              48.74461300024533
            ],
            [
              -117.42699000011835,
              48.7441330001364
            ],
            [
              -117.42717099986831,
              48.7441460002775
            ],
            [
              -117.42757900029731,
              48.744356000131525
            ],
            [
              -117.42754900016007,
              48.744382000295005
            ],
            [
              -117.42890800026798,
              48.7450809999212
            ],
            [
              -117.42896099997144,
              48.74503700011196
            ],
            [
              -117.42992500006912,
              48.74553299993131
            ],
            [
              -117.4299030003278,
              48.745553000136645
            ],
            [
              -117.43005499976546,
              48.7456309999136
            ],
            [
              -117.43032299955406,
              48.74578200026167
            ],
            [
              -117.43093400037266,
              48.74591399998643
            ],
            [
              -117.43082300004457,
              48.74573399973731
            ],
            [
              -117.43076699996807,
              48.7456199999372
            ],
            [
              -117.43071799956428,
              48.745548999977736
            ],
            [
              -117.43064499976933,
              48.74544399998732
            ],
            [
              -117.4307970001053,
              48.745433999863984
            ],
            [
              -117.43128699965176,
              48.74543700013813
            ],
            [
              -117.43130000007055,
              48.74434499987605
            ],
            [
              -117.43180999970849,
              48.74434599979169
            ],
            [
              -117.43181599955628,
              48.74384000025648
            ],
            [
              -117.43220300006888,
              48.74384300003341
            ],
            [
              -117.43256299991899,
              48.74384499988461
            ],
            [
              -117.43261499979752,
              48.743351999798385
            ]
          ]
        ]
      },
      "properties": {
        "AREALAND": "1369863",
        "AREAWATER": "224527",
        "BASENAME": "Ione",
        "CBSAPCI": "N",
        "CENTLAT": "+48.7399984",
        "CENTLON": "-117.4215267",
        "FUNCSTAT": "A",
        "GEOID": "5333560",
        "INTPTLAT": "+48.7398143",
        "INTPTLON": "-117.4220303",
        "LSADC": "43",
        "MTFCC": "G4110",
        "NAME": "Ione town",
        "NECTAPCI": "N",
        "OBJECTID": 6606,
        "OID": "27890480856142",
        "PLACE": "33560",
        "PLACECC": "C1",
        "PLACENS": "02412795",
        "STATE": "53",
        "DISP_CLR": 3,
        "slug": "ione",
        "jurisdiction_key": "ione_city",
        "county_fips": [
          "53051"
        ]
      }
    }
  ]
}
