{"type":"FeatureCollection","features":[{"type":"Feature","geometry":{"type":"Polygon","coordinates":[[[-121.5633799999172,47.82095899991721],[-121.56337900009231,47.820809000127156],[-121.56337800026739,47.820713999955544],[-121.56337800026739,47.820631999889834],[-121.56337800026739,47.82054900022843],[-121.56337700044247,47.820450999970454],[-121.56337700044247,47.820322000265925],[-121.56337700044247,47.82023699995811],[-121.56337700044247,47.82014699972887],[-121.56337800026739,47.820128000069374],[-121.56337400006942,47.8173460000543],[-121.56337099969639,47.81658100029945],[-121.56333899990933,47.816593999780686],[-121.56290899973901,47.81677300019503],[-121.56229299979589,47.81715100006355],[-121.56076100033391,47.8171610002046],[-121.55974000033481,47.81722900026837],[-121.55889699971262,47.81803199979474],[-121.55864599964247,47.81815300004316],[-121.5580580001867,47.81843700011177],[-121.55776399956054,47.8184200000473],[-121.55752599990917,47.818406999816844],[-121.55739899968755,47.818150000299646],[-121.55686700030829,47.818319000259145],[-121.55643999961272,47.8187080002814],[-121.55640100015299,47.81883799987628],[-121.55633400020585,47.819059999805404],[-121.55537699978083,47.81920000007687],[-121.55502799980135,47.819246999712824],[-121.55382299967927,47.8194090002881],[-121.55371899992218,47.81944000009479],[-121.55209899969836,47.819918000258326],[-121.54979999978221,47.82092400016583],[-121.54952199994786,47.82109699977556],[-121.54833199989437,47.82183299986157],[-121.54804300018935,47.82188599978873],[-121.54804599966411,47.822438999863635],[-121.54804599966411,47.822465000111535],[-121.54804700038733,47.822560000094704],[-121.54804700038733,47.82258200016125],[-121.54804800021225,47.822736999790095],[-121.54804900003714,47.82290999999274],[-121.54804999986206,47.82305600026258],[-121.54804999986206,47.82306699989033],[-121.54804999986206,47.82318899988243],[-121.54805099968698,47.8233170002877],[-121.5480520004102,47.823511000026976],[-121.54805700043306,47.82427000021942],[-121.54805700043306,47.82430300013338],[-121.54805700043306,47.82433500002993],[-121.54805800025798,47.82443200019889],[-121.54805800025798,47.824561999935895],[-121.54805999990779,47.8247860000922],[-121.54805999990779,47.824874000147624],[-121.5480609997327,47.82496899994401],[-121.54806199955763,47.825253000120675],[-121.54829099988648,47.82516200016316],[-121.54846699961357,47.8250920002729],[-121.54856200004812,47.82505299975885],[-121.54867599985094,47.82500799991806],[-121.54878200015617,47.8249659999912],[-121.54888699973814,47.8249230000453],[-121.54899200021845,47.824881000049665],[-121.54909699980043,47.8248390000201],[-121.54915100022708,47.82481800029409],[-121.54920200028073,47.8247969999565],[-121.54930699986271,47.82475499985895],[-121.549412000343,47.82471299972739],[-121.549516999925,47.82467100016498],[-121.54962200040531,47.824629999956265],[-121.54972699998729,47.82458699973202],[-121.54982999991945,47.824546000060046],[-121.54993700004957,47.82450299976618],[-121.55004199963155,47.8244610000339],[-121.55014700011185,47.824419000267596],[-121.55025199969383,47.82437699986416],[-121.55035700017412,47.82433500002993],[-121.55046199975612,47.82429300016168],[-121.55056700023643,47.82425100025944],[-121.55067199981838,47.82420899972011],[-121.55077700029871,47.824166999749906],[-121.55088199988069,47.82412499974577],[-121.55098800018591,47.8240829997076],[-121.55109399959278,47.824044000244875],[-121.55120200044612,47.824005000149704],[-121.55130799985304,47.82396600002523],[-121.55141699963296,47.82392699987146],[-121.55144599994529,47.82391599982281],[-121.55144599994529,47.82396200001082],[-121.55144599994529,47.8240789997022],[-121.55144599994529,47.82411099973679],[-121.55144599994529,47.82414199975154],[-121.55144599994529,47.82430000014207],[-121.55144599994529,47.824532000164666],[-121.5514469997702,47.82458599974038],[-121.5514469997702,47.82468200005369],[-121.5514469997702,47.82480599984375],[-121.55144799959513,47.82555300012319],[-121.55164599996185,47.825485000105715],[-121.55193200019211,47.825388000095145],[-121.55204099997206,47.82535099975732],[-121.55214999975199,47.82531399999625],[-121.55252100037107,47.82518700027346],[-121.552586999595,47.82516500010466],[-121.55313200029136,47.82497899978551],[-121.55324100007131,47.82494199975927],[-121.55334800020142,47.82490600029525],[-121.55389399982435,47.82472000025429],[-121.55444100017056,47.8245330001573],[-121.55450499974467,47.82451199970441],[-121.5545509997754,47.82449599981315],[-121.55465899973044,47.82445900004578],[-121.55520500025169,47.82427300021248],[-121.55575000004973,47.824086999712684],[-121.55585899982968,47.82405000025692],[-121.55596900033285,47.8240130001716],[-121.55651199958275,47.82382799995269],[-121.55686599958507,47.823708000273236],[-121.55705599955587,47.82363700022166],[-121.55716000021125,47.82359799982071],[-121.55726899999121,47.823556999970734],[-121.55756100006926,47.82344799981497],[-121.55790400020094,47.82331999973271],[-121.55799200006447,47.82328699979694],[-121.55808300030108,47.82325299982296],[-121.55817199998954,47.823219999844646],[-121.55860299998476,47.82305899972264],[-121.55903399997999,47.82289799970445],[-121.559141999935,47.82285799992967],[-121.55924999989003,47.82281800012411],[-121.55932199986006,47.82279100002678],[-121.55978899984031,47.822617000001145],[-121.5603300003387,47.82241500027278],[-121.5604359997456,47.822375000125874],[-121.56054299987571,47.82233499994808],[-121.56108299965088,47.82213299972556],[-121.56119099960591,47.822092999964525],[-121.56129799973603,47.82205300017264],[-121.56140499986617,47.82201299974674],[-121.5614929997297,47.82198000018649],[-121.56149199990477,47.821937000179645],[-121.56148400040718,47.82135599989183],[-121.56148299968396,47.82132600007726],[-121.56148199985904,47.82126799990408],[-121.56148100003412,47.82117800025586],[-121.56148299968396,47.82110799981844],[-121.56147900038432,47.82103499970976],[-121.56148299968396,47.82095899991721],[-121.5617039996169,47.82095899991721],[-121.5633230000158,47.82095899991721],[-121.5633799999172,47.82095899991721]]]},"properties":{"AREALAND":"594869","AREAWATER":"0","BASENAME":"Index","CBSAPCI":"N","CENTLAT":"+47.8212624","CENTLON":"-121.5559291","FUNCSTAT":"A","GEOID":"5333175","INTPTLAT":"+47.8212624","INTPTLON":"-121.5559291","LSADC":"43","MTFCC":"G4110","NAME":"Index town","NECTAPCI":"N","OBJECTID":1346,"OID":"27890921610441","PLACE":"33175","PLACECC":"C1","PLACENS":"02412790","STATE":"53","DISP_CLR":4,"slug":"index","jurisdiction_key":"index_city","county_fips":["53061"]}}]}
