{"type":"FeatureCollection","features":[{"type":"Feature","geometry":{"type":"Polygon","coordinates":[[[-118.57457300009123,46.64489699989049],[-118.57517999981354,46.64352200005622],[-118.56853199958711,46.64215700026453],[-118.56874500002245,46.64165900012259],[-118.56713300019456,46.641332999900236],[-118.56712999982149,46.64117099973259],[-118.5658419998587,46.64115999995874],[-118.56583799966076,46.641083000245374],[-118.56544000017581,46.64107699985459],[-118.56353399972173,46.64104500022628],[-118.56194100016039,46.641018999743395],[-118.56147599983,46.64101099982952],[-118.56147300035525,46.640690999837425],[-118.56147300035525,46.64063799998755],[-118.56044300013531,46.64062499995826],[-118.5602439999437,46.640622000045944],[-118.55874699974353,46.64063700022261],[-118.5576539997744,46.6406519997784],[-118.55661799970666,46.64066400003676],[-118.55640199979662,46.640661999891094],[-118.55634599972012,46.640619000133455],[-118.55625700003166,46.640619999898725],[-118.55625600020674,46.64057599972486],[-118.55624199996304,46.64030200022012],[-118.55622900044258,46.640027999944564],[-118.55485000024316,46.64005599983827],[-118.55484799969504,46.64000099981304],[-118.5545489999443,46.64000699970638],[-118.55435099957758,46.64001100004606],[-118.55395200026773,46.6400190001078],[-118.55383300044204,46.64002200005355],[-118.55270100011485,46.6400410001173],[-118.55109000011187,46.640077000057474],[-118.55105900014973,46.63935500020981],[-118.55104499990604,46.639009000076605],[-118.5510359996852,46.63876200018421],[-118.54692199955156,46.63872200016799],[-118.54695400023694,46.640083999717525],[-118.54695800043488,46.640383000123656],[-118.54696400028267,46.640750000063065],[-118.54857899958529,46.64073600029762],[-118.54862299996624,46.64316999989252],[-118.54862700016419,46.643274999797356],[-118.54863100036214,46.64348100014623],[-118.54699900044278,46.64349600014699],[-118.54661199993016,46.64350000022869],[-118.54579500014556,46.643507000062684],[-118.5458040003664,46.643730999821415],[-118.54585299987188,46.64483100020851],[-118.54585799989475,46.64496999975331],[-118.54586200009273,46.645082000111664],[-118.54588100035927,46.645573000014394],[-118.54589300005486,46.64590299987649],[-118.5459380002607,46.647051000199944],[-118.55093699995099,46.64694199978014],[-118.55363500007532,46.64687699977602],[-118.553649000319,46.64687699977602],[-118.55366799968729,46.64687600012637],[-118.55388399959733,46.64687100002789],[-118.5538789995745,46.646750999991525],[-118.55401699966674,46.646758000021514],[-118.55434599955471,46.64678400021306],[-118.55456599966273,46.64680200010119],[-118.55476200037964,46.64684999997904],[-118.55479800036464,46.64684899971224],[-118.55615499992442,46.64681499987958],[-118.55655699960732,46.64680700020605],[-118.55654499991174,46.64655399974522],[-118.55651700032266,46.64598499969441],[-118.55775599988164,46.645980999796436],[-118.5578179998059,46.645980999796436],[-118.5580909996174,46.64598000013023],[-118.55891400014809,46.6459760002319],[-118.56077799987108,46.6459760002319],[-118.56071900031986,46.64474299989057],[-118.5607290003656,46.64468199970526],[-118.5606189998624,46.642582000236594],[-118.5605970001211,46.642202999858114],[-118.560273000256,46.64220700003548],[-118.56025999983721,46.64193300015613],[-118.5604489999831,46.64193300015613],[-118.5605669999839,46.64193599999576],[-118.56077200002328,46.64194399977286],[-118.56106400010133,46.64196499987594],[-118.56149900029452,46.642012999728614],[-118.56152100003581,46.642016999919974],[-118.56153799975426,46.642037999994756],[-118.5616459997093,46.642087000137536],[-118.56375200017995,46.64252100008157],[-118.5650109998304,46.64275200015407],[-118.56579099980509,46.64292099981463],[-118.56675300025296,46.64312100011392],[-118.56684299976634,46.64311200017491],[-118.56686899970559,46.64309400029243],[-118.5669950001023,46.64312100011392],[-118.56717699967717,46.643158000189985],[-118.56718000005023,46.643178999821885],[-118.56717400020243,46.64322899988175],[-118.56715699958566,46.643274999797356],[-118.56712499979864,46.643335999718964],[-118.5671159995778,46.64335299980617],[-118.56709800003443,46.64339199976843],[-118.56703399956203,46.64345199984519],[-118.56704100013306,46.64348500022905],[-118.57453399973318,46.64499699987193],[-118.57457300009123,46.64489699989049]]]},"properties":{"AREALAND":"983394","AREAWATER":"0","BASENAME":"Kahlotus","CBSAPCI":"N","CENTLAT":"+46.6432208","CENTLON":"-118.5561386","FUNCSTAT":"A","GEOID":"5334575","INTPTLAT":"+46.6432208","INTPTLON":"-118.5561386","LSADC":"25","MTFCC":"G4110","NAME":"Kahlotus city","NECTAPCI":"N","OBJECTID":4732,"OID":"27890246554180","PLACE":"34575","PLACECC":"C1","PLACENS":"02410159","STATE":"53","DISP_CLR":3,"slug":"kahlotus","jurisdiction_key":"kahlotus_city","county_fips":["53021"]}}]}
