{"type":"FeatureCollection","features":[{"type":"Feature","geometry":{"type":"Polygon","coordinates":[[[-122.92409099958655,46.144498000149355],[-122.92391200038473,46.14446300000456],[-122.92311300014349,46.144308000162724],[-122.92300699983826,46.14428800019151],[-122.92203799971772,46.14409999985789],[-122.92108700003881,46.14391600027372],[-122.92088899967209,46.143877000232095],[-122.92029600019346,46.14376299990423],[-122.92009899965166,46.143724999949924],[-122.91990500038122,46.14368599977304],[-122.91932500042307,46.14356999989746],[-122.91913200007924,46.14353199980997],[-122.91894200010844,46.143493999696226],[-122.91837300002095,46.14337999982004],[-122.91818399987507,46.14334299980406],[-122.91797700018584,46.14330399997893],[-122.91735600021983,46.14318999970932],[-122.91714899963226,46.143153000188015],[-122.9168289999651,46.143087000240044],[-122.91587200043845,46.142891999931415],[-122.91569599981302,46.14285599979896],[-122.91563700026178,46.142843999749545],[-122.91476600005053,46.14267499981345],[-122.91481700010416,46.142558000080406],[-122.91502399979339,46.14217200027785],[-122.91593799966236,46.14047100020207],[-122.916501999727,46.139859000203096],[-122.91659499961341,46.1395390000746],[-122.91677299988862,46.13892299978888],[-122.91690500013311,46.138473000102714],[-122.91699700019461,46.138151999714275],[-122.91715399965516,46.137589999901365],[-122.91721300010468,46.137381000048386],[-122.9173050001662,46.13709000029904],[-122.9173689997403,46.13692300014624],[-122.91750199980969,46.136639999949836],[-122.91763700042722,46.136353999800214],[-122.91785099978912,46.13590099989288],[-122.91787099988063,46.135859000005425],[-122.91808500014088,46.13550100025709],[-122.9183250003404,46.1350990001236],[-122.91870899958161,46.134415999843974],[-122.91897600044366,46.13389699979787],[-122.91927400036947,46.1333069999461],[-122.919578999968,46.132796999845056],[-122.92032799998051,46.130818000275404],[-122.92035100044507,46.130757999957616],[-122.92044799963114,46.13025300024392],[-122.9206920000286,46.12948600012731],[-122.92072299999076,46.12921699989424],[-122.92077599969421,46.1287650002681],[-122.9208040001816,46.12850299981973],[-122.92083099994576,46.12818900006915],[-122.92087100012874,46.12772599973296],[-122.92081199967919,46.127217000122116],[-122.92079099976279,46.127032000274845],[-122.92079300031095,46.126676000190244],[-122.92079499996076,46.126339999944676],[-122.92078400009011,46.126047999860454],[-122.9207420002573,46.125646999736404],[-122.92070399972418,46.12528200024532],[-122.92069600022654,46.125209000056905],[-122.92068100015794,46.12483199991509],[-122.92059300029437,46.1244650001592],[-122.92038300023212,46.123595999885275],[-122.91971799988517,46.122506999838265],[-122.91915399982054,46.12179999975901],[-122.91893100023779,46.1215210002105],[-122.91830299970077,46.120887999705076],[-122.91791500026156,46.12050299992307],[-122.91772799976549,46.120353999867625],[-122.91679800000297,46.11960999978405],[-122.91636500035794,46.11932999971506],[-122.91591300044632,46.11903699981391],[-122.9156590000031,46.11887199976404],[-122.91550599984222,46.11877799987697],[-122.91506700034942,46.1185379999281],[-122.91475500017988,46.118367000050675],[-122.91387200027302,46.1180170002528],[-122.91321299977386,46.11775599979084],[-122.91244899969271,46.11752300009236],[-122.91130800004302,46.117190000229506],[-122.91112899994285,46.117145000228334],[-122.90982300043673,46.1168599997826],[-122.90965799968198,46.11681199994926],[-122.90908899959446,46.116699999760314],[-122.90827299963478,46.11652199993685],[-122.90780499982964,46.11641999984886],[-122.90718899988651,46.11628599978817],[-122.90623499983454,46.11607800011735],[-122.905421000423,46.115901000231204],[-122.90490800041201,46.115787999978444],[-122.90453900034107,46.11570799971447],[-122.90407999985844,46.11560700007161],[-122.90262299984123,46.11528799984833],[-122.90166200011657,46.115070999929486],[-122.90141900044235,46.11501400017928],[-122.90140299965051,46.11502100021732],[-122.90070999971445,46.11486699979762],[-122.89946299975955,46.11455200006133],[-122.8985999999442,46.114259000285664],[-122.89781300029682,46.11393300017947],[-122.89687299959026,46.11345699986938],[-122.89627300043895,46.113080000267324],[-122.89465400004005,46.11193299977572],[-122.89435100009136,46.11171999971841],[-122.89343999969711,46.11022199990994],[-122.89333799958986,46.11005300012967],[-122.89255199976739,46.10876100010108],[-122.89176699976983,46.10746900030534],[-122.89175699972412,46.107455000178334],[-122.89173900018075,46.107421999998344],[-122.89173199960975,46.10741099993397],[-122.89173300033296,46.1073519998909],[-122.8917349999828,46.10724900003382],[-122.89172800031012,46.10710599982245],[-122.89172699958688,46.10709099998785],[-122.89171499989132,46.10695999976404],[-122.89171900008925,46.10690099986102],[-122.89173099978483,46.10675799999254],[-122.89177500016575,46.10620200025822],[-122.89315699983987,46.104500999735315],[-122.89361899979725,46.103934000146666],[-122.89682099971172,46.102590999855316],[-122.89970200013414,46.10138500013727],[-122.90678499965546,46.09964100001142],[-122.90681999981555,46.09963300013804],[-122.91014099955572,46.09874599989285],[-122.91080599990266,46.098568000013714],[-122.91280299969502,46.098034999822794],[-122.91346899986691,46.09785799992294],[-122.90869000028462,46.094845000068396],[-122.8999449998084,46.09238499991042],[-122.89063199996794,46.08873200011519],[-122.88413600007746,46.0867329999636],[-122.87896099976174,46.08466299999324],[-122.87672299994497,46.08334500003661],[-122.87423099968497,46.083351999734745],[-122.87038299969011,46.08336799984249],[-122.86926399978172,46.083372000024504],[-122.86773599961943,46.083352999780544],[-122.86728200005797,46.08335000026614],[-122.86674599958243,46.08335399982633],[-122.86702000011715,46.08407600012153],[-122.86827600029288,46.08730899988601],[-122.86855400012725,46.088023999780745],[-122.86889200023603,46.08863600001107],[-122.86940699989684,46.08978499979083],[-122.86943500038423,46.089860000037426],[-122.86943799985899,46.089870999865674],[-122.86947999969179,46.090022999872765],[-122.86957400030143,46.09061600011728],[-122.86959799969256,46.09076500020608],[-122.86962000033219,46.090906999907716],[-122.86962299980691,46.09092199978467],[-122.86963500040079,46.091104000292326],[-122.86962500035506,46.09128500029742],[-122.86961600013422,46.0913370001615],[-122.86959199984477,46.091480000157944],[-122.8695869998219,46.09151000021905],[-122.86958599999697,46.091562999768016],[-122.86958500017208,46.09163499977893],[-122.86960500026356,46.091758999785014],[-122.86962199998199,46.091809000040236],[-122.86964899974619,46.09188900010505],[-122.86966999966256,46.09193199976486],[-122.8697409998077,46.09204700011021],[-122.86975599987628,46.09206499996377],[-122.86983200004428,46.09215499976656],[-122.87020399958998,46.092493000150874],[-122.87035799957575,46.0926320001317],[-122.87023999957498,46.092747000263415],[-122.86993300032661,46.09302499984038],[-122.86962299980691,46.092993000238344],[-122.86961699995913,46.093344999823664],[-122.8696069999134,46.09402699986883],[-122.86952700044576,46.09402799972115],[-122.86942000031564,46.094080000113834],[-122.86935900021628,46.09412200008373],[-122.8692989999418,46.09419899973778],[-122.86919500018473,46.09448400024847],[-122.86902600013033,46.09481700025146],[-122.86858599991427,46.09572299988634],[-122.86857199967059,46.09576499985083],[-122.86833200036939,46.09650499994048],[-122.86826899972188,46.0965530000175],[-122.86815099972111,46.096642999971465],[-122.86749200012025,46.09663900012892],[-122.86725000027091,46.096636999896035],[-122.86727799986002,46.096832000144126],[-122.86745799978506,46.09746699997449],[-122.8674889997472,46.0975760000174],[-122.86750200016598,46.09762099980087],[-122.86758599983156,46.09776299991484],[-122.8576119998421,46.09774500005222],[-122.85730899989339,46.09774400026734],[-122.85729600037295,46.09921900027896],[-122.85727999958108,46.1012929997617],[-122.85946700024256,46.10129600016907],[-122.86228400019257,46.10129899995334],[-122.86227199959868,46.10275099973019],[-122.86223300013897,46.10482900013464],[-122.86223099959084,46.10497099974784],[-122.86721199973775,46.10497500023164],[-122.8672219997835,46.11218499972772],[-122.86741099992939,46.1121859998735],[-122.86852700036303,46.11219099997942],[-122.86968100043157,46.11219600008489],[-122.8708260002792,46.11220100018992],[-122.87312600002029,46.11221099977583],[-122.87541700043883,46.112220999982654],[-122.87747500033055,46.11224000024611],[-122.87747600015545,46.11229200027815],[-122.87748200000324,46.11291499981681],[-122.87760000000401,46.11608399994522],[-122.87760900022485,46.116766000199426],[-122.87764299966172,46.11789799972788],[-122.87767899964675,46.1191259997829],[-122.8776900004157,46.119491000208775],[-122.87459300008321,46.11947499999511],[-122.86738599981503,46.11943200002058],[-122.86754399999877,46.12667999972132],[-122.86714399996569,46.13024099993796],[-122.86671700016842,46.13404599995301],[-122.86673300006198,46.13767000013847],[-122.86765199995384,46.13766499985472],[-122.87741000003321,46.13770300025688],[-122.87757599971458,46.13770399993949],[-122.87760000000401,46.13643100022605],[-122.87845000029888,46.1364290001921],[-122.87846000034465,46.13588099998011],[-122.88154900028121,46.13587200004812],[-122.88180700002408,46.136072999838944],[-122.88230300031664,46.13613299996881],[-122.88266700036469,46.13617699969051],[-122.88298500038204,46.136214999874554],[-122.88314299966744,46.13623399995675],[-122.8833019996761,46.136253000032376],[-122.88363300011221,46.13629300020298],[-122.88416600021469,46.13635700016645],[-122.8844359996531,46.13612800016799],[-122.88461200027852,46.13597900004358],[-122.88474899964756,46.13586199977613],[-122.88795599958489,46.13580499974729],[-122.88794899991221,46.135391000159174],[-122.88795099956205,46.13521199998844],[-122.88818300026394,46.135207000104],[-122.89024000033075,46.13521899995041],[-122.89083199998447,46.13522000030062],[-122.89089499973366,46.13522000030062],[-122.89097199972656,46.13522000030062],[-122.89188300012079,46.13517599981427],[-122.89188499977062,46.1338589998818],[-122.8918839999457,46.133833000087925],[-122.89188899996857,46.13221800013232],[-122.89255599996537,46.132216999727575],[-122.89367999989663,46.13221399975832],[-122.89373400032329,46.13221399975832],[-122.89406300021126,46.13272799999235],[-122.89428999999198,46.132727000219404],[-122.89459200011578,46.132727000219404],[-122.89508500003528,46.132956000042675],[-122.89544599971029,46.133182000242336],[-122.89544700043352,46.13323099989606],[-122.89544999990825,46.133299999741105],[-122.89572799974262,46.13335900001823],[-122.89571799969686,46.13385399987451],[-122.8960220003688,46.134127999853874],[-122.89587199968265,46.13412599973628],[-122.89602599966844,46.13440199971502],[-122.89606500002648,46.13440099997242],[-122.89650199986949,46.13440700029501],[-122.89649299964867,46.13482000007574],[-122.89649199982375,46.134892999977154],[-122.89654299987738,46.13493900015526],[-122.89654299987738,46.134983000208415],[-122.89654299987738,46.13510800018193],[-122.89654299987738,46.135241999908075],[-122.89663400011398,46.13524300025788],[-122.89689000020702,46.13524600006213],[-122.89710199991912,46.13524800013905],[-122.8971079997669,46.135269000008584],[-122.89714700012499,46.13540599976102],[-122.89720499985128,46.13566200017978],[-122.89721599972194,46.13570799971552],[-122.89723099979057,46.13579500008563],[-122.89725799955472,46.13594899990294],[-122.8972690003237,46.13601100021707],[-122.89728500021721,46.13614399990253],[-122.89730699995853,46.136315999712096],[-122.89730899960837,46.13634900001946],[-122.89709100004846,46.13634499994552],[-122.89684199962812,46.1363409998713],[-122.89660999982455,46.13633899983408],[-122.8965150002883,46.13633800012669],[-122.89651799976302,46.13631500000428],[-122.89653299983165,46.13613500001351],[-122.89581099958329,46.136122000032906],[-122.89565599977259,46.13630800018164],[-122.89570900037435,46.13631900008039],[-122.89573299976549,46.13632399986387],[-122.8958480002915,46.13635999991001],[-122.89594200000285,46.136402000037904],[-122.89596700011721,46.13641299991788],[-122.89608099992004,46.136482000133554],[-122.89620200029384,46.13657099993214],[-122.89624300030174,46.136600999733965],[-122.89628299958638,46.136635999897045],[-122.89626400021814,46.13664899975631],[-122.89619499972284,46.136694000011595],[-122.8959310001322,46.136869000309005],[-122.89584400009358,46.136927999874885],[-122.89571699987196,46.13701199985457],[-122.89553799977182,46.13710300005113],[-122.895283000402,46.1371760000385],[-122.89520499968587,46.137202999813184],[-122.89482700029242,46.137335999732045],[-122.8946289999257,46.137476999936375],[-122.89438100022858,46.137623999751774],[-122.89419299990762,46.13770300025688],[-122.8940869996024,46.13772999977317],[-122.89398500039344,46.137737999719526],[-122.89324600042667,46.137731000077764],[-122.89323300000785,46.13772999977317],[-122.89295099997558,46.13772700010423],[-122.89274500011125,46.13769799997613],[-122.89270900012625,46.13768499974204],[-122.89259600014832,46.13768000008213],[-122.89250599973664,46.137676999787985],[-122.89196199976351,46.13765800020368],[-122.89181299980059,46.13765200023532],[-122.89168999977696,46.137648000256036],[-122.89175500007428,46.137697000293414],[-122.89178199983846,46.137717000169104],[-122.8918139996255,46.137744000301005],[-122.89186700022726,46.13778999996497],[-122.8918839999457,46.13780399985508],[-122.89194599987,46.13785699971803],[-122.89201700001509,46.13791800007264],[-122.89205499964993,46.137951999720535],[-122.89208200031243,46.13797800005959],[-122.89210499987864,46.137999999810184],[-122.8924320001168,46.13837100019377],[-122.89256099998823,46.13854299989431],[-122.89268499983679,46.13868800002425],[-122.89273000004262,46.13869399987974],[-122.89299299980837,46.13872700000694],[-122.89305399990774,46.13873600009478],[-122.89382800003465,46.13885600008798],[-122.89434799971828,46.138937000013385],[-122.89521100043197,46.13907000010118],[-122.89507599981444,46.13914400024959],[-122.89500100036967,46.139193000200635],[-122.89496700003451,46.13920999994481],[-122.89471199976636,46.13934199972027],[-122.8945670000014,46.139430999876],[-122.89467300030662,46.139622999805944],[-122.8942709997254,46.139812000133475],[-122.89381100031619,46.1398529998521],[-122.89362899984299,46.139831999863425],[-122.89336600007726,46.13980199995455],[-122.8931350000986,46.13964599979156],[-122.89196699978638,46.13831499994371],[-122.89165200014212,46.13803700030462],[-122.89161199995917,46.13801499994632],[-122.89138400035351,46.137893000006905],[-122.8911020003212,46.13774299999664],[-122.89072200037963,46.137625999742326],[-122.89023000028503,46.13777200010104],[-122.88959099987733,46.13810399975713],[-122.88878800033646,46.13865099996731],[-122.88829600024184,46.1389860001486],[-122.88796999982863,46.13920800001179],[-122.88790799990434,46.13924999983472],[-122.88790399970637,46.13965299981234],[-122.88790299988148,46.13974099981976],[-122.88758499986416,46.14008399982179],[-122.88742699968039,46.14034799984532],[-122.88730100018203,46.1408950001707],[-122.8872509999533,46.141116999806094],[-122.8872369997096,46.14118099976469],[-122.88723599988468,46.14119699989834],[-122.88687000018679,46.141193999795824],[-122.88660300022312,46.141191999934875],[-122.88635200015294,46.14119699989834],[-122.88618399992343,46.14120000000068],[-122.88554200004104,46.1411960002791],[-122.88553899966799,46.141421000036004],[-122.88478999965542,46.14200900026282],[-122.88452100004191,46.142210000059244],[-122.88419899982665,46.14236899984281],[-122.88381899988504,46.14251200004282],[-122.88349099982199,46.14261000013079],[-122.88318399967534,46.142659999701955],[-122.88295199987174,46.14267499981345],[-122.88285700033549,46.1424799999128],[-122.88272400026612,46.14220700001193],[-122.88261600031106,46.1421910001718],[-122.88246999982289,46.14215599980513],[-122.88233299955554,46.14210500017354],[-122.88216000020148,46.142028999817164],[-122.88201899973618,46.14198499979219],[-122.88162899974883,46.14181200003214],[-122.88070300018428,46.141425999978665],[-122.88056799956675,46.14136999972358],[-122.88050599964248,46.14134699983568],[-122.88048100042646,46.14129699969448],[-122.88021199991462,46.14130200027084],[-122.87955800033666,46.141312999794415],[-122.87752399983603,46.14134800007457],[-122.87751700016335,46.141692999867225],[-122.87741800042916,46.14168699971609],[-122.87712600035111,46.1416680002706],[-122.87423599970782,46.141572999832746],[-122.87417899980645,46.14226400026035],[-122.87416799993578,46.142399999817584],[-122.87413100012586,46.14285599979896],[-122.87410900038455,46.14312399980571],[-122.87405900015582,46.1436229998119],[-122.87411299968417,46.143616999871114],[-122.87423599970782,46.14360600018549],[-122.87431600007378,46.14359099970529],[-122.87438399984583,46.143580000014424],[-122.87441200033325,46.14357500026737],[-122.87542900013437,46.14333399984686],[-122.87550199992933,46.1433170001312],[-122.87569899957282,46.1432810002766],[-122.87588199987091,46.14326699991182],[-122.87606599999393,46.14327100010533],[-122.87624599991899,46.14329300023072],[-122.87637800016347,46.14332099969865],[-122.87652600030148,46.14336499990068],[-122.876682999762,46.143429999936735],[-122.87722900028325,46.14374099996665],[-122.8773599998045,46.143813000295495],[-122.87743400032265,46.14385400014674],[-122.87747100013257,46.1438749998462],[-122.87744799966808,46.14493399982136],[-122.87496899982685,46.14490800027748],[-122.87465199963442,46.145884999977326],[-122.87428699976145,46.147018000018896],[-122.8742809999137,46.14703800024304],[-122.87425999999729,46.14731499973712],[-122.87415799989002,46.147526000099255],[-122.87416200008799,46.14759100020127],[-122.87417600033169,46.1479509999987],[-122.87439200024176,46.14837699983965],[-122.87406699965344,46.1483810002842],[-122.87406699965344,46.14849400027513],[-122.87406699965344,46.14854000029313],[-122.87406900020157,46.148669999892626],[-122.8739930000336,46.148670999998416],[-122.87399399985848,46.148731000091914],[-122.87399600040663,46.14887600015156],[-122.87309800043118,46.14888399972309],[-122.8729600003389,46.14888499982504],[-122.8729600003389,46.14885800017779],[-122.87295399959282,46.14848100010073],[-122.87295500031604,46.14839499997072],[-122.87266800026089,46.14839899979161],[-122.87265300019226,46.14919399996205],[-122.87271500011653,46.14919299986571],[-122.87271799959126,46.14935799995649],[-122.87272599998718,46.149776000047126],[-122.87273000018516,46.14997299978429],[-122.87273299965986,46.15010399981312],[-122.87273799968276,46.15037200000752],[-122.8727069997206,46.15058299985315],[-122.87270199969772,46.150618999911195],[-122.87269699967486,46.15065100028876],[-122.8723879998784,46.15065100028876],[-122.87201700015763,46.15065100028876],[-122.87201200013476,46.15211699977486],[-122.87277000036813,46.152118999861266],[-122.87729500040548,46.15213099975573],[-122.87729399968228,46.152188999727585],[-122.87734999975875,46.152190999811374],[-122.87744400036841,46.152190999811374],[-122.87851700024605,46.152201000229155],[-122.87851800007094,46.152132999841626],[-122.87831800005443,46.15192699994866],[-122.87830800000869,46.1515460001418],[-122.87829899978784,46.15123999969542],[-122.87855499988089,46.15114600027831],[-122.88076400028366,46.15033599978792],[-122.88096699977494,46.1504600003069],[-122.88125899985299,46.15063800000148],[-122.88174400027489,46.15031299991188],[-122.88246200032529,46.150739000142096],[-122.88253099992227,46.15079199999998],[-122.88253099992227,46.150843999740545],[-122.88253500012021,46.150897000119656],[-122.88254000014311,46.15094400006091],[-122.88253599994513,46.15101099998719],[-122.88253299957208,46.1510610000184],[-122.88252900027244,46.15111500024999],[-122.88252800044752,46.15117300004789],[-122.88252500007448,46.15125800013487],[-122.88252099987652,46.15131000005744],[-122.88252400024955,46.15137500004715],[-122.88253000009735,46.15144699972598],[-122.88253599994513,46.15151699982468],[-122.88254599999087,46.1515869998344],[-122.88255000018884,46.15165000001592],[-122.88255000018884,46.15170799987236],[-122.88253699977005,46.15175799989264],[-122.88254000014311,46.151837000031286],[-122.88255199983865,46.152172000257174],[-122.88390400027386,46.15217300029938],[-122.88411400033614,46.15217399971926],[-122.88419200015396,46.15217499976143],[-122.88476799991413,46.15217399971926],[-122.88484699955686,46.15217499976143],[-122.88508900030448,46.15217599980358],[-122.88508799958126,46.15219700006224],[-122.88507000003793,46.15268500023061],[-122.8850819997335,46.15272699972917],[-122.88508900030448,46.15277500000584],[-122.88509299960414,46.152823000240645],[-122.88509900035024,46.15288700028118],[-122.88510900039597,46.152965000016025],[-122.88511299969564,46.1530739998273],[-122.88511600006869,46.153128999975586],[-122.88512399956629,46.15323500001571],[-122.88513299978712,46.15343699991444],[-122.88513600016016,46.15348100012057],[-122.88515700007656,46.15368899982691],[-122.88515500042675,46.15372799976211],[-122.88515600025164,46.15374499999647],[-122.8851520000537,46.1538839998488],[-122.88519800008443,46.15489499992307],[-122.88521399997796,46.155142000063265],[-122.88521300015306,46.15515199994483],[-122.88522099965064,46.1554030001102],[-122.88522900004659,46.15571199974562],[-122.88076599993347,46.15572700003416],[-122.8807590002608,46.156942999826754],[-122.88075800043589,46.1571990002891],[-122.88075400023793,46.15789199983312],[-122.88075300041301,46.157981999804285],[-122.88122299986799,46.15798600017292],[-122.88166800010691,46.15798899998255],[-122.88204300002562,46.15799199979197],[-122.88232199968488,46.15798899998255],[-122.88241899976926,46.157988000046025],[-122.88241700011945,46.15806500008281],[-122.88240899972352,46.159321000095346],[-122.88266599964149,46.15932000018303],[-122.88294699984887,46.1593179997361],[-122.88321800001053,46.15931699982378],[-122.88337299982122,46.15931599991138],[-122.88349400019504,46.15931599991138],[-122.88389300040323,46.159314000086546],[-122.88501399996142,46.15930999981446],[-122.88764400031368,46.15929300005479],[-122.88764400031368,46.15681599972905],[-122.88764599996351,46.15630600020652],[-122.88764799961335,46.15570299994389],[-122.88767000025295,46.1544880001306],[-122.88773700020009,46.154493000131005],[-122.88785199982783,46.15450200013062],[-122.8881099995707,46.15431699984267],[-122.88822500009672,46.15429499976703],[-122.88845199987746,46.1542530002205],[-122.88854999978676,46.1542190000604],[-122.88864500022132,46.15411700007629],[-122.88864799969602,46.154108000013714],[-122.8886510000691,46.154093999913464],[-122.88865299971891,46.1540799998096],[-122.88865299971891,46.15406000027737],[-122.8886510000691,46.15404300014033],[-122.88864600004624,46.15400399980606],[-122.88886899962898,46.15399499972499],[-122.88906500034587,46.15400499981497],[-122.88977699965018,46.15401999994657],[-122.89007899977398,46.15402599999802],[-122.89040299963908,46.15401999994657],[-122.89038099989779,46.1534599997296],[-122.89038300044591,46.15328199982728],[-122.89045399969271,46.153288999981136],[-122.89079500017455,46.15332700017857],[-122.89095599983301,46.153341999872666],[-122.89172400011215,46.15342599970182],[-122.89174699967836,46.15393599977946],[-122.89269499988254,46.153915000184355],[-122.89286399993694,46.15391100014203],[-122.89289400007415,46.15312299982627],[-122.89293099988407,46.152132999841626],[-122.89329499993215,46.15213599997032],[-122.89391500007325,46.152143000269945],[-122.89467199958341,46.152152000031556],[-122.89640399996023,46.152172000257174],[-122.89694999958319,46.152228000103456],[-122.89699099959105,46.15225199984233],[-122.89728400039232,46.15222600002101],[-122.89730299976058,46.152224999979765],[-122.89763699967142,46.15222299989726],[-122.89816800012406,46.15223000018582],[-122.89822900022344,46.152231000226976],[-122.89846299967685,46.152235999810124],[-122.89845600000416,46.152441999791186],[-122.8984500001564,46.15261899988701],[-122.8984500001564,46.153060000086306],[-122.8984500001564,46.153267000116834],[-122.8984500001564,46.15332700017857],[-122.8984500001564,46.15346599984211],[-122.8984500001564,46.15350799998926],[-122.8984500001564,46.153568999805046],[-122.8984500001564,46.153714000187435],[-122.8984500001564,46.15372399970618],[-122.89844099993553,46.15382099973539],[-122.89841599982118,46.15390000002415],[-122.89831299988901,46.15412300011723],[-122.89830700004123,46.15413800021661],[-122.89828600012486,46.154218000055366],[-122.89828199992688,46.154264000267816],[-122.89826900040642,46.15441300006972],[-122.8982629996603,46.154498000131],[-122.8982529996146,46.15464999991323],[-122.89823500007122,46.15479099995816],[-122.89821599980465,46.15485800017945],[-122.89819900008622,46.15492099972802],[-122.8981699997739,46.155001000295385],[-122.89814800003259,46.15575599999961],[-122.89798200035123,46.15575500002256],[-122.89795700023689,46.157798999894915],[-122.89790899965799,46.16158299976569],[-122.89786099997741,46.16497200018334],[-122.89785599995454,46.165119999803146],[-122.89781199957359,46.16642400009472],[-122.89855100043872,46.166433999792396],[-122.89860599979198,46.16643500019759],[-122.89866299969339,46.16643599998059],[-122.89866299969339,46.16434399982227],[-122.89866299969339,46.16430000021378],[-122.89990299997561,46.16432299984386],[-122.89988200005921,46.16487199984487],[-122.90084600015689,46.16489000018054],[-122.90148800003934,46.16490099996797],[-122.90149600043524,46.16469599977827],[-122.9021829996252,46.164708000041045],[-122.90212099970093,46.16436399997201],[-122.90272999997137,46.1643789997685],[-122.9032320001117,46.16438599975508],[-122.90376699986399,46.16439500000315],[-122.9042520002859,46.164402999807606],[-122.90408599970623,46.16332300012447],[-122.90405499974409,46.163210000093216],[-122.90398399959898,46.16284500006946],[-122.90391900019995,46.16253200000911],[-122.90386800014632,46.16228699978094],[-122.90382299994047,46.16207000021432],[-122.90377799973466,46.16185199992551],[-122.90373300042712,46.16163499988758],[-122.90368700039639,46.16141199974823],[-122.90365100041136,46.16122599979167],[-122.90361899972598,46.161065999841036],[-122.90355500015187,46.16076600000177],[-122.90353599988532,46.160673999831175],[-122.903506999573,46.16053200003693],[-122.90351699961874,46.16051799970433],[-122.90379199997834,46.16017900029684],[-122.90369599971889,46.1597249998946],[-122.90327200029466,46.15922199997695],[-122.90515899958386,46.15924300003581],[-122.90584200037249,46.15925000005364],[-122.90601200025179,46.159244999863226],[-122.90639399984322,46.15925700007059],[-122.90641700030774,46.15931099972691],[-122.90652500026277,46.15931099972691],[-122.90653600013343,46.15947199971288],[-122.90651699986685,46.15954499990687],[-122.90651199984399,46.1595640000267],[-122.90643999987395,46.159622000253705],[-122.9063210000483,46.15965999981139],[-122.9061610002147,46.15966599987014],[-122.90613799975017,46.15966699977617],[-122.9060969997423,46.159669000210414],[-122.90603900001595,46.159668000304414],[-122.90595899965003,46.15966699977617],[-122.90596600022103,46.16004199996574],[-122.9058160004332,46.16006099991395],[-122.90584599967212,46.16017099987811],[-122.90591199979437,46.16041399978882],[-122.905934000434,46.16049499972797],[-122.90597700009168,46.160655999982716],[-122.9059920001603,46.16071100001975],[-122.90603700036615,46.160875999800915],[-122.90609500009245,46.161090000081096],[-122.90610900033617,46.161140000288256],[-122.90614100012323,46.161259999977844],[-122.90617399973517,46.16138199977766],[-122.9061889998038,46.161435999837316],[-122.90623900003251,46.16162400006928],[-122.90628300041344,46.16178599999882],[-122.90630500015476,46.161865999918646],[-122.90633000026911,46.16196100017791],[-122.90636999955376,46.162107999947935],[-122.9064149997596,46.16227399975358],[-122.90640899991182,46.16230200014373],[-122.90639600039134,46.1623550000654],[-122.90636299988108,46.16250100017258],[-122.90633699994179,46.162612999941075],[-122.90636799990392,46.162642000010614],[-122.90642999982822,46.16270000010388],[-122.90693899964123,46.16317699970992],[-122.9076659999125,46.16318300000732],[-122.90771299976812,46.16316300005043],[-122.90779300013408,46.163127000109625],[-122.907393000101,46.16195300001831],[-122.907357000116,46.161845000238706],[-122.9073010000395,46.16168500022167],[-122.90724199958996,46.16151100028157],[-122.90718200021382,46.16133800028907],[-122.90713500035814,46.161198999976506],[-122.90713299981,46.16117899992054],[-122.908779999798,46.161198999976506],[-122.90880300026252,46.16098000008754],[-122.90885799961579,46.160514000141966],[-122.90891899971515,46.159914000274604],[-122.90894999967732,46.15961500028319],[-122.90895499970017,46.1595630001188],[-122.90895800007321,46.15954300009036],[-122.9089699997688,46.15946399981363],[-122.9089770003398,46.15934200011641],[-122.90898300018759,46.15928899978118],[-122.90898800021046,46.159246999690566],[-122.90918999987684,46.15925000005364],[-122.90937999984762,46.15925299979436],[-122.9095689999935,46.159255000243604],[-122.91013700025607,46.159262000259915],[-122.91032700022687,46.15926499999998],[-122.910398000372,46.15926499999998],[-122.91061299955884,46.15926799973988],[-122.91068500042716,46.15926900027534],[-122.91080599990266,46.15927000018858],[-122.91117199960057,46.159274999754544],[-122.91129399979931,46.159277000202984],[-122.9115590001132,46.15927999994223],[-122.9123569996312,46.15928999969401],[-122.91262299976998,46.159293999967595],[-122.91283700003024,46.159345999763936],[-122.91309899997107,46.15934100020448],[-122.91313900015402,46.15934100020448],[-122.91323200004045,46.15934200011641],[-122.91336299956167,46.159343000028336],[-122.91375199972411,46.15934700029801],[-122.91374000002857,46.15929599979316],[-122.91372599978486,46.15923799984474],[-122.91458600012547,46.15921900023454],[-122.91464399985179,46.15921799969818],[-122.91464999969958,46.15914199994597],[-122.91464399985179,46.15878199992285],[-122.91462499958521,46.15860199996136],[-122.9146220001105,46.15838600010142],[-122.91461100023984,46.15817000001582],[-122.91461799991252,46.15795399970459],[-122.91461299988963,46.15784600016435],[-122.91461600026271,46.15759300005424],[-122.91460799986679,46.157396000213204],[-122.91457400042991,46.15703699992099],[-122.91453000004898,46.1567140002027],[-122.91449400006397,46.15649899973984],[-122.91445499970591,46.15635699974922],[-122.91442999959153,46.15621400004563],[-122.91441200004819,46.1561429997284],[-122.91437799971301,46.15592800014595],[-122.91427999980374,46.155427999692094],[-122.91424600036684,46.155286000049145],[-122.91418299971933,46.154891999944816],[-122.9141390002367,46.154693999771844],[-122.9140739999394,46.154393000036215],[-122.91406300006875,46.15432199985862],[-122.91403700012948,46.15403400006564],[-122.9140120000151,46.153890999926084],[-122.91399100009872,46.15371100014476],[-122.91394900026592,46.15349699979084],[-122.91389999986211,46.15332000002955],[-122.9138200003945,46.152962999960366],[-122.91378000021152,46.1527849996952],[-122.9137709999907,46.15264100001034],[-122.91373699965551,46.152319000043256],[-122.91372800033298,46.15223899993321],[-122.91370999989132,46.15207799994261],[-122.91370200039373,46.1520000001953],[-122.91369800019577,46.151958000141946],[-122.91368999979986,46.15192199971507],[-122.91366499968548,46.15181600025758],[-122.91362399967761,46.15158899994005],[-122.91360100011137,46.15145799971183],[-122.91356699977621,46.1511709999271],[-122.91354199966185,46.15102799981622],[-122.91353800036218,46.150631000132755],[-122.9135390001871,46.15057700004864],[-122.91354699968471,46.150270999815774],[-122.91354400020997,46.150238999839615],[-122.91370499986846,46.150240999994274],[-122.91418899956713,46.15024799991258],[-122.91435099994882,46.15025100014403],[-122.91442299991886,46.15025399975299],[-122.91464200020198,46.15026399990039],[-122.9147149999969,46.150268000207745],[-122.91495099999847,46.150264999977274],[-122.91566200037616,46.15025800006107],[-122.91589900020261,46.150256999984066],[-122.91645700041944,46.150252000221144],[-122.91813399964636,46.15023700030724],[-122.9186929996881,46.15023299999758],[-122.91894700013131,46.15023299999758],[-122.91971100021247,46.15023400007502],[-122.91996599958229,46.15023500015244],[-122.92015499972818,46.15023500015244],[-122.92072200016584,46.150236000229846],[-122.92091100031172,46.15023700030724],[-122.9210159998937,46.15023700030724],[-122.92133100043628,46.15023700030724],[-122.92143699984318,46.15023799976226],[-122.92166799982185,46.15023799976226],[-122.92236400013093,46.150238999839615],[-122.92259599993456,46.15023999991696],[-122.9227330002019,46.15023799976226],[-122.92314499993054,46.15023400007502],[-122.92328300002279,46.15023400007502],[-122.92328700022077,46.150132000173095],[-122.92328899987058,46.15008400008064],[-122.92330099956615,46.14980999984044],[-122.92330700031224,46.14963600031077],[-122.92331399998493,46.14948700002238],[-122.92337900028227,46.14936399989388],[-122.92349599955983,46.14936499998711],[-122.92351400000149,46.14845499974271],[-122.92352099967417,46.14813200006367],[-122.92354699961346,46.14691099969216],[-122.92356300040528,46.14616500012617],[-122.92356500005509,46.14605500017084],[-122.92351900002436,46.14604600003466],[-122.92345399972703,46.14603400005824],[-122.92351400000149,46.14591000014852],[-122.92355599983428,46.145822000043175],[-122.92359699984215,46.14572500023083],[-122.92377400029248,46.14529000014461],[-122.92409099958655,46.144498000149355]],[[-122.91819599957063,46.125496000086706],[-122.9183830000667,46.12589299985427],[-122.91802499986643,46.125891999957254],[-122.91576199993527,46.12587599973469],[-122.91579700009537,46.12590300006869],[-122.91176900017545,46.12587399994001],[-122.9117159995737,46.12584399989816],[-122.91153800019677,46.12573000021278],[-122.91140000010452,46.12562199970342],[-122.91123699989791,46.125620999801434],[-122.91106299982063,46.12561899999752],[-122.91011999963932,46.12483399974763],[-122.91102900038376,46.12485800022243],[-122.91148899979295,46.124861999885454],[-122.91205899970537,46.12486600017081],[-122.91231899999636,46.12486800000211],[-122.91257900028738,46.124869999833294],[-122.91284700007597,46.12487300020256],[-122.91289599958145,46.12487300020256],[-122.91470999997404,46.12488800017859],[-122.91599700011191,46.12489799995282],[-122.91629300038791,46.12489999978292],[-122.91771299969687,46.12489799995282],[-122.91798100038379,46.124897000037755],[-122.91799200025446,46.12491700020375],[-122.91807799956986,46.12518999990674],[-122.91818899989796,46.12547999974911],[-122.91819599957063,46.125496000086706]],[[-122.91556100009383,46.13298899987352],[-122.91556399956856,46.133119000089856],[-122.91542600037461,46.133124999929606],[-122.91459100014836,46.13296999991674],[-122.91360000028648,46.13278599986533],[-122.91339799972181,46.132750999745355],[-122.91279299964928,46.132647000271454],[-122.91259199980784,46.13261299983819],[-122.91239099996639,46.13257600005693],[-122.91179099991676,46.13246799989702],[-122.91159099990023,46.132431999796665],[-122.91145500035611,46.13240699973041],[-122.9111160004224,46.13234699989864],[-122.91170200022832,46.130734999994864],[-122.9114279996936,46.13073400018575],[-122.91142199984581,46.13065799969781],[-122.91141900037108,46.12976000004863],[-122.91122100000436,46.12976000004863],[-122.91107700006432,46.12975900022181],[-122.91064699989403,46.12975900022181],[-122.91050399977888,46.12975900022181],[-122.91050600032703,46.129969000187856],[-122.91051299999972,46.130600000074],[-122.91051600037275,46.13081099975405],[-122.91042000011332,46.1308099999463],[-122.91013200023319,46.1308099999463],[-122.91003599997374,46.1308099999463],[-122.90998900011807,46.1308099999463],[-122.90995599960782,46.13028000030014],[-122.90959800030582,46.13028599982662],[-122.90945000016781,46.13028899990089],[-122.90942599987838,46.12975699994555],[-122.90931200007556,46.12975699994555],[-122.90898700038554,46.12975600011867],[-122.90888600010321,46.12975600011867],[-122.90892700011108,46.130807999708196],[-122.90888699992813,46.130807999708196],[-122.90883000002671,46.130807999708196],[-122.90866199979722,46.130807999708196],[-122.90860599972072,46.130807999708196],[-122.90845799958274,46.13080699990041],[-122.90801400006701,46.13080699990041],[-122.90786699975392,46.13080699990041],[-122.90766400026264,46.13080600009254],[-122.90705699964202,46.13080500028471],[-122.90685499997564,46.13080500028471],[-122.90684800030296,46.13025400006177],[-122.90684800030296,46.130199000091714],[-122.90684400010498,46.13009399971342],[-122.90669299959394,46.13009699979814],[-122.90668000007346,46.129821999859885],[-122.90667599987552,46.12975300001536],[-122.90628699971307,46.12975300001536],[-122.90574000026523,46.12975300001536],[-122.90578299992293,46.129856999973555],[-122.90579999964136,46.13002900012001],[-122.90575799980856,46.13039000002353],[-122.90564599965558,46.130803000046434],[-122.9055550003173,46.13080200023855],[-122.90487900009968,46.13080099980808],[-122.90478899968802,46.13080099980808],[-122.90453400031821,46.13080099980808],[-122.9045409999909,46.13072800008551],[-122.90454199981582,46.13024799990921],[-122.90453099994515,46.12987300028494],[-122.90452599992228,46.129695999889115],[-122.90324800000522,46.12972400004586],[-122.9032310002868,46.129723000218384],[-122.90314300042324,46.129723000218384],[-122.90303399974499,46.12972199976833],[-122.90209499976164,46.129720999940815],[-122.90162799978143,46.12971900028574],[-122.90111499977041,46.129716000180416],[-122.90110100042504,46.129688999847666],[-122.90107899978543,46.12964599975163],[-122.90106299989188,46.12960800001524],[-122.90111499977041,46.12960300024454],[-122.90116800037218,46.129592000249446],[-122.90126299990844,46.12957500002628],[-122.90139299960477,46.12951900016959],[-122.90146499957477,46.12947999989112],[-122.90154099974278,46.12940499999634],[-122.90161400043603,46.12932600003822],[-122.9017600000259,46.12913699982835],[-122.90182899962285,46.129063999768036],[-122.9018739998287,46.12901800028584],[-122.90208200024117,46.12881599980418],[-122.90221100011259,46.12870699989607],[-122.90241100012913,46.128500000270755],[-122.90246200018277,46.12843800021655],[-122.90257799963541,46.12827699971976],[-122.9026610003744,46.128186999735874],[-122.90270499985702,46.12812199975975],[-122.9027259997734,46.12807799982823],[-122.9027380003673,46.12805400013371],[-122.90279699991854,46.12795499980478],[-122.90297500019375,46.12770799969242],[-122.90299000026236,46.127686000188284],[-122.90303499956988,46.1276229999748],[-122.90305100036173,46.127602000302716],[-122.9031390002253,46.12751400019628],[-122.90320000032466,46.127469999779045],[-122.9033939995951,46.127335999820055],[-122.9035559999768,46.12724899978367],[-122.90371300033563,46.127216000249135],[-122.9037319997039,46.12697099969093],[-122.90373000005407,46.125817000157845],[-122.90320899964716,46.12581600025945],[-122.90321299984511,46.124860000053985],[-122.90321399967003,46.1247889997631],[-122.90318799973078,46.1247889997631],[-122.90294800042957,46.1247889997631],[-122.90266300002423,46.12478699992898],[-122.90238099999192,46.12478500009474],[-122.90238099999192,46.12451500001873],[-122.90237699979394,46.124434999972685],[-122.90237699979394,46.12436600022875],[-122.90237799961886,46.12426999989991],[-122.90237799961886,46.124174000026365],[-122.90237799961886,46.12407799998558],[-122.90237799961886,46.123984000263434],[-122.90255599989409,46.123985000195084],[-122.90285200017011,46.123985000195084],[-122.9029490002545,46.12398600012671],[-122.90295000007941,46.12361799977761],[-122.90411599984344,46.12359699982397],[-122.90413699975984,46.124150999804826],[-122.90414699980558,46.124410000012254],[-122.90414699980558,46.12448599978196],[-122.9041479996305,46.1247139997072],[-122.90414900035374,46.12479000030276],[-122.90477600016754,46.12479000030276],[-122.90665900015708,46.12479300005376],[-122.90728699979577,46.12479399997072],[-122.90723599974217,46.12475600000013],[-122.90708299958129,46.12464199993107],[-122.90703200042597,46.124603999855644],[-122.90701499980923,46.124591000266165],[-122.90696700012865,46.124554999998175],[-122.90695100023513,46.12454299969607],[-122.90669099994413,46.124322999713016],[-122.90657799996623,46.12422200029534],[-122.90645699959241,46.124118000282316],[-122.90685699962549,46.12383500028255],[-122.90650000014843,46.12353499985485],[-122.90692699994567,46.12328500001463],[-122.90712899961206,46.12343700006266],[-122.90848799971995,46.12445700015259],[-122.90894200017972,46.124796999721546],[-122.90939200044151,46.124869999833294],[-122.90942900025144,46.12487699986448],[-122.90951700011497,46.12490900026273],[-122.90972600035235,46.124997000172485],[-122.90992200017094,46.125098000037084],[-122.91010600029394,46.12520999996636],[-122.91056900007621,46.12555099977202],[-122.91088600026862,46.12578500028709],[-122.91093399994921,46.12582599986523],[-122.9111520004074,46.12601299981688],[-122.9118069998103,46.12657599999044],[-122.91184899964308,46.12661200018288],[-122.91201699987258,46.126773999823925],[-122.91222699993484,46.126977000200434],[-122.91285799994664,46.12758800030934],[-122.91306899983383,46.127792000038916],[-122.91322000034486,46.127949000024365],[-122.913243999736,46.127975999964875],[-122.91346499966895,46.128220999788574],[-122.91369700037085,46.12849799994877],[-122.91374199967838,46.12855599991834],[-122.91389800021231,46.128758000108384],[-122.91403499958132,46.12895200020376],[-122.91411800032033,46.129069000210194],[-122.9143069995679,46.1293609998445],[-122.91441899972088,46.129556000136866],[-122.9145380004449,46.12976399997831],[-122.91460299984392,46.1298929998894],[-122.91471300034708,46.13011200021934],[-122.91479000033996,46.130285000009344],[-122.9148489998912,46.13041799982752],[-122.91519200002288,46.13135299995966],[-122.91528800028233,46.131758999831064],[-122.9155460000252,46.13288800015921],[-122.91556100009383,46.13298899987352]],[[-122.90322799991374,46.13362799994251],[-122.9032470001803,46.13363500010582],[-122.90322000041614,46.13367699982195],[-122.90279500026868,46.134311000034984],[-122.90272800032153,46.13440899977994],[-122.90267399989486,46.134400000229846],[-122.9023650000984,46.13434700015212],[-122.90171999984292,46.134240000098174],[-122.90179500018598,46.13411200015608],[-122.90184000039183,46.134008999889446],[-122.9018939999202,46.133908000178224],[-122.90190499979083,46.13365599996791],[-122.90188600042259,46.13358499980912],[-122.90188200022462,46.13357600012438],[-122.90187100035396,46.13355099995494],[-122.90175599982793,46.1333500002966],[-122.90165799991865,46.13322400030393],[-122.90153700044313,46.13310800017438],[-122.90147100032091,46.133052999941754],[-122.90128899984768,46.13292600012275],[-122.90120699983194,46.13288200029364],[-122.90111700031856,46.132842000135525],[-122.90103399957958,46.132804999885586],[-122.90093800021839,46.13277700005005],[-122.9006479997902,46.132703999833836],[-122.9003890002224,46.13265399993691],[-122.90010399981708,46.13259899987342],[-122.90000099988491,46.1325799997821],[-122.8996629997761,46.13249399971277],[-122.8994179995537,46.132420999743985],[-122.89923699980375,46.13236600007029],[-122.8989809997107,46.13224499984781],[-122.89892800000725,46.13221800013232],[-122.89894800009876,46.13204099980199],[-122.8989649998172,46.1318900002488],[-122.89934899995676,46.132095000015816],[-122.89938699959157,46.13211200008372],[-122.89941500007897,46.132123999981985],[-122.89944400039131,46.13213700028389],[-122.89947199998039,46.13214799977071],[-122.89950100029269,46.13216000028366],[-122.89952399985893,46.13216799979418],[-122.89961900029348,46.13220100009713],[-122.89971100035498,46.1322290002255],[-122.89980400024142,46.13225299996847],[-122.89989899977766,46.13227399973499],[-122.90035200041251,46.13236399988871],[-122.90036999995583,46.13232600015995],[-122.90047500043615,46.13209799999156],[-122.90078199968448,46.13216700001107],[-122.90133499987844,46.13188599985098],[-122.90155699963628,46.131799000153215],[-122.901647000048,46.13176300023811],[-122.90197500011105,46.13170299970474],[-122.9019990004005,46.1317019999132],[-122.90203000036263,46.13169800012422],[-122.90209800013469,46.13169699971003],[-122.90212300024906,46.13169800012422],[-122.90214699964017,46.13169899991588],[-122.90217199975454,46.13170100012162],[-122.90219699986888,46.13170299970474],[-122.90222100015833,46.13170799990732],[-122.90224500044778,46.131710000112726],[-122.90226899983891,46.131714999692115],[-122.90231700041781,46.13172400030348],[-122.90242799984756,46.13177200021908],[-122.90252900012993,46.131814999900435],[-122.90260799977264,46.131882000075414],[-122.90272300029868,46.13198799994414],[-122.90282899970556,46.132152000149496],[-122.90284100029946,46.13225399975002],[-122.90279899956832,46.13224900021955],[-122.90277699982703,46.13225000000117],[-122.90274900023795,46.13225099978278],[-122.90272300029868,46.13225500015409],[-122.90269800018432,46.132258000121105],[-122.90265700017645,46.13226799980253],[-122.90262799986412,46.132284000036],[-122.90260199992485,46.132298999861625],[-122.90259000022928,46.13230699997443],[-122.90256500011493,46.13232699994017],[-122.9025550000692,46.132340999974076],[-122.90252599975685,46.13236600007029],[-122.90250700038861,46.13237799991325],[-122.90248800012203,46.13239100015516],[-122.90247100040358,46.13240099981243],[-122.90243899971821,46.13242299992349],[-122.90242799984756,46.132433000197494],[-122.90241299977897,46.13244799998248],[-122.90240799975608,46.132461999985686],[-122.90240299973321,46.13247599998529],[-122.90239900043358,46.13250300019682],[-122.9023950002356,46.1325299997726],[-122.90239199986256,46.13255400000694],[-122.90239600006053,46.13259800009809],[-122.90239900043358,46.13263700003636],[-122.90240299973321,46.132684000005014],[-122.90241399960387,46.13272799999235],[-122.9024370000684,46.13279199974135],[-122.902444999566,46.13281599986152],[-122.90245499961176,46.13284299990638],[-122.90246800003055,46.13287099970835],[-122.90248300009917,46.132897999726254],[-122.90250700038861,46.13293700007457],[-122.90251300023638,46.132947000255186],[-122.90251599971114,46.132959999740294],[-122.90252400010704,46.13297500000428],[-122.90254500002344,46.13302800015739],[-122.90257699981049,46.133090000025085],[-122.90262399966615,46.13315199982298],[-122.90263600026002,46.13316400011717],[-122.90264700013068,46.1331750000214],[-122.90266600039726,46.133193999907455],[-122.90268800013858,46.133212999786956],[-122.9027249999485,46.13323899987349],[-122.90275599991064,46.133254000061534],[-122.90279799974343,46.13327500006886],[-122.90282899970556,46.13328800009907],[-122.90284999962195,46.13329300015775],[-122.90286399986567,46.13329899997855],[-122.90287899993427,46.133306000183666],[-122.90289499982781,46.133312000003095],[-122.90289999985069,46.13332299987777],[-122.9029230003152,46.133356000111185],[-122.90295400027733,46.13338599979688],[-122.90298000021663,46.133410000280676],[-122.90298799971423,46.133418000232155],[-122.90300100013302,46.13342999984585],[-122.90302200004942,46.133455999829984],[-122.90302700007229,46.13346800005793],[-122.90303999959276,46.13350299972223],[-122.90308099960063,46.13354399978091],[-122.90312499998159,46.133579000019445],[-122.90318299970788,46.133610999720034],[-122.90322799991374,46.13362799994251]],[[-122.89861300036299,46.13203799982315],[-122.89860199959402,46.132134000310224],[-122.89858999989846,46.13223099978945],[-122.89858599970049,46.13226300027329],[-122.89853600037011,46.13269799994822],[-122.89850700005778,46.13293900023534],[-122.89848100011854,46.13316499988218],[-122.89846900042295,46.1332640001846],[-122.89843400026284,46.13356100002407],[-122.89842300039219,46.13366099999317],[-122.89822000000262,46.13365699972399],[-122.89814300000971,46.13366000023716],[-122.89805099994818,46.13366500026206],[-122.89781699959649,46.13369300026859],[-122.89731600017937,46.133793999751596],[-122.8972569997298,46.133805999905945],[-122.89726400030084,46.133496000164676],[-122.89727000014862,46.1332410000233],[-122.89727099997353,46.13319099999142],[-122.89723400016359,46.133193000142974],[-122.89717200023934,46.133191999755944],[-122.89652799980875,46.13319999973904],[-122.89653100018181,46.133081000259445],[-122.89653600020468,46.132904000212605],[-122.8965370000296,46.132877999967874],[-122.89657499966444,46.13269200006195],[-122.89639399991445,46.13269599977869],[-122.89614500039244,46.13270899994553],[-122.89579200021502,46.132727000219404],[-122.8957839998191,46.13271499982999],[-122.89570900037435,46.13259899987342],[-122.8955729999319,46.13238899997448],[-122.8951650004012,46.13176000024413],[-122.89502899995878,46.13155100005308],[-122.89489300041467,46.13134099989337],[-122.89469800042099,46.13104000007351],[-122.89448499998566,46.130712000022505],[-122.89435000026644,46.13050300021245],[-122.89412799961026,46.13016100011428],[-122.89393699981457,46.12986700009091],[-122.89345800013876,46.12913900012713],[-122.89323499965771,46.12879899996403],[-122.89319799984776,46.12874299994097],[-122.89313900029654,46.12864800023851],[-122.8931290002508,46.12863099972398],[-122.89341999960564,46.12848800020546],[-122.89367499987375,46.128363000148106],[-122.89410300039424,46.12806899986617],[-122.89419600028067,46.12800600009078],[-122.89437500038079,46.12789199989896],[-122.89439100027431,46.127876000257295],[-122.89432400032717,46.127834999714615],[-122.89418899970964,46.12775599999502],[-122.89405700036347,46.127678999891394],[-122.89397899964736,46.127632999875146],[-122.89378799985164,46.127507999745276],[-122.89354900037539,46.127344000031165],[-122.89348699955278,46.12727399970081],[-122.89408800032561,46.12679499981171],[-122.89414400040211,46.12685500008838],[-122.89434000022071,46.127022000265384],[-122.89447599976482,46.127129999897775],[-122.89471599996433,46.12726600010214],[-122.89478299991147,46.1273009999722],[-122.8950020001946,46.12741799975001],[-122.89521800010466,46.127515000063845],[-122.89534199995322,46.12757799977822],[-122.89537999958807,46.12759499999515],[-122.89559999969609,46.12769600007715],[-122.89591400041377,46.12781999991843],[-122.89611799972994,46.12790800015856],[-122.89613299979857,46.12791499980376],[-122.89621599963924,46.12795800000602],[-122.89629199980722,46.12800600009078],[-122.89639999976225,46.12811599999756],[-122.89648900034902,46.12815099995012],[-122.89656700016684,46.128198999866704],[-122.8965989999539,46.128227000161914],[-122.8966490001826,46.128290000307125],[-122.89675700013764,46.12849300007736],[-122.89680599964312,46.128595000228465],[-122.89687799961315,46.12880500027445],[-122.89694700010843,46.129051999825606],[-122.89705699971327,46.129292000045005],[-122.89708500020069,46.129398999751295],[-122.89726099992778,46.12984999995262],[-122.89728500021721,46.12990799974364],[-122.89740700041595,46.13019600001253],[-122.89749199990646,46.1303660000913],[-122.89757300009734,46.13057399998664],[-122.89759700038675,46.13064799972407],[-122.89763099982365,46.13075000024236],[-122.89767600002949,46.130852999756165],[-122.89774299997663,46.130960999970306],[-122.8978819998938,46.131182999814584],[-122.898164999751,46.131606999711444],[-122.89833399980542,46.13178799997415],[-122.89835300007199,46.131805000136815],[-122.89858599970049,46.13201600018079],[-122.89861300036299,46.13203799982315]]]},"properties":{"AREALAND":"21070156","AREAWATER":"1815728","BASENAME":"Kelso","CBSAPCI":"Y","CENTLAT":"+46.1235944","CENTLON":"-122.8909958","FUNCSTAT":"A","GEOID":"5335065","INTPTLAT":"+46.1167512","INTPTLON":"-122.8864657","LSADC":"25","MTFCC":"G4110","NAME":"Kelso city","NECTAPCI":"N","OBJECTID":27335,"OID":"27890853993596","PLACE":"35065","PLACECC":"C1","PLACENS":"02410174","STATE":"53","DISP_CLR":1,"slug":"kelso","jurisdiction_key":"kelso_city","county_fips":["53015"]}}]}
