{"type":"FeatureCollection","features":[{"type":"Feature","geometry":{"type":"Polygon","coordinates":[[[-118.07821500019155,48.60613300022418],[-118.07822299968915,48.605993999991576],[-118.07779099986901,48.6059600002397],[-118.07771100040138,48.6059600002397],[-118.07717400010097,48.60596200022573],[-118.07686100010652,48.60598200008177],[-118.07660300036363,48.605999000250186],[-118.07647899961675,48.60601599981884],[-118.07597099962867,48.606087000087],[-118.07549799980063,48.60618700022849],[-118.07541699960981,48.60621099994785],[-118.07535200021078,48.606231999989916],[-118.07498700033781,48.606348000206516],[-118.07475700018402,48.60642000028885],[-118.07424599982286,48.60658300007951],[-118.07407000009577,48.60664199979751],[-118.07384199959183,48.606719000242],[-118.0737200002914,48.606764000123384],[-118.07335700006824,48.606901000069875],[-118.07323599969442,48.606947000059606],[-118.07315100020391,48.60697899979532],[-118.07289099991291,48.607075999742705],[-118.07185800021826,48.607462999784836],[-118.07151400026166,48.6075930001895],[-118.07139299988786,48.607639000142896],[-118.07111800042652,48.60774400026688],[-118.07106099962684,48.60702900019564],[-118.07104800010633,48.60689599990057],[-118.07103399986265,48.606738000117595],[-118.07275899966844,48.60613999985401],[-118.07380099958394,48.605777999990586],[-118.07382300022357,48.60576000004781],[-118.0738409997669,48.60572600013834],[-118.0738469996147,48.605696000199266],[-118.07406599989781,48.605644000262586],[-118.07419200029449,48.60560099997756],[-118.07497300009409,48.60533400012328],[-118.07501400010197,48.60469399971794],[-118.07507799967608,48.603649999724425],[-118.07510500033858,48.60310100010314],[-118.07512399970682,48.60272300011839],[-118.07479800019192,48.6027820001876],[-118.07394200004923,48.60288699971745],[-118.07371600009343,48.60291000006054],[-118.07372399959105,48.6029700002606],[-118.07374200003271,48.603094999804895],[-118.07363400007767,48.60311199975704],[-118.07288699971494,48.603289000176794],[-118.07279999967633,48.60331000024585],[-118.07263399999498,48.603348000178876],[-118.0726149997284,48.60331599992452],[-118.07254100010854,48.603189000237364],[-118.0723390004422,48.60284100018788],[-118.07231599997763,48.602800999762266],[-118.07215299977105,48.602505000261615],[-118.07234100009201,48.60246700028839],[-118.07354299984107,48.60217800019734],[-118.07350600003117,48.60203000002642],[-118.07349099996254,48.60197200004186],[-118.07344699958159,48.60179800028261],[-118.07343300023625,48.60174000003165],[-118.07340599957372,48.60163100017867],[-118.07339999972595,48.60160600028277],[-118.07331299968729,48.60142399978859],[-118.07404599980632,48.60132899984789],[-118.07419700031738,48.601309999719504],[-118.07467699981808,48.601254000268725],[-118.07487699983461,48.60122900018627],[-118.0751990000499,48.601187999881596],[-118.0752049998977,48.60108899973331],[-118.07522400016427,48.600718999723455],[-118.07524400025575,48.60029399985977],[-118.07530799982986,48.59902099986699],[-118.07532999957115,48.59859699981651],[-118.07517899995842,48.598629000090206],[-118.07473000041985,48.598736000208355],[-118.07458099955862,48.59877199974741],[-118.0745439997487,48.598780000235614],[-118.07451199996164,48.59878800012841],[-118.07443499996874,48.59880600017966],[-118.07439899998374,48.598814999905834],[-118.07413899969275,48.59887600005397],[-118.07393200000352,48.598924999730066],[-118.07379300008635,48.59895699979598],[-118.0738049997819,48.59940099988093],[-118.07381300017782,48.59970599991122],[-118.07381400000273,48.599764999940206],[-118.07381499982765,48.599778999775864],[-118.07368599995621,48.59977100003997],[-118.07298100032459,48.59972599986839],[-118.07287599984429,48.599718999943704],[-118.0724039998412,48.59968699976642],[-118.07187800030974,48.599662999917214],[-118.07149699964492,48.59964599999235],[-118.0715080004139,48.59958999988494],[-118.07152500013231,48.59950599990448],[-118.07154900042177,48.59950100019119],[-118.0718180000353,48.59942600027409],[-118.07186700043908,48.59941399999185],[-118.07198500043988,48.59938600011437],[-118.07201600040202,48.5993779997222],[-118.07206599973242,48.59936699984916],[-118.07253199988773,48.599255999970595],[-118.0735019998332,48.59902700005513],[-118.07356499958239,48.59901099974984],[-118.07361300016126,48.59789500025997],[-118.07355700008478,48.59789600011561],[-118.0735169999018,48.59789799982687],[-118.07336700011398,48.59790599985939],[-118.07301099956354,48.59792599993508],[-118.0726709998049,48.5979450001482],[-118.071968999648,48.597983999812804],[-118.07196600017329,48.597963999760076],[-118.07191099992171,48.59752000011468],[-118.07189599985308,48.59739599970931],[-118.07203599959517,48.59706899983967],[-118.07222999976392,48.59661400017307],[-118.07250699977337,48.59596400024558],[-118.07024899986509,48.595899999866276],[-118.07025200023811,48.59673900000008],[-118.07024999968999,48.59675200020196],[-118.07013199968924,48.596747000216105],[-118.06991999997712,48.596738000121505],[-118.0686870002659,48.59669599985683],[-118.06864899973277,48.59669400009798],[-118.06763100010672,48.59666000002653],[-118.06761900041117,48.59816099978591],[-118.0686639998014,48.59819800017854],[-118.06866200015156,48.5986950002565],[-118.06911700043622,48.59911900007845],[-118.06916199974376,48.59916100011091],[-118.06901000030608,48.59914799993483],[-118.06849899994494,48.599127999748866],[-118.06825299989764,48.59911100023807],[-118.06822799978329,48.59909199986943],[-118.06762500025893,48.59907499975244],[-118.06763100010672,48.599535000132775],[-118.06904100026821,48.59957599999689],[-118.0695319996396,48.59959399976736],[-118.06960399960963,48.59959500018349],[-118.06960399960963,48.59960699982865],[-118.0696089996325,48.599829000175625],[-118.06958799971609,48.59995299995549],[-118.06955000008128,48.5999620000714],[-118.06949200035493,48.59997500003794],[-118.06940500031632,48.59999700011081],[-118.06895699970434,48.60010500011358],[-118.06894400018386,48.600401000015474],[-118.06892900011523,48.600797000085876],[-118.06834599978406,48.60077799975737],[-118.06752200032676,48.600750999841026],[-118.0675189999537,48.60045300000379],[-118.0673559997471,48.60049200010837],[-118.06712700031655,48.600547000006685],[-118.06705699999635,48.60056400022235],[-118.06643900040339,48.6007129997363],[-118.06621099989945,48.600768999786865],[-118.06619099980796,48.60077300016999],[-118.06613300008163,48.60078699972624],[-118.06611399981506,48.6007919999063],[-118.06595300015657,48.60082999995159],[-118.06584199982848,48.60085699982572],[-118.0658689995927,48.60151900014467],[-118.06589399970704,48.60207799984039],[-118.06500999997529,48.60204399982838],[-118.06502000002102,48.60315400003359],[-118.06496099957147,48.60315199993636],[-118.06429799977266,48.60312500010097],[-118.0641739999241,48.603120000151854],[-118.06342800028462,48.603106999806634],[-118.06295299990848,48.60313200014766],[-118.06284699960327,48.603115000202244],[-118.06258600038564,48.60309800025111],[-118.06242400000397,48.60308900009997],[-118.06231799969872,48.60309400005212],[-118.06231699987383,48.603034999753326],[-118.06231500022402,48.60284999978921],[-118.06231299967588,48.60262699988866],[-118.06231100002604,48.60229299985818],[-118.06155199996775,48.602483000092995],[-118.06153699989915,48.60232800006459],[-118.06149699971617,48.60190699977516],[-118.06130699974538,48.60195399993071],[-118.06113500021624,48.60199500020757],[-118.06062200020526,48.60211900001664],[-118.06045099960272,48.60216099993084],[-118.0604360004324,48.60203899977226],[-118.0603929998764,48.60167400027956],[-118.06037899963269,48.60155299991606],[-118.0603159998835,48.60102600029395],[-118.06028999994423,48.60080399986118],[-118.06008900010278,48.599452999710515],[-118.06001100028497,48.59892900025923],[-118.05998899964534,48.59876300001358],[-118.05992400024634,48.59826799970721],[-118.05990300032994,48.598103000111415],[-118.05988800026134,48.597991999831706],[-118.05987099964457,48.59777699992349],[-118.05985499975104,48.59755400020144],[-118.05985399992615,48.596887000227134],[-118.05985399992615,48.59679799992981],[-118.05969300026767,48.59684400020985],[-118.05810200035619,48.59714299982104],[-118.05704899967168,48.59662400017062],[-118.05693300021908,48.59654900014076],[-118.05670700026326,48.59640100011174],[-118.05558300033198,48.59567000028464],[-118.0548739996041,48.59522000003785],[-118.05144900010686,48.59521699971779],[-118.05144900010686,48.59567100018431],[-118.05146199962734,48.596196000049765],[-118.05146500000038,48.59642200007401],[-118.0514730003963,48.59676800003459],[-118.05125400011318,48.596815000219024],[-118.05134399962655,48.59726899998952],[-118.05138999965732,48.59749900001473],[-118.05143499986316,48.59776999972871],[-118.05145199958159,48.59802799990097],[-118.0514869997417,48.59827200028841],[-118.05153000029773,48.598644999922406],[-118.05155799988681,48.598875000217724],[-118.05158999967387,48.59910500005987],[-118.05160399991757,48.59921199976385],[-118.05164900012339,48.59953299989222],[-118.05165400014629,48.59956900005146],[-118.05166400019203,48.59964100029292],[-118.05226000004367,48.59962099970806],[-118.05281200041271,48.599602000125365],[-118.05343199965553,48.59958200011915],[-118.05382800038898,48.599568000228885],[-118.05431299991254,48.59955200009495],[-118.05465000019643,48.599541000259855],[-118.05484099999212,48.60134500001298],[-118.05429000034633,48.601364000128235],[-118.05419400008684,48.60136900025114],[-118.05381099977218,48.601389999930404],[-118.05370199999226,48.601491000245886],[-118.05357800014372,48.601557000237094],[-118.05347600003645,48.60156399990708],[-118.05329199991344,48.60157700005539],[-118.05188000010207,48.60168500024423],[-118.0518390000942,48.601334999761875],[-118.05177700016993,48.601339000100175],[-118.05104800024885,48.60137699973396],[-118.05032199980253,48.60145800021794],[-118.05014799972528,48.601475999911834],[-118.05006300023477,48.6014830001871],[-118.04946200036026,48.60151100009031],[-118.04882499960237,48.60153999976157],[-118.04878799979245,48.60154299970614],[-118.04864600040057,48.601554000293355],[-118.04867300016473,48.60173799987842],[-118.04868099966234,48.601794999759136],[-118.04869800027907,48.60190699977516],[-118.04865999974594,48.60190699977516],[-118.04851499998098,48.60191300021454],[-118.04799199992426,48.60193599981311],[-118.04794900026654,48.601469000229656],[-118.04790900008359,48.60108700014837],[-118.04788999981702,48.60094199973118],[-118.04734099982103,48.600972000117935],[-118.04712699956077,48.60098300023549],[-118.0464329997998,48.60101300000382],[-118.04632300019496,48.60101800016152],[-118.04632499984477,48.601042999754384],[-118.04642199992917,48.6020459999695],[-118.0464250003022,48.60249500024019],[-118.04644500039367,48.602858000225524],[-118.0464539997162,48.60299799993355],[-118.04799299974918,48.602951000155464],[-118.04807200029019,48.60294900005019],[-118.04807099956697,48.602873000149145],[-118.04807399994003,48.60207700006748],[-118.04807800013798,48.60196799975369],[-118.04851800035404,48.60195000023513],[-118.04855400033904,48.601946999720724],[-118.04866399994391,48.60194300002462],[-118.04870199957874,48.60194099987943],[-118.0489610000448,48.60192799982481],[-118.0489610000448,48.60205000025149],[-118.04895900039499,48.602829000122945],[-118.04897000026564,48.605050000157284],[-118.04825100039035,48.60507900017265],[-118.04825600041323,48.6059159999328],[-118.04825600041323,48.605995000280956],[-118.04825700023812,48.60607399991153],[-118.04826700028386,48.60659099992451],[-118.04899600020491,48.60653000018342],[-118.04911500003061,48.60652499997743],[-118.04913699977192,48.6068920000024],[-118.04914599999275,48.607040999856665],[-118.04916899955897,48.6073499999471],[-118.04917399958184,48.60749699971283],[-118.05122399997595,48.60737600023178],[-118.0514249998174,48.607364999724616],[-118.05141700031983,48.60800700004335],[-118.05140499972593,48.608257000024565],[-118.0509660002331,48.6082759999155],[-118.05098700014948,48.60898399972737],[-118.05099600037035,48.60903200006],[-118.05103300018024,48.60902899996633],[-118.05104800024885,48.609136000030226],[-118.05105999994443,48.60922199988954],[-118.05094699996653,48.60922800005379],[-118.05094899961634,48.609250000254114],[-118.05099499964712,48.609661000128256],[-118.05120200023465,48.60965099974185],[-118.05136799991601,48.60964299978763],[-118.05140599955085,48.60964200016447],[-118.05141200029693,48.61019200016324],[-118.05141399994675,48.610326999906],[-118.05139899987815,48.61049499996613],[-118.0513600004184,48.61091899992335],[-118.05134899964942,48.611092000143906],[-118.05041899988692,48.61114000025452],[-118.05010900026552,48.611155000094136],[-118.04852400020182,48.61123599974498],[-118.04849499988948,48.61123699993049],[-118.04835699979724,48.61124299985534],[-118.04835199977437,48.611370000077265],[-118.04831800033749,48.61241400024772],[-118.04849800026255,48.612407999868076],[-118.04938399964409,48.61234999992311],[-118.04978700005023,48.612323000253646],[-118.05037700005411,48.6122790001455],[-118.05038000042717,48.61269499990557],[-118.05107800038608,48.61265800003579],[-118.0511009999523,48.61224899994177],[-118.05110199977722,48.61222699986024],[-118.05409799982739,48.612009000046065],[-118.05418900006397,48.61271100003348],[-118.05425299963808,48.61295999973736],[-118.05570700018053,48.612933999952155],[-118.05641600001012,48.612915000032075],[-118.05654200040681,48.61288999978253],[-118.05655800030033,48.61229300007606],[-118.05656099977507,48.61192000026002],[-118.05664299979084,48.61192700027556],[-118.05668899982157,48.61193499986791],[-118.05686799992172,48.61192499993182],[-118.05792699955565,48.61186400010068],[-118.05815099986165,48.6118510002245],[-118.05951499999242,48.61177200012834],[-118.05952500003818,48.612483000107744],[-118.06232699991956,48.6123209999256],[-118.06229799960725,48.6142739998179],[-118.06548500035143,48.61435300015666],[-118.06572499965263,48.61435899971124],[-118.06662699982604,48.61438200017482],[-118.06671800006265,48.61438399982732],[-118.0673709998157,48.61440000001388],[-118.06757699968003,48.61440399991127],[-118.06781699987955,48.614418999969],[-118.06788999967448,48.61368400021261],[-118.06792099963663,48.61337299999012],[-118.06798000008617,48.61328800021848],[-118.06804600020841,48.613231000242614],[-118.06811700035351,48.61317700004975],[-118.06820000019418,48.613114000246746],[-118.0683149998219,48.61311300009839],[-118.0693409998439,48.613141000087104],[-118.06955500010415,48.61314699978571],[-118.07237899972685,48.61322600010621],[-118.0725019997505,48.61319700001792],[-118.07257600026865,48.6131549997787],[-118.07266900015506,48.613073000087574],[-118.07273100007936,48.61296499990015],[-118.0727620000415,48.612686999839696],[-118.07397700020934,48.612700000094556],[-118.07401400001926,48.61168299992454],[-118.07401800021724,48.611581999796854],[-118.07280700024734,48.6115859999175],[-118.07281300009512,48.611011000262046],[-118.07276600023944,48.61093399982861],[-118.0728049996992,48.61093600021161],[-118.07340099955087,48.61096000004979],[-118.07343400006114,48.61096100024077],[-118.07353899964309,48.610963000028754],[-118.07366800041287,48.610973000155376],[-118.0737060000477,48.610973000155376],[-118.07399499975268,48.610973000155376],[-118.07420700036312,48.610973000155376],[-118.0743320000366,48.61097399975218],[-118.07447099995375,48.61097399975218],[-118.07462400011462,48.61097499994288],[-118.07495899985038,48.61097499994288],[-118.0750509999119,48.61091400015189],[-118.07475200016115,48.61044099981686],[-118.07430600009731,48.609733999860104],[-118.07383200044438,48.608975000031116],[-118.07349500016052,48.608434000232265],[-118.07370900042073,48.60843800000831],[-118.0738049997819,48.60843999989621],[-118.0752199999663,48.60846999998715],[-118.0755510004024,48.6084760002408],[-118.07569600016735,48.608481000253654],[-118.07564400028883,48.60833199989634],[-118.07529000028649,48.60732499991206],[-118.0752619997991,48.6072479997976],[-118.07581199962003,48.60726700006816],[-118.07724799972081,48.607306999926664],[-118.07820000012293,48.60734099995968],[-118.07821799966628,48.60618500025136],[-118.07821500019155,48.60613300022418]],[[-118.07306699964,48.601029000269044],[-118.07312000024177,48.6010969998545],[-118.073030999655,48.601124999971695],[-118.07288000004226,48.601161000184455],[-118.07239999964322,48.601277000167364],[-118.07236899968109,48.60128500025878],[-118.07175199991305,48.6014340000221],[-118.07156699996511,48.601469000229656],[-118.07152299958416,48.601389000143875],[-118.07140999960629,48.60118900026617],[-118.07135799972772,48.601095000269865],[-118.07155699991937,48.60104900029641],[-118.07186700043908,48.600972999912706],[-118.07253199988773,48.60080900003952],[-118.0728340000115,48.60083299993829],[-118.07301200028674,48.60095200006008],[-118.07306699964,48.601029000269044]]]},"properties":{"AREALAND":"2886073","AREAWATER":"0","BASENAME":"Kettle Falls","CBSAPCI":"N","CENTLAT":"+48.6055508","CENTLON":"-118.0620978","FUNCSTAT":"A","GEOID":"5335485","INTPTLAT":"+48.6055508","INTPTLON":"-118.0620978","LSADC":"25","MTFCC":"G4110","NAME":"Kettle Falls city","NECTAPCI":"N","OBJECTID":12816,"OID":"27890481818966","PLACE":"35485","PLACECC":"C1","PLACENS":"02411540","STATE":"53","DISP_CLR":5,"slug":"kettle_falls","jurisdiction_key":"kettle_falls_city","county_fips":["53065"]}}]}
