{
  "type": "FeatureCollection",
  "features": [
    {
      "type": "Feature",
      "geometry": {
        "type": "Polygon",
        "coordinates": [
          [
            [
              -122.27561899988928,
              47.74109200023609
            ],
            [
              -122.27613699992312,
              47.739719999872214
            ],
            [
              -122.27439700004871,
              47.73373200024998
            ],
            [
              -122.27436799973638,
              47.73349000017371
            ],
            [
              -122.27358799976173,
              47.726927999785964
            ],
            [
              -122.27351900016475,
              47.72667999973699
            ],
            [
              -122.27349099967732,
              47.72657799980785
            ],
            [
              -122.2621600001281,
              47.72644299986111
            ],
            [
              -122.26171800026223,
              47.72643800012493
            ],
            [
              -122.26157199977403,
              47.72643599998861
            ],
            [
              -122.25957599980657,
              47.726412000159655
            ],
            [
              -122.25963600008106,
              47.726351000166915
            ],
            [
              -122.25951600043044,
              47.7263500000971
            ],
            [
              -122.25978900024194,
              47.726075000109354
            ],
            [
              -122.25984299977029,
              47.7259589997275
            ],
            [
              -122.25986700005973,
              47.72590799998835
            ],
            [
              -122.25987700010546,
              47.72588700015236
            ],
            [
              -122.25987600028054,
              47.725828999784355
            ],
            [
              -122.25987499955734,
              47.725742000017725
            ],
            [
              -122.25987499955734,
              47.725701999763665
            ],
            [
              -122.25983699992248,
              47.72562899974962
            ],
            [
              -122.25876499986978,
              47.72561800003663
            ],
            [
              -122.25804599999447,
              47.72561200013728
            ],
            [
              -122.25763500009073,
              47.72560799980114
            ],
            [
              -122.25744900031789,
              47.7256060002372
            ],
            [
              -122.25738499984547,
              47.72560500015307
            ],
            [
              -122.25731299987544,
              47.72560500015307
            ],
            [
              -122.25721800033922,
              47.725604000068934
            ],
            [
              -122.25687699985735,
              47.72559999973222
            ],
            [
              -122.25642599977066,
              47.72559599999939
            ],
            [
              -122.25628199983059,
              47.725594999915074
            ],
            [
              -122.25609600005777,
              47.72559299974639
            ],
            [
              -122.2555069998788,
              47.725586999844154
            ],
            [
              -122.25195900035791,
              47.72555400006736
            ],
            [
              -122.25178699993046,
              47.7255519998971
            ],
            [
              -122.25073300031937,
              47.72554200025317
            ],
            [
              -122.25055099984621,
              47.72553899999706
            ],
            [
              -122.25054699964824,
              47.725568000048476
            ],
            [
              -122.25049399994478,
              47.72596899989562
            ],
            [
              -122.2504870002721,
              47.72602000017928
            ],
            [
              -122.2504810004243,
              47.72619299977437
            ],
            [
              -122.25048300007415,
              47.72623699993947
            ],
            [
              -122.25050200034073,
              47.726323000017565
            ],
            [
              -122.25059900042508,
              47.72676400016848
            ],
            [
              -122.25060899957252,
              47.7268399999817
            ],
            [
              -122.250592999679,
              47.727108999829206
            ],
            [
              -122.25056500008989,
              47.72722700017302
            ],
            [
              -122.25053599977757,
              47.72729199995126
            ],
            [
              -122.25051700040933,
              47.72733499974135
            ],
            [
              -122.25033499993614,
              47.72766100021325
            ],
            [
              -122.25026399979103,
              47.72776800004757
            ],
            [
              -122.25021299973739,
              47.72782199990307
            ],
            [
              -122.2501509998131,
              47.72787200014459
            ],
            [
              -122.25006299994956,
              47.727924999852696
            ],
            [
              -122.24992099965934,
              47.72798399973795
            ],
            [
              -122.24985299988728,
              47.72800399989897
            ],
            [
              -122.24972300019095,
              47.72802700016528
            ],
            [
              -122.24950499973274,
              47.72803199974893
            ],
            [
              -122.24935699959472,
              47.728018999863615
            ],
            [
              -122.2492269998984,
              47.72799899970836
            ],
            [
              -122.24913300018707,
              47.727973999956696
            ],
            [
              -122.24906100021704,
              47.727949000193036
            ],
            [
              -122.24891399990395,
              47.72787200014459
            ],
            [
              -122.24878599985742,
              47.72777000013273
            ],
            [
              -122.24857499997022,
              47.727622000269804
            ],
            [
              -122.2485149996958,
              47.72758599983128
            ],
            [
              -122.24833300012088,
              47.72750200012122
            ],
            [
              -122.24824400043246,
              47.727468999744865
            ],
            [
              -122.24818800035592,
              47.7274550002747
            ],
            [
              -122.24812499970842,
              47.727446999885174
            ],
            [
              -122.24797099972265,
              47.727443999738796
            ],
            [
              -122.2478689996154,
              47.727454000226075
            ],
            [
              -122.24783099998056,
              47.72745699976761
            ],
            [
              -122.2477690000563,
              47.7274699997932
            ],
            [
              -122.24763799963674,
              47.72752099981572
            ],
            [
              -122.2475239998339,
              47.72758599983128
            ],
            [
              -122.24744299964303,
              47.72765299985537
            ],
            [
              -122.24713700021961,
              47.72818799993227
            ],
            [
              -122.24706199987655,
              47.72832899977726
            ],
            [
              -122.24694499970067,
              47.72845500001007
            ],
            [
              -122.24682199967701,
              47.72854500016235
            ],
            [
              -122.24662000001065,
              47.72858299999197
            ],
            [
              -122.24650600020786,
              47.728594000287316
            ],
            [
              -122.24640099972756,
              47.72858800012651
            ],
            [
              -122.24615100038059,
              47.72855000030053
            ],
            [
              -122.24590199996027,
              47.72843900014127
            ],
            [
              -122.24572200003522,
              47.72836599973337
            ],
            [
              -122.24538200027659,
              47.72824199995659
            ],
            [
              -122.24513200003133,
              47.72816599977202
            ],
            [
              -122.24462599969304,
              47.72806100022508
            ],
            [
              -122.24413600014658,
              47.7280280002029
            ],
            [
              -122.24452100011105,
              47.729348999899514
            ],
            [
              -122.24463099971591,
              47.729724000120605
            ],
            [
              -122.24466699970094,
              47.729854000010064
            ],
            [
              -122.24479599957236,
              47.730320999711175
            ],
            [
              -122.24495899977896,
              47.730902999974994
            ],
            [
              -122.24511799978762,
              47.73147300012076
            ],
            [
              -122.2451529999477,
              47.73159800002887
            ],
            [
              -122.24516299999347,
              47.731631000205894
            ],
            [
              -122.24521200039729,
              47.731770999827226
            ],
            [
              -122.24438899986657,
              47.73188500002631
            ],
            [
              -122.24342200029416,
              47.732016999881495
            ],
            [
              -122.24313400041406,
              47.73204599995132
            ],
            [
              -122.2429460000931,
              47.73205400023861
            ],
            [
              -122.24279600030525,
              47.73205400023861
            ],
            [
              -122.24277700003867,
              47.73209800028615
            ],
            [
              -122.24253600001425,
              47.73236900007501
            ],
            [
              -122.24241600036366,
              47.73251900024811
            ],
            [
              -122.24225999982973,
              47.73276900018064
            ],
            [
              -122.24219899973036,
              47.73283600018342
            ],
            [
              -122.2421590004457,
              47.73288000017438
            ],
            [
              -122.2420310003992,
              47.73298900004687
            ],
            [
              -122.24191099985029,
              47.73306699972132
            ],
            [
              -122.24179899969731,
              47.73312499988379
            ],
            [
              -122.24165399993234,
              47.733185999797456
            ],
            [
              -122.24154099995442,
              47.73322499980384
            ],
            [
              -122.24150099977146,
              47.73323599972292
            ],
            [
              -122.24139500036456,
              47.73326499971811
            ],
            [
              -122.24106200027862,
              47.7333450000586
            ],
            [
              -122.24087899998052,
              47.73337599986297
            ],
            [
              -122.2406110001919,
              47.733410000056
            ],
            [
              -122.24039399955862,
              47.73340800018742
            ],
            [
              -122.23733099956132,
              47.73338000020671
            ],
            [
              -122.23648799983745,
              47.733374999928046
            ],
            [
              -122.23492399969012,
              47.73336499997347
            ],
            [
              -122.23460300019806,
              47.733363000103154
            ],
            [
              -122.23440300018156,
              47.733365999908585
            ],
            [
              -122.23400099960031,
              47.73337100018813
            ],
            [
              -122.23348299956646,
              47.73337000025309
            ],
            [
              -122.23301300011151,
              47.73336200016798
            ],
            [
              -122.23175699993573,
              47.73332799994367
            ],
            [
              -122.2313529997047,
              47.73332400020014
            ],
            [
              -122.22908899994864,
              47.73330299972901
            ],
            [
              -122.22730100039367,
              47.733267000196335
            ],
            [
              -122.22583799963036,
              47.73324199995239
            ],
            [
              -122.22399300017398,
              47.733212999944435
            ],
            [
              -122.22387500017321,
              47.73321200000637
            ],
            [
              -122.22305300036572,
              47.7332020000205
            ],
            [
              -122.22285400017411,
              47.733199000205616
            ],
            [
              -122.22265099978452,
              47.73319699972473
            ],
            [
              -122.22188599987844,
              47.73318800027872
            ],
            [
              -122.2217720000756,
              47.733185999797456
            ],
            [
              -122.220847000336,
              47.73317699974534
            ],
            [
              -122.21945700026593,
              47.7331659998138
            ],
            [
              -122.2191939996019,
              47.733163999935854
            ],
            [
              -122.21890499989689,
              47.73316299999685
            ],
            [
              -122.21880000031491,
              47.73316299999685
            ],
            [
              -122.21876099995686,
              47.73317200005138
            ],
            [
              -122.21874900026131,
              47.73317699974534
            ],
            [
              -122.21872099977388,
              47.73318699973603
            ],
            [
              -122.21869599965952,
              47.733205999773396
            ],
            [
              -122.21866700024552,
              47.73322700028365
            ],
            [
              -122.21864600032914,
              47.733260999969744
            ],
            [
              -122.21863899975811,
              47.73329800004714
            ],
            [
              -122.21864799997893,
              47.73384100015164
            ],
            [
              -122.2186300004356,
              47.733885999822775
            ],
            [
              -122.21860500032125,
              47.733924999909135
            ],
            [
              -122.21854400022187,
              47.73398199979684
            ],
            [
              -122.21845200016037,
              47.73403200016639
            ],
            [
              -122.21853800037408,
              47.73409400014708
            ],
            [
              -122.21876199978176,
              47.73427799981111
            ],
            [
              -122.21880199996474,
              47.73431800012487
            ],
            [
              -122.21894000005697,
              47.73445599994436
            ],
            [
              -122.21898400043793,
              47.7344999997749
            ],
            [
              -122.2191300000278,
              47.73466000016345
            ],
            [
              -122.22076500032021,
              47.73646699999556
            ],
            [
              -122.22141399987534,
              47.73717799970859
            ],
            [
              -122.22236999957713,
              47.738208000139885
            ],
            [
              -122.22246199963863,
              47.738306000284226
            ],
            [
              -122.2228259996867,
              47.73869699978828
            ],
            [
              -122.22227900023883,
              47.73865800025543
            ],
            [
              -122.2220249997956,
              47.73865100021228
            ],
            [
              -122.22092400032889,
              47.73867899977518
            ],
            [
              -122.22014699982894,
              47.738659000088916
            ],
            [
              -122.21906399990557,
              47.738623000030174
            ],
            [
              -122.21886600043716,
              47.73861699981661
            ],
            [
              -122.21895299957748,
              47.74044800008029
            ],
            [
              -122.21900600017925,
              47.74160700022716
            ],
            [
              -122.21903600031646,
              47.74226800016205
            ],
            [
              -122.21910300026363,
              47.74373100004889
            ],
            [
              -122.2191080002865,
              47.74382900006623
            ],
            [
              -122.21912599982984,
              47.744216999987984
            ],
            [
              -122.21912800037796,
              47.744256000189125
            ],
            [
              -122.21919000030223,
              47.74560100025832
            ],
            [
              -122.21925600042451,
              47.747031000037374
            ],
            [
              -122.21928900003645,
              47.74773699973943
            ],
            [
              -122.22373100023314,
              47.747769000298156
            ],
            [
              -122.22414999963449,
              47.74777300014012
            ],
            [
              -122.22397499973229,
              47.750150000133615
            ],
            [
              -122.22394899979302,
              47.75051000022108
            ],
            [
              -122.22388600004385,
              47.75137799998264
            ],
            [
              -122.22377499971579,
              47.75138099995807
            ],
            [
              -122.22301599965749,
              47.7514
            ],
            [
              -122.22165599972467,
              47.751369000055185
            ],
            [
              -122.22120600036118,
              47.75137600020021
            ],
            [
              -122.22113400039116,
              47.751391000076396
            ],
            [
              -122.22102499971292,
              47.75145100014175
            ],
            [
              -122.22095299974289,
              47.751555000051
            ],
            [
              -122.22090900026028,
              47.75169700023022
            ],
            [
              -122.2208699999022,
              47.751824000274965
            ],
            [
              -122.22082100039673,
              47.75198100003029
            ],
            [
              -122.22072299958911,
              47.75230000020546
            ],
            [
              -122.22071000006864,
              47.75235699990777
            ],
            [
              -122.22070099984782,
              47.75240300005641
            ],
            [
              -122.22068699960411,
              47.75246700024815
            ],
            [
              -122.2206640000379,
              47.752575000015746
            ],
            [
              -122.22065599964195,
              47.75261200025924
            ],
            [
              -122.22064599959623,
              47.75265999991563
            ],
            [
              -122.22079100025948,
              47.75267900009457
            ],
            [
              -122.22098000040536,
              47.752697000098735
            ],
            [
              -122.22115500030756,
              47.75270900029933
            ],
            [
              -122.22130199972234,
              47.7527199997259
            ],
            [
              -122.22137700006542,
              47.752726000125854
            ],
            [
              -122.22180700023571,
              47.752748000177334
            ],
            [
              -122.22213600012368,
              47.7527569998663
            ],
            [
              -122.22327199975054,
              47.752792000252384
            ],
            [
              -122.22425900031276,
              47.75283200023343
            ],
            [
              -122.2246850002851,
              47.75287900012659
            ],
            [
              -122.22501499999798,
              47.7529289998635
            ],
            [
              -122.22525299964936,
              47.752972999785506
            ],
            [
              -122.22547299975737,
              47.75302099971288
            ],
            [
              -122.22577099968322,
              47.75309399998317
            ],
            [
              -122.22585799972185,
              47.75311899975432
            ],
            [
              -122.22594300011065,
              47.75314500027666
            ],
            [
              -122.22627799984643,
              47.75324300008457
            ],
            [
              -122.22713599963892,
              47.7535059997292
            ],
            [
              -122.22768600035815,
              47.7536749998235
            ],
            [
              -122.22774300025954,
              47.753693000087125
            ],
            [
              -122.2283259996924,
              47.753880999918096
            ],
            [
              -122.22838699979178,
              47.753900000255186
            ],
            [
              -122.22838500014196,
              47.75398800023181
            ],
            [
              -122.22838000011909,
              47.7541089998812
            ],
            [
              -122.22837900029417,
              47.75413600004908
            ],
            [
              -122.22837199972317,
              47.754307000183005
            ],
            [
              -122.22836099985251,
              47.75457700020396
            ],
            [
              -122.22832400004259,
              47.75558600009491
            ],
            [
              -122.22827399981387,
              47.75723499970897
            ],
            [
              -122.22826700014119,
              47.75747900008309
            ],
            [
              -122.22824600022479,
              47.75790100021225
            ],
            [
              -122.2282539997224,
              47.75798799999936
            ],
            [
              -122.2282470000497,
              47.758113000264814
            ],
            [
              -122.22824299985173,
              47.75824700017726
            ],
            [
              -122.22824100020192,
              47.75831199988429
            ],
            [
              -122.22823899965378,
              47.758450000117236
            ],
            [
              -122.22823100015616,
              47.75863600016718
            ],
            [
              -122.22822799978313,
              47.75874499986465
            ],
            [
              -122.228204000392,
              47.75955599974582
            ],
            [
              -122.22819099997321,
              47.759971999769775
            ],
            [
              -122.22818099992745,
              47.76029800002454
            ],
            [
              -122.22816900023189,
              47.760680000280075
            ],
            [
              -122.22815900018612,
              47.761028999903225
            ],
            [
              -122.2281409997445,
              47.76159799995264
            ],
            [
              -122.22813700044483,
              47.76174399987575
            ],
            [
              -122.2281349998967,
              47.76179400015226
            ],
            [
              -122.22812900004891,
              47.76200100009743
            ],
            [
              -122.22812200037623,
              47.76223200006146
            ],
            [
              -122.22812099965299,
              47.76227200003208
            ],
            [
              -122.22810599958439,
              47.762686000125534
            ],
            [
              -122.22806499957649,
              47.763875000064424
            ],
            [
              -122.2280579999038,
              47.76407300003714
            ],
            [
              -122.22803899963725,
              47.76461699972973
            ],
            [
              -122.22801100004814,
              47.765413999721666
            ],
            [
              -122.22800900039833,
              47.76547499984302
            ],
            [
              -122.22882199998496,
              47.76548500027182
            ],
            [
              -122.22881799978701,
              47.765943999891
            ],
            [
              -122.22887999971128,
              47.76594200006455
            ],
            [
              -122.22900699993289,
              47.765938999720944
            ],
            [
              -122.22900899958272,
              47.76597700003512
            ],
            [
              -122.22898600001648,
              47.76657100025653
            ],
            [
              -122.22808899986596,
              47.76656899985041
            ],
            [
              -122.22797000004024,
              47.76656799994921
            ],
            [
              -122.22796199964432,
              47.76680899973277
            ],
            [
              -122.2279449999259,
              47.767298999878044
            ],
            [
              -122.22792800020746,
              47.76778299976313
            ],
            [
              -122.22792099963645,
              47.767995000000965
            ],
            [
              -122.22790399991803,
              47.768452000080735
            ],
            [
              -122.22790200026819,
              47.76850299981151
            ],
            [
              -122.22789899989516,
              47.76861000024438
            ],
            [
              -122.2278889998494,
              47.76889400011125
            ],
            [
              -122.22787899980366,
              47.76932400001949
            ],
            [
              -122.22787100030605,
              47.7695139998153
            ],
            [
              -122.22777699969642,
              47.772051000051555
            ],
            [
              -122.2277549999551,
              47.77258400016992
            ],
            [
              -122.22770200025164,
              47.774033999842246
            ],
            [
              -122.22766399971852,
              47.774932000264876
            ],
            [
              -122.22760699981711,
              47.77674500029296
            ],
            [
              -122.23182800008087,
              47.77679999976473
            ],
            [
              -122.23291699985202,
              47.776815999863544
            ],
            [
              -122.23303900005077,
              47.776815999863544
            ],
            [
              -122.23383499991895,
              47.77681199983932
            ],
            [
              -122.23410799973043,
              47.77682500021883
            ],
            [
              -122.23489399955291,
              47.77683599998016
            ],
            [
              -122.23568500029654,
              47.776839000298835
            ],
            [
              -122.23593899984145,
              47.77684800004644
            ],
            [
              -122.23649799988318,
              47.77685000005721
            ],
            [
              -122.23716999990283,
              47.77686200012026
            ],
            [
              -122.23771399987598,
              47.776870999863895
            ],
            [
              -122.23810100038857,
              47.77688699994086
            ],
            [
              -122.23821500019139,
              47.77689099995936
            ],
            [
              -122.238370999827,
              47.776900000301616
            ],
            [
              -122.23863299976783,
              47.776903999715415
            ],
            [
              -122.23909100042553,
              47.77691100004708
            ],
            [
              -122.23916699969519,
              47.77691500006373
            ],
            [
              -122.2395399999641,
              47.776923999798186
            ],
            [
              -122.24073000001759,
              47.776951000199546
            ],
            [
              -122.24082499955387,
              47.77693799985154
            ],
            [
              -122.2409330004072,
              47.77693999985885
            ],
            [
              -122.24106300010354,
              47.77694199986607
            ],
            [
              -122.24130900015082,
              47.77694599988033
            ],
            [
              -122.24144200022023,
              47.77694799988732
            ],
            [
              -122.24162399979511,
              47.776949999894285
            ],
            [
              -122.24169999996306,
              47.776951000199546
            ],
            [
              -122.24183800005534,
              47.776953999907896
            ],
            [
              -122.24192599991889,
              47.776953999907896
            ],
            [
              -122.24203899989679,
              47.77695700021976
            ],
            [
              -122.24221799999694,
              47.77695999992776
            ],
            [
              -122.24258299986991,
              47.77696599994694
            ],
            [
              -122.24260100031158,
              47.77696700025189
            ],
            [
              -122.24275699994719,
              47.776975000276266
            ],
            [
              -122.24308300036043,
              47.776949999894285
            ],
            [
              -122.24361200026493,
              47.776959000226334
            ],
            [
              -122.24363300018133,
              47.776959000226334
            ],
            [
              -122.24366099977044,
              47.776959000226334
            ],
            [
              -122.24377600029648,
              47.77696100023287
            ],
            [
              -122.24386099978696,
              47.77696300023929
            ],
            [
              -122.24563900019453,
              47.77698800001132
            ],
            [
              -122.24751200013836,
              47.7770149997758
            ],
            [
              -122.2485780003433,
              47.777030999808446
            ],
            [
              -122.2487130000625,
              47.77703299981217
            ],
            [
              -122.24917900021782,
              47.777038999822935
            ],
            [
              -122.24939299957975,
              47.77704000012651
            ],
            [
              -122.24951399995358,
              47.77704000012651
            ],
            [
              -122.24968600038102,
              47.77704099982635
            ],
            [
              -122.24993900010101,
              47.77704299982973
            ],
            [
              -122.25316600012984,
              47.77705899985377
            ],
            [
              -122.25383200030171,
              47.77705800015424
            ],
            [
              -122.25420499967228,
              47.77706000015693
            ],
            [
              -122.25781599984069,
              47.77707499987289
            ],
            [
              -122.25961000014179,
              47.77708200018157
            ],
            [
              -122.26068300001941,
              47.7770829998806
            ],
            [
              -122.26071499980645,
              47.777084000183336
            ],
            [
              -122.260738000271,
              47.777084000183336
            ],
            [
              -122.26334299961059,
              47.77708499988237
            ],
            [
              -122.26411300043786,
              47.77708499988237
            ],
            [
              -122.26457299984708,
              47.77708600018502
            ],
            [
              -122.26557299992977,
              47.77708699988401
            ],
            [
              -122.26558999964823,
              47.77708600018502
            ],
            [
              -122.26631299972149,
              47.77708699988401
            ],
            [
              -122.2666590002262,
              47.77708800018663
            ],
            [
              -122.26674600026483,
              47.77708800018663
            ],
            [
              -122.26682999993042,
              47.77708800018663
            ],
            [
              -122.26694100025851,
              47.77708699988401
            ],
            [
              -122.26704699966541,
              47.77708699988401
            ],
            [
              -122.268420000017,
              47.77708800018663
            ],
            [
              -122.27103299975253,
              47.777094999889876
            ],
            [
              -122.27077199963661,
              47.77687699989335
            ],
            [
              -122.27066299985667,
              47.77677200018363
            ],
            [
              -122.27054900005385,
              47.77663900000544
            ],
            [
              -122.27045799981724,
              47.776495000259565
            ],
            [
              -122.27039599989297,
              47.776347999768085
            ],
            [
              -122.27028600028812,
              47.776032999816515
            ],
            [
              -122.27027200004443,
              47.77599199984151
            ],
            [
              -122.27019199967847,
              47.77575800023419
            ],
            [
              -122.27007899970057,
              47.7754449997916
            ],
            [
              -122.2699759997684,
              47.77518299970071
            ],
            [
              -122.2698550002929,
              47.774907999848864
            ],
            [
              -122.26966199994905,
              47.77447300027475
            ],
            [
              -122.26961300044354,
              47.77435800000815
            ],
            [
              -122.26956200038994,
              47.77424399984455
            ],
            [
              -122.26950700013835,
              47.77408399977597
            ],
            [
              -122.26946899960522,
              47.773948999844535
            ],
            [
              -122.26944600003898,
              47.77372500015102
            ],
            [
              -122.26944900041204,
              47.77348000013611
            ],
            [
              -122.26947100015335,
              47.77317999995027
            ],
            [
              -122.26947799982604,
              47.773110999795556
            ],
            [
              -122.26949200006975,
              47.77294499998444
            ],
            [
              -122.26951299998615,
              47.77270899977722
            ],
            [
              -122.2695189998339,
              47.77264800029136
            ],
            [
              -122.26954999979604,
              47.77228100027088
            ],
            [
              -122.26956400003978,
              47.772124000186764
            ],
            [
              -122.26958599978107,
              47.771880000276575
            ],
            [
              -122.2696169997432,
              47.77155899978423
            ],
            [
              -122.26962199976607,
              47.77151400007596
            ],
            [
              -122.26966899962176,
              47.77099600012047
            ],
            [
              -122.26967199999478,
              47.770960999904744
            ],
            [
              -122.26967600019276,
              47.77091899973553
            ],
            [
              -122.26971300000268,
              47.770481999743204
            ],
            [
              -122.26971700020063,
              47.770248000094604
            ],
            [
              -122.26969100026136,
              47.7700650000073
            ],
            [
              -122.2696650003221,
              47.76995199992872
            ],
            [
              -122.26962099994118,
              47.769821000096734
            ],
            [
              -122.2695389999254,
              47.76964099984472
            ],
            [
              -122.26945100006188,
              47.769496000194884
            ],
            [
              -122.26939400016045,
              47.76941699970755
            ],
            [
              -122.26931499961941,
              47.7693259997159
            ],
            [
              -122.26917200040262,
              47.76919199996247
            ],
            [
              -122.26908299981582,
              47.76911999979013
            ],
            [
              -122.26891399976144,
              47.76900499976102
            ],
            [
              -122.26877999986714,
              47.7689249998795
            ],
            [
              -122.26862900025439,
              47.768845999732406
            ],
            [
              -122.26847799974333,
              47.768776999864926
            ],
            [
              -122.26818200036563,
              47.76865999995923
            ],
            [
              -122.26805000012116,
              47.76861500015763
            ],
            [
              -122.26787100002102,
              47.768567999987845
            ],
            [
              -122.26756399987434,
              47.76852200024304
            ],
            [
              -122.26749500027739,
              47.76850900020274
            ],
            [
              -122.26851999957613,
              47.76851499998954
            ],
            [
              -122.27051700026682,
              47.76855099990313
            ],
            [
              -122.27069100034407,
              47.76855900001474
            ],
            [
              -122.2706290004198,
              47.76674799996827
            ],
            [
              -122.27061099997815,
              47.76623900001544
            ],
            [
              -122.27052099956646,
              47.76623299996614
            ],
            [
              -122.27050100037327,
              47.766225000100576
            ],
            [
              -122.27049600035039,
              47.76605000024294
            ],
            [
              -122.27049399980227,
              47.76596499987533
            ],
            [
              -122.2704889997794,
              47.76576500002533
            ],
            [
              -122.2704889997794,
              47.76573400018508
            ],
            [
              -122.27048200010668,
              47.76540900010449
            ],
            [
              -122.27047899973365,
              47.7652810000802
            ],
            [
              -122.27047600025892,
              47.76517699982852
            ],
            [
              -122.27047299988587,
              47.76504400018491
            ],
            [
              -122.27047200006095,
              47.76496299971321
            ],
            [
              -122.27047100023603,
              47.76493100006615
            ],
            [
              -122.27046600021319,
              47.76472299976674
            ],
            [
              -122.27046200001521,
              47.76452100009081
            ],
            [
              -122.2704529997944,
              47.764107000109114
            ],
            [
              -122.27045100014455,
              47.76402200018945
            ],
            [
              -122.27044899959643,
              47.76394299984119
            ],
            [
              -122.27044199992373,
              47.763638999758996
            ],
            [
              -122.27044199992373,
              47.763608999817414
            ],
            [
              -122.270439000449,
              47.76347499982705
            ],
            [
              -122.27043500025103,
              47.763321000222945
            ],
            [
              -122.27043100005308,
              47.763153000025056
            ],
            [
              -122.27042600003021,
              47.76291999998115
            ],
            [
              -122.27042299965716,
              47.76274599984822
            ],
            [
              -122.27042000018241,
              47.76264499989281
            ],
            [
              -122.27042500020531,
              47.762561999956034
            ],
            [
              -122.27043699990087,
              47.76236199970258
            ],
            [
              -122.2704400002739,
              47.76231399993796
            ],
            [
              -122.27045799981724,
              47.762007000031055
            ],
            [
              -122.27046000036539,
              47.761981999699216
            ],
            [
              -122.27046100019031,
              47.761953999989636
            ],
            [
              -122.270467999863,
              47.76183499984799
            ],
            [
              -122.27047200006095,
              47.7617259999818
            ],
            [
              -122.26995900004997,
              47.761595999959106
            ],
            [
              -122.27003199984492,
              47.7615320001259
            ],
            [
              -122.26962500013913,
              47.76139700021944
            ],
            [
              -122.26953700027559,
              47.76136800019383
            ],
            [
              -122.2694109998789,
              47.76112799996532
            ],
            [
              -122.27022500018874,
              47.76093699971939
            ],
            [
              -122.27029700015878,
              47.76118900028183
            ],
            [
              -122.27049299997735,
              47.76116100014543
            ],
            [
              -122.27052599958932,
              47.76055000005902
            ],
            [
              -122.27054999987877,
              47.76011499995336
            ],
            [
              -122.27059400025969,
              47.7593189997342
            ],
            [
              -122.2706500003362,
              47.75831199988429
            ],
            [
              -122.27071100043557,
              47.75709699987684
            ],
            [
              -122.27073400000178,
              47.75670899994563
            ],
            [
              -122.27064000029046,
              47.75677100009774
            ],
            [
              -122.27052999978727,
              47.75684299985049
            ],
            [
              -122.27042400038039,
              47.75690499984293
            ],
            [
              -122.27024100008228,
              47.75699699990988
            ],
            [
              -122.27004699991352,
              47.75708199983369
            ],
            [
              -122.26986100014066,
              47.75715300028171
            ],
            [
              -122.26976800025426,
              47.757187000045185
            ],
            [
              -122.26959300035207,
              47.75724100019227
            ],
            [
              -122.26944100001612,
              47.75728099977296
            ],
            [
              -122.26927500033479,
              47.75731600013579
            ],
            [
              -122.2690800003411,
              47.757349999792744
            ],
            [
              -122.26887500030168,
              47.75738500010911
            ],
            [
              -122.26884599998935,
              47.757303999789706
            ],
            [
              -122.26882599989789,
              47.75725199986867
            ],
            [
              -122.26882000005008,
              47.75723599978957
            ],
            [
              -122.26880599980637,
              47.75720099997686
            ],
            [
              -122.26873600038451,
              47.75697800009975
            ],
            [
              -122.26822800039639,
              47.75572200009164
            ],
            [
              -122.26803599987745,
              47.75528099997768
            ],
            [
              -122.26837200033643,
              47.75512700027489
            ],
            [
              -122.26838900005488,
              47.754722999900125
            ],
            [
              -122.26698999976401,
              47.75212500000881
            ],
            [
              -122.26880800035454,
              47.75047500011214
            ],
            [
              -122.2690800003411,
              47.75022699985664
            ],
            [
              -122.2696369998347,
              47.749719999970054
            ],
            [
              -122.2710179996839,
              47.748339000045455
            ],
            [
              -122.2720370000332,
              47.74732000007893
            ],
            [
              -122.27413699975772,
              47.745020000281336
            ],
            [
              -122.27432300042886,
              47.74452599980457
            ],
            [
              -122.27561899988928,
              47.74109200023609
            ]
          ]
        ]
      },
      "properties": {
        "AREALAND": "15939387",
        "AREAWATER": "2755612",
        "BASENAME": "Kenmore",
        "CBSAPCI": "N",
        "CENTLAT": "+47.7515849",
        "CENTLON": "-122.2489509",
        "FUNCSTAT": "A",
        "GEOID": "5335170",
        "INTPTLAT": "+47.7498575",
        "INTPTLON": "-122.2472455",
        "LSADC": "25",
        "MTFCC": "G4110",
        "NAME": "Kenmore city",
        "NECTAPCI": "N",
        "OBJECTID": 25942,
        "OID": "27890836057929",
        "PLACE": "35170",
        "PLACECC": "C1",
        "PLACENS": "02410181",
        "STATE": "53",
        "DISP_CLR": 1,
        "slug": "kenmore",
        "jurisdiction_key": "kenmore_city",
        "county_fips": [
          "53033"
        ]
      }
    }
  ]
}
