{"type":"FeatureCollection","features":[{"type":"Feature","geometry":{"type":"MultiPolygon","coordinates":[[[[-119.00006699995116,47.414814000030105],[-119.00006600012624,47.41474100002566],[-119.00005799973032,47.413738999845876],[-119.00002400029345,47.40959599976573],[-119.0000140002477,47.408251999880825],[-119.00000900022484,47.40754799983176],[-118.99418700000383,47.40753699999382],[-118.99340799985407,47.407447999894075],[-118.99328099963245,47.4074330002518],[-118.99292400015537,47.407385999886],[-118.99253900019093,47.407336999886795],[-118.99222799984629,47.40729100014389],[-118.9918909995624,47.40722799984922],[-118.99148600040476,47.4071339999257],[-118.9912279997636,47.40707499986217],[-118.99101299967845,47.407020000155605],[-118.99063500028497,47.406923000146236],[-118.99006000034971,47.40678300009984],[-118.98883699978592,47.406485999963586],[-118.98824099993426,47.4063380002388],[-118.98820999997214,47.40640400012633],[-118.98575899972003,47.405799999913086],[-118.9842099996413,47.40541799975422],[-118.98417399965632,47.40552400009513],[-118.98415799976279,47.405570000165206],[-118.98408800034089,47.405780999892656],[-118.98105299993269,47.40501399974576],[-118.97882199978855,47.40439200025183],[-118.97882000013877,47.40560700021886],[-118.97882000013877,47.4075200001845],[-118.97880900026811,47.40825999993092],[-118.9787940001995,47.409293999979816],[-118.9787530001916,47.412437000046694],[-118.97873700029808,47.41344100004417],[-118.97872899990216,47.41397400026477],[-118.97872100040455,47.4145550000065],[-118.9787170002066,47.41487399989143],[-118.98159299970784,47.41485600006181],[-119.00006699995116,47.414814000030105]]],[[[-118.99164100021547,47.403488999727855],[-118.99166899980455,47.40332499971505],[-118.99152900006249,47.40332199979534],[-118.98978499999012,47.40330000017613],[-118.98975300020307,47.40447300002708],[-118.99095999997499,47.404487999904255],[-118.99149599955219,47.404494000218726],[-118.99151099962083,47.403943999763236],[-118.99164700006325,47.403943999763236],[-118.9916429998653,47.40362399977421],[-118.99164100021547,47.403488999727855]]]]},"properties":{"AREALAND":"1510880","AREAWATER":"0","BASENAME":"Krupp","CBSAPCI":"N","CENTLAT":"+47.4105199","CENTLON":"-118.9887021","FUNCSTAT":"A","GEOID":"5336395","INTPTLAT":"+47.4105199","INTPTLON":"-118.9887021","LSADC":"43","MTFCC":"G4110","NAME":"Krupp town","NECTAPCI":"N","OBJECTID":7334,"OID":"27890249576486","PLACE":"36395","PLACECC":"C1","PLACENS":"02412849","STATE":"53","DISP_CLR":4,"slug":"krupp","jurisdiction_key":"krupp_city","county_fips":["53025"]}}]}
