{"type":"FeatureCollection","features":[{"type":"Feature","geometry":{"type":"Polygon","coordinates":[[[-122.70586999959016,45.85226599989299],[-122.70585700006967,45.85182000012872],[-122.70507299989706,45.85182000012872],[-122.70474300018417,45.85182000012872],[-122.704668999666,45.85175699985686],[-122.70447600022047,45.85157699984898],[-122.70436099969443,45.85146899994006],[-122.70355300013065,45.85071199983637],[-122.7030419997695,45.849709000094684],[-122.70287199989016,45.849721999950035],[-122.70264500010946,45.84974900016928],[-122.70268799976715,45.84999800025259],[-122.70250700001719,45.85001500021515],[-122.70191899966315,45.848765000120984],[-122.70113700003861,45.84710200029528],[-122.70077899983835,45.84634099976371],[-122.70060599958597,45.84597300009988],[-122.69895699994817,45.84251800012831],[-122.69878600024394,45.842531999808564],[-122.69876399960434,45.84247699983752],[-122.69858500040249,45.842495000243616],[-122.69837199996715,45.842508999929706],[-122.69812699974476,45.842508999929706],[-122.69775000017624,45.84250999995185],[-122.69747200034188,45.84250999995185],[-122.69256800018783,45.842526999699686],[-122.69256900001272,45.84374999980864],[-122.69256999983764,45.84459200018795],[-122.6925730002107,45.84550400004203],[-122.69257499986051,45.846392999812394],[-122.69257700040865,45.847701000305705],[-122.69257900005849,45.8487010002322],[-122.69015600029378,45.8486639997643],[-122.68907900021819,45.84864799992636],[-122.68879800001076,45.84864400027906],[-122.6887589996527,45.84858000025105],[-122.68867499998713,45.84848000009901],[-122.68855299978841,45.8483590002628],[-122.68847800034364,45.848292000152405],[-122.68833600005341,45.848176000134636],[-122.68817399967169,45.84806099979731],[-122.68806900008971,45.847977999923],[-122.68804800017332,45.847947999696736],[-122.689778000002,45.84803900024976],[-122.69013500037737,45.84806500011228],[-122.69011899958552,45.84648900015962],[-122.68906499997448,45.84649000011022],[-122.68848699966614,45.8464910000608],[-122.68846199955179,45.84643700020068],[-122.68827999997691,45.846151000183475],[-122.68810199970169,45.84591299997149],[-122.68803599957945,45.845844000119264],[-122.68798100022616,45.8457950000725],[-122.6879619999596,45.84577400021804],[-122.68795100008894,45.84575500028327],[-122.6879259999746,45.84572700003827],[-122.68791199973089,45.845690000095104],[-122.68790699970802,45.845657999955336],[-122.68790800043124,45.845601000012714],[-122.68791699975375,45.845572999690205],[-122.68794500024119,45.84553199977354],[-122.68796899963229,45.84550000016861],[-122.68798899972376,45.84548300007772],[-122.68800899981524,45.84546899988851],[-122.68803300010471,45.84546100013637],[-122.68813400038704,45.845453999726566],[-122.68820700018199,45.84545499969577],[-122.6882640000834,45.84531600004943],[-122.68742800003223,45.84530299979012],[-122.68742899985712,45.84459900008049],[-122.68732400027515,45.844600000065064],[-122.68723800006141,45.84460100004963],[-122.68576099995273,45.84460200003416],[-122.6841449999269,45.84460400000319],[-122.68228399967863,45.844605999972146],[-122.68225500026463,45.84461199987852],[-122.68221300043184,45.84462299970526],[-122.68167000028362,45.84476199983161],[-122.68067400039888,45.84501199968903],[-122.68040599971197,45.845079999971524],[-122.6792480003438,45.84537300028406],[-122.67924599979568,45.84498700025447],[-122.67924400014589,45.84462500029931],[-122.67764400001353,45.84461799978431],[-122.67204400044871,45.84459600012665],[-122.67187100019635,45.8446149998315],[-122.67164400041563,45.8446149998315],[-122.67060900017282,45.84461599981579],[-122.67044299959313,45.84461699980006],[-122.67004299956008,45.84461999975276],[-122.6645319996837,45.844546000246645],[-122.66448800020108,45.844547000232176],[-122.66465999973022,45.844720999943014],[-122.66696600021736,45.846995999714714],[-122.66702899996658,45.84695800004771],[-122.66710299958639,45.846857000164405],[-122.6671789997544,45.84679699973798],[-122.66731900039478,45.84675999988078],[-122.667374999573,45.84673300008784],[-122.66741300010612,45.846662000106285],[-122.6674809998782,45.84660499994094],[-122.6675880000083,45.84655899978687],[-122.6676080000998,45.84651600007099],[-122.66766099980323,45.846488000209],[-122.66777999962892,45.846476000174434],[-122.66781099959105,45.846396000295044],[-122.66790000017782,45.846381999709884],[-122.66799800008715,45.8463050001829],[-122.66813399963124,45.84624499978684],[-122.66836899980791,45.84615599996663],[-122.66862900009887,45.84760600010343],[-122.66926799960827,45.84721899998731],[-122.66949199991423,45.84705999968798],[-122.66958399997574,45.84714300030631],[-122.67050000039288,45.84784300002884],[-122.67094100043383,45.84816199999744],[-122.67095999980208,45.848176000134636],[-122.67122900031391,45.848354000051906],[-122.67126399957573,45.8483770000172],[-122.67130100028395,45.848399999973026],[-122.67147899966088,45.848508000209755],[-122.67163799966954,45.84859500019576],[-122.67176099969318,45.848661999941235],[-122.67181000009698,45.848685999690346],[-122.67199500004489,45.84877700028748],[-122.67231399988714,45.848887000232935],[-122.67224399956693,45.84899600005532],[-122.67217300032013,45.849083999807746],[-122.67212899993919,45.84913900012986],[-122.67313200039497,45.84953299992533],[-122.67319599996905,45.84960599978588],[-122.67328800003055,45.849709999987404],[-122.67334199955893,45.84980000026956],[-122.67331700034288,45.84993100023931],[-122.67331200032001,45.84996299979809],[-122.67330099955106,45.85000900026575],[-122.6732699995889,45.850059000241245],[-122.6732550004186,45.85012299981889],[-122.67324299982471,45.850170000038666],[-122.67326899976398,45.85022200026216],[-122.67326700011417,45.8502550001622],[-122.67326799993909,45.85031900014005],[-122.67326799993909,45.850357999894904],[-122.6732699995889,45.85044400023632],[-122.67324199999982,45.85049999971782],[-122.67326000044147,45.8505239999253],[-122.67327700015993,45.850538999971484],[-122.6733180001678,45.85057499994068],[-122.67333499988622,45.85062099990218],[-122.67341100005423,45.85072000008475],[-122.67330700029714,45.850785999900005],[-122.67322299973324,45.85083200031267],[-122.67310999975534,45.8509519999044],[-122.67305000037918,45.851075999961346],[-122.6730429998082,45.85111600030422],[-122.67303799978532,45.85124099986073],[-122.67306399972459,45.85134000019113],[-122.67313499986967,45.8515300001925],[-122.67315400013626,45.85160200007609],[-122.67316199963386,45.851676000207],[-122.67315300031134,45.85177700009988],[-122.67313700041784,45.85183600030556],[-122.673128000197,45.85185000014368],[-122.67308399981607,45.85191300031018],[-122.67303600013548,45.85198399984613],[-122.67288499962443,45.85215300020124],[-122.67268399978299,45.85238900030428],[-122.67258300039896,45.85249899998895],[-122.67237800035954,45.852714999976655],[-122.67224399956693,45.85282299996879],[-122.67222100000069,45.85283899985708],[-122.67218300036588,45.85286199984487],[-122.67216199955116,45.85287399975312],[-122.67210200017503,45.85290399982523],[-122.67204100007568,45.85293399988116],[-122.67201000011352,45.85289900002287],[-122.67200000006778,45.852887999955634],[-122.67192100042506,45.852921999985846],[-122.67164799971528,45.853039999782354],[-122.67139499999529,45.853169999798496],[-122.67130399975868,45.85323299972109],[-122.67123699981154,45.85327899998694],[-122.67114800012305,45.85335400021638],[-122.67113300005448,45.85334499989389],[-122.67106199990934,45.85341699993052],[-122.67100099980998,45.85349400024894],[-122.67097099967273,45.85353199983054],[-122.67093300003792,45.853594999968685],[-122.67091799996928,45.85361999991437],[-122.67090000042593,45.85365899985724],[-122.6708819999843,45.85370300012891],[-122.6708679997406,45.85373700028659],[-122.67085299967198,45.85377499970211],[-122.67084500017435,45.85381199989838],[-122.67082799955762,45.853890999930705],[-122.67082000006,45.853931000125996],[-122.67081500003714,45.85398999992364],[-122.67081199966408,45.854030000047715],[-122.67081400021222,45.85408099997657],[-122.67082900028085,45.85422199986759],[-122.67084699982419,45.85429400002016],[-122.67102000007655,45.85426899975178],[-122.67105699988647,45.85436900013213],[-122.6710860001988,45.85443100013994],[-122.67113499970426,45.85450699987362],[-122.67119300032891,45.854579000282875],[-122.67134599959147,45.85473600013081],[-122.67145000024688,45.85481699970367],[-122.67159099981386,45.854916999724225],[-122.67170499961668,45.85499699986148],[-122.67191499967896,45.85514499974939],[-122.672022999634,45.855216999958294],[-122.67201900033436,45.85533300030733],[-122.67201900033436,45.85540099986005],[-122.67201799961113,45.855442999799884],[-122.67197099975546,45.855665999991864],[-122.67194300016635,45.85579699990935],[-122.67206199999205,45.85618399977815],[-122.67191600040219,45.85662200018301],[-122.67156499987459,45.8569610001077],[-122.67123599998662,45.8578520001929],[-122.67120900022243,45.858306999902325],[-122.6713199996522,45.85889499985437],[-122.67134599959147,45.859029000099156],[-122.67107600015305,45.859020000069464],[-122.67086000024298,45.85902200014571],[-122.67051399973825,45.85902499994714],[-122.66971899969495,45.859040999927906],[-122.66726400014319,45.85904200027847],[-122.66724499987662,45.86030900018644],[-122.66660700019217,45.86031100021632],[-122.66402899971844,45.860317000305436],[-122.66356699976109,45.86031800000744],[-122.66356599993617,45.85913500026943],[-122.66292499987867,45.85913899978795],[-122.66292400005375,45.8590319999002],[-122.66247499961688,45.85903100017508],[-122.66174200039616,45.859029000099156],[-122.65875899986649,45.85902499994714],[-122.65859200036024,45.85903699977675],[-122.65643700038412,45.859033000250875],[-122.65589400023592,45.8590319999002],[-122.6550570003598,45.859029999824315],[-122.65459899970209,45.859029999824315],[-122.65433500011146,45.859029000099156],[-122.65388999987253,45.859027999748356],[-122.65355199976372,45.859027999748356],[-122.65228600044055,45.85902499994714],[-122.6512400003271,45.859022999870994],[-122.65123399958101,45.858290999710306],[-122.65121799968747,45.85587700003191],[-122.64963699982172,45.85588099978474],[-122.64854700022565,45.85606599977056],[-122.64825299959945,45.856115999931575],[-122.64742800031725,45.85625599989313],[-122.64704500000262,45.856321000247014],[-122.64618200018727,45.85646799996825],[-122.64623200041598,45.85903800012734],[-122.6463880000516,45.85915499973592],[-122.64648099993799,45.85921499996904],[-122.64662800025108,45.8593090000164],[-122.6467639997952,45.8593840002464],[-122.64704599982754,45.85951300010499],[-122.64731000031648,45.85960300016373],[-122.6476009996713,45.85970199999751],[-122.64798999983374,45.85982500022794],[-122.64852100028638,45.85999399990241],[-122.6487050004094,45.86005300014903],[-122.64874300004423,45.86006499975679],[-122.64915700032101,45.86020000001403],[-122.64954599958511,45.86032699982703],[-122.6499940001971,45.86047200019476],[-122.65028299990212,45.86056599999387],[-122.65036200044312,45.86059200025628],[-122.65034900002433,45.86138500023059],[-122.64997499993054,45.86137300028213],[-122.64932800002524,45.86135099974429],[-122.6493530001396,45.86084799968875],[-122.64763199963342,45.86084999969925],[-122.64625599980708,45.86085599973024],[-122.64616799994356,45.860861999760594],[-122.64616700011864,45.86093600008165],[-122.64616999959337,45.86128699995011],[-122.64616700011864,45.86160700006114],[-122.64616100027084,45.862250000015415],[-122.64616299992069,45.862697999902736],[-122.64616299992069,45.86276799977408],[-122.64616600029373,45.863219000066955],[-122.64617799998929,45.863636000114546],[-122.6461770001644,45.86366400010167],[-122.64617600033948,45.86398100013427],[-122.64617399979134,45.86441300015358],[-122.6461720001415,45.864963999705836],[-122.64617399979134,45.865181999923685],[-122.64617999963913,45.86570900008678],[-122.64618100036235,45.865781999982495],[-122.6461720001415,45.86614099981417],[-122.64638700022668,45.86614000021692],[-122.64703300030703,45.86613700017383],[-122.6472490002171,45.86613700017383],[-122.64802199962077,45.86614999994225],[-122.6486640004015,45.86615100016487],[-122.64947399961511,45.866154000207196],[-122.64962199975312,45.86614600030252],[-122.65113800021986,45.8661430002598],[-122.65267300005485,45.86614999994225],[-122.65290900005641,45.86614800012242],[-122.65340399962571,45.866143999857044],[-122.6543250000657,45.86613700017383],[-122.65447099965559,45.86613599995092],[-122.65466599964925,45.86613499972804],[-122.65491000004671,45.86613299990766],[-122.6550570003598,45.86613299990766],[-122.65512099993391,45.86613299990766],[-122.65531299955457,45.86613499972804],[-122.65537700002696,45.86613599995092],[-122.65602999978002,45.86614000021692],[-122.65660899991323,45.866163999930016],[-122.6568580003336,45.86615700024932],[-122.6570619996498,45.86614899971958],[-122.65720599958983,45.86610399968952],[-122.65724800032095,45.86615199976197],[-122.65729699982641,45.866143999857044],[-122.6593079998625,45.86614500007981],[-122.65929000031915,45.86759099998001],[-122.65994100042238,45.86759200017674],[-122.65988799982064,45.87333800026762],[-122.65989399966843,45.873743999768145],[-122.6599349996763,45.87601000023005],[-122.66507099963393,45.876031999969875],[-122.66507700038004,45.87618799986516],[-122.66510400014423,45.87681700022395],[-122.66591000005818,45.87681000000857],[-122.67018099965233,45.87677600020075],[-122.67022000001039,45.87532199987754],[-122.67025900036845,45.87386800028752],[-122.67027299971384,45.87334400020175],[-122.67538000025748,45.87334099992206],[-122.6761779997755,45.87334099992206],[-122.67929699984931,45.87334099992206],[-122.67973000039268,45.87334200001527],[-122.68040700043518,45.87334200001527],[-122.68047299965913,45.87333999982877],[-122.68083699970718,45.87333000014598],[-122.68099300024112,45.873331000239446],[-122.68111399971663,45.87333199970743],[-122.68127799974816,45.87332599977205],[-122.68219300034036,45.87331999983598],[-122.68259400019836,45.8733180002741],[-122.6832379997306,45.87331600008674],[-122.68352700033391,45.873314999993],[-122.68352499978577,45.87338300007036],[-122.68352599961068,45.873629999853584],[-122.6835280001588,45.873946999969725],[-122.6835280001588,45.874097000236965],[-122.68353999985439,45.877004000022495],[-122.68471400001437,45.87700700010443],[-122.68501500031326,45.877008000131724],[-122.68564100030211,45.87700900015899],[-122.68573199964041,45.877001999967796],[-122.68571999994484,45.87652299980001],[-122.68567800011206,45.875637000245256],[-122.68567100043936,45.87524200021457],[-122.68567999976189,45.87481799982818],[-122.68562299986048,45.87352999971403],[-122.68563299990622,45.873445000141935],[-122.6856529999977,45.87340099985614],[-122.68570599970114,45.87334699985582],[-122.68574000003633,45.87333700017433],[-122.68580100013571,45.87331999983598],[-122.68590300024294,45.87331999983598],[-122.68608900001581,45.873322000023194],[-122.68648499985092,45.87333700017433],[-122.69061499987806,45.8733650002787],[-122.69041999988438,45.87320600030254],[-122.689962000125,45.87277299971342],[-122.68991400044443,45.87273000025075],[-122.68951199986321,45.872373000038316],[-122.68891400036172,45.87186400016556],[-122.68845200040437,45.8714599996946],[-122.68960599957454,45.87079299972838],[-122.68959999972677,45.870624999872184],[-122.69052299981655,45.87001399973962],[-122.69093100024558,45.869760999828195],[-122.69093899974318,45.866444999787674],[-122.69093999956809,45.866123999776875],[-122.69096399985756,45.865791999772235],[-122.69094399976606,45.86545799981675],[-122.69087099997111,45.86529800012726],[-122.69088000019195,45.86508499969703],[-122.6897720001542,45.86484800005641],[-122.6895389996274,45.8647750001853],[-122.68944400009116,45.86483999996383],[-122.68939300003753,45.864874999813054],[-122.68853000022217,45.865470999743906],[-122.688856999562,45.86556199977454],[-122.68900300005018,45.865492999902436],[-122.68931900041767,45.865577999750805],[-122.68937799996891,45.86566199986326],[-122.68939399986245,45.86615700024932],[-122.68954500037349,45.86618500021778],[-122.68933600013612,45.86671400005478],[-122.68931799969447,45.86671100004272],[-122.68913199992163,45.86666700005545],[-122.68880100038382,45.86657499974211],[-122.6886649999414,45.86647999987748],[-122.68859700016934,45.866416999950175],[-122.68860700021504,45.86668399992669],[-122.68706700035719,45.86671100004272],[-122.68703999969469,45.86601100009587],[-122.68703700021996,45.86599500024424],[-122.68616299963563,45.86598999974231],[-122.68591699958834,45.86598900014229],[-122.6859409998778,45.865956000195666],[-122.68597600003788,45.86594500020913],[-122.68603899978709,45.8658870001871],[-122.68598199988567,45.8658870001871],[-122.6858360002958,45.86588599995969],[-122.68383899960511,45.86588299990294],[-122.68386200006965,45.86611799968886],[-122.68300199972903,45.8661189999121],[-122.68297699961468,45.8661189999121],[-122.68242099994599,45.866123999776875],[-122.68238900015893,45.86614500007981],[-122.68235300017393,45.86615700024932],[-122.68229100024963,45.86616299970759],[-122.68214399993654,45.86616599974923],[-122.68169200002494,45.86614500007981],[-122.68162099987983,45.866138999994064],[-122.6814140001906,45.86613700017383],[-122.68103000005104,45.86613599995092],[-122.68065900033028,45.86615100016487],[-122.68059999988073,45.86617100023532],[-122.68049199992569,45.866143999857044],[-122.67979200031695,45.86611400004687],[-122.67977999972308,45.86434299985127],[-122.67977999972308,45.864132000033194],[-122.67974299991316,45.86242599997718],[-122.68027900038868,45.8624279999309],[-122.68036200022934,45.86242499968754],[-122.68069299976715,45.86242499968754],[-122.68031700002352,45.862223999902746],[-122.67934100023024,45.861642000069054],[-122.67919599956696,45.86148400001936],[-122.67881999982333,45.86107300010324],[-122.67865599979179,45.860703000301605],[-122.67845499995036,45.86008199977014],[-122.67845999997323,45.8600210001397],[-122.67851699987465,45.859389999809984],[-122.67854000033918,45.859131999848366],[-122.67854700001186,45.85905299975406],[-122.67837899978238,45.858878999831596],[-122.67828699972087,45.85885200029098],[-122.67808699970433,45.85879099993671],[-122.67748900020284,45.85861199990562],[-122.6772830003385,45.85860600025809],[-122.6767669999545,45.85859299997688],[-122.67534599992229,45.85885599982987],[-122.67382199995794,45.85935399991631],[-122.67337099987122,45.859380999838734],[-122.6729309996552,45.85940900009204],[-122.6724100001466,45.85950299981143],[-122.6724169998193,45.859482999844495],[-122.67244199993365,45.85929399983317],[-122.67247999956847,45.85902200014571],[-122.67248999961424,45.85894200016841],[-122.67307600031846,45.85898399993623],[-122.67321600006055,45.85829299981277],[-122.67343799981839,45.857641000139274],[-122.67388999973002,45.85674900003516],[-122.67419000020396,45.856300999761196],[-122.67448899995472,45.8559190002379],[-122.67432999994608,45.85585300025746],[-122.67475799956824,45.855382999876156],[-122.67556400038049,45.85466199969182],[-122.67598500032996,45.85434699995127],[-122.67642100034807,45.854057999867244],[-122.67711099991108,45.85365599976637],[-122.6777469999457,45.85334099995862],[-122.6779579998329,45.85355599998098],[-122.67827099982735,45.85341799975658],[-122.67823700039047,45.85338099992386],[-122.6785570000576,45.853250999775256],[-122.67840800009469,45.853061000022116],[-122.67914600023657,45.85279999996487],[-122.68003499999121,45.852545000236226],[-122.68085599997377,45.85236399980522],[-122.68128500031916,45.852289000117786],[-122.68133499964954,45.852435999860596],[-122.68159099974258,45.85239700031143],[-122.68227299980798,45.852317000188116],[-122.68226899961003,45.8520849998054],[-122.68226699996019,45.85186899987366],[-122.68249700011397,45.85184200005783],[-122.6829080000177,45.85182099998348],[-122.6834000001123,45.85180200023709],[-122.68378900027471,45.85180300009219],[-122.68416500001838,45.85181100018363],[-122.68421799972182,45.851812999893475],[-122.68458299959481,45.85181900027393],[-122.68465899976279,45.85182000012872],[-122.68474699962634,45.851821999838236],[-122.68488999974146,45.85182299969296],[-122.68496799955925,45.851825000028036],[-122.68505100029823,45.8519209997601],[-122.68512200044337,45.85196900018967],[-122.68523899972091,45.852009999741675],[-122.68534599985104,45.852036000250756],[-122.68550599968461,45.852076999753365],[-122.68573599983839,45.85214799970571],[-122.68583000044802,45.852195000091335],[-122.68763100042182,45.852155999747524],[-122.68906800034752,45.852155999747524],[-122.68985199962182,45.852155999747524],[-122.6909529999869,45.852155999747524],[-122.69095700018482,45.85243000017236],[-122.69133799995134,45.85243000017236],[-122.6913699997384,45.852635000310755],[-122.69211200007824,45.85262500003157],[-122.69245299966177,45.852620000204176],[-122.69260499999776,45.852618999738084],[-122.69262799956397,45.85518500029404],[-122.69263099993702,45.855436999810436],[-122.69761799993175,45.85543800022584],[-122.69770300032054,45.855442000010235],[-122.69777799976532,45.8554459997944],[-122.69787499984972,45.85545099999339],[-122.69806700036862,45.85544700020963],[-122.69819299986703,45.85544799999915],[-122.69828900012648,45.85544899978869],[-122.69839100023373,45.85545000020388],[-122.69858899970214,45.85545199978288],[-122.6987960002897,45.85545099999339],[-122.69906200042847,45.85545000020388],[-122.69929199968392,45.85545000020388],[-122.69946199956323,45.85544899978869],[-122.69976399968702,45.8554459997944],[-122.70001700030532,45.855444000215186],[-122.70023900006318,45.855442000010235],[-122.70036700010972,45.855442000010235],[-122.70056200010336,45.855441000220566],[-122.7006909999748,45.85543999980526],[-122.70092899962616,45.855439000015565],[-122.70104199960409,45.855439000015565],[-122.70123599977286,45.85543800022584],[-122.70137100039037,45.85543800022584],[-122.70153200004883,45.855436999810436],[-122.7017329998903,45.855436000020674],[-122.70192200003618,45.855436000020674],[-122.70207600002198,45.8554350002309],[-122.70225400029722,45.8554350002309],[-122.70260800029953,45.85543300002567],[-122.70273700017097,45.85543300002567],[-122.70282800040755,45.85543000003046],[-122.70288000028611,45.85542799982502],[-122.70289500035472,45.855372000300186],[-122.70290500040045,45.85530499987847],[-122.70293600036258,45.855129999694135],[-122.70300300030975,45.85501599976765],[-122.70324900035703,45.85486299991063],[-122.70302699970088,45.85461899998335],[-122.70285099997379,45.85442500004129],[-122.70280599976795,45.85437399980228],[-122.70247699987998,45.853948000137734],[-122.70294999970798,45.85384800025173],[-122.70337499985541,45.85376500025358],[-122.70379199960693,45.85367800022059],[-122.70411700019528,45.85361200008313],[-122.7040750003625,45.85322400000465],[-122.70404400040033,45.85273000005761],[-122.70403600000441,45.85258299984055],[-122.70401799956277,45.852410000164205],[-122.70397599972995,45.85222000004065],[-122.7038510000565,45.85190100019456],[-122.7039289998743,45.85189099978339],[-122.70394499976781,45.85188699974359],[-122.70423500019605,45.851833000116315],[-122.70431999968653,45.85182000012872],[-122.70456900010689,45.85182000012872],[-122.70457400012975,45.85226800021217],[-122.70465199994759,45.85226900005889],[-122.70585600024475,45.85226800021217],[-122.70586999959016,45.85226599989299]]]},"properties":{"AREALAND":"6871712","AREAWATER":"64234","BASENAME":"La Center","CBSAPCI":"N","CENTLAT":"+45.8601334","CENTLON":"-122.6752691","FUNCSTAT":"A","GEOID":"5336710","INTPTLAT":"+45.8604935","INTPTLON":"-122.6757266","LSADC":"25","MTFCC":"G4110","NAME":"La Center city","NECTAPCI":"N","OBJECTID":19919,"OID":"27890231883779","PLACE":"36710","PLACECC":"C1","PLACENS":"02411566","STATE":"53","DISP_CLR":4,"slug":"la_center","jurisdiction_key":"la_center_city","county_fips":["53011"]}}]}
