{"type":"FeatureCollection","features":[{"type":"Feature","geometry":{"type":"Polygon","coordinates":[[[-122.31342199979532,47.77015400024893],[-122.31394499985207,47.76953100018903],[-122.31221599984828,47.76953299987745],[-122.31214999972606,47.76988299971728],[-122.31214200022843,47.76992299984227],[-122.31118099960547,47.76992500011939],[-122.31120900009289,47.769783000175934],[-122.31114399979558,47.769783000175934],[-122.31032700001096,47.769765000044835],[-122.31032799983585,47.76963799971448],[-122.31033000038401,47.769203999981485],[-122.31020800018527,47.769204999832006],[-122.3097589997484,47.76920099982604],[-122.30957600034859,47.76919900012486],[-122.3095479998612,47.769061999880755],[-122.30954200001341,47.769019000135145],[-122.3094929996096,47.768788000121205],[-122.30934899966957,47.76808400016225],[-122.30924200043778,47.767550999811355],[-122.30923999988964,47.76700399972746],[-122.30813000020206,47.766999000263105],[-122.30813799969967,47.76679900016229],[-122.30814400044575,47.766682999932605],[-122.30820200017207,47.766624999720726],[-122.30820200017207,47.766569999751596],[-122.3079579997746,47.76656799994921],[-122.30704499973054,47.76655900023384],[-122.30676299969822,47.76655599992582],[-122.30673599993406,47.7651910000255],[-122.30672500006341,47.76439400023969],[-122.30644800005396,47.76434300010283],[-122.3062739999767,47.76431800028983],[-122.30626999977875,47.76374499997745],[-122.30626999977875,47.76357100018868],[-122.30626999977875,47.7629780000974],[-122.30646499977242,47.76298199997811],[-122.3080919996689,47.76300799979903],[-122.30771900029832,47.762226000153824],[-122.30764300013034,47.762070999883775],[-122.30753199980225,47.76184199979285],[-122.30734400037959,47.761465000216106],[-122.30699100020216,47.76127600000563],[-122.30657799975032,47.761059000124924],[-122.3062549997101,47.76088899984767],[-122.30586399989787,47.760684999747895],[-122.30578299970702,47.760641999719496],[-122.30500000025759,47.760212999919744],[-122.30451700038385,47.7599489997247],[-122.30385100021199,47.75958500017761],[-122.30372399999037,47.75948600019873],[-122.30363699995173,47.759364999767364],[-122.30360400033979,47.759216000286955],[-122.30354300024041,47.75877300009361],[-122.30354599971513,47.75870799975473],[-122.30355400011108,47.75867100022236],[-122.30373099966306,47.75838700009569],[-122.30397599988544,47.758397000075455],[-122.30424500039727,47.758390999725464],[-122.30419500016856,47.75828899970922],[-122.30406799994695,47.75815800009366],[-122.30348100031613,47.757873000117925],[-122.30285199995417,47.75756700004615],[-122.30263500021921,47.75743300019414],[-122.30249899977676,47.75730900018587],[-122.30240300041562,47.75718299971892],[-122.30232100039984,47.75699699990988],[-122.30211100033758,47.755614000212134],[-122.30207399962933,47.75488600011934],[-122.30205299971294,47.75413799972545],[-122.30239300036988,47.75310200005618],[-122.30331999975934,47.752645999970106],[-122.30262400034856,47.75197900027105],[-122.30303400042737,47.75106999997085],[-122.30300000009218,47.750158000055244],[-122.30218499995742,47.749845999784796],[-122.3017110003045,47.74966700009585],[-122.30152999965621,47.749622000171684],[-122.30134200023355,47.74959800015597],[-122.3011489998897,47.749595000077704],[-122.30104699978244,47.7496049999352],[-122.30095899991888,47.74961400016766],[-122.30068899958215,47.749681000238816],[-122.30052600027385,47.74975000006866],[-122.30017899994422,47.749815999741536],[-122.30011799984484,47.74981899980702],[-122.29988000019347,47.74981899980702],[-122.2992340001131,47.749820000030155],[-122.29910900043961,47.74979900017238],[-122.29898399986784,47.749697000225],[-122.29894799988281,47.74955500002462],[-122.29894299985995,47.749401000288124],[-122.29905599983785,47.74904399988763],[-122.29904199959417,47.7487620002511],[-122.29904199959417,47.74830999998966],[-122.29734199990273,47.74829799998269],[-122.29733400040512,47.74673399975654],[-122.29729800042008,47.74465000007149],[-122.2971500002821,47.744648000030544],[-122.29669699964725,47.74464300022988],[-122.29669199962439,47.74429400003177],[-122.29603600039657,47.74426300008273],[-122.29602100032797,47.74313600025464],[-122.2960310003737,47.74281400022333],[-122.2959269997183,47.74281299986555],[-122.29536900039979,47.74280700013488],[-122.29501399967424,47.74280200015743],[-122.2947209997713,47.742797999933465],[-122.29468399996136,47.74106400015854],[-122.29500500035174,47.74106100019253],[-122.29533500006463,47.741058000226296],[-122.29663399989803,47.741047000147304],[-122.29859499970541,47.74103099991844],[-122.29933200002237,47.7410240001943],[-122.2993119999309,47.739225000022586],[-122.29929000018957,47.73741299995585],[-122.2979450003254,47.73740400003015],[-122.29527200031544,47.73736699984953],[-122.293897000314,47.73736900017021],[-122.29389200029112,47.73693900014314],[-122.29379699985657,47.73693800027662],[-122.29312200036217,47.736930000135516],[-122.29290100042924,47.73687900026449],[-122.29275900013904,47.73679700017752],[-122.29218900022664,47.736309999962],[-122.29237099980149,47.73580199995736],[-122.29242799970292,47.73554299983845],[-122.29245600019031,47.735287999836764],[-122.29243500027391,47.733751000088496],[-122.29144400041206,47.73374200013407],[-122.29109799990732,47.733740000278246],[-122.28975300004312,47.73373200024998],[-122.28841499985162,47.733728999861434],[-122.28704999989593,47.73372099983151],[-122.28671099996221,47.73372400022048],[-122.28632299962472,47.733728999861434],[-122.28595699992681,47.73373200024998],[-122.28466300011623,47.73373699989017],[-122.28453800044277,47.73373699989017],[-122.28375799956979,47.73373500003415],[-122.28201199984758,47.73373699989017],[-122.2806340003714,47.73373500003415],[-122.27963299956546,47.73373500003415],[-122.27492799960304,47.73373200024998],[-122.27439700004871,47.73373200024998],[-122.27613699992312,47.739719999872214],[-122.27561899988928,47.74109200023609],[-122.27432300042886,47.74452599980457],[-122.27413699975772,47.745020000281336],[-122.2720370000332,47.74732000007893],[-122.2710179996839,47.748339000045455],[-122.2696369998347,47.749719999970054],[-122.2690800003411,47.75022699985664],[-122.26880800035454,47.75047500011214],[-122.26698999976401,47.75212500000881],[-122.26838900005488,47.754722999900125],[-122.26837200033643,47.75512700027489],[-122.26803599987745,47.75528099997768],[-122.26822800039639,47.75572200009164],[-122.26873600038451,47.75697800009975],[-122.26880599980637,47.75720099997686],[-122.26882000005008,47.75723599978957],[-122.26882599989789,47.75725199986867],[-122.26884599998935,47.757303999789706],[-122.26887500030168,47.75738500010911],[-122.2690800003411,47.757349999792744],[-122.26927500033479,47.75731600013579],[-122.26944100001612,47.75728099977296],[-122.26959300035207,47.75724100019227],[-122.26976800025426,47.757187000045185],[-122.26986100014066,47.75715300028171],[-122.27004699991352,47.75708199983369],[-122.27024100008228,47.75699699990988],[-122.27042400038039,47.75690499984293],[-122.27052999978727,47.75684299985049],[-122.27064000029046,47.75677100009774],[-122.27073400000178,47.75670899994563],[-122.27071100043557,47.75709699987684],[-122.2706500003362,47.75831199988429],[-122.27059400025969,47.7593189997342],[-122.27054999987877,47.76011499995336],[-122.27052599958932,47.76055000005902],[-122.27049299997735,47.76116100014543],[-122.27029700015878,47.76118900028183],[-122.27022500018874,47.76093699971939],[-122.2694109998789,47.76112799996532],[-122.26953700027559,47.76136800019383],[-122.26962500013913,47.76139700021944],[-122.27003199984492,47.7615320001259],[-122.26995900004997,47.761595999959106],[-122.27047200006095,47.7617259999818],[-122.270467999863,47.76183499984799],[-122.27046100019031,47.761953999989636],[-122.27046000036539,47.761981999699216],[-122.27045799981724,47.762007000031055],[-122.2704400002739,47.76231399993796],[-122.27043699990087,47.76236199970258],[-122.27042500020531,47.762561999956034],[-122.27042000018241,47.76264499989281],[-122.27042299965716,47.76274599984822],[-122.27042600003021,47.76291999998115],[-122.27043100005308,47.763153000025056],[-122.27043500025103,47.763321000222945],[-122.270439000449,47.76347499982705],[-122.27044199992373,47.763608999817414],[-122.27044199992373,47.763638999758996],[-122.27044899959643,47.76394299984119],[-122.27045100014455,47.76402200018945],[-122.2704529997944,47.764107000109114],[-122.27046200001521,47.76452100009081],[-122.27046600021319,47.76472299976674],[-122.27047100023603,47.76493100006615],[-122.27047200006095,47.76496299971321],[-122.27047299988587,47.76504400018491],[-122.27047600025892,47.76517699982852],[-122.27047899973365,47.7652810000802],[-122.27048200010668,47.76540900010449],[-122.2704889997794,47.76573400018508],[-122.2704889997794,47.76576500002533],[-122.27049399980227,47.76596499987533],[-122.27049600035039,47.76605000024294],[-122.27050100037327,47.766225000100576],[-122.27052099956646,47.76623299996614],[-122.27061099997815,47.76623900001544],[-122.2706290004198,47.76674799996827],[-122.27069100034407,47.76855900001474],[-122.27051700026682,47.76855099990313],[-122.26851999957613,47.76851499998954],[-122.26749500027739,47.76850900020274],[-122.26756399987434,47.76852200024304],[-122.26787100002102,47.768567999987845],[-122.26805000012116,47.76861500015763],[-122.26818200036563,47.76865999995923],[-122.26847799974333,47.768776999864926],[-122.26862900025439,47.768845999732406],[-122.26877999986714,47.7689249998795],[-122.26891399976144,47.76900499976102],[-122.26908299981582,47.76911999979013],[-122.26917200040262,47.76919199996247],[-122.26931499961941,47.7693259997159],[-122.26939400016045,47.76941699970755],[-122.26945100006188,47.769496000194884],[-122.2695389999254,47.76964099984472],[-122.26962099994118,47.769821000096734],[-122.2696650003221,47.76995199992872],[-122.26969100026136,47.7700650000073],[-122.26971700020063,47.770248000094604],[-122.26971300000268,47.770481999743204],[-122.26967600019276,47.77091899973553],[-122.26967199999478,47.770960999904744],[-122.26966899962176,47.77099600012047],[-122.26962199976607,47.77151400007596],[-122.2696169997432,47.77155899978423],[-122.26958599978107,47.771880000276575],[-122.26956400003978,47.772124000186764],[-122.26954999979604,47.77228100027088],[-122.2695189998339,47.77264800029136],[-122.26951299998615,47.77270899977722],[-122.26949200006975,47.77294499998444],[-122.26947799982604,47.773110999795556],[-122.26947100015335,47.77317999995027],[-122.26944900041204,47.77348000013611],[-122.26944600003898,47.77372500015102],[-122.26946899960522,47.773948999844535],[-122.26950700013835,47.77408399977597],[-122.26956200038994,47.77424399984455],[-122.26961300044354,47.77435800000815],[-122.26966199994905,47.77447300027475],[-122.2698550002929,47.774907999848864],[-122.2699759997684,47.77518299970071],[-122.27007899970057,47.7754449997916],[-122.27019199967847,47.77575800023419],[-122.27027200004443,47.77599199984151],[-122.27028600028812,47.776032999816515],[-122.27039599989297,47.776347999768085],[-122.27045799981724,47.776495000259565],[-122.27054900005385,47.77663900000544],[-122.27066299985667,47.77677200018363],[-122.27077199963661,47.77687699989335],[-122.27103299975253,47.777094999889876],[-122.27105899969177,47.777094999889876],[-122.27380899969467,47.77714200020136],[-122.27631699984816,47.777184999871125],[-122.27865500012238,47.77722499981279],[-122.28140699977506,47.777270999707625],[-122.28169800002821,47.777274000001206],[-122.28362700004851,47.77729199994796],[-122.28424899983942,47.7772970002339],[-122.28429700041835,47.77729799992879],[-122.28435799961939,47.77729799992879],[-122.28537000029598,47.77730700020064],[-122.28587300026123,47.77731199988144],[-122.28686300029817,47.777321999845334],[-122.28703900002529,47.77732399983787],[-122.28720100040698,47.77732399983787],[-122.2873860003549,47.77732599983032],[-122.28754199999051,47.77732700012839],[-122.28762800020425,47.77732799982274],[-122.28782300019792,47.777329999815045],[-122.28824400014737,47.77733399979946],[-122.28914600032081,47.77734199976732],[-122.28994800003679,47.777349000040026],[-122.29008699995396,47.777349000040026],[-122.29030100021421,47.777351999725404],[-122.29035899994055,47.77735899999679],[-122.29051999959901,47.77735899999679],[-122.290932000226,47.77736699996082],[-122.29103900035611,47.77736699996082],[-122.29163400038286,47.77736600026721],[-122.29176400007918,47.77736699996082],[-122.29222799968638,47.777370999942335],[-122.29233499981649,47.77737200023954],[-122.29242199985512,47.77737400023014],[-122.29249200017534,47.77737400023014],[-122.29367499965782,47.77738499987534],[-122.293785000161,47.77738499987534],[-122.29390599963652,47.777386999865485],[-122.29575500018919,47.77740299978367],[-122.29592000004563,47.77740400008021],[-122.2960370002215,47.77740600006963],[-122.29621499959843,47.777408000058934],[-122.2975939997978,47.77741999999321],[-122.29757399970632,47.776539000173926],[-122.2975529997899,47.77560099978097],[-122.29754399956909,47.77530699996819],[-122.29753100004861,47.77479700012017],[-122.2975290003988,47.77471900018539],[-122.29750799958408,47.773781999927415],[-122.29749599988853,47.77322700017826],[-122.29747800034518,47.77244899996669],[-122.29745700042876,47.77150599981518],[-122.29745599970555,47.77145700022861],[-122.29744800020794,47.771091000069724],[-122.29743700033728,47.77062100011967],[-122.29742499974338,47.770104999992256],[-122.29950500027475,47.77010999976183],[-122.30008900043084,47.77011100019871],[-122.30128000030925,47.77011400030166],[-122.30187699998582,47.770115000134645],[-122.30280599992344,47.77011699980065],[-122.30546200021497,47.770126999940736],[-122.3054780001085,47.77067999992388],[-122.3054839999563,47.77088300025351],[-122.30566999972912,47.77088400007176],[-122.30604299999801,47.770885999708156],[-122.30604700019596,47.771094000116136],[-122.30636400038838,47.77110400006835],[-122.30637400043412,47.771542000073424],[-122.30725999981568,47.771542999879],[-122.30725499979285,47.77106200001463],[-122.30725300014299,47.770824999895176],[-122.3072520003181,47.770624000193195],[-122.30804700036137,47.77062700026654],[-122.3082259995632,47.770753000172355],[-122.30860200020517,47.77094499981553],[-122.30923599969164,47.77114600008816],[-122.30941099959384,47.771201000048414],[-122.30971000024292,47.771300000071804],[-122.30982999989351,47.77135100002859],[-122.31000300014585,47.7714269999661],[-122.31018899991871,47.77134100012387],[-122.31053299987529,47.771201000048414],[-122.31057600043133,47.771187000261634],[-122.31131100020013,47.77095099992503],[-122.31152399973715,47.770874000077235],[-122.3117940000739,47.770777000091016],[-122.31300500004382,47.770343000202715],[-122.31342199979532,47.77015400024893]]]},"properties":{"AREALAND":"9109461","AREAWATER":"1631503","BASENAME":"Lake Forest Park","CBSAPCI":"N","CENTLAT":"+47.7574024","CENTLON":"-122.2864611","FUNCSTAT":"A","GEOID":"5337270","INTPTLAT":"+47.7589168","INTPTLON":"-122.2917458","LSADC":"25","MTFCC":"G4110","NAME":"Lake Forest Park city","NECTAPCI":"N","OBJECTID":22659,"OID":"27890836057932","PLACE":"37270","PLACECC":"C1","PLACENS":"02411603","STATE":"53","DISP_CLR":5,"slug":"lake_forest_park","jurisdiction_key":"lake_forest_park_city","county_fips":["53033"]}}]}
