{"type":"FeatureCollection","features":[{"type":"Feature","geometry":{"type":"Polygon","coordinates":[[[-122.13786699985114,47.98560499984441],[-122.13786299965318,47.98551499986782],[-122.13785599998049,47.98536200026892],[-122.13778499983538,47.985365999855524],[-122.13766500018477,47.985365999855524],[-122.13679999982128,47.985359999874255],[-122.13584599976932,47.98535399989228],[-122.13551400040663,47.98535299999545],[-122.1356120003159,47.98525399988999],[-122.13576499957847,47.98509799981215],[-122.13589699982295,47.98495300001848],[-122.1360759999231,47.98475800021352],[-122.13635999960522,47.98440899974108],[-122.1366180002464,47.984057000149484],[-122.13685300042305,47.98368999982482],[-122.13697499972345,47.98348199972749],[-122.137070000158,47.98332199996107],[-122.1372659999766,47.98294700027517],[-122.13735200019035,47.98271500024232],[-122.13739900004599,47.9825699997674],[-122.13747900041193,47.98233100015674],[-122.13757200029836,47.981937999953495],[-122.13763699969736,47.981539999911504],[-122.13765099994107,47.98140200015954],[-122.13767799970523,47.98113899987215],[-122.13768000025337,47.981004000194254],[-122.13748000023685,47.980517999873776],[-122.13735100036543,47.97998699977194],[-122.13721400009804,47.97946399970851],[-122.13712200003657,47.979198999738486],[-122.13707699983073,47.97875000019257],[-122.13714999962565,47.97854800020682],[-122.13722599979363,47.97842200004761],[-122.13748799973443,47.97817999976712],[-122.13770000034488,47.97804500016884],[-122.1376889995759,47.97797799995653],[-122.13768100007829,47.97793800015632],[-122.13765699978885,47.977825999708976],[-122.13755200020687,47.97769499996738],[-122.1374979997802,47.97763899981119],[-122.13739700039616,47.97751700003372],[-122.13723900021242,47.977359999974794],[-122.137070000158,47.977111999790004],[-122.1369780000965,47.97696699981387],[-122.13689400043091,47.97681799978332],[-122.13682599976055,47.976665000265065],[-122.13656600036786,47.97605500021757],[-122.1364209997046,47.97567400015755],[-122.13625599984816,47.975293000293014],[-122.13599399990733,47.97476400017755],[-122.13581999983005,47.97442700019513],[-122.13574299983715,47.97427599982853],[-122.13573100014159,47.974252000155744],[-122.1357250002938,47.97424000001445],[-122.135162999879,47.97426099995918],[-122.13512100004621,47.97447499996826],[-122.13513100009197,47.9748120002388],[-122.13512500024419,47.97524099970677],[-122.13510299960458,47.97569299995251],[-122.13509500010697,47.97593100014677],[-122.13262999961114,47.97588999988326],[-122.13252599985405,47.9758889998031],[-122.13237699989116,47.9758819998427],[-122.13236299964746,47.97624899975035],[-122.12963600010913,47.976207999739344],[-122.12963799975894,47.97611800021705],[-122.12963699993405,47.97586799991909],[-122.12963699993405,47.97576399985238],[-122.12965000035284,47.97520899973628],[-122.12966600024635,47.97457099998207],[-122.12966700007127,47.97450900000609],[-122.12966700007127,47.97449699992456],[-122.12466199963487,47.974516000152576],[-122.12473199995506,47.97095900000542],[-122.11961799973871,47.97094600012583],[-122.11952900005026,47.97449400020442],[-122.11423699955868,47.97445400011062],[-122.11379399986792,47.97445000027993],[-122.10894499996543,47.974413999985764],[-122.10895400018627,47.9735739998293],[-122.10406799957555,47.973553999730576],[-122.10406000007795,47.973576000079284],[-122.10372000031931,47.973576000079284],[-122.1038960000464,47.973267000227835],[-122.10250099995349,47.97324800014155],[-122.10249599993062,47.97314000027819],[-122.10246499996849,47.97251999983281],[-122.10241200026503,47.97143100017181],[-122.10238700015067,47.970910999971096],[-122.10237399973188,47.970641000299906],[-122.10112199975413,47.97061599995827],[-122.10109800036297,47.97091200014768],[-122.10065700032202,47.97091399989934],[-122.09577599973419,47.970893999973306],[-122.0957079999621,47.970923999859494],[-122.09547699998342,47.970923999859494],[-122.09519499995112,47.97092900013955],[-122.09464199975716,47.97093900009676],[-122.09400200042288,47.9709430001994],[-122.09365799956798,47.970932000066796],[-122.09314600028023,47.97091800000391],[-122.09310699992214,47.97088500018448],[-122.09055199991299,47.97087599979265],[-122.08772699956704,47.9708659998232],[-122.0877249999172,47.97089900025626],[-122.08771400004657,47.971512999929075],[-122.0876529999472,47.97486099975414],[-122.08762199998506,47.97487000005282],[-122.087618999612,47.97488499974526],[-122.087618999612,47.974909999824376],[-122.08762000033525,47.97494900006796],[-122.08762399963487,47.9750019998429],[-122.08762299980998,47.97505099977932],[-122.08760799974135,47.97513000011893],[-122.08761199993933,47.975182000215575],[-122.08762399963487,47.97523599984424],[-122.08762500035812,47.97528699974231],[-122.08763000038098,47.975350000077476],[-122.08763799987857,47.975437000070364],[-122.0876310002059,47.97549599987151],[-122.08763000038098,47.97554200028127],[-122.08762899965775,47.97560099996244],[-122.0876270000079,47.97564799976213],[-122.08761199993933,47.97570599983981],[-122.08761699996217,47.97576299976978],[-122.08762899965775,47.9758169999935],[-122.0876320000308,47.97587000008025],[-122.08762000033525,47.97592099995349],[-122.087618999612,47.97598199995976],[-122.087618999612,47.97602699985905],[-122.0875969998707,47.97607900025509],[-122.0875910000229,47.97614200022528],[-122.08760299971848,47.97618800005952],[-122.08761199993933,47.97623299977927],[-122.08760699991643,47.976281999750206],[-122.08760799974135,47.97633600003255],[-122.08760600009154,47.976385999976294],[-122.08760699991643,47.97643699994123],[-122.08760000024374,47.97648899992436],[-122.08760199989356,47.976533999983154],[-122.0875969998707,47.97660800012815],[-122.08759500022087,47.976666999793935],[-122.08758900037309,47.97675099978279],[-122.08758799964987,47.97680400011351],[-122.08758400035022,47.976854000205456],[-122.08757400030446,47.97691899995188],[-122.08756799955837,47.97696599975457],[-122.08756799955837,47.97701899986458],[-122.08756000006076,47.977078999719225],[-122.0875550000379,47.97713699999354],[-122.08755099983995,47.977188999873036],[-122.08755800041095,47.9772429998081],[-122.08755800041095,47.97729099997024],[-122.08759500022087,47.977365000233014],[-122.08757900032735,47.97817000000943],[-122.08745799995353,47.978167999937405],[-122.08684799985814,47.97816399979308],[-122.08670999976592,47.97816399979308],[-122.08643000028174,47.97816499982918],[-122.08629899986215,47.978161999720825],[-122.08616300031807,47.9781590002136],[-122.08601199980697,47.978157000141145],[-122.08556200044352,47.97815199995964],[-122.08541199975735,47.97815099992329],[-122.08514999981654,47.978147999814084],[-122.084913999815,47.97815099992329],[-122.08456700038366,47.978156000104896],[-122.08342300036091,47.978160000249794],[-122.08292600024346,47.978161999720825],[-122.08288100003762,47.9781590002136],[-122.0827460003184,47.97815299999598],[-122.08270199993747,47.97815099992329],[-122.08239599961571,47.978134999940266],[-122.08228400036104,47.978129999756625],[-122.08212399962916,47.97812200006313],[-122.08197499966623,47.978114999804156],[-122.08138399983746,47.978110000219935],[-122.08103200038326,47.97810800014558],[-122.08061499973341,47.97810600007116],[-122.08028300037071,47.97811399976709],[-122.0796070001531,47.97813199983012],[-122.07928699958767,47.97813099979338],[-122.07895500022495,47.978129999756625],[-122.07853900029835,47.97812700024755],[-122.07806800012013,47.97812400013698],[-122.07738000020697,47.97812100002619],[-122.07729300016834,47.97811899995227],[-122.07687800006664,47.978112999729994],[-122.07674499999725,47.97810800014558],[-122.07620100002416,47.97809100011172],[-122.07495800026719,47.978052999874265],[-122.0743330001032,47.97803499978369],[-122.07292299994165,47.97801400017119],[-122.07152299982589,47.977983000154886],[-122.07126000006014,47.97797199971786],[-122.07103699957909,47.97797599987706],[-122.0699529998308,47.97795600028072],[-122.0699600004018,47.97784499991471],[-122.07002200032606,47.97608299995958],[-122.06866900006597,47.976070000167155],[-122.0686659996929,47.976157000149584],[-122.06730900013311,47.97613899999933],[-122.06728200036895,47.97678400006321],[-122.0671679996678,47.97677800028711],[-122.06714799957633,47.97678400006321],[-122.06709900007085,47.97671100023472],[-122.06701799987998,47.97661999971907],[-122.06695599995571,47.97656400020096],[-122.06688800018365,47.97651200029337],[-122.06685300002354,47.97648899992436],[-122.0667860000764,47.97644399982639],[-122.06655500009771,47.976333999889434],[-122.06638400039348,47.97628100027901],[-122.06620100009538,47.976245000058725],[-122.06604899975943,47.97621500025688],[-122.0659840003604,47.976207999739344],[-122.06588399990298,47.97779999979587],[-122.06586200016169,47.978283999778185],[-122.06577199975,47.98030000027767],[-122.06576199970426,47.98122900026304],[-122.06583600022239,47.98184199980721],[-122.06580400043536,47.981936000027446],[-122.0657940003896,47.982038999726825],[-122.06579500021452,47.98210300020124],[-122.06581199993298,47.98258999998153],[-122.06581399958279,47.982907000115844],[-122.06581699995581,47.9831750001106],[-122.06581600013092,47.983619999931875],[-122.065807999735,47.98379799986854],[-122.06577799959776,47.98552699979357],[-122.06576599990221,47.986316999792976],[-122.0657669997271,47.98670899985536],[-122.06575500003154,47.9874970000899],[-122.06574400016089,47.98834600014535],[-122.06573300029024,47.988871000063924],[-122.06572999991721,47.98913700010857],[-122.06571999987146,47.99031500005881],[-122.06570300015302,47.99075599987691],[-122.06570300015302,47.99097300001672],[-122.06570300015302,47.99128899998754],[-122.06568700025949,47.99191399994468],[-122.06566799999294,47.99274600006384],[-122.06566700016802,47.99279099977896],[-122.06566399979496,47.992947999800265],[-122.06565499957412,47.99360700018929],[-122.06565100027449,47.99382700016309],[-122.06564600025162,47.994198000051966],[-122.06564000040383,47.9944880001882],[-122.0656370000308,47.99470899972836],[-122.06554099977132,47.99929100025072],[-122.06552300022798,48.00028700005018],[-122.06551700038018,48.000628999934975],[-122.06544700005998,48.000628999934975],[-122.06538299958754,48.000628999934975],[-122.06515099978398,48.00062700013205],[-122.0649979996231,48.00062700013205],[-122.06492200035343,48.00062700013205],[-122.06482400044413,48.000625999930016],[-122.06445799984793,48.000625999930016],[-122.06422699986925,48.000625999930016],[-122.06332499969582,48.00062199972278],[-122.0625690000106,48.00061800011633],[-122.06062200044695,48.000610999902655],[-122.05972100009845,48.000607999896665],[-122.05865400006861,48.00060400028912],[-122.05834199989906,48.00060300008665],[-122.05621399968712,48.00059500026939],[-122.05599799977708,48.00059500026939],[-122.05545600035208,48.00058999985703],[-122.0554229998418,48.00058999985703],[-122.05483600021095,48.00058999985703],[-122.05439000014714,48.00057900003008],[-122.05439099997206,48.000753000187345],[-122.05440299966762,48.001072999946295],[-122.05443199997993,48.001284000044414],[-122.05445899974409,48.00141000029824],[-122.05451800019365,48.001673000079755],[-122.05458799961552,48.002020000066416],[-122.05463500036953,48.002331000062995],[-122.0546400003924,48.00243399993462],[-122.05463899966915,48.002822000154474],[-122.05463700001934,48.002883999785944],[-122.05461100008007,48.003878000261395],[-122.05461000025515,48.003900999846735],[-122.05460299968415,48.004325999877146],[-122.05863999982489,48.004358999959244],[-122.05867400016008,48.00632900019683],[-122.05989699982554,48.00634599994589],[-122.05992000029009,48.00807199974693],[-122.05982499985551,48.00807199974693],[-122.05661000042056,48.008062999828155],[-122.05453999993495,48.008037000120666],[-122.0533390000108,48.008039000237325],[-122.0533380001859,48.00825000008863],[-122.05333599963777,48.00854600026229],[-122.05333200033812,48.00943600026835],[-122.05333200033812,48.00973300027134],[-122.05333200033812,48.009777000170835],[-122.05442600013214,48.00978100026912],[-122.05448700023152,48.00978100026912],[-122.0545769997449,48.00978100026912],[-122.0545769997449,48.01002400024829],[-122.05459000016366,48.01027099974374],[-122.05458900033877,48.01058899993608],[-122.05460900043023,48.01177899975499],[-122.05449100042946,48.01178300029895],[-122.0543390000935,48.0117900001984],[-122.05413900007696,48.01178800022721],[-122.05402199990108,48.01178800022721],[-122.05388200015899,48.01178400028465],[-122.05364399960932,48.01177899975499],[-122.053549999898,48.01178400028465],[-122.05346399968428,48.011780999726525],[-122.05332499976711,48.011776999783386],[-122.0531919996977,48.01177199985405],[-122.0531209995526,48.01176999988216],[-122.05279599986258,48.01176399996604],[-122.05266399961809,48.011761999993844],[-122.05217999991945,48.01175300011805],[-122.05207000031457,48.01175100014542],[-122.05182000006933,48.01174800018635],[-122.05096099955362,48.011737999720566],[-122.0509110002232,48.01173699973397],[-122.05072899975004,48.011735999747366],[-122.05024599987625,48.011735999747366],[-122.04984199964522,48.01173399977409],[-122.04954700009245,48.01173399977409],[-122.04898999970054,48.011714000037045],[-122.04904699960191,48.00989099984506],[-122.0479250002188,48.00988799977778],[-122.04732900036716,48.010217000105946],[-122.04636600009437,48.010748999903626],[-122.04563399980026,48.009884000288785],[-122.04509700039812,48.009088000249804],[-122.04478199985557,48.00862200028451],[-122.04438799967025,48.008022999902934],[-122.04436500010404,48.008022999902934],[-122.04433599979173,48.008023999961544],[-122.04423000038481,48.00803099977026],[-122.04402000032252,48.00806600000156],[-122.0439059996214,48.008085999951405],[-122.04413900014823,48.008427999816],[-122.04444499957165,48.008884999955846],[-122.04471900010635,48.00929399984668],[-122.04516599999512,48.00994099973868],[-122.04548599966225,48.010363999855464],[-122.04573000005972,48.01065499987767],[-122.04595900038858,48.01089999995109],[-122.04622299997921,48.01116100002925],[-122.04627099965978,48.01120799990296],[-122.04660399974573,48.01150399992613],[-122.04695400044841,48.01179100018397],[-122.04711599993179,48.01190200026368],[-122.04760200017861,48.01223800020181],[-122.04765499988207,48.01227399995805],[-122.04776500038521,48.01234999989499],[-122.04783800018016,48.01239999980828],[-122.04805699956496,48.01255099982895],[-122.04813000025821,48.0126020001181],[-122.0486509997668,48.01296100005469],[-122.04869400032283,48.012991000133766],[-122.04895500043874,48.01317000028283],[-122.04889199979124,48.015415000161404],[-122.04792900041674,48.015409000068516],[-122.0476080000264,48.016499000281286],[-122.04734299971253,48.01735699975697],[-122.04717399965814,48.01796800007495],[-122.04689400017396,48.0189249997304],[-122.0476570004302,48.01893400015708],[-122.04854399963669,48.018945000275856],[-122.04852199989537,48.01916399991234],[-122.04976600037557,48.01917899995216],[-122.04957700022966,48.02064600006677],[-122.05047199983207,48.02066599994457],[-122.05034100031082,48.02173900009762],[-122.05031100017358,48.02198299999293],[-122.05088600010886,48.021999000201816],[-122.05095499970584,48.02200099977697],[-122.05262400033345,48.0220459998103],[-122.05256800025695,48.022481999888655],[-122.05253700029479,48.022802999796994],[-122.05253599957159,48.022961000180146],[-122.05254300014258,48.02306599984366],[-122.05254899999038,48.02314400022773],[-122.05257499992963,48.02338099995426],[-122.05258699962522,48.02348599996391],[-122.0526750003871,48.02428499988032],[-122.05277400012126,48.025167000195474],[-122.05282500017489,48.0256460001692],[-122.05284799974113,48.02579699984895],[-122.05290600036577,48.02611299980019],[-122.05296900011493,48.02634600028009],[-122.05306299982628,48.02666100017221],[-122.05317800035232,48.02704599989584],[-122.05322799968272,48.02718400014526],[-122.05329499962987,48.02743200003044],[-122.05341900037675,48.02784699984829],[-122.05357400018745,48.02836500027989],[-122.05364699998238,48.028674000097006],[-122.05369800003601,48.028991000083955],[-122.05370800008174,48.02911100023355],[-122.05371099955646,48.02914700022394],[-122.05372200032546,48.02954399990197],[-122.05372200032546,48.02957799970804],[-122.05372399997525,48.029682000070984],[-122.05372499980017,48.029717000024625],[-122.0537270003483,48.02989800024664],[-122.05372899999814,48.02997900000401],[-122.0537349998459,48.030335999842784],[-122.05373900004388,48.03044100010215],[-122.0537399998688,48.03046099978401],[-122.05429200023784,48.03044100010215],[-122.0572530001279,48.03029399991946],[-122.05725099957976,48.03033000028498],[-122.05725599960263,48.03041899996257],[-122.0572530001279,48.03054600014759],[-122.05727700041734,48.03067199979952],[-122.0573460000143,48.030850999838584],[-122.05775000024536,48.03168299974216],[-122.05790699970586,48.0319640000433],[-122.05803899995036,48.03217399972111],[-122.05821899987542,48.03215400010332],[-122.0582530002106,48.03214899974716],[-122.05835699996767,48.032136999851424],[-122.05839200012777,48.032133000286066],[-122.05853100004497,48.032116000027244],[-122.05894899962136,48.0320679997962],[-122.05908900026178,48.032051999709275],[-122.0601189995834,48.03193000000929],[-122.06032399962278,48.03190799990459],[-122.06084000000685,48.031855999892926],[-122.06129100009356,48.031794999847065],[-122.06259999997273,48.031653999927414],[-122.06304600003656,48.03159300024313],[-122.06403199987558,48.031478000287436],[-122.06526799995983,48.03133400008025],[-122.06563399965772,48.03129100016146],[-122.06673300037296,48.03116299979969],[-122.06709999989575,48.03112099994958],[-122.0677300000826,48.03104600026091],[-122.06832500010937,48.030979999988034],[-122.06959200015575,48.03082800025769],[-122.07005999996089,48.03077200008592],[-122.0702159995965,48.03075499997886],[-122.07064800031496,48.03070900012034],[-122.07077600036146,48.0306930002122],[-122.07121800022735,48.03063899973452],[-122.07179300016264,48.03057300014182],[-122.07237599959551,48.030511999778696],[-122.07245799961125,48.030500999725206],[-122.07301900020113,48.030433999731095],[-122.0738419998335,48.03034200000069],[-122.07415999985085,48.03030699987077],[-122.07418300031537,48.030303999789886],[-122.07451100037842,48.03027600002767],[-122.07497900018359,48.03024299970904],[-122.07557300038539,48.03021199982744],[-122.0761719997118,48.030198999852125],[-122.0767609998908,48.030180999927154],[-122.07750499988046,48.030180999927154],[-122.07769400002634,48.0301690001739],[-122.07794900029448,48.030154999957645],[-122.07841499955147,48.0301469999182],[-122.07886599963818,48.03014899977797],[-122.08010900029343,48.030101000117725],[-122.08028400019563,48.03009499993176],[-122.08127000003462,48.030065999824124],[-122.08186400023648,48.0300449997567],[-122.08194500042734,48.0300399997966],[-122.08245599989019,48.03001499998883],[-122.08273500044773,48.02999699999958],[-122.08365199979146,48.0299410001263],[-122.084476999972,48.02988000021653],[-122.08453800007136,48.02987400000483],[-122.08506399960282,48.029831000069315],[-122.08569299996473,48.02978399974945],[-122.08595400008068,48.029765000042566],[-122.08624199996075,48.02974399985249],[-122.08699299962309,48.029700999808455],[-122.08703199998118,48.02969599981498],[-122.08743299983918,48.02965099985188],[-122.08921899974433,48.02951800021184],[-122.08981100029635,48.02946699983423],[-122.09026300020797,48.0294349998425],[-122.09039399972924,48.02942600004771],[-122.09124499984901,48.02936099974785],[-122.09250400039781,48.029261999974665],[-122.09267900029998,48.029248000112766],[-122.09358099957508,48.02917699989633],[-122.09395499966892,48.02914900012251],[-122.09416999975407,48.029132999730045],[-122.09474800006237,48.02908499972422],[-122.0953410004393,48.029046999788015],[-122.09649799998253,48.02895399973115],[-122.0966929999762,48.028939999785585],[-122.0975650000124,48.0288809998015],[-122.0980329998175,48.028852999866864],[-122.09970599974478,48.0287129999656],[-122.0998539998828,48.02870099987053],[-122.10113199979983,48.02859899985091],[-122.10164200033611,48.02855900023569],[-122.10398499973486,48.0283809997093],[-122.10472899972454,48.02831999975532],[-122.10514800002422,48.028285999720126],[-122.10572299995945,48.028245000195554],[-122.10622500009978,48.028222000052395],[-122.10640400019993,48.02820000016703],[-122.10712700027322,48.028135999791736],[-122.1071620004333,48.02813300018519],[-122.10825399967919,48.02804999998833],[-122.10929399994488,48.02799300013036],[-122.10944100025799,48.02798099986769],[-122.11020000031624,48.027920999713785],[-122.11016699980597,48.027668999866655],[-122.11007899994243,48.026983000181545],[-122.1100689998967,48.026915999819195],[-122.11003200008678,48.026665999859354],[-122.10996099994163,48.02619200008611],[-122.10991400008601,48.02579600013502],[-122.10985800000947,48.02540299991102],[-122.10981000032892,48.0250139998127],[-122.10975199970429,48.024622999708455],[-122.1096549996199,48.023829000187156],[-122.10954900021301,48.02304600029618],[-122.109505999657,48.02265500028415],[-122.10947700024298,48.02226200014466],[-122.1093879996562,48.02146000011947],[-122.1097180002674,48.02146900010357],[-122.10982899969719,48.0214720000979],[-122.11026700026339,48.021471000300075],[-122.11032400016482,48.021471000300075],[-122.11099500035955,48.02148499987115],[-122.11141899978377,48.021493999850854],[-122.11156500027194,48.021499999836465],[-122.11227199955339,48.021532999744906],[-122.11285999990743,48.02155599986887],[-122.1131810002978,48.0215600002551],[-122.11345300028437,48.02156499983622],[-122.11391100004377,48.02156700002901],[-122.1146519996604,48.021578000186835],[-122.11499300014225,48.02157999977826],[-122.11524000001444,48.0215819999705],[-122.11567600003252,48.02159399992055],[-122.11579599968314,48.021596999907636],[-122.11703400031554,48.02160899985418],[-122.11823900043764,48.02162399978345],[-122.11879699975616,48.02163199994423],[-122.11932099963782,48.02165100024598],[-122.11997500011411,48.02165400022976],[-122.12036400027652,48.02165899980177],[-122.12199399964778,48.02168199986947],[-122.12225999978654,48.02169099981483],[-122.12237799978733,48.02168700003962],[-122.12251900025264,48.021683000264055],[-122.12255000021479,48.021511000008594],[-122.12250699965877,48.02032800000632],[-122.1224189997952,48.017919999886246],[-122.12174400030081,48.017913000217995],[-122.12173900027797,48.0176259997831],[-122.12172900023224,48.01701299984978],[-122.12561200038718,48.01704799999416],[-122.12557899987688,48.014373999733195],[-122.12557899987688,48.01433299995921],[-122.12437999960255,48.014322000058286],[-122.1243119998305,48.01072599976608],[-122.12266200036777,48.01071699970943],[-122.11949499971507,48.01070100020587],[-122.11911200029876,48.010699000192446],[-122.11903399958261,48.010699000192446],[-122.11903100010791,48.01061000011785],[-122.11898300042732,48.00891900016735],[-122.12263499970527,48.00893200010091],[-122.1242709998226,48.00894099986803],[-122.12423400001268,48.00712999992627],[-122.1224110002976,48.00712400007132],[-122.1196090004162,48.0071170001395],[-122.11914999993357,48.0071160000633],[-122.11900199979556,48.0071160000633],[-122.11900199979556,48.00701600015899],[-122.11899900032085,48.00530400023689],[-122.11899799959761,48.005004000221355],[-122.1189959999478,48.00399799997115],[-122.1189959999478,48.003892999939865],[-122.11899500012288,48.003561999850525],[-122.11899699977269,48.00351500022127],[-122.11892900000063,48.00351500022127],[-122.11795800023025,48.00350799979965],[-122.11753899993062,48.003503000270705],[-122.11740500003631,48.003500999978144],[-122.11708100017118,48.00352099989499],[-122.11699300030764,48.00352499987742],[-122.11691600031475,48.003387000003556],[-122.11664900035107,48.00297000010147],[-122.1166329995592,48.00294000020338],[-122.11661900021383,48.0028799997538],[-122.11650700006082,48.0023960001868],[-122.11633899983137,48.00228500008309],[-122.11622599985344,48.00235799980996],[-122.11614399983769,48.00225300004675],[-122.11572799991109,48.00195399989362],[-122.1144890003521,48.00145400008541],[-122.11431600009972,48.001383000055085],[-122.11422300021329,48.00135299983515],[-122.11399300005954,48.001279000299924],[-122.1137720001266,48.001174000143685],[-122.11316600022919,48.00078699974883],[-122.11319800001624,48.00076500017655],[-122.11331000016922,48.00068100019344],[-122.11350099996496,48.00053999991429],[-122.11376000043101,48.00039899985086],[-122.1137870001952,48.000384999964176],[-122.11381800015734,48.00036900026082],[-122.11399399988446,48.00028200020901],[-122.114053000334,48.00025300015917],[-122.11413899964938,48.000210000158845],[-122.11426099984814,48.00015099975062],[-122.11440399996327,48.00009100026471],[-122.11444400014624,48.00007499986908],[-122.11449500019987,48.00005799985649],[-122.11463099974398,48.00001400008084],[-122.11472299980548,47.999986999708135],[-122.11485500004997,47.999959999922375],[-122.11492600019508,47.9999459999166],[-122.11514399975496,47.999925000201365],[-122.11525400025816,47.999922999770064],[-122.11536300003809,47.99992800024708],[-122.11541200044188,47.99993300012252],[-122.11546199977231,47.999937999997464],[-122.11556600042768,47.99995699987852],[-122.11585299958455,48.00003499975988],[-122.11595600041503,48.00006800018277],[-122.11612200009638,48.000121000016414],[-122.11631200006715,48.000182999888736],[-122.1165249996042,48.000248999923016],[-122.11674800008527,48.00032299973352],[-122.11718900012622,48.000465999813954],[-122.1176169997484,48.00059700007355],[-122.11775900003863,48.00063900015057],[-122.11805899961428,48.000714000203146],[-122.11850999970098,48.00080199972501],[-122.11897199965833,48.00087499974727],[-122.1190880000093,48.00089099989478],[-122.1194339996157,48.0009389997065],[-122.11990499979389,48.000988000269636],[-122.12104799999173,48.00108799983932],[-122.12178799978345,48.001152999726145],[-122.12255400041273,48.00121699994153],[-122.12264300010119,48.00122500026342],[-122.12268800030704,48.00123199979269],[-122.12280999960747,48.00124000011224],[-122.12293199980618,48.001250000209446],[-122.12303999976122,48.00126200008305],[-122.12303399991343,48.00134699990928],[-122.12303200026362,48.00147000005335],[-122.12302800006564,48.001658999937774],[-122.12301800001991,48.002132999883926],[-122.12300899979908,48.002541999824174],[-122.1229879998827,48.00352399973158],[-122.12228599972583,48.00352300018677],[-122.12231300038833,48.00357899991045],[-122.12252099990245,48.003826000220364],[-122.12264300010119,48.00396299998445],[-122.12273000013984,48.004059999992315],[-122.12294799969972,48.00423399982811],[-122.12313900039373,48.004365000135834],[-122.12356500036609,48.0044670000258],[-122.12390199975168,48.004657999996155],[-122.12418499960889,48.00474700012466],[-122.12432799972403,48.0045999999918],[-122.12432799972403,48.00456700006388],[-122.12432100005132,48.00282799990878],[-122.12433100009706,48.00234900009623],[-122.12433699994484,48.002020000066416],[-122.12434100014282,48.001841999862485],[-122.12434899964042,48.00144500021397],[-122.1243620000592,48.000823000285436],[-122.12437299992985,48.000285000233966],[-122.12438600034866,47.99975399971154],[-122.12449599995351,47.999259999787846],[-122.12458800001502,47.99884000007718],[-122.12464099971845,47.99863100008203],[-122.12483200041248,47.99811899992446],[-122.12487800044325,47.997913000176986],[-122.12492399957567,47.99752799988827],[-122.12493899964429,47.99742499983916],[-122.12496899978153,47.99731799972212],[-122.1250080001396,47.997210999984276],[-122.1250990003762,47.9970090001047],[-122.12531299973813,47.99661599984947],[-122.12541999986824,47.99641799997728],[-122.12554200006696,47.99618500009265],[-122.1255720002042,47.99611999995777],[-122.12571000029645,47.99596800022902],[-122.12578100044155,47.995880999969245],[-122.12579200031222,47.995869000046255],[-122.12457100029657,47.99590600010036],[-122.12439999969406,47.995912000057935],[-122.12441899996064,47.995835000249386],[-122.12444499989988,47.99401000021642],[-122.12445999996851,47.99303000025331],[-122.12465499996216,47.992899999767836],[-122.12481099959777,47.99279400023952],[-122.12499800009384,47.992665999872244],[-122.12553200002122,47.9923040000551],[-122.12580599965763,47.992118999830666],[-122.12661599976954,47.99156199983312],[-122.12815800017555,47.99050999991147],[-122.12828399967393,47.99042500026668],[-122.12869399975274,47.99013899995997],[-122.12903100003663,47.98990900000555],[-122.1292479997716,47.98976000005255],[-122.12975699958463,47.9894129999713],[-122.13027100031886,47.989062000060706],[-122.13069999976594,47.98905299983124],[-122.1345550003318,47.98908999996306],[-122.1345639996543,47.98907500018906],[-122.13479600035623,47.9887309998062],[-122.13510000012984,47.98829999972049],[-122.13536700009354,47.987879999774705],[-122.13562800020944,47.98761799987829],[-122.13587500008164,47.98739700003076],[-122.1359789998387,47.98730499985337],[-122.13635700013049,47.98700700011343],[-122.13752299989454,47.986109000060104],[-122.13753200011536,47.9860990000345],[-122.13772999958377,47.98591100015431],[-122.13782099982038,47.98576499974937],[-122.13786699985114,47.98560499984441]]]},"properties":{"AREALAND":"26316614","AREAWATER":"4049571","BASENAME":"Lake Stevens","CBSAPCI":"N","CENTLAT":"+48.0017382","CENTLON":"-122.0920502","FUNCSTAT":"A","GEOID":"5337900","INTPTLAT":"+48.0034046","INTPTLON":"-122.0968276","LSADC":"25","MTFCC":"G4110","NAME":"Lake Stevens city","NECTAPCI":"N","OBJECTID":29029,"OID":"27890921610442","PLACE":"37900","PLACECC":"C1","PLACENS":"02411607","STATE":"53","DISP_CLR":3,"slug":"lake_stevens","jurisdiction_key":"lake_stevens_city","county_fips":["53061"]}}]}
