{
  "type": "FeatureCollection",
  "features": [
    {
      "type": "Feature",
      "geometry": {
        "type": "Polygon",
        "coordinates": [
          [
            [
              -117.91079300008009,
              47.20248899975677
            ],
            [
              -117.91203199963908,
              47.20151900010353
            ],
            [
              -117.91077899983638,
              47.20074900010964
            ],
            [
              -117.90983599965509,
              47.20016300020979
            ],
            [
              -117.9113160001368,
              47.19898400025807
            ],
            [
              -117.91036999958246,
              47.1984319998772
            ],
            [
              -117.9045800000468,
              47.195032999901784
            ],
            [
              -117.90227299973476,
              47.19685199984522
            ],
            [
              -117.90180599975452,
              47.19723399987484
            ],
            [
              -117.9002359997594,
              47.198471000099296
            ],
            [
              -117.89715699986857,
              47.2009020002855
            ],
            [
              -117.89699899968483,
              47.20102900012427
            ],
            [
              -117.90027199974443,
              47.20295599983082
            ],
            [
              -117.90051500031699,
              47.203098999704416
            ],
            [
              -117.90258900010224,
              47.20432200016707
            ],
            [
              -117.9027330000423,
              47.20440700001964
            ],
            [
              -117.90367200002564,
              47.20496000015066
            ],
            [
              -117.90432800015175,
              47.205346000241505
            ],
            [
              -117.90470200024555,
              47.20557299993671
            ],
            [
              -117.90593499995677,
              47.20629299987191
            ],
            [
              -117.91079300008009,
              47.20248899975677
            ]
          ]
        ]
      },
      "properties": {
        "AREALAND": "750695",
        "AREAWATER": "0",
        "BASENAME": "Lamont",
        "CBSAPCI": "N",
        "CENTLAT": "+47.2006872",
        "CENTLON": "-117.9049392",
        "FUNCSTAT": "A",
        "GEOID": "5338215",
        "INTPTLAT": "+47.2006872",
        "INTPTLON": "-117.9049392",
        "LSADC": "43",
        "MTFCC": "G4110",
        "NAME": "Lamont town",
        "NECTAPCI": "N",
        "OBJECTID": 2315,
        "OID": "27890256943251",
        "PLACE": "38215",
        "PLACECC": "C1",
        "PLACENS": "02412875",
        "STATE": "53",
        "DISP_CLR": 3,
        "slug": "lamont",
        "jurisdiction_key": "lamont_city",
        "county_fips": [
          "53075"
        ]
      }
    }
  ]
}
