{"type":"FeatureCollection","features":[{"type":"Feature","geometry":{"type":"Polygon","coordinates":[[[-122.57942300006032,47.166384999918854],[-122.57942100041048,47.1662169999833],[-122.57941300001455,47.165777999955615],[-122.57941100036474,47.16573000017774],[-122.57929400018888,47.16567499997176],[-122.57925200035609,47.165351000001216],[-122.57923599956423,47.16515600028784],[-122.57922700024173,47.16509599985616],[-122.5792189998458,47.165035999967486],[-122.57921800002089,47.16478299976276],[-122.5792399997622,47.16468400015131],[-122.57924899998302,47.164616999883904],[-122.57924999980794,47.16454400003415],[-122.57925900002878,47.163520999711146],[-122.57923300008952,47.162726999907505],[-122.57921399982294,47.1620529998422],[-122.57917299981506,47.161809000106494],[-122.57910800041603,47.16134200014587],[-122.5790420002938,47.16048000027075],[-122.57906599968493,47.16038000007712],[-122.57917399963996,47.16042500012648],[-122.57911699973856,47.15864900023729],[-122.57908599977642,47.1563880002258],[-122.57908099975356,47.15615399985486],[-122.57907999992864,47.15609099971989],[-122.57907900010372,47.156021000296796],[-122.57907800027881,47.1559849999642],[-122.57907699955558,47.15563300004231],[-122.57907699955558,47.154872000148124],[-122.57907599973069,47.15417599979907],[-122.57907499990577,47.15236899983983],[-122.57668700030115,47.152353999793334],[-122.57641399959137,47.15235000022818],[-122.57641199994153,47.15070800028663],[-122.57641299976645,47.150601000102114],[-122.57641399959137,47.1487180002293],[-122.57384100003883,47.14871899973077],[-122.5735370002652,47.14871899973077],[-122.56855600011826,47.14867599976912],[-122.56852900035408,47.14867599976912],[-122.56849199964584,47.148675000266834],[-122.56847099972944,47.148675000266834],[-122.56847099972944,47.14866599985825],[-122.56847199955436,47.148562000185436],[-122.56847199955436,47.148432999815064],[-122.56847300027758,47.14819899985026],[-122.56847300027758,47.14795700028599],[-122.5684740001025,47.147719000144875],[-122.56847499992742,47.147474999956614],[-122.56847499992742,47.14723599996083],[-122.56847599975231,47.14707000024397],[-122.56847599975231,47.146704999805266],[-122.56847599975231,47.14668700015233],[-122.56848099977518,47.14664899991458],[-122.5684890001711,47.146342000229275],[-122.56845999985879,47.14608299984628],[-122.56847300027758,47.14594099987443],[-122.56848599979807,47.14570699993653],[-122.56850000004177,47.1453659998538],[-122.56851400028548,47.14531600022219],[-122.56856199996602,47.14506399977446],[-122.56866700044633,47.14417499994049],[-122.56864900000467,47.14414699989185],[-122.56862700026338,47.14412000002738],[-122.56857500038481,47.14409699972469],[-122.56852400033121,47.144093000149184],[-122.56853400037694,47.14316399985674],[-122.568530000179,47.143042000140866],[-122.56853199982882,47.14241099984612],[-122.56853500020186,47.142299000123764],[-122.56853799967658,47.14147500019375],[-122.56854000022471,47.141265999749386],[-122.56854799972234,47.1412329999579],[-122.56854000022471,47.14116600005893],[-122.56852299960798,47.139544000052204],[-122.56852199978304,47.139463999801364],[-122.567532999571,47.13945900020178],[-122.56751300037784,47.13946700004975],[-122.56742299996615,47.139497000079835],[-122.56733199972957,47.1395190002541],[-122.56718299976666,47.1395190002541],[-122.5671080003219,47.13950299996161],[-122.5670449996744,47.13946700004975],[-122.5670389998266,47.13945599995299],[-122.56680299982503,47.13945500027735],[-122.564026000058,47.13944099992848],[-122.5632019997024,47.13943399975266],[-122.56389700018659,47.1376219998864],[-122.56661100020443,47.13055399971207],[-122.56815100006231,47.12654399974593],[-122.56849800039191,47.12628999971069],[-122.57035399971898,47.124940000191344],[-122.56778399964118,47.122918999882415],[-122.56743700020986,47.122591000248306],[-122.56736199986678,47.12254899992922],[-122.56659000028804,47.12195499989925],[-122.56598600004044,47.12147699982992],[-122.56574500001604,47.121619999747175],[-122.56553800032678,47.121746999757505],[-122.56468200018413,47.121057999821424],[-122.56453200039631,47.12093900019037],[-122.56449399986315,47.1209630001425],[-122.56366899968262,47.12145400012367],[-122.5634400002521,47.121582999942255],[-122.5633220002513,47.121498000111174],[-122.5628929999059,47.12119000004589],[-122.56282599995876,47.12115099990251],[-122.56278300030105,47.1210079999472],[-122.56276300020957,47.12093900019037],[-122.56216399998485,47.120459000096304],[-122.56085599993057,47.11944600009288],[-122.56076999971685,47.119377000144084],[-122.56070899961748,47.11932200025376],[-122.56062400012698,47.11926500019623],[-122.55970699988497,47.119267999750406],[-122.55936399975327,47.119269999860556],[-122.55824200037017,47.119278000300554],[-122.55796399963752,47.11927899974416],[-122.55792799965249,47.119249999977946],[-122.55758399969588,47.1189710002812],[-122.55742499968724,47.1188430003054],[-122.5572959998158,47.118738000300716],[-122.55701299995857,47.11850800011948],[-122.55688499991207,47.11841699983976],[-122.55661100027568,47.11819299994574],[-122.55566399989642,47.11880899998308],[-122.55463899969938,47.1195550001219],[-122.55425700010795,47.11984599973375],[-122.55381799971681,47.120229000019286],[-122.55321799966717,47.12070400021422],[-122.55272499974768,47.12111599981218],[-122.54985199972116,47.12281799992917],[-122.54805999996822,47.12387900024989],[-122.5471629998177,47.12439499979871],[-122.5465460000496,47.12473699986885],[-122.54641899982802,47.12480800010286],[-122.54532300038414,47.125235000071044],[-122.54413900017843,47.125662000278986],[-122.5438970003291,47.12575500025765],[-122.54380600009249,47.12579400008197],[-122.54348999972501,47.12593899986773],[-122.5429740002393,47.12622599970304],[-122.54293800025427,47.12624600001929],[-122.54293599970613,47.12613399986272],[-122.54293499988121,47.126085999723415],[-122.54292499983549,47.12516499974003],[-122.54286399973613,47.12506099993383],[-122.5427420004357,47.12485900002309],[-122.54274499991044,47.12483999974691],[-122.5427780004207,47.12465100023331],[-122.54281199985758,47.12304299989566],[-122.54285600023852,47.121141999724294],[-122.54286799993407,47.12041899999489],[-122.54269800005474,47.12039100027275],[-122.5414679998183,47.12039899993286],[-122.54147200001626,47.11955199997272],[-122.54146399962033,47.119364000063996],[-122.5411370002805,47.1193680002771],[-122.54013600037287,47.119372999931706],[-122.5401520002664,47.120881000006605],[-122.54015599956605,47.12110000009505],[-122.54015599956605,47.12116900025439],[-122.53983599989891,47.12117299972047],[-122.53883199961825,47.121182999912556],[-122.53882999996841,47.12110900028038],[-122.53882599977047,47.120889000204315],[-122.53881099970185,47.11938199979788],[-122.53748500010421,47.11939100027383],[-122.5372440000798,47.11939100027383],[-122.5366390000073,47.11939599992632],[-122.53588300032206,47.11939900008434],[-122.53457199989475,47.119403000294774],[-122.53326300001555,47.11940699989361],[-122.53240400039816,47.11941100010344],[-122.53194900011349,47.11941200015588],[-122.53127500044401,47.11941400026062],[-122.53062400034077,47.11941699980635],[-122.52995999981871,47.11942100001547],[-122.52929899966975,47.11942500022425],[-122.52799999983628,47.1194319999776],[-122.52627599985539,47.1194409998338],[-122.52599200017326,47.119442999937505],[-122.52555100013231,47.11944600009288],[-122.52532099997853,47.11944900024804],[-122.52400000040377,47.11945499994671],[-122.52266600041023,47.119461999696114],[-122.52089100037574,47.11947100015854],[-122.52002299963917,47.119474999752256],[-122.5191370002576,47.119480000008096],[-122.51737200026885,47.11948200011033],[-122.5160469995978,47.11948999990715],[-122.51538399979898,47.11949200000897],[-122.51472100000018,47.119497000263245],[-122.51339600022747,47.11950600010846],[-122.5134000004254,47.119787000146935],[-122.51342299999163,47.12128599994792],[-122.51474600011453,47.12127999984451],[-122.51679399996051,47.12131299979364],[-122.52124600020296,47.12129000001648],[-122.52134300028735,47.121288999999386],[-122.52134199956411,47.121360999960956],[-122.52134599976209,47.12291499993634],[-122.52134400011224,47.123088999758025],[-122.52259400044021,47.12308199987456],[-122.52267200025803,47.12308199987456],[-122.52270800024303,47.124809000053816],[-122.52271099971776,47.124884999939624],[-122.52230599966181,47.124886999838665],[-122.52169800011458,47.12489000029823],[-122.52137800044743,47.124893000146464],[-122.52025899964072,47.12515299979625],[-122.5187000004146,47.12551599980053],[-122.51826600004634,47.12570000023731],[-122.51827600009207,47.12613399986272],[-122.51828500031291,47.126519999866694],[-122.5182860001378,47.12673700013844],[-122.51872200015592,47.126734999697796],[-122.52009100030955,47.12672699976798],[-122.52061299964306,47.12672400002318],[-122.52069600038203,47.12672300010823],[-122.52141299970924,47.12671999975199],[-122.52164899971079,47.12671899983696],[-122.52309200038258,47.126710999904695],[-122.52341100022481,47.12670900007428],[-122.52542800010868,47.12670000022513],[-122.5282969999372,47.1266899998477],[-122.52840700044038,47.126688999932064],[-122.52941800039375,47.12668600018517],[-122.53205500041868,47.126673999973285],[-122.53337799964328,47.12666500011825],[-122.53364399978206,47.12666300028606],[-122.53418699993028,47.12666099984263],[-122.53468700042079,47.126656000261654],[-122.53567699955944,47.12664799970875],[-122.53743999989838,47.126641000293574],[-122.53888600004491,47.12663099990507],[-122.53903400018292,47.12663600009955],[-122.54103699982308,47.12662399987644],[-122.54155599968185,47.126627000238095],[-122.54189700016371,47.12663299973841],[-122.54204199992864,47.12673800005318],[-122.54121500009832,47.127268999780014],[-122.54041300038232,47.1278580002926],[-122.53946199980508,47.12862499997453],[-122.53890600013642,47.12905299973269],[-122.53843699960804,47.12936799978065],[-122.53784499995432,47.12982899983865],[-122.53680700023682,47.13047499983638],[-122.5360690000949,47.130910999899406],[-122.53568300030553,47.13113999979879],[-122.53550699968012,47.13124399994261],[-122.53527300022671,47.13138299996419],[-122.53318400037284,47.13261999999942],[-122.53055800021855,47.13413400028626],[-122.53043299964675,47.1342009998798],[-122.52935999976911,47.134676999752024],[-122.52810199994353,47.13524600013625],[-122.52732699999173,47.13561000006282],[-122.5260230001354,47.1362240000074],[-122.52520499962758,47.13660800004771],[-122.52405300010723,47.13727100027376],[-122.52310999992592,47.13788400027717],[-122.52269499982424,47.1381370002409],[-122.52242100018785,47.13830400005249],[-122.52168700024393,47.138722999876244],[-122.5208040003371,47.13912699995135],[-122.520328000136,47.13938700029407],[-122.51968200005565,47.139585000111225],[-122.51868100014805,47.139850000221756],[-122.51747000017814,47.14018299989685],[-122.51683900016636,47.14044899973897],[-122.51629000017037,47.14069499970869],[-122.5149129996208,47.141436000258],[-122.51445200038665,47.14105499980345],[-122.51410300040722,47.14079099985008],[-122.5138840001241,47.14066099990983],[-122.51364899994745,47.140542000137046],[-122.5132430000666,47.14036699969982],[-122.51307099963914,47.14029699973028],[-122.51211199956431,47.13993599972471],[-122.51173599982067,47.139782999802044],[-122.51052300020095,47.13931700025635],[-122.51034300027588,47.1392530000365],[-122.51018900029011,47.1392090000698],[-122.51007600031221,47.13918299982236],[-122.50995900013633,47.13916199980125],[-122.50987600029566,47.13915300022617],[-122.50966399968523,47.13914000009033],[-122.50950800004962,47.139136999823535],[-122.50919800042823,47.13914600001239],[-122.50861699974686,47.13917299995884],[-122.5085260004086,47.13909099978487],[-122.50841000005764,47.13910900017671],[-122.50772600034243,47.139132999874874],[-122.50762099986214,47.139136999823535],[-122.50704199972891,47.13915700017328],[-122.50528699978587,47.13916700003981],[-122.50456299988768,47.13917200027791],[-122.50231400020024,47.139186999767254],[-122.50184899986985,47.13918800005896],[-122.49760400021493,47.13917899987717],[-122.49742299956668,47.13918200014163],[-122.49742099991684,47.13920599980685],[-122.49709299985379,47.14130200027626],[-122.49686199987511,47.142789000298514],[-122.496129999581,47.147975000119864],[-122.49586900036341,47.150190999958895],[-122.49579400002033,47.15083299973262],[-122.49569399956292,47.15138599973159],[-122.4956080002475,47.15208800026083],[-122.49554999962287,47.152121000034064],[-122.4894479999177,47.15568700027895],[-122.48925399974893,47.155801999830715],[-122.48876199965434,47.155801999830715],[-122.48800699979402,47.155801999830715],[-122.48656400002052,47.15579100005968],[-122.4855199995569,47.15579399999746],[-122.48351500026693,47.155793000018214],[-122.4822449998475,47.155797999914235],[-122.48157899967563,47.15580299980979],[-122.48065800013393,47.155811000252605],[-122.48001399970339,47.155815000168104],[-122.4799509999542,47.155732000026966],[-122.47946100040777,47.155734999968075],[-122.47558199955246,47.1557580001219],[-122.47294100022785,47.15577099985918],[-122.47294100022785,47.15564799977417],[-122.47294000040293,47.155626000166016],[-122.47293899967971,47.15536799980518],[-122.47293799985479,47.154898000053],[-122.47293299983193,47.15413499999714],[-122.47267900028703,47.154137000018],[-122.47007599969892,47.15415200017213],[-122.4684959996581,47.154161000262604],[-122.46810099964789,47.15416599970129],[-122.46795300040819,47.15416899973086],[-122.46793800033959,47.15477799977503],[-122.46792800029385,47.15588199992992],[-122.46791099967709,47.15673700014884],[-122.46789800015661,47.15759399993982],[-122.46788999976069,47.158341000298314],[-122.46789300013374,47.158774999864335],[-122.46787600041532,47.15942700011275],[-122.4678549996006,47.15958000030389],[-122.46776199971417,47.16006900009231],[-122.46772699955407,47.160228000253085],[-122.46746200013853,47.16114199976137],[-122.46724799987827,47.16215200008125],[-122.46724500040354,47.16264800019184],[-122.4673840003207,47.16293499980325],[-122.46762699999496,47.16315999984236],[-122.46778099998076,47.16333399991957],[-122.46787899989003,47.16344500007122],[-122.46789599960847,47.16358899997189],[-122.46907599961622,47.16497999984738],[-122.4703269997691,47.16638900025984],[-122.47122399991964,47.16737799989729],[-122.47134100009552,47.16751200010086],[-122.47145599972323,47.1676730000943],[-122.47166199958757,47.16801699982204],[-122.47171199981628,47.16818399981508],[-122.4717799995883,47.16831799981744],[-122.47180800007575,47.168424000008216],[-122.47182300014434,47.16854300026424],[-122.47182800016724,47.16866200025362],[-122.4718259996191,47.16876499994191],[-122.47180899990066,47.168918000112235],[-122.47170699979338,47.17020300020172],[-122.47201099956702,47.17020300020172],[-122.47190000013727,47.17031200002358],[-122.4717849996112,47.170425999973325],[-122.47169000007496,47.170524000173835],[-122.4715589996554,47.17064999972966],[-122.47140700021775,47.17080000026519],[-122.47107699960655,47.171125999968176],[-122.47018899967682,47.172002999923556],[-122.46949200044115,47.17269199995999],[-122.46913699971559,47.173036999812176],[-122.46900600019434,47.173119000135905],[-122.46874300042862,47.173383000124595],[-122.4684129998174,47.1737100001022],[-122.46815000005168,47.173971000073614],[-122.46762899964477,47.174492000204665],[-122.46733599974183,47.174783999884205],[-122.4668830000053,47.17524399979462],[-122.46677300040045,47.17536400025751],[-122.46664299980579,47.17551300008341],[-122.46662299971428,47.175536000224234],[-122.46660299962281,47.175559999962275],[-122.46658400025456,47.175583000082696],[-122.46656400016306,47.17560699979953],[-122.46648799999508,47.17569699970955],[-122.46652200033027,47.175708999848865],[-122.4663209995905,47.17598199984315],[-122.46608600031219,47.1763020000985],[-122.46606600022068,47.17633699989497],[-122.46598400020491,47.1764680000972],[-122.46590399983896,47.1765989999763],[-122.465827999671,47.17673099972798],[-122.46574700037846,47.1768810001855],[-122.46567799988316,47.177015000227726],[-122.46561299958583,47.17715000011969],[-122.46549299993525,47.177421000277974],[-122.46567100021048,47.177424000215666],[-122.46583699989182,47.177421000277974],[-122.4661089998784,47.17742499978778],[-122.46627799993279,47.177425999970495],[-122.46623000025222,47.17755399999841],[-122.46606299984764,47.178067999808135],[-122.46592300010555,47.17849699982425],[-122.46584699993758,47.17898600011157],[-122.46581099995257,47.179291000201715],[-122.46580199973172,47.17945599987048],[-122.46580799957951,47.179620000106354],[-122.46586000035639,47.17976699992445],[-122.46602900041076,47.180145999812765],[-122.46645100018516,47.180844000283074],[-122.46654900009446,47.18107199990398],[-122.4665459997214,47.181305999814334],[-122.46654499989648,47.18152400006048],[-122.46653400002582,47.181635000054726],[-122.46651300010943,47.181745999816904],[-122.46648299997219,47.18185599985837],[-122.46644399961413,47.18196400008804],[-122.46590800003693,47.183168999762955],[-122.46584699993758,47.18328200012597],[-122.46577499996756,47.18339200003758],[-122.46569200012686,47.18349800005866],[-122.46559900024046,47.183600000213225],[-122.4654970001332,47.18369799991376],[-122.46538499998022,47.18379099973016],[-122.4652650003296,47.183879000299214],[-122.46513599955985,47.18396099975461],[-122.46502699977992,47.18403699995579],[-122.46492499967268,47.184117999721096],[-122.46491200015218,47.18412800028652],[-122.46483099996134,47.184203000193584],[-122.46474599957251,47.18429300018641],[-122.46466899957963,47.184386000181526],[-122.46460199963248,47.18448200016312],[-122.46454399990618,47.184581000114925],[-122.46451600031708,47.184684000066184],[-122.4648150000678,47.18468800024997],[-122.46726600031995,47.184720999922824],[-122.46861200000906,47.18472900028448],[-122.47389399955657,47.184789999949636],[-122.47393600028768,47.18480499999669],[-122.47395100035628,47.1848200000395],[-122.47404800044066,47.18482600029965],[-122.47490500040823,47.18481799995262],[-122.47517300019682,47.184821000082906],[-122.47562299956033,47.184825000256325],[-122.47624600007448,47.18477900007523],[-122.47662400036624,47.18477800003107],[-122.47782000026754,47.1847719997655],[-122.47826499960816,47.18477000028735],[-122.47893099978002,47.184766000109754],[-122.4796560004014,47.184764000020884],[-122.47998399956617,47.18476099988737],[-122.48006599958191,47.18476199993189],[-122.4836740002756,47.184747999917484],[-122.48439700034886,47.184746999872694],[-122.48603699976586,47.18474000016924],[-122.48629200003397,47.18474000016924],[-122.48716099969711,47.18471400021595],[-122.48861299969144,47.18471899983226],[-122.4888350003476,47.184719999877586],[-122.49184100044349,47.18472999971906],[-122.49275399958927,47.18473399989937],[-122.49366499998351,47.18472900028448],[-122.4945450004156,47.1847240000586],[-122.497347000297,47.184708999988665],[-122.49752399984901,47.184708999988665],[-122.49830399982369,47.184708999988665],[-122.50051599970122,47.18474899996225],[-122.50102700006236,47.184742000259014],[-122.50466900019289,47.18469900014318],[-122.50488199972993,47.18469600000605],[-122.50498200018734,47.18469700005179],[-122.50498300001226,47.18477499989835],[-122.50499399988291,47.185460000156034],[-122.5050130001495,47.18662700011191],[-122.5050139999744,47.18664800030459],[-122.50502599966997,47.18736300007589],[-122.50504499993656,47.18854699986525],[-122.50504599976148,47.18860999997097],[-122.50504699958637,47.188672000031026],[-122.50505099978432,47.188906000018896],[-122.50505400015737,47.18908199992478],[-122.5050569996321,47.18926500018625],[-122.50506000000516,47.18944599990424],[-122.50506300037819,47.1896229998039],[-122.50506500002803,47.189756000091975],[-122.50506599985295,47.18979799982454],[-122.50506900022597,47.18997099998593],[-122.50506900022597,47.19000899976586],[-122.50506800040108,47.190062999856195],[-122.50507699972361,47.190536000254745],[-122.5054499999925,47.190537000190425],[-122.50861799957178,47.190568000019745],[-122.50877900012858,47.19056999988997],[-122.50877099973266,47.19065499979847],[-122.50877199955758,47.19179000007447],[-122.50877199955758,47.19200600018313],[-122.51473199987083,47.1919699998191],[-122.51579499970273,47.19265300022212],[-122.51579700025087,47.19303599984679],[-122.51591799972637,47.19538500000208],[-122.51593000032027,47.195598999837436],[-122.51789199995251,47.19557199986871],[-122.52088399980474,47.19553100027423],[-122.52115199959333,47.19552100002595],[-122.52122000026371,47.19562700024265],[-122.52129200023371,47.19576099997172],[-122.52140900040959,47.196069000234566],[-122.52147899983146,47.19628599984569],[-122.52123399960908,47.19628599984569],[-122.52126700011937,47.19823100020311],[-122.52126899976918,47.19838200012965],[-122.52131800017298,47.1983919998388],[-122.52133499989142,47.198394999812194],[-122.52140299966348,47.1984300003033],[-122.52145999956488,47.19845700003856],[-122.52149899992297,47.19847799982314],[-122.52158400031176,47.198502999962756],[-122.52166100030466,47.19851600022604],[-122.5218260001611,47.19853000027121],[-122.52190599962873,47.198528000090604],[-122.52197500012403,47.19851999997774],[-122.52206200016266,47.19850399974837],[-122.52219699988186,47.198459000221824],[-122.52227899989762,47.19842599993443],[-122.52243399970833,47.19835000019321],[-122.52253699964048,47.19831000009298],[-122.52258199984635,47.19830199994724],[-122.52265600036449,47.198289000241914],[-122.52284200013733,47.198238999749165],[-122.52325399986599,47.198138000050704],[-122.52330999994247,47.19814600022117],[-122.5233760000647,47.19813100028201],[-122.52343499961594,47.19812999987898],[-122.52349999991327,47.19814000024601],[-122.52370900015065,47.198138999843145],[-122.5238609995883,47.198138999843145],[-122.52401799994715,47.198138999843145],[-122.5242480001009,47.19813500006273],[-122.52435000020817,47.198132999867234],[-122.5244869995772,47.19814100003846],[-122.52455799972229,47.19815099979303],[-122.52459399970729,47.198168999712664],[-122.52464200028622,47.198196999982514],[-122.52471199970809,47.19828000030319],[-122.52476699995968,47.19832200000413],[-122.52483399990682,47.19836800004538],[-122.52486999989183,47.19838200012965],[-122.5249030004021,47.198380999731356],[-122.52512199978692,47.19833800028838],[-122.5252060003508,47.1983420000535],[-122.52527900014574,47.198339000077105],[-122.52532299962837,47.198331999724594],[-122.52535000029086,47.19831300007101],[-122.52542999975849,47.19826600019201],[-122.52556200000296,47.198220999853234],[-122.52562700030029,47.198191000013125],[-122.52564900004158,47.19815000000076],[-122.52570199974504,47.19810099978062],[-122.52575199997375,47.1980870002326],[-122.52589599991381,47.19808200004433],[-122.52605300027264,47.19807900005324],[-122.5262049997103,47.198073999864214],[-122.52625800031204,47.19806499988902],[-122.52631900041142,47.198044999735245],[-122.52643499986407,47.197992000237335],[-122.52653600014641,47.19797500005319],[-122.52665699962192,47.197960999861536],[-122.52679700026232,47.19794599987012],[-122.5269100002402,47.19794200007515],[-122.52697299998941,47.197936000076915],[-122.52701900002016,47.197933999873925],[-122.52704800033247,47.19791899987483],[-122.52707699974647,47.19791500007782],[-122.52710699988371,47.19788200006243],[-122.52714500041688,47.19783900021506],[-122.52717300000596,47.19780499974329],[-122.52720200031825,47.19776900026124],[-122.5272039999681,47.19775200000565],[-122.5272039999681,47.197737999755155],[-122.52720700034114,47.19772700012256],[-122.5272180002118,47.19770800025235],[-122.5272259997094,47.19769199977812],[-122.52722900008246,47.197668000278476],[-122.52723499993023,47.19764899977679],[-122.5272750001132,47.19761799981098],[-122.52733500038765,47.19758300000503],[-122.52736600034979,47.197558000042264],[-122.5273959995887,47.197540999719074],[-122.52741800022834,47.197537999697396],[-122.52748199980243,47.19753500028589],[-122.52753299985606,47.19753900011158],[-122.52756600036632,47.19753699989358],[-122.5276569997046,47.197523000196746],[-122.5277760004286,47.19751000030056],[-122.52788600003348,47.19749800020576],[-122.52821200044671,47.19761399999128],[-122.52878900003181,47.197709999853515],[-122.52880900012329,47.197714000276356],[-122.52892600029914,47.197736999955154],[-122.5290939996303,47.19777099986011],[-122.52916800014847,47.19778400030275],[-122.52931200008854,47.197815000171566],[-122.5294090001729,47.197827999993024],[-122.52957800022732,47.197830000200014],[-122.52976800019812,47.197834000003425],[-122.52991999963577,47.19784500022426],[-122.53024500022407,47.19787500026001],[-122.53057300028715,47.19790600007567],[-122.53074300016645,47.19792100007839],[-122.53093499978708,47.197938000279834],[-122.5310760002524,47.19795199986718],[-122.53121900036751,47.19795400006954],[-122.53133700036828,47.19794599987012],[-122.5313930004448,47.197938000279834],[-122.53161100000467,47.19791500007782],[-122.53179000010485,47.197894999867465],[-122.53198000007562,47.1978690002542],[-122.53210200027436,47.19785299982853],[-122.5321829995669,47.1978409998113],[-122.53223899964341,47.19783600021024],[-122.53231900000935,47.197816999768655],[-122.53237099988786,47.19779499992352],[-122.53239099997937,47.19777800028665],[-122.53241100007087,47.197749999795725],[-122.53245899975143,47.197668000278476],[-122.53252499987366,47.19758699982707],[-122.53258799962285,47.19751799995533],[-122.53267600038473,47.19746000029452],[-122.53278299961653,47.197405999795656],[-122.53282100014968,47.197392000064255],[-122.53287100037838,47.19737500029827],[-122.53291400003609,47.1973630001729],[-122.53296099989174,47.19735899972358],[-122.53308700028846,47.1973630001729],[-122.53324100027424,47.1973630001729],[-122.53339400043512,47.197360000141146],[-122.53346499968191,47.19734199994702],[-122.5335829996827,47.197301999697245],[-122.5337099999043,47.197262000027706],[-122.53383299992794,47.19722600017726],[-122.53394400025603,47.19720300027697],[-122.5339850002639,47.19720000023617],[-122.53408099962506,47.197201999856496],[-122.53418600010536,47.1972309998358],[-122.53427899999177,47.19727199994793],[-122.53436799968024,47.19732299993895],[-122.53441500043422,47.19734700020503],[-122.53445499971888,47.197370999849866],[-122.53449099970389,47.1974010001536],[-122.53453199971176,47.19744099971835],[-122.53458699996334,47.19748699991298],[-122.53472000003275,47.19758900004313],[-122.53482799998778,47.1976620002493],[-122.53487599966836,47.19768599975163],[-122.5349130003766,47.197699000215074],[-122.53496100005715,47.197705000240106],[-122.53499200001932,47.197705000240106],[-122.53503600040024,47.19769600020233],[-122.53508400008083,47.19767899992334],[-122.53515100002798,47.197645999761164],[-122.53520399973144,47.197629999878636],[-122.53527700042466,47.19762200024076],[-122.53537600015888,47.19760400013552],[-122.53549800035759,47.19758800024028],[-122.53557399962727,47.19758500022125],[-122.53564399994747,47.197592000061974],[-122.53570800041989,47.197616000206345],[-122.5357729998189,47.197665000263974],[-122.53585800020772,47.19771299986547],[-122.53589599984254,47.19774599998598],[-122.53598000040647,47.197770000060686],[-122.53605599967611,47.19777999988517],[-122.53612599999632,47.19777800028665],[-122.53619499959329,47.19776600025246],[-122.5363500003023,47.197722999700694],[-122.53644200036382,47.19769799980395],[-122.53653000022734,47.197675999909414],[-122.53665599972572,47.19765400000581],[-122.53676700005381,47.197631000291096],[-122.53701399992605,47.19756600030019],[-122.53709599994178,47.19754399974064],[-122.53722800018627,47.19751700015113],[-122.53731400040002,47.197504000253474],[-122.53738600037002,47.1974969997908],[-122.53743999989838,47.19749900001032],[-122.53759999973195,47.19749599998622],[-122.53771100006001,47.197493999766635],[-122.53783300025876,47.19751100010488],[-122.53789199981,47.19751700015113],[-122.5379560002824,47.19751499993234],[-122.53798300004658,47.19750500005792],[-122.53800200031317,47.19748799971774],[-122.53804599979577,47.19743999991271],[-122.53806500006236,47.19739400028768],[-122.53807199973507,47.19735799991644],[-122.5380740002832,47.19731200022032],[-122.53808400032891,47.19725699976169],[-122.5381029996972,47.19721099997807],[-122.53815299992591,47.19714300003904],[-122.53818700026108,47.197114000011595],[-122.53823800031473,47.197081999920826],[-122.53829799969087,47.19705999977094],[-122.5383980001483,47.19703099969818],[-122.53848799966165,47.1969969999294],[-122.53855200013408,47.19698399990435],[-122.53861900008121,47.19698499971858],[-122.53873299988403,47.19700399984769],[-122.53883499999131,47.19703299993521],[-122.53888600004491,47.197035000172214],[-122.53893100025076,47.19703099969818],[-122.53899900002281,47.197018000291855],[-122.53908400041163,47.19697600016907],[-122.53924199969707,47.19690199981379],[-122.53931500039032,47.19687700014057],[-122.5393990000559,47.1968530002723],[-122.53950199998806,47.19682799996565],[-122.53962199963865,47.19677099997929],[-122.53966400036978,47.19676199978309],[-122.53975999973093,47.19674899970047],[-122.53989899964812,47.196727000022875],[-122.539975999641,47.196719000248855],[-122.54001900019699,47.19671099986323],[-122.54007100007556,47.196703000086806],[-122.54009199999194,47.19669499969873],[-122.54010799988548,47.19668999998967],[-122.5401449996954,47.19667399981888],[-122.54018599970327,47.196652000110234],[-122.54025699984838,47.196625000066895],[-122.54034999973481,47.196597000188305],[-122.54043900032158,47.196574999837324],[-122.54050399972058,47.1965639999636],[-122.54059999998006,47.196549000187616],[-122.54068299982073,47.19654099977637],[-122.54075499979076,47.19653900013118],[-122.54082699976077,47.196543999854455],[-122.54092700021819,47.196554999732285],[-122.54099400016536,47.19657199976102],[-122.54112200021187,47.196594000113244],[-122.54119800037988,47.19660199990611],[-122.54126600015194,47.19660299972754],[-122.54132999972605,47.19660800005518],[-122.54140300041928,47.19662100017236],[-122.54146299979541,47.196639000000665],[-122.54149100028282,47.19665100028973],[-122.54152399989479,47.19668099977979],[-122.54159300039007,47.19675099994814],[-122.54163000020002,47.19676899973234],[-122.54168499955325,47.19678199981007],[-122.54173399995707,47.19680100001186],[-122.5418000000793,47.196835999723234],[-122.54184399956192,47.196850000211725],[-122.5418989998135,47.19686100002616],[-122.54193399997361,47.19686100002616],[-122.54198400020232,47.19685100002848],[-122.54205899964707,47.196833000272086],[-122.54210399985294,47.19680000019416],[-122.54213599963997,47.19677000016103],[-122.54218400021887,47.196730000090454],[-122.54221099998303,47.19670099983728],[-122.54224799979298,47.1966669998571],[-122.54227399973225,47.19664999985879],[-122.54231599956503,47.196632000034214],[-122.54237199964153,47.196622999814444],[-122.5424339995658,47.19661400020354],[-122.54253599967305,47.19660700023384],[-122.54261400038916,47.19659899983133],[-122.54268200016125,47.19659899983133],[-122.54272900001688,47.19660299972754],[-122.54276800037496,47.19661500002474],[-122.54280900038283,47.19663999982141],[-122.54283399959888,47.19665900007399],[-122.54285399969037,47.19667699988941],[-122.54287600033,47.196693999879066],[-122.54289300004842,47.19669799976811],[-122.54290599956892,47.19669499969873],[-122.54292099963753,47.19668699991988],[-122.5429399999041,47.19667099974818],[-122.54295800034576,47.19665299993073],[-122.54297300041438,47.196636999748726],[-122.54298000008706,47.19661800009861],[-122.542976999714,47.196604000159304],[-122.54297500006422,47.196584999887015],[-122.54297099986624,47.19656600021828],[-122.54297099986624,47.19653999995376],[-122.54297900026216,47.19651999983557],[-122.54299599998059,47.19650500004715],[-122.5430179997219,47.19648899982057],[-122.54305600025506,47.196469000293526],[-122.5430870002172,47.19644900014853],[-122.54315599981418,47.19638499975608],[-122.54320100002002,47.196345999831905],[-122.54324899970058,47.19629800021459],[-122.54326899979208,47.196281000098104],[-122.5433330002645,47.196229999715946],[-122.54337599992222,47.19620300006829],[-122.54341699993009,47.19618599992137],[-122.5434670001588,47.19617199986809],[-122.54351400001444,47.19615900025133],[-122.5435750001138,47.196146999850946],[-122.54361500029681,47.19614100026015],[-122.54367600039616,47.196143999750454],[-122.54387800006252,47.1961679999394],[-122.54403899972102,47.19618299982308],[-122.54411900008695,47.19618199999374],[-122.54423399971468,47.196178999895174],[-122.54442899970834,47.196196999873415],[-122.54450599970122,47.19620300006829],[-122.54459000026515,47.19621400001685],[-122.54468200032666,47.19623800017409],[-122.54474699972566,47.196253000037984],[-122.54479500030456,47.196245000192505],[-122.54481799987077,47.19623400025038],[-122.54484499963496,47.19621400001685],[-122.54490999993227,47.19617100003854],[-122.5449390002446,47.19615799981112],[-122.54496500018386,47.196150999781224],[-122.54500000034396,47.19614800029137],[-122.54507899998669,47.196150999781224],[-122.54522399975164,47.196170000208966],[-122.54540000037704,47.19620399989724],[-122.54551699965461,47.19623699973542],[-122.54565999976973,47.19627599973965],[-122.5457779997705,47.19629999986889],[-122.54589900014435,47.1963139998884],[-122.54619899972,47.19633800000046],[-122.54637699999522,47.19633800000046],[-122.54655600009536,47.19633899982687],[-122.54667400009615,47.1963270000776],[-122.54683599957953,47.19629500012263],[-122.54690199970179,47.19627899983273],[-122.5470309995732,47.19623599990709],[-122.5471140003122,47.196206000165446],[-122.54716399964259,47.19618999984871],[-122.54727199959763,47.19614200009027],[-122.54737399970487,47.19610699992115],[-122.54741999973564,47.196092999847025],[-122.54749099988075,47.196062000192974],[-122.54756200002583,47.19602699997104],[-122.54765699956211,47.19598300000815],[-122.54775700001952,47.19593199994998],[-122.54794600016542,47.19586899998996],[-122.54809000010546,47.195816000149804],[-122.54822399999975,47.195753000052065],[-122.54828500009913,47.195726999999636],[-122.54841999981832,47.19565999982925],[-122.54846099982622,47.195631000212124],[-122.54849199978835,47.195617000012426],[-122.54854299984196,47.19560299980902],[-122.54864900014718,47.19557899997495],[-122.54868199975915,47.195563999920566],[-122.54874000038379,47.195527000297226],[-122.54876600032306,47.195514999753954],[-122.54879599956197,47.195501999976244],[-122.54884199959272,47.195490999880086],[-122.54897100036247,47.19546900029138],[-122.5490580004011,47.19545999987435],[-122.54913799986875,47.19545100006616],[-122.54921099966367,47.19544700008311],[-122.54928699983165,47.195435999975594],[-122.54932299981668,47.19543500013218],[-122.54935899980165,47.195436999819],[-122.54940599965734,47.19544899976948],[-122.54943300031982,47.195451999909274],[-122.5494810000004,47.195450000223055],[-122.54953299987895,47.19544499978629],[-122.54962699959027,47.19544399994304],[-122.54966799959814,47.19544499978629],[-122.54980700041364,47.19545800018839],[-122.54987900038367,47.195466999995354],[-122.54990000030006,47.19547000013412],[-122.54995399982843,47.19547700025385],[-122.55000499988205,47.19548600005759],[-122.55003400019436,47.195485000215115],[-122.55012299988284,47.195466000152514],[-122.55021800031737,47.1954460002399],[-122.55027900041675,47.19543500013218],[-122.55033399977002,47.19543100014792],[-122.55045799961857,47.19542099988075],[-122.5505299995886,47.19541799973921],[-122.5506209998252,47.19542000003705],[-122.55068600012251,47.19542400002213],[-122.55076999978813,47.19542499986576],[-122.55087799974316,47.19542599970937],[-122.55094100039067,47.19542700016338],[-122.55099099972107,47.19542300017847],[-122.55101800038354,47.19541399975364],[-122.55104699979753,47.19539500027604],[-122.55106299969107,47.19537799987026],[-122.55107199991191,47.19535899976935],[-122.55108199995765,47.19533300013425],[-122.5510939996532,47.19529000005248],[-122.55110899972183,47.19522500024594],[-122.55111200009489,47.19519400008481],[-122.55111100026997,47.19514299987871],[-122.55111299991978,47.19513000000986],[-122.5511210003157,47.19509300008394],[-122.5511349996611,47.195062999696106],[-122.5511499997297,47.19504099992998],[-122.55117499984408,47.19501699984172],[-122.5511980003086,47.19499900007363],[-122.55121800040008,47.194990000187246],[-122.55125299966187,47.194977000280915],[-122.55134600044659,47.194942999806464],[-122.5514100000207,47.19492800018269],[-122.55143000011218,47.19492500001327],[-122.55148899966342,47.19492199984369],[-122.55152800002149,47.19492599986631],[-122.5515869995727,47.19493799993235],[-122.55168700003014,47.19495800003642],[-122.55172999968785,47.19496200005633],[-122.55175399997731,47.194961000203975],[-122.55180099983296,47.194954999868706],[-122.55184699986373,47.194945999974905],[-122.55187399962789,47.194937000079584],[-122.55195399999384,47.19492400016023],[-122.55201699974303,47.19492000013746],[-122.55211100035267,47.19491500026117],[-122.55221400028483,47.194908999920656],[-122.55226399961523,47.194899000165535],[-122.55235400002692,47.19487500001306],[-122.55244100006556,47.19486100022432],[-122.5524870000963,47.194854000023376],[-122.55253899997483,47.19484400025789],[-122.55257999998273,47.194833999880096],[-122.55261199976978,47.19482000008053],[-122.55265899962545,47.19479100000436],[-122.55273499979343,47.19473199994779],[-122.55275800025795,47.194718000121334],[-122.55278900022012,47.19470500014836],[-122.55282699985493,47.19469499974438],[-122.55289200015226,47.194679000192835],[-122.55292700031237,47.19467299982563],[-122.552978000366,47.19466899978394],[-122.55307299990221,47.1946620001681],[-122.5532329997358,47.1946570002675],[-122.55340599998816,47.19466499974195],[-122.553551999578,47.19467799972472],[-122.55366100025631,47.19468800013191],[-122.5537680003864,47.19469499974438],[-122.55384799985403,47.194702999823534],[-122.5539070003036,47.19471000004443],[-122.55398599994628,47.194723000016175],[-122.55408800005355,47.19474499991414],[-122.55425200008509,47.19478399979413],[-122.55434599979641,47.19480999969822],[-122.55441299974358,47.194824999965775],[-122.55446600034534,47.194833000025326],[-122.5545140000259,47.194837000054655],[-122.55460500026251,47.194837999909346],[-122.5546689998366,47.194841000083684],[-122.55471099966938,47.194845000112444],[-122.55472400008817,47.19484800028639],[-122.55474699965438,47.194851999704156],[-122.55479199986023,47.19486799981396],[-122.55483500041626,47.19489000026224],[-122.5548789998989,47.19492000013746],[-122.55493499997537,47.1949650002237],[-122.5549719997853,47.19499999992522],[-122.55500399957235,47.19503200005076],[-122.55506200019698,47.19509200023406],[-122.55509499980894,47.19513000000986],[-122.55515799955815,47.19520299993655],[-122.55518600004552,47.19522399978817],[-122.55521600018277,47.19524299993737],[-122.55525399981761,47.19525300023808],[-122.55529999984834,47.19525899992929],[-122.55534900025216,47.19525499993177],[-122.55541399965118,47.19524399978441],[-122.55544700016146,47.19524200009036],[-122.55549999986492,47.19524299993737],[-122.55556500016223,47.195251999780844],[-122.55562500043669,47.1952629999265],[-122.55568999983569,47.19528100021546],[-122.55576400035386,47.195302000036214],[-122.55583899979862,47.195328000296875],[-122.55590800029393,47.19535200024446],[-122.55597400041613,47.19538100001406],[-122.55603200014245,47.19541200006599],[-122.55610300028759,47.19545100006616],[-122.55618000028046,47.19549499985981],[-122.55629300025836,47.19553900022739],[-122.55637500027414,47.19556600021291],[-122.55653699975751,47.1956069997803],[-122.55659100018421,47.195617999852416],[-122.55673599994917,47.19562700024265],[-122.55679299985056,47.19563399973125],[-122.55687499986634,47.19565699970122],[-122.55695600005718,47.19569500029321],[-122.55708800030166,47.19574200000798],[-122.5574859997866,47.195865000038424],[-122.55755199990885,47.19589599980761],[-122.55760899981026,47.195913000047426],[-122.55766599971167,47.19592199977723],[-122.55778700008548,47.19592300022188],[-122.55789099984257,47.195913999881846],[-122.55796799983544,47.19589899992212],[-122.5580699999427,47.19586899998996],[-122.55811599997348,47.195847999783226],[-122.55816100017933,47.19583299980485],[-122.55819299996635,47.1958209999412],[-122.5582230001036,47.195804000282266],[-122.55826900013433,47.19578700000753],[-122.55830799959406,47.19577800025483],[-122.55833299970844,47.1957720000119],[-122.55835699999788,47.19576700021588],[-122.55845800028024,47.195759000297144],[-122.55853299972497,47.195757000012044],[-122.55860100039536,47.19575600017467],[-122.55865099972576,47.1957579998494],[-122.55869000008383,47.1957640000939],[-122.5587369999395,47.19576999972733],[-122.55876799990163,47.195768000053064],[-122.55881200028256,47.19576000013446],[-122.55885099974229,47.19574299984558],[-122.55887400020684,47.19572900028583],[-122.55890199979592,47.19571500011198],[-122.558936999956,47.195696000131726],[-122.55896700009325,47.19568800020228],[-122.5590209996216,47.19567000005138],[-122.55907599987317,47.19565800015082],[-122.5591260001019,47.19564799992648],[-122.55915799988897,47.19564399995824],[-122.55917700015553,47.19564399995824],[-122.5592380002549,47.19565000021564],[-122.55925999999619,47.19565400018339],[-122.55932100009557,47.195658999990044],[-122.55940899995912,47.19567400001761],[-122.5594909999749,47.195689000040936],[-122.55959399990705,47.19571199998706],[-122.55967099989995,47.19573000012371],[-122.55977800003006,47.195753000052065],[-122.55980200031952,47.195759000297144],[-122.55983300028166,47.19576599976829],[-122.5598809999622,47.195783000049815],[-122.55993100019094,47.19579499992205],[-122.55997999969645,47.195801999998906],[-122.56002499990227,47.19580500011873],[-122.56008000015386,47.19580599995519],[-122.56014100025322,47.19580500011873],[-122.56022300026898,47.195797000205715],[-122.56030500028477,47.19578700000753],[-122.56037399988172,47.19577400029644],[-122.56043900017906,47.1957640000939],[-122.56047900036202,47.19576099997172],[-122.56053200006546,47.19576099997172],[-122.56060700040852,47.19576199980899],[-122.56071899966322,47.19578799984431],[-122.56079099963326,47.1958080002384],[-122.56085699975549,47.195817999822225],[-122.56090000031152,47.195816999986],[-122.56101099974127,47.19580699979162],[-122.56104000005361,47.19580599995519],[-122.56122500000151,47.1958080002384],[-122.56132700010879,47.19580900007479],[-122.56152999960004,47.195814999703124],[-122.56167000024044,47.19581399986685],[-122.56176599960159,47.19580500011873],[-122.56187299973172,47.195790999964935],[-122.56198900008268,47.1957790000918],[-122.56209899968754,47.195771000174815],[-122.56217700040364,47.195768999890205],[-122.56228399963547,47.195768000053064],[-122.5623919995905,47.1957720000119],[-122.56248899967487,47.19578099976561],[-122.5625409995534,47.19578499972348],[-122.5625830002845,47.19578399988667],[-122.56263699981288,47.19577699980744],[-122.56270100028529,47.195768999890205],[-122.56275999983653,47.19575499972691],[-122.56282799960859,47.19574299984558],[-122.56291200017249,47.19573199979942],[-122.56295800020325,47.19573000012371],[-122.56304900043983,47.195733000247614],[-122.56313399993034,47.19574699980635],[-122.56319800040276,47.195759000297144],[-122.56324299971027,47.19576099997172],[-122.5633080000076,47.195759000297144],[-122.56338099980255,47.19575600017467],[-122.5634489995746,47.195757000012044],[-122.56350899984905,47.1957579998494],[-122.56355800025287,47.19576300025666],[-122.56361299960614,47.19576700021588],[-122.56364500029149,47.19576000013446],[-122.56367500042872,47.19574999992929],[-122.5637359996298,47.195724999713335],[-122.56379900027731,47.19569500029321],[-122.56385100015582,47.19566500024576],[-122.56389499963845,47.19564499979772],[-122.56394400004224,47.19562499995262],[-122.56400599996654,47.195601999968744],[-122.56404899962422,47.19559000005285],[-122.5640810003096,47.195581000266756],[-122.56411200027173,47.195564999761515],[-122.56413800021099,47.19554999970319],[-122.56415400010452,47.195536000092474],[-122.564166999625,47.19552400016167],[-122.56418900026463,47.19549300017522],[-122.56420500015815,47.195466000152514],[-122.56422000022677,47.19544499978629],[-122.56424000031824,47.19542700016338],[-122.5642710002804,47.19540700023607],[-122.56429999969437,47.195392000133026],[-122.56433400002959,47.195378999714755],[-122.56439000010609,47.19536100006945],[-122.56443799978668,47.19534199996246],[-122.56449100038841,47.195321000157534],[-122.5645330002212,47.195306000030186],[-122.5645690002062,47.19529199974473],[-122.56460699984106,47.19528100021546],[-122.56463899962812,47.19527499991637],[-122.56468100035922,47.19527400006992],[-122.56472599966675,47.195278000066],[-122.56478799959102,47.19528900020631],[-122.56483299979689,47.19529400004737],[-122.56487999965252,47.19529800004194],[-122.56492099966042,47.195298999887946],[-122.56496500004134,47.195294999893434],[-122.56500199985126,47.19528900020631],[-122.56505000043016,47.19527899991239],[-122.56511300017935,47.195270000073535],[-122.56518900034733,47.1952629999265],[-122.56523700002792,47.19525999977603],[-122.56526700016515,47.19525400008494],[-122.56528800008152,47.19525000008704],[-122.56530999982284,47.19524399978441],[-122.56534599980785,47.19522799978802],[-122.56539500021167,47.19520299993655],[-122.56543700004445,47.195177000225016],[-122.5654770002274,47.19515000004158],[-122.56551999988513,47.19511899983664],[-122.56554599982441,47.1951029998025],[-122.56556500009097,47.19508900007392],[-122.56559400040328,47.19507499973121],[-122.56561500031968,47.195068000168874],[-122.56565100030471,47.19506400015696],[-122.56569200031258,47.19507099971983],[-122.56573900016824,47.19509099977373],[-122.56577000013037,47.1951040002626],[-122.56579799971945,47.19511099982015],[-122.56585799999394,47.19513099985903],[-122.56596599994897,47.1951780000733],[-122.56599400043636,47.19518500023155],[-122.56601500035276,47.19518900023434],[-122.56608099957668,47.19520500024249],[-122.56617000016345,47.19522799978802],[-122.56621399964607,47.19523999978577],[-122.56627599957037,47.19526200007982],[-122.56633599984481,47.195286000057266],[-122.56637100000492,47.19529599973946],[-122.56640199996706,47.195299999733926],[-122.56642799990632,47.19529800004194],[-122.5664620002415,47.19529000005248],[-122.56648599963263,47.19527599976281],[-122.5665119995719,47.19525800008252],[-122.56655799960267,47.19522799978802],[-122.5665960001358,47.19519999978268],[-122.5666299995727,47.19517499991802],[-122.566658999885,47.195149000192764],[-122.56667899997649,47.19512900016067],[-122.56669499987002,47.19510500011222],[-122.56670599974065,47.19508100005291],[-122.56671699961132,47.19505500028165],[-122.56672500000724,47.1950159999904],[-122.56673400022808,47.19499100003906],[-122.56675500014447,47.194961000203975],[-122.56677500023595,47.19494900014314],[-122.566807000023,47.19493799993235],[-122.56683899981006,47.19492999988862],[-122.56689999990944,47.19491799982078],[-122.56694900031323,47.19490999977399],[-122.56697500025248,47.19490800006734],[-122.56701299988734,47.19489799970162],[-122.56705499972013,47.194880999747],[-122.567103000299,47.19485599973205],[-122.56713599991097,47.19483200017055],[-122.56717799974376,47.194807999987766],[-122.56721100025406,47.194790000148785],[-122.5672420002162,47.19477700019347],[-122.5672859996988,47.19476000020008],[-122.56732800042991,47.19474599977057],[-122.56735699984391,47.19474099987789],[-122.56739299982891,47.1947379996979],[-122.56744200023273,47.19473900016488],[-122.56747700039284,47.194747000237406],[-122.56751000000479,47.19476199991233],[-122.56757000027925,47.194798000213616],[-122.56761200011204,47.194824999965775],[-122.56764999974688,47.19484400025789],[-122.56770300034864,47.19486900027849],[-122.56776299972478,47.19490199972604],[-122.56783899989276,47.194945999974905],[-122.56788900012148,47.19498499970718],[-122.56790800038806,47.195014000287706],[-122.56792199973343,47.195047000255514],[-122.56792900030446,47.19507799989215],[-122.56793199977919,47.19513000000986],[-122.56793000012935,47.19518500023155],[-122.56793199977919,47.195238999938645],[-122.5679390003502,47.19527099992006],[-122.56795000022085,47.195298999887946],[-122.56796699993927,47.19531700016469],[-122.56797699998504,47.19533700012593],[-122.56799700007652,47.19533300013425],[-122.5680520003281,47.19534699979851],[-122.56811000005442,47.195353999934426],[-122.56816000028313,47.195350999789085],[-122.56820999961353,47.19534000027205],[-122.5682840001317,47.19531300017155],[-122.5683610001246,47.19528200006178],[-122.56843700029255,47.195251999780844],[-122.56851199973731,47.19522299994075],[-122.568566000164,47.19519800008692],[-122.56861700021764,47.19517099991417],[-122.56868900018765,47.19512600000262],[-122.56873199984535,47.19509899979323],[-122.56877100020341,47.19507899974229],[-122.56881100038639,47.19506400015696],[-122.56885800024205,47.195051000268755],[-122.56891900034142,47.19503900022823],[-122.56893900043289,47.195035000214126],[-122.56893799970969,47.19499999992522],[-122.56893400041002,47.19479999992445],[-122.56892000016634,47.19349700021899],[-122.56917399971123,47.19349399996867],[-122.56939899984211,47.19349200020863],[-122.56973500030111,47.19342700003105],[-122.56955799985079,47.19331999980948],[-122.56924599968123,47.193262999717525],[-122.56924300020653,47.19315300011654],[-122.56971900040759,47.19291299997377],[-122.56995600023404,47.192882000293324],[-122.57034600022139,47.192839000056736],[-122.57101800024103,47.19257800004533],[-122.57102900011168,47.19207699971035],[-122.57103199958642,47.19195200023836],[-122.57098599955565,47.19188600009565],[-122.57092700000443,47.19179899989305],[-122.571022000439,47.19134199971437],[-122.57171600019994,47.190325999906335],[-122.57261900019827,47.18981800003432],[-122.57268699997033,47.18964300007963],[-122.57303199975182,47.18937799978241],[-122.57306600008701,47.18932700009168],[-122.57330299991348,47.18897799999544],[-122.5728960002077,47.18867599991428],[-122.57248600012886,47.188572999772596],[-122.57233799999085,47.18819700015482],[-122.57241300033394,47.18786399973379],[-122.57257399999243,47.18768400010485],[-122.57231600024956,47.18757699990388],[-122.5723200004475,47.18727899977636],[-122.5723410003639,47.1857650002966],[-122.57233399979293,47.18145999998579],[-122.57405199992603,47.181470999937346],[-122.57466200002139,47.18147599985904],[-122.57462500021147,47.179890999869905],[-122.57461299961757,47.179509999706234],[-122.57459199970118,47.17877599986192],[-122.57439800043075,47.17877999988022],[-122.57443299969253,47.17864300014936],[-122.57444399956317,47.178570000036984],[-122.57444399956317,47.178288999805226],[-122.57442099999696,47.17743100027312],[-122.57441900034713,47.17737799972781],[-122.57440299955529,47.1768319998669],[-122.57435599969963,47.17610499987181],[-122.57430100034637,47.17559400003061],[-122.57429700014839,47.17550299972706],[-122.57428999957739,47.17528400018259],[-122.57427299985895,47.174856999705874],[-122.57427100020912,47.17464700022403],[-122.57426700001118,47.17420300026042],[-122.574268999661,47.17411000013615],[-122.57427299985895,47.17396900018868],[-122.57427500040707,47.17344299974471],[-122.5742989997982,47.17203800011077],[-122.57430100034637,47.171131000253396],[-122.57432899993545,47.16981600001882],[-122.57433300013342,47.169126000195796],[-122.57432899993545,47.168900999775815],[-122.57432100043786,47.16839399981436],[-122.57430299999618,47.16761599994378],[-122.57430200017129,47.16744100008523],[-122.57428299990471,47.16725400004587],[-122.57425100011763,47.16707999998295],[-122.57422600000328,47.16699500019075],[-122.57417199957662,47.16687900005372],[-122.57411800004824,47.16675800018835],[-122.5740729998424,47.166656999822166],[-122.57404500025332,47.16658099978283],[-122.5740219997888,47.16647699974563],[-122.57402000013896,47.16646299979554],[-122.57410399980454,47.16646599974153],[-122.57432800011055,47.166475999967446],[-122.57461099996776,47.16647000007642],[-122.57490600041886,47.16646299979554],[-122.57520199979656,47.166456999903055],[-122.57549899989745,47.16645199978854],[-122.57579500017347,47.16644599989481],[-122.57601299973336,47.16644200016886],[-122.5762329998414,47.166437999831864],[-122.57666499966153,47.16642999976775],[-122.57693699964811,47.16642600004055],[-122.57723799994697,47.166420999923176],[-122.57743899978841,47.16641799997465],[-122.57780000036175,47.166400000279886],[-122.5778940000731,47.16640499978855],[-122.57899899973776,47.16639000003966],[-122.57929900021173,47.166385999698754],[-122.57942300006032,47.166384999918854]],[[-122.48001100022867,47.15596399986074],[-122.4800070000307,47.15937300001196],[-122.48000600020578,47.15945799978383],[-122.47984200017424,47.15945799978383],[-122.47927499973659,47.15945900030493],[-122.47860799973984,47.15945900030493],[-122.47835400019493,47.15945599996323],[-122.47776099981799,47.15944999989016],[-122.47706399968399,47.15944199999528],[-122.47525500021261,47.159421000036396],[-122.47482199966925,47.15941800030333],[-122.47466000018586,47.159414999959324],[-122.47465900036094,47.15949300029712],[-122.4741560003957,47.15948999995734],[-122.47413200010625,47.15948900004766],[-122.47410899964171,47.15948900004766],[-122.47409500029632,47.160075999994184],[-122.47409000027345,47.16028200009571],[-122.47282900007484,47.160292000264135],[-122.47264199957877,47.16028700018016],[-122.47265599982248,47.15976099983336],[-122.47264400012693,47.159642999967076],[-122.47262999988321,47.15950100018436],[-122.47265599982248,47.159331999944],[-122.4726850001348,47.159033000175356],[-122.47267699973888,47.15896299974129],[-122.47266199967027,47.15891300007289],[-122.4727000002034,47.15870000007872],[-122.47282700042501,47.156002000158246],[-122.47946999973027,47.155935999913474],[-122.48001100022867,47.15596399986074]]]},"properties":{"AREALAND":"44184014","AREAWATER":"4744533","BASENAME":"Lakewood","CBSAPCI":"Y","CENTLAT":"+47.1627622","CENTLON":"-122.5299024","FUNCSTAT":"A","GEOID":"5338038","INTPTLAT":"+47.1640919","INTPTLON":"-122.5281062","LSADC":"25","MTFCC":"G4110","NAME":"Lakewood city","NECTAPCI":"N","OBJECTID":30117,"OID":"278901445839836","PLACE":"38038","PLACECC":"C1","PLACENS":"02411615","STATE":"53","DISP_CLR":1,"slug":"lakewood","jurisdiction_key":"lakewood_city","county_fips":["53053"]}}]}
