{"type":"FeatureCollection","features":[{"type":"Feature","geometry":{"type":"MultiPolygon","coordinates":[[[[-118.62694100014637,46.972693000257635],[-118.62708199971335,46.971494999864774],[-118.62659800001468,46.971478999954215],[-118.62633900044693,46.9714700002323],[-118.62602999975212,46.97146000013083],[-118.62556399959679,46.97143100019385],[-118.62542800005268,46.97142199985089],[-118.62542899987757,46.9707560003041],[-118.62542300002978,46.970406000163194],[-118.62542999970249,46.97018400028783],[-118.62543200025063,46.96997100007963],[-118.62543999974824,46.96912999969417],[-118.62544700031924,46.968205999988896],[-118.6253800003721,46.96818999970744],[-118.62531000005188,46.96818100004513],[-118.62515100004325,46.96816000000974],[-118.62482999965287,46.968120000182275],[-118.6246770003903,46.96809999995079],[-118.62452000003148,46.96807999971187],[-118.62442799996998,46.96807999971187],[-118.62424499967186,46.96807999971187],[-118.62423999964899,46.967787000197006],[-118.62422499958038,46.96679699995988],[-118.62422999960326,46.966668999719836],[-118.6242329999763,46.96659599986243],[-118.62424300002205,46.96527499971638],[-118.62425600044081,46.96350299976434],[-118.62276199971538,46.963500000022876],[-118.62110499968166,46.96347000014711],[-118.62110399985676,46.963426000217126],[-118.62109999965878,46.96325999993256],[-118.62111300007757,46.962299999839814],[-118.61908500032307,46.96226199979595],[-118.61512400035032,46.96222600021348],[-118.61029399981611,46.96218700017865],[-118.61030100038711,46.96317300022398],[-118.61030200021203,46.96330100024646],[-118.60646500008782,46.963243000092234],[-118.60608599997114,46.963236999967],[-118.6060409997653,46.96397399999623],[-118.60598999971168,46.96484999970396],[-118.60595999957445,46.96538999996872],[-118.60601800019906,46.966021999762816],[-118.6060559998339,46.96640999996856],[-118.60606000003187,46.96769999988141],[-118.60606500005474,46.96904800000087],[-118.60606300040493,46.969141000039684],[-118.60603300026769,46.96969200012958],[-118.60602200039706,46.96989100003844],[-118.60600499978027,46.97020999969681],[-118.60600300013047,46.97045299983362],[-118.60294199978296,46.970409000130346],[-118.60229400005275,46.97040000022839],[-118.6021069995567,46.97039700026073],[-118.59977099983062,46.970363999992365],[-118.59960199977623,46.970369000145794],[-118.5996000001264,46.97030000019405],[-118.59933999983541,46.97005000020974],[-118.59931300007122,46.97004700022244],[-118.59923199988037,46.97004100024737],[-118.59920500011619,46.97003900005122],[-118.5986000000437,46.969989999818964],[-118.59857999995222,46.969989000026445],[-118.59763000009823,46.96992999997385],[-118.59720999997367,46.9699099998062],[-118.59675999971185,46.96989000024407],[-118.59641999995326,46.96986000027383],[-118.59598999978293,46.96981000008173],[-118.59540999982478,46.969699999739746],[-118.594009999709,46.969610000071896],[-118.59123399976687,46.96946899994033],[-118.59083999958158,46.969450000015954],[-118.59021000029304,46.96940000005353],[-118.58976000003123,46.96934000015956],[-118.58943000031837,46.96940000005353],[-118.58924000034757,46.969450000015954],[-118.58913599969216,46.96994199994828],[-118.5890899996614,46.9701599998319],[-118.58918799957073,46.97016599979363],[-118.58948399984672,46.97018599986555],[-118.58958299958091,46.97019300022613],[-118.59083600028195,46.970275999790225],[-118.59159000031734,46.97032600015965],[-118.5927000000049,46.97040000022839],[-118.59566000007004,46.97059000008499],[-118.59761199965658,46.97072300025729],[-118.59827299980554,46.970768000093216],[-118.59962000021788,46.970859999817],[-118.59962400041586,46.97112200001574],[-118.59963799976124,46.97190800026669],[-118.59964000030938,46.972009999868945],[-118.59963000026364,46.972170000235266],[-118.59963199991346,46.97224499995489],[-118.59963899958616,46.972473000172926],[-118.59964199995919,46.97254899982527],[-118.59965000035511,46.972819999827685],[-118.59964000030938,46.97340999986958],[-118.59964000030938,46.973649999779994],[-118.59963100008854,46.973985000088646],[-118.59973499984562,46.97398399975785],[-118.60090499980763,46.974000999862454],[-118.60687000014377,46.97408799973617],[-118.60687900036461,46.973350000183416],[-118.6081399996649,46.97344799996293],[-118.60830899971933,46.97346500023791],[-118.60891700016485,46.97351099994525],[-118.6097380001474,46.9735539998225],[-118.60997499997387,46.973568999999614],[-118.60985199995022,46.974708000219124],[-118.6095270002602,46.97772100028081],[-118.60993800016395,46.977728999915875],[-118.60995200040766,46.97772199992883],[-118.60999400024045,46.97770200022342],[-118.6100600003627,46.97766999982122],[-118.61089499969063,46.97769599988134],[-118.61102000026241,46.97769999970087],[-118.6112300003247,46.97767999998728],[-118.61152999990036,46.977730000176614],[-118.61159799967244,46.97773099982442],[-118.61244999961713,46.97774999987151],[-118.61271699958083,46.97774999987151],[-118.61308999984973,46.97774999987151],[-118.61346899996641,46.97776599974463],[-118.61380000040252,46.977779999706286],[-118.61460899979119,46.97779300001764],[-118.61498999955771,46.9777999999954],[-118.61644300027524,46.977853000235015],[-118.6164409997271,46.97790700006667],[-118.62091300006104,46.97799399971478],[-118.621029000412,46.97799199981603],[-118.62399399960171,46.97801300028129],[-118.62665200044138,46.97823200000133],[-118.62701200029149,46.97826200017858],[-118.62694500034432,46.973622999866826],[-118.62698299997916,46.97340500000049],[-118.62698800000203,46.97286100016988],[-118.62694100014637,46.972693000257635]]],[[[-118.62111999975026,46.96182699969366],[-118.62112599959808,46.961419000302925],[-118.62107999956729,46.961416999784326],[-118.62049899978425,46.96141399992594],[-118.62049600030953,46.96182599974858],[-118.62107500044276,46.96182699969366],[-118.62111999975026,46.96182699969366]]],[[[-118.6425099996778,46.97088000024241],[-118.64248000043887,46.9706809997224],[-118.64248600028667,46.96889899988503],[-118.64078999989488,46.96826200001675],[-118.64076899997846,46.96825500001646],[-118.64057099961175,46.96819800015528],[-118.63951399962762,46.9679349999015],[-118.63888199979098,46.96771199974308],[-118.6387300003533,46.96776399972572],[-118.6385689997965,46.96781899977017],[-118.6373710002454,46.96821200016982],[-118.63377699979544,46.96939199978552],[-118.63258000006925,46.969786000070975],[-118.63188799995812,46.97001299994607],[-118.6319020002018,46.970335000074115],[-118.63188799995812,46.97062300021386],[-118.63189499963082,46.97082099994678],[-118.63382000035148,46.97083999999712],[-118.6365610001335,46.970858000264485],[-118.63931399961112,46.97087599991275],[-118.64133999971578,46.97088999983933],[-118.6425099996778,46.97088000024241]]]]},"properties":{"AREALAND":"2860681","AREAWATER":"0","BASENAME":"Lind","CBSAPCI":"N","CENTLAT":"+46.9703396","CENTLON":"-118.6163743","FUNCSTAT":"A","GEOID":"5339510","INTPTLAT":"+46.9703396","INTPTLON":"-118.6163743","LSADC":"43","MTFCC":"G4110","NAME":"Lind town","NECTAPCI":"N","OBJECTID":12044,"OID":"27890225708848","PLACE":"39510","PLACECC":"C1","PLACENS":"02412899","STATE":"53","DISP_CLR":1,"slug":"lind","jurisdiction_key":"lind_city","county_fips":["53001"]}}]}
