{
  "type": "FeatureCollection",
  "features": [
    {
      "type": "Feature",
      "geometry": {
        "type": "Polygon",
        "coordinates": [
          [
            [
              -117.14348499955551,
              47.67992400014442
            ],
            [
              -117.1434989997992,
              47.67991900017826
            ],
            [
              -117.14346600018725,
              47.679057999708135
            ],
            [
              -117.14342199980632,
              47.67826499995723
            ],
            [
              -117.14335700040729,
              47.67667599993751
            ],
            [
              -117.14332100042229,
              47.675509000097954
            ],
            [
              -117.14329600030794,
              47.674806999913734
            ],
            [
              -117.14323799968331,
              47.67320399970131
            ],
            [
              -117.14317699958394,
              47.67144899988696
            ],
            [
              -117.14313700029928,
              47.67042899996235
            ],
            [
              -117.14311700020778,
              47.66940900006497
            ],
            [
              -117.14305199991048,
              47.66594099976117
            ],
            [
              -117.14305100008556,
              47.665686999716286
            ],
            [
              -117.14305100008556,
              47.665505999889966
            ],
            [
              -117.14301900029851,
              47.664258000242334
            ],
            [
              -117.14298499996332,
              47.66285600006927
            ],
            [
              -117.14298599978821,
              47.662792999939576
            ],
            [
              -117.14298699961313,
              47.662767000286394
            ],
            [
              -117.14297900011553,
              47.6624759997945
            ],
            [
              -117.14297800029061,
              47.66244899989739
            ],
            [
              -117.1429769995674,
              47.662418000244784
            ],
            [
              -117.14298300031348,
              47.66233300006855
            ],
            [
              -117.14297999994045,
              47.66224500008908
            ],
            [
              -117.14296599969674,
              47.661783000031846
            ],
            [
              -117.1429620003971,
              47.661604000183644
            ],
            [
              -117.14295800019913,
              47.66142599982736
            ],
            [
              -117.14295400000115,
              47.661248000074245
            ],
            [
              -117.14295099962811,
              47.66106999971418
            ],
            [
              -117.14294700032848,
              47.66089199995729
            ],
            [
              -117.14294300013053,
              47.66071400019855
            ],
            [
              -117.14293899993255,
              47.6605349997102
            ],
            [
              -117.1429349997346,
              47.66029999998281
            ],
            [
              -117.14292999971174,
              47.660067000066114
            ],
            [
              -117.14292600041207,
              47.65984700027319
            ],
            [
              -117.14292100038921,
              47.65962800029835
            ],
            [
              -117.14291600036634,
              47.65940900000996
            ],
            [
              -117.14291100034347,
              47.659188999864476
            ],
            [
              -117.14290700014553,
              47.65897000015484
            ],
            [
              -117.14290299994755,
              47.658751000131616
            ],
            [
              -117.1428989997496,
              47.65855799974198
            ],
            [
              -117.14289799992468,
              47.658517999957574
            ],
            [
              -117.14289600027486,
              47.65843599997097
            ],
            [
              -117.14297800029061,
              47.65843599997097
            ],
            [
              -117.14297599974248,
              47.65835300029614
            ],
            [
              -117.14294999980321,
              47.6570189997253
            ],
            [
              -117.14294999980321,
              47.656994999998034
            ],
            [
              -117.14294999980321,
              47.656898000181094
            ],
            [
              -117.14286699996252,
              47.656898000181094
            ],
            [
              -117.14073200007792,
              47.656901999740434
            ],
            [
              -117.1405689998713,
              47.656901999740434
            ],
            [
              -117.13754400040713,
              47.65690800028906
            ],
            [
              -117.13736899960665,
              47.65690800028906
            ],
            [
              -117.13579000028903,
              47.656911999847644
            ],
            [
              -117.13515099988133,
              47.65690400012509
            ],
            [
              -117.13432900007388,
              47.6569029999328
            ],
            [
              -117.13408700022451,
              47.656901999740434
            ],
            [
              -117.13341100000692,
              47.65689899976844
            ],
            [
              -117.13345700003768,
              47.65870699986416
            ],
            [
              -117.1322259999763,
              47.65871300020535
            ],
            [
              -117.13219500001414,
              47.65689599979621
            ],
            [
              -117.13111799993855,
              47.65689100004388
            ],
            [
              -117.12788699971175,
              47.65687799995939
            ],
            [
              -117.12681100035938,
              47.65687399979311
            ],
            [
              -117.12666999989405,
              47.65687200001241
            ],
            [
              -117.12157099974634,
              47.65686900003863
            ],
            [
              -117.12157499994431,
              47.65644300020048
            ],
            [
              -117.1214899995555,
              47.6511070000359
            ],
            [
              -117.12146799981417,
              47.64954699974211
            ],
            [
              -117.11283399966604,
              47.64952399994006
            ],
            [
              -117.11275300037352,
              47.64952399994006
            ],
            [
              -117.11075099965994,
              47.649516000295996
            ],
            [
              -117.11078400017024,
              47.650966000039595
            ],
            [
              -117.11083400039895,
              47.65315300026048
            ],
            [
              -117.11083400039895,
              47.65316499979823
            ],
            [
              -117.10948899963643,
              47.65316499979823
            ],
            [
              -117.10687099987805,
              47.65316499979823
            ],
            [
              -117.10191499984546,
              47.65316499979823
            ],
            [
              -117.10022400037487,
              47.65316499979823
            ],
            [
              -117.1002419999182,
              47.65404899991348
            ],
            [
              -117.10005399959722,
              47.65404700002458
            ],
            [
              -117.09991300003023,
              47.6540450001356
            ],
            [
              -117.09991200020531,
              47.65409400011666
            ],
            [
              -117.09991300003023,
              47.65421199998119
            ],
            [
              -117.09990999965719,
              47.65515999988253
            ],
            [
              -117.09990899983225,
              47.655716999796724
            ],
            [
              -117.09938099975267,
              47.655786000066676
            ],
            [
              -117.09915200032212,
              47.655815999813605
            ],
            [
              -117.09905299968962,
              47.65582799994958
            ],
            [
              -117.09914800012415,
              47.65597599978627
            ],
            [
              -117.09923299961463,
              47.656097999859576
            ],
            [
              -117.09967299983072,
              47.656785000098495
            ],
            [
              -117.09932999969904,
              47.656782999709336
            ],
            [
              -117.09916400001768,
              47.65678200011976
            ],
            [
              -117.09909799989543,
              47.656785000098495
            ],
            [
              -117.09890200007686,
              47.656797000011814
            ],
            [
              -117.09883699977952,
              47.65680100018399
            ],
            [
              -117.09844699979217,
              47.656798000206145
            ],
            [
              -117.09775700022921,
              47.656794000033734
            ],
            [
              -117.09727699983017,
              47.656789999861026
            ],
            [
              -117.09688799966774,
              47.65678800007709
            ],
            [
              -117.0966440001686,
              47.656786000293096
            ],
            [
              -117.0959129996994,
              47.6567809999251
            ],
            [
              -117.09567000002517,
              47.65677999973045
            ],
            [
              -117.09495399962458,
              47.656776000161756
            ],
            [
              -117.0928079998693,
              47.65676499983352
            ],
            [
              -117.09209300019195,
              47.65676199985364
            ],
            [
              -117.09160699994516,
              47.65675700008843
            ],
            [
              -117.09014999992795,
              47.65674399997063
            ],
            [
              -117.08966500040435,
              47.656739999794084
            ],
            [
              -117.08938300037204,
              47.65673900020369
            ],
            [
              -117.08853700027511,
              47.65673600022228
            ],
            [
              -117.08825500024282,
              47.65673600022228
            ],
            [
              -117.08763000007886,
              47.6567339998312
            ],
            [
              -117.08575600031013,
              47.65672799986767
            ],
            [
              -117.08513199997105,
              47.6567270002771
            ],
            [
              -117.08443300018723,
              47.656724000294986
            ],
            [
              -117.08233599993746,
              47.65671700013446
            ],
            [
              -117.08163799997853,
              47.65671499974265
            ],
            [
              -117.0810789999368,
              47.656712999955836
            ],
            [
              -117.07940600000956,
              47.656708000185944
            ],
            [
              -117.0788479997927,
              47.65670699998991
            ],
            [
              -117.07857099978328,
              47.656705999793786
            ],
            [
              -117.07774300012804,
              47.65670299981053
            ],
            [
              -117.0774669999435,
              47.65670299981053
            ],
            [
              -117.07693499966592,
              47.65670100002326
            ],
            [
              -117.0755599996645,
              47.65669600025222
            ],
            [
              -117.0753410002797,
              47.65669500005589
            ],
            [
              -117.0752430003704,
              47.65669500005589
            ],
            [
              -117.07469299965118,
              47.65669600025222
            ],
            [
              -117.07459300009207,
              47.65669600025222
            ],
            [
              -117.07408000008108,
              47.656693999859606
            ],
            [
              -117.07363800021521,
              47.65669300026833
            ],
            [
              -117.07333100006853,
              47.656692000072
            ],
            [
              -117.07297200004335,
              47.6566909998756
            ],
            [
              -117.07277600022478,
              47.65669000028432
            ],
            [
              -117.07229699965066,
              47.65668900008788
            ],
            [
              -117.072181000198,
              47.656687999891474
            ],
            [
              -117.07180600027928,
              47.65668700030009
            ],
            [
              -117.07107300016025,
              47.65668499990713
            ],
            [
              -117.07080299982353,
              47.656683999710644
            ],
            [
              -117.07067300012717,
              47.656683999710644
            ],
            [
              -117.07055400030151,
              47.65668300011918
            ],
            [
              -117.07028599961457,
              47.65668199992266
            ],
            [
              -117.06989099960438,
              47.65668099972607
            ],
            [
              -117.06953999997509,
              47.65668000013459
            ],
            [
              -117.06917599992704,
              47.65667899993797
            ],
            [
              -117.06852200034905,
              47.656677000149784
            ],
            [
              -117.06829600039325,
              47.656675999953144
            ],
            [
              -117.06829700021814,
              47.65708699990117
            ],
            [
              -117.06829800004306,
              47.657592999798695
            ],
            [
              -117.06830100041611,
              47.65851100003756
            ],
            [
              -117.06830499971576,
              47.65942899986722
            ],
            [
              -117.06830600043898,
              47.65976600009116
            ],
            [
              -117.06830800008879,
              47.660346999891914
            ],
            [
              -117.06831099956354,
              47.66126400000206
            ],
            [
              -117.06831300011166,
              47.662181999827006
            ],
            [
              -117.06831599958643,
              47.66309999984457
            ],
            [
              -117.06831999978435,
              47.664015999941874
            ],
            [
              -117.06828899982222,
              47.66795100021581
            ],
            [
              -117.06826200005806,
              47.67112000003798
            ],
            [
              -117.06826200005806,
              47.671275000103876
            ],
            [
              -117.06828700017242,
              47.67384599978272
            ],
            [
              -117.06831300011166,
              47.674937000122696
            ],
            [
              -117.06832399998233,
              47.675413999878536
            ],
            [
              -117.06834099970077,
              47.67609899972085
            ],
            [
              -117.06839900032541,
              47.67857099980882
            ],
            [
              -117.06846500044765,
              47.681342000116004
            ],
            [
              -117.06849600040978,
              47.68264600020732
            ],
            [
              -117.06852499982378,
              47.683874000278145
            ],
            [
              -117.06853099967155,
              47.684163000058604
            ],
            [
              -117.06851399995313,
              47.684265999836086
            ],
            [
              -117.06851899997599,
              47.68431600014796
            ],
            [
              -117.06851200030331,
              47.68438599977834
            ],
            [
              -117.06849300003672,
              47.68447900005775
            ],
            [
              -117.0684920002118,
              47.68453400029453
            ],
            [
              -117.06849499968655,
              47.684586999940066
            ],
            [
              -117.06850100043265,
              47.68467900020097
            ],
            [
              -117.06850700028045,
              47.68478499974826
            ],
            [
              -117.0685280001968,
              47.68502199982246
            ],
            [
              -117.06855900015894,
              47.685338000060646
            ],
            [
              -117.06859400031905,
              47.68570199989911
            ],
            [
              -117.06860299964158,
              47.68585499970765
            ],
            [
              -117.0686119998624,
              47.68610199971626
            ],
            [
              -117.06861600006037,
              47.68619699982682
            ],
            [
              -117.06858000007537,
              47.6863909998525
            ],
            [
              -117.06777699963615,
              47.68689200001927
            ],
            [
              -117.06536999976498,
              47.68839699985064
            ],
            [
              -117.06456800004896,
              47.68889999986313
            ],
            [
              -117.06447000013969,
              47.68896100016358
            ],
            [
              -117.06436800003243,
              47.68901599990736
            ],
            [
              -117.06403999996938,
              47.68919500007935
            ],
            [
              -117.06445400024614,
              47.68948699992311
            ],
            [
              -117.06476999971532,
              47.689339999727714
            ],
            [
              -117.06524099989352,
              47.68915200025626
            ],
            [
              -117.06584099994315,
              47.68895500027596
            ],
            [
              -117.06611299992974,
              47.688872999727174
            ],
            [
              -117.06647100013001,
              47.68875800015628
            ],
            [
              -117.06712300005816,
              47.68855000021992
            ],
            [
              -117.06799699974417,
              47.68825799996787
            ],
            [
              -117.0682229997,
              47.68818299970762
            ],
            [
              -117.06862299973305,
              47.68802500028189
            ],
            [
              -117.06862600010614,
              47.68815299981519
            ],
            [
              -117.06862899958085,
              47.688343000253404
            ],
            [
              -117.0700670002298,
              47.68776000023559
            ],
            [
              -117.07147200036844,
              47.687204999769314
            ],
            [
              -117.07485800040595,
              47.68589200019475
            ],
            [
              -117.07536600039404,
              47.68568499995988
            ],
            [
              -117.07922600008446,
              47.68419499977051
            ],
            [
              -117.0794319999488,
              47.684113999875834
            ],
            [
              -117.0794179997051,
              47.6839100000765
            ],
            [
              -117.08059100004016,
              47.683442000154955
            ],
            [
              -117.08267900006913,
              47.68260299982332
            ],
            [
              -117.08273099994766,
              47.68266000022621
            ],
            [
              -117.08283399987982,
              47.68278099993075
            ],
            [
              -117.08607000012948,
              47.68154799972145
            ],
            [
              -117.08719499988567,
              47.68120800002408
            ],
            [
              -117.08764099994951,
              47.68108800002877
            ],
            [
              -117.08814800011271,
              47.680951999821346
            ],
            [
              -117.08925799980027,
              47.680685000050545
            ],
            [
              -117.08945600016698,
              47.68063699996719
            ],
            [
              -117.08957099979472,
              47.68061399994945
            ],
            [
              -117.0897859998799,
              47.68057200004858
            ],
            [
              -117.08979000007784,
              47.68076500009127
            ],
            [
              -117.08979500010071,
              47.68099300029033
            ],
            [
              -117.09007499958486,
              47.680926000141554
            ],
            [
              -117.09015699960065,
              47.68092400007263
            ],
            [
              -117.09210499988751,
              47.68088500022473
            ],
            [
              -117.09216900035993,
              47.68088399988709
            ],
            [
              -117.09235500013276,
              47.680881999816556
            ],
            [
              -117.09405700037236,
              47.68116399993692
            ],
            [
              -117.09416199995431,
              47.68119600027889
            ],
            [
              -117.09503900001337,
              47.68146200013186
            ],
            [
              -117.09763599985538,
              47.68224999993032
            ],
            [
              -117.10063399955536,
              47.68329600014722
            ],
            [
              -117.10070899989842,
              47.68332300014632
            ],
            [
              -117.10268399994949,
              47.68387800018976
            ],
            [
              -117.10271699956144,
              47.68388700029219
            ],
            [
              -117.10411000000454,
              47.6840639999751
            ],
            [
              -117.10451099986251,
              47.68404100025865
            ],
            [
              -117.10601100043573,
              47.68395499994072
            ],
            [
              -117.10680800012884,
              47.68390699984226
            ],
            [
              -117.11095599969936,
              47.682401000175204
            ],
            [
              -117.11097300031612,
              47.68239500013776
            ],
            [
              -117.11117300033266,
              47.68220000005734
            ],
            [
              -117.11144600014416,
              47.681926999929765
            ],
            [
              -117.11181900041305,
              47.68189599974964
            ],
            [
              -117.11200799966062,
              47.68184200007469
            ],
            [
              -117.11209800007231,
              47.68181699994862
            ],
            [
              -117.11277599993973,
              47.68162600021117
            ],
            [
              -117.11302199998703,
              47.68150300020004
            ],
            [
              -117.11368300013599,
              47.68100399974687
            ],
            [
              -117.11395599994746,
              47.6806980002545
            ],
            [
              -117.1143929997905,
              47.68008600011902
            ],
            [
              -117.11462799996713,
              47.67914799990595
            ],
            [
              -117.11465999975418,
              47.67901599976428
            ],
            [
              -117.1146670003252,
              47.67899400001059
            ],
            [
              -117.1153779998046,
              47.67868399991102
            ],
            [
              -117.11628300035103,
              47.678287999800894
            ],
            [
              -117.11638799993301,
              47.67824200010342
            ],
            [
              -117.1165479997666,
              47.6781750000507
            ],
            [
              -117.11675199998109,
              47.67808899973957
            ],
            [
              -117.1171240004251,
              47.67794400026547
            ],
            [
              -117.11743400004649,
              47.677832000166426
            ],
            [
              -117.11769599998732,
              47.677742999910876
            ],
            [
              -117.11808400032481,
              47.67762100021776
            ],
            [
              -117.11847900033503,
              47.67750699983026
            ],
            [
              -117.11888000019303,
              47.677404000014015
            ],
            [
              -117.11901099971428,
              47.67736899976008
            ],
            [
              -117.11912299986729,
              47.67733900030133
            ],
            [
              -117.11922199960145,
              47.67731900004777
            ],
            [
              -117.11938099961013,
              47.67728699974711
            ],
            [
              -117.11947900041774,
              47.67726799988061
            ],
            [
              -117.11953700014408,
              47.67725700024125
            ],
            [
              -117.11995499972048,
              47.67718499990516
            ],
            [
              -117.12031899976856,
              47.67711600009472
            ],
            [
              -117.12081599988602,
              47.677047999999395
            ],
            [
              -117.12090100027484,
              47.677038000120255
            ],
            [
              -117.12158199961699,
              47.676960999837206
            ],
            [
              -117.12189299996163,
              47.67694899972
            ],
            [
              -117.12301299969494,
              47.67690900011589
            ],
            [
              -117.12425299997714,
              47.6769660000868
            ],
            [
              -117.12489599968447,
              47.676995999759974
            ],
            [
              -117.12762999979381,
              47.67738099978065
            ],
            [
              -117.12892000030475,
              47.67760499986006
            ],
            [
              -117.12969699990637,
              47.67787000008659
            ],
            [
              -117.13034499963656,
              47.678107999911944
            ],
            [
              -117.13257400013084,
              47.678811999988085
            ],
            [
              -117.13259300039743,
              47.67932999996603
            ],
            [
              -117.13339000009054,
              47.67968699989135
            ],
            [
              -117.13455699967949,
              47.680153000136926
            ],
            [
              -117.13566899991518,
              47.680493000057055
            ],
            [
              -117.13711699971155,
              47.68071599974066
            ],
            [
              -117.13833299970435,
              47.680824000156115
            ],
            [
              -117.13970199985798,
              47.68080499976321
            ],
            [
              -117.14042400010635,
              47.68073599990168
            ],
            [
              -117.14133700015041,
              47.68058699975788
            ],
            [
              -117.1419149995604,
              47.680453999887
            ],
            [
              -117.14227100011087,
              47.680359000203694
            ],
            [
              -117.14258099973226,
              47.680260000158626
            ],
            [
              -117.14282099993179,
              47.68018299979207
            ],
            [
              -117.14311399983475,
              47.68007499986411
            ],
            [
              -117.14322099996487,
              47.680035000237254
            ],
            [
              -117.14348499955551,
              47.67992400014442
            ]
          ]
        ]
      },
      "properties": {
        "AREALAND": "16431979",
        "AREAWATER": "0",
        "BASENAME": "Liberty Lake",
        "CBSAPCI": "N",
        "CENTLAT": "+47.6684507",
        "CENTLON": "-117.1042007",
        "FUNCSTAT": "A",
        "GEOID": "5339335",
        "INTPTLAT": "+47.6684507",
        "INTPTLON": "-117.1042007",
        "LSADC": "25",
        "MTFCC": "G4110",
        "NAME": "Liberty Lake city",
        "NECTAPCI": "N",
        "OBJECTID": 26679,
        "OID": "27890594249063",
        "PLACE": "39335",
        "PLACECC": "C1",
        "PLACENS": "02410834",
        "STATE": "53",
        "DISP_CLR": 3,
        "slug": "liberty_lake",
        "jurisdiction_key": "liberty_lake_city",
        "county_fips": [
          "53063"
        ]
      }
    }
  ]
}
