{"type":"FeatureCollection","features":[{"type":"Feature","geometry":{"type":"MultiPolygon","coordinates":[[[[-120.00694600021669,46.20843100029436],[-120.00698600039966,46.208395999788145],[-120.0064270003579,46.20826100011329],[-120.0059260000425,46.208140000131934],[-120.00475400043065,46.20784600009425],[-120.00419700003874,46.207706999828865],[-120.0045810001783,46.20688699989808],[-120.00457100013256,46.20678699993341],[-120.00449599978948,46.206712999979125],[-120.00292499996947,46.20631300024785],[-120.00287499974075,46.206257999808344],[-120.00256699976919,46.20618300008107],[-120.00147799999802,46.20592100007266],[-120.00111599959979,46.20583399989552],[-120.00075800029778,46.205747999892296],[-119.999682999872,46.20549199970746],[-119.99932600039494,46.20540700010841],[-119.9989770004155,46.20532100005842],[-119.99792999957882,46.20506400004643],[-119.99763699967585,46.2049920002871],[-119.99750100013173,46.20495799978076],[-119.99757999977444,46.20479000007861],[-119.99781599977602,46.204285999754646],[-119.99793899979966,46.204023000303145],[-119.99795399986824,46.20400199993332],[-119.99806500019632,46.2037580001402],[-119.99502999978813,46.20376000021425],[-119.99203200008814,46.203783999853805],[-119.99203299991306,46.20384800029193],[-119.99203299991306,46.2038710001689],[-119.98681999996253,46.20383799993698],[-119.98681999996253,46.20392900030247],[-119.98420399985395,46.203905999828066],[-119.984199999656,46.2042690002182],[-119.98416799986894,46.20776700019231],[-119.98416600021913,46.2079170001925],[-119.98753899983782,46.20874400022435],[-119.98801099984091,46.20886099972036],[-119.98786600007598,46.20921499994544],[-119.9878610000531,46.20922499994323],[-119.98764299959491,46.20974600004593],[-119.9870869999262,46.209602999892915],[-119.9870869999262,46.209625999847006],[-119.98706400035996,46.211257000143476],[-119.98701800032923,46.211618000036054],[-119.98704099989544,46.21221800027016],[-119.98701999997904,46.214811999874286],[-119.98640499986082,46.214809000055965],[-119.98634399976144,46.21480799990931],[-119.98406099973883,46.21479999997849],[-119.98403999982241,46.21840999985798],[-119.98569000018348,46.218422000208065],[-119.98705500013915,46.218415999722566],[-119.98775899994587,46.21841400018216],[-119.9891699999323,46.21844699973757],[-119.98927100021463,46.218495999926134],[-119.98942600002533,46.21853399982663],[-119.98967600027058,46.218541999835004],[-119.99019500012936,46.21856000000509],[-119.99042000026027,46.218562000161754],[-119.99124399971754,46.21856800000968],[-119.99176699977426,46.21857199970078],[-119.99202200004241,46.218573999857],[-119.99279000032152,46.218579999703664],[-119.99304600041457,46.218581999859595],[-119.99330199960927,46.21858299993751],[-119.99407300026145,46.21858700024909],[-119.99433000017939,46.218588999783194],[-119.994597999968,46.218588999783194],[-119.99540499970686,46.218592000016585],[-119.9956740002187,46.21859300009432],[-119.99593199996154,46.21859300009432],[-119.99670899956317,46.21859599970595],[-119.99696800002924,46.21859799986124],[-119.9969639998313,46.21872899993265],[-119.99695399978556,46.219123000204334],[-119.99695200013572,46.21925499971044],[-119.99694999958759,46.21932700004184],[-119.99825099996919,46.21933299980617],[-119.99825199979408,46.21925499971044],[-119.99825199979408,46.21918299990614],[-119.99825599999205,46.21896900006872],[-119.99825799964187,46.21889799996161],[-119.99825799964187,46.21884100016814],[-119.99826100001495,46.218669999811084],[-119.99826199983984,46.21861399985828],[-119.99853300000146,46.21861800016759],[-119.99934899996116,46.21863200000471],[-119.9993990001899,46.218633000081766],[-119.99946000028928,46.218627000240886],[-119.99951700019066,46.21861199970351],[-119.99961400027505,46.21857900024721],[-119.99961400027505,46.21833800018883],[-119.9996179995747,46.21761499988255],[-119.99961900029791,46.21737500004399],[-119.99961900029791,46.21712399987281],[-119.99962199977264,46.216370999934185],[-119.99962299959758,46.2161210002692],[-119.99962299959758,46.21587399984787],[-119.99962299959758,46.21513599979929],[-119.99962299959758,46.215101999977485],[-119.99963900038941,46.21501500004518],[-119.99968100022221,46.2148990001282],[-119.99994399998793,46.2148990001282],[-120.00073599965815,46.21490199994156],[-120.00100000014712,46.214903000086544],[-120.00317000019186,46.21492100020632],[-120.00386099957974,46.21491700024927],[-120.00385300008215,46.21487000026608],[-120.00385499973198,46.21476899976934],[-120.00387099962549,46.213501999808564],[-120.00219799969823,46.21309199987303],[-120.00176800042625,46.212983000262064],[-120.00195699967382,46.21281699998272],[-120.00198400033632,46.21279400012166],[-120.00207899987257,46.2127119999439],[-120.00220100007128,46.2126039997656],[-120.00257099996713,46.21228100001395],[-120.0026939999908,46.21217399980436],[-120.0027659999608,46.21211200013361],[-120.00298199987087,46.211930000254746],[-120.00305499966579,46.21186899988714],[-120.00321100019973,46.2117359998291],[-120.00349400005696,46.21149500019799],[-120.00368300020284,46.21133700020896],[-120.00376199984555,46.211270999992394],[-120.00383800001353,46.21120200030284],[-120.00387999984633,46.2111630000886],[-120.00400799989283,46.21104700011651],[-120.00405100044887,46.211009000008104],[-120.00424200024459,46.210835000091876],[-120.00481800000476,46.21031300014404],[-120.00500999962536,46.21014000011952],[-120.00520499961902,46.209965999936934],[-120.00578999960004,46.20944399981169],[-120.00598499959372,46.2092699999108],[-120.00618299996044,46.20909199969913],[-120.00620200022702,46.20907600003599],[-120.00678499965991,46.20856999997101],[-120.00694600021669,46.20843100029436]]],[[[-119.99118199979327,46.22940700011418],[-119.99118299961819,46.229314999820815],[-119.99118000014346,46.22924699969403],[-119.9911779995953,46.22914100011426],[-119.99010100041801,46.22854300001023],[-119.98920900029036,46.22805399996854],[-119.98906100015235,46.22796500023585],[-119.98909499958923,46.22786500011957],[-119.98910999965783,46.22780300014248],[-119.98911999970356,46.22766400004952],[-119.98911899987864,46.22758899972347],[-119.98911800005375,46.22749000008084],[-119.98904799973356,46.22749000008084],[-119.98653499955714,46.227489000165164],[-119.98651199999092,46.229299999717824],[-119.98651000034111,46.22938100010094],[-119.98654600032611,46.22938100010094],[-119.9869530000319,46.22938500024721],[-119.98901799959633,46.22940200008868],[-119.98919199967358,46.22940299996955],[-119.9910999997775,46.22940999975642],[-119.99118199979327,46.22940700011418]]]]},"properties":{"AREALAND":"2182275","AREAWATER":"0","BASENAME":"Mabton","CBSAPCI":"N","CENTLAT":"+46.2115459","CENTLON":"-119.9939118","FUNCSTAT":"A","GEOID":"5340980","INTPTLAT":"+46.2115459","INTPTLON":"-119.9939118","LSADC":"25","MTFCC":"G4110","NAME":"Mabton city","NECTAPCI":"N","OBJECTID":9160,"OID":"27890483243444","PLACE":"40980","PLACECC":"C1","PLACENS":"02410904","STATE":"53","DISP_CLR":3,"slug":"mabton","jurisdiction_key":"mabton_city","county_fips":["53077"]}}]}
