{
  "type": "FeatureCollection",
  "features": [
    {
      "type": "Feature",
      "geometry": {
        "type": "Polygon",
        "coordinates": [
          [
            [
              -122.0657940003896,
              47.357106000285306
            ],
            [
              -122.0657940003896,
              47.354413000242246
            ],
            [
              -122.06490899993462,
              47.35441400012921
            ],
            [
              -122.0644269998858,
              47.35441400012921
            ],
            [
              -122.06397400014926,
              47.354415000016196
            ],
            [
              -122.06169199995153,
              47.354386000243316
            ],
            [
              -122.06107299963534,
              47.354378999813065
            ],
            [
              -122.06065500005892,
              47.35437700003775
            ],
            [
              -122.06013100017726,
              47.35437399976602
            ],
            [
              -122.06013100017726,
              47.35394400003235
            ],
            [
              -122.06014200004793,
              47.353493000022986
            ],
            [
              -122.06013799984999,
              47.35335500024993
            ],
            [
              -122.06014200004793,
              47.35277100017886
            ],
            [
              -122.06013200000218,
              47.352653999891906
            ],
            [
              -122.06016399978924,
              47.35174200015587
            ],
            [
              -122.06022700043675,
              47.34997699980925
            ],
            [
              -122.0602390001323,
              47.34967199984398
            ],
            [
              -122.06023999995722,
              47.34963700003458
            ],
            [
              -122.06024300033027,
              47.34952899991987
            ],
            [
              -122.05967900026566,
              47.349407999821906
            ],
            [
              -122.05903999985796,
              47.349258999883524
            ],
            [
              -122.0590349998351,
              47.34939899998459
            ],
            [
              -122.05873899955908,
              47.349330999947135
            ],
            [
              -122.05411499978752,
              47.34826799969687
            ],
            [
              -122.05387899978597,
              47.348210000074474
            ],
            [
              -122.05384199997604,
              47.34820100003288
            ],
            [
              -122.05384899964874,
              47.34789600015158
            ],
            [
              -122.05359400027892,
              47.34783500008554
            ],
            [
              -122.05158400006778,
              47.34734900010446
            ],
            [
              -122.05111899973735,
              47.347238000108476
            ],
            [
              -122.05087699988805,
              47.347169999721466
            ],
            [
              -122.043483999847,
              47.34714599974299
            ],
            [
              -122.04321500023349,
              47.34714999984161
            ],
            [
              -122.04321500023349,
              47.34708500002752
            ],
            [
              -122.04321699988333,
              47.34589999992039
            ],
            [
              -122.04322699992906,
              47.34381000003332
            ],
            [
              -122.04326399973898,
              47.34356999969788
            ],
            [
              -122.04312200034708,
              47.34356900021413
            ],
            [
              -122.04236599976353,
              47.34354700000152
            ],
            [
              -122.041652999736,
              47.34354200014564
            ],
            [
              -122.04146100011538,
              47.34354100005265
            ],
            [
              -122.04078400007286,
              47.343550000280096
            ],
            [
              -122.04048000029925,
              47.3435480000944
            ],
            [
              -122.03954200014081,
              47.34354100005265
            ],
            [
              -122.03898999977179,
              47.34354200014564
            ],
            [
              -122.03792600011496,
              47.34354399972281
            ],
            [
              -122.03778999967254,
              47.34354399972281
            ],
            [
              -122.037673000395,
              47.34354399972281
            ],
            [
              -122.03754500034846,
              47.343543000238576
            ],
            [
              -122.03751799968599,
              47.343543000238576
            ],
            [
              -122.03638500043216,
              47.34354200014564
            ],
            [
              -122.03585599962936,
              47.343534000009974
            ],
            [
              -122.03414400024235,
              47.34353600019616
            ],
            [
              -122.0332880000997,
              47.34353299991683
            ],
            [
              -122.0324450003758,
              47.34351700025025
            ],
            [
              -122.02977099964264,
              47.343512999876324
            ],
            [
              -122.02848100003001,
              47.34351500006335
            ],
            [
              -122.02711500024941,
              47.343517999734985
            ],
            [
              -122.02655100018482,
              47.34351899982842
            ],
            [
              -122.02533799966676,
              47.34352300020185
            ],
            [
              -122.02450099979067,
              47.34352300020185
            ],
            [
              -122.02440899972916,
              47.34352300020185
            ],
            [
              -122.02438399961481,
              47.34352300020185
            ],
            [
              -122.02442100032306,
              47.343020000165275
            ],
            [
              -122.02530099985684,
              47.34278200010524
            ],
            [
              -122.02524899997833,
              47.34273800023239
            ],
            [
              -122.0246220001645,
              47.34223799976516
            ],
            [
              -122.02482300000595,
              47.34199599995181
            ],
            [
              -122.02486099964078,
              47.3419499997864
            ],
            [
              -122.02453900032383,
              47.34182699971615
            ],
            [
              -122.02499600025831,
              47.341291999887225
            ],
            [
              -122.02447900004935,
              47.34108799983319
            ],
            [
              -122.02377299969454,
              47.34050600007329
            ],
            [
              -122.02342700008815,
              47.3405809997404
            ],
            [
              -122.02305100034448,
              47.34065300007541
            ],
            [
              -122.02288899996279,
              47.3407589997981
            ],
            [
              -122.02279299970331,
              47.34091499977244
            ],
            [
              -122.02277900035794,
              47.340938000006695
            ],
            [
              -122.02252699956455,
              47.34099599970609
            ],
            [
              -122.02250399999832,
              47.34113699994793
            ],
            [
              -122.02202500032251,
              47.34104200009405
            ],
            [
              -122.02196099985012,
              47.3416730002585
            ],
            [
              -122.02198099994159,
              47.34168399984332
            ],
            [
              -122.0222019998745,
              47.34181600016108
            ],
            [
              -122.02238500017262,
              47.34199999983197
            ],
            [
              -122.0223759999518,
              47.34210499977365
            ],
            [
              -122.02216300041476,
              47.34227399972812
            ],
            [
              -122.02189399990296,
              47.34233799987221
            ],
            [
              -122.02188999970498,
              47.342387000044226
            ],
            [
              -122.02231599967733,
              47.342653000097464
            ],
            [
              -122.02225200010324,
              47.343064999905074
            ],
            [
              -122.0222079997223,
              47.34334300013919
            ],
            [
              -122.02218900035406,
              47.34346400014071
            ],
            [
              -122.02217900030828,
              47.34353000024604
            ],
            [
              -122.02205299991162,
              47.343530999730525
            ],
            [
              -122.02187200016164,
              47.34352400029518
            ],
            [
              -122.02175800035882,
              47.34351999992178
            ],
            [
              -122.02104199995826,
              47.34354599990867
            ],
            [
              -122.02014300015787,
              47.34354700000152
            ],
            [
              -122.0196169997281,
              47.3435480000944
            ],
            [
              -122.01952999968947,
              47.3435480000944
            ],
            [
              -122.01935899998524,
              47.3435480000944
            ],
            [
              -122.01915499977075,
              47.34354900018726
            ],
            [
              -122.01895300010437,
              47.34354900018726
            ],
            [
              -122.01884900034732,
              47.34354900018726
            ],
            [
              -122.01874600041515,
              47.34354900018726
            ],
            [
              -122.01866799969903,
              47.3435480000944
            ],
            [
              -122.01846100000978,
              47.343550000280096
            ],
            [
              -122.01762900015656,
              47.34355099976417
            ],
            [
              -122.01719599961322,
              47.34355099976417
            ],
            [
              -122.01642599968429,
              47.34355199985697
            ],
            [
              -122.01640499976787,
              47.345302999970286
            ],
            [
              -122.01641599963853,
              47.34550900028266
            ],
            [
              -122.01640399994298,
              47.3459629998822
            ],
            [
              -122.01640200029316,
              47.34617999991905
            ],
            [
              -122.01640099956992,
              47.34621100002537
            ],
            [
              -122.01639800009518,
              47.34652100008753
            ],
            [
              -122.01639800009518,
              47.34655600013722
            ],
            [
              -122.01639200024742,
              47.34711600021102
            ],
            [
              -122.01639200024742,
              47.34714400030226
            ],
            [
              -122.0163910004225,
              47.347169999721466
            ],
            [
              -122.01638499967639,
              47.34790000019337
            ],
            [
              -122.01638499967639,
              47.34791999978905
            ],
            [
              -122.0163839998515,
              47.3479490000719
            ],
            [
              -122.01637700017879,
              47.34871399995298
            ],
            [
              -122.01637600035387,
              47.348757999713946
            ],
            [
              -122.01637299998085,
              47.34912999987899
            ],
            [
              -122.01637200015593,
              47.34917199992925
            ],
            [
              -122.01636999960779,
              47.34942600010049
            ],
            [
              -122.01635700008728,
              47.350792999704936
            ],
            [
              -122.01635600026239,
              47.350904000136744
            ],
            [
              -122.01635299988936,
              47.35115400008984
            ],
            [
              -122.01635100023952,
              47.351398999747026
            ],
            [
              -122.01634100019379,
              47.35240500027486
            ],
            [
              -122.01634100019379,
              47.35244800007755
            ],
            [
              -122.01634000036887,
              47.35248000007785
            ],
            [
              -122.01615500042095,
              47.352432999994676
            ],
            [
              -122.01600999975769,
              47.35239800019042
            ],
            [
              -122.01563400001402,
              47.35230600029864
            ],
            [
              -122.01554899962522,
              47.35228500000319
            ],
            [
              -122.01543800019546,
              47.35225800013267
            ],
            [
              -122.01538700014183,
              47.35224499985202
            ],
            [
              -122.01531699982164,
              47.35222799985465
            ],
            [
              -122.0151679998587,
              47.35219199998534
            ],
            [
              -122.013879000071,
              47.35187700008156
            ],
            [
              -122.01379700005526,
              47.35185700015947
            ],
            [
              -122.01361799995509,
              47.35191799983739
            ],
            [
              -122.01337699993067,
              47.352001999727406
            ],
            [
              -122.01311699963965,
              47.35209200028723
            ],
            [
              -122.01288599966101,
              47.35206999997522
            ],
            [
              -122.01262299989526,
              47.352043999926615
            ],
            [
              -122.01243799994734,
              47.3520259999323
            ],
            [
              -122.01235900030463,
              47.352017999865204
            ],
            [
              -122.01209599964058,
              47.35199199979098
            ],
            [
              -122.01182899967688,
              47.35196599970399
            ],
            [
              -122.01178799966901,
              47.35196199997036
            ],
            [
              -122.01145100028343,
              47.3519289997219
            ],
            [
              -122.01126799998531,
              47.351852999808955
            ],
            [
              -122.01120400041123,
              47.35182599971746
            ],
            [
              -122.01114499996167,
              47.35180200003023
            ],
            [
              -122.01097900028032,
              47.351734000045724
            ],
            [
              -122.01094099974718,
              47.35171799982183
            ],
            [
              -122.0108570000816,
              47.35168400009074
            ],
            [
              -122.01066999958553,
              47.35160799982499
            ],
            [
              -122.01058799956976,
              47.351574000022985
            ],
            [
              -122.01048800001065,
              47.351532000058356
            ],
            [
              -122.0096400002639,
              47.35118099991656
            ],
            [
              -122.00838300026324,
              47.35126800021092
            ],
            [
              -122.00771399971833,
              47.3509389997146
            ],
            [
              -122.00525900016656,
              47.3497350001728
            ],
            [
              -122.00483400001913,
              47.349964000183945
            ],
            [
              -122.00330699968173,
              47.35078699997099
            ],
            [
              -122.0032189998182,
              47.350828999919884
            ],
            [
              -122.00317000031269,
              47.350849000231584
            ],
            [
              -122.00314500019833,
              47.35085100014064
            ],
            [
              -122.00311800043417,
              47.3508520000951
            ],
            [
              -122.0004239996095,
              47.350976999734236
            ],
            [
              -122.00008999969866,
              47.35099200023095
            ],
            [
              -121.99953599967976,
              47.35125800013541
            ],
            [
              -121.99835300019727,
              47.35182599971746
            ],
            [
              -121.99848500044178,
              47.35253799987672
            ],
            [
              -121.99849999961206,
              47.35261799970464
            ],
            [
              -121.99850800000799,
              47.35266000002221
            ],
            [
              -121.9985309995742,
              47.35278199988562
            ],
            [
              -121.9985530002138,
              47.352904999991146
            ],
            [
              -121.99857599978004,
              47.35302699989678
            ],
            [
              -121.99859900024457,
              47.35314900012891
            ],
            [
              -121.99862199981081,
              47.35327199998771
            ],
            [
              -121.9986439995521,
              47.35339400026205
            ],
            [
              -121.99866299981868,
              47.3534910002141
            ],
            [
              -121.99867200003952,
              47.35354399999331
            ],
            [
              -121.99871399987232,
              47.35377000021148
            ],
            [
              -121.99872200026822,
              47.35381099971376
            ],
            [
              -121.99877300032185,
              47.35408600027244
            ],
            [
              -121.99881400032972,
              47.35430400027459
            ],
            [
              -121.99881199978158,
              47.3543380001435
            ],
            [
              -121.99880900030685,
              47.354378999813065
            ],
            [
              -121.9988050001089,
              47.3544300001443
            ],
            [
              -121.99879500006317,
              47.3545900000283
            ],
            [
              -121.99879199969011,
              47.35463100011065
            ],
            [
              -121.99878199964435,
              47.3547829997373
            ],
            [
              -121.99877099977368,
              47.35493400026611
            ],
            [
              -121.99875499988019,
              47.35517700027846
            ],
            [
              -121.99874700038258,
              47.35529399984024
            ],
            [
              -121.99873999981156,
              47.35539800024718
            ],
            [
              -121.99871200022247,
              47.35579999995136
            ],
            [
              -121.99869100030608,
              47.35611900020004
            ],
            [
              -121.99869100030608,
              47.35613499969817
            ],
            [
              -121.99868899975795,
              47.35615399997066
            ],
            [
              -121.99883699989596,
              47.35614599992083
            ],
            [
              -121.99903500026265,
              47.356136000161115
            ],
            [
              -121.99925700002052,
              47.35612499993633
            ],
            [
              -121.99927100026423,
              47.356124000081785
            ],
            [
              -121.99973999989426,
              47.356099999914946
            ],
            [
              -121.99979099994789,
              47.356098000204845
            ],
            [
              -121.99987200013877,
              47.35609299971212
            ],
            [
              -122.00007700017818,
              47.356082999942316
            ],
            [
              -122.00010399994234,
              47.356082000086936
            ],
            [
              -122.00028300004249,
              47.35607199970652
            ],
            [
              -122.0003259997002,
              47.35606999999533
            ],
            [
              -122.00048800008189,
              47.35606199993275
            ],
            [
              -122.00069300012133,
              47.35605100030115
            ],
            [
              -122.0008899997648,
              47.35604099991483
            ],
            [
              -122.0009170004273,
              47.3560400000587
            ],
            [
              -122.00111200042096,
              47.356058999756826
            ],
            [
              -122.0011509998807,
              47.35606199993275
            ],
            [
              -122.00134000002662,
              47.35607999976759
            ],
            [
              -122.00156699980731,
              47.35610200023353
            ],
            [
              -122.00179500031128,
              47.356124000081785
            ],
            [
              -122.00203100031283,
              47.35614599992083
            ],
            [
              -122.00219699999417,
              47.35616200001933
            ],
            [
              -122.00233300043661,
              47.35623799981232
            ],
            [
              -122.00274699981509,
              47.356472000057
            ],
            [
              -122.00291800041762,
              47.35656899982818
            ],
            [
              -122.00308900012185,
              47.35666500018529
            ],
            [
              -122.00320499957448,
              47.356731000215376
            ],
            [
              -122.00325900000115,
              47.35676099975915
            ],
            [
              -122.00339899974324,
              47.35684099987918
            ],
            [
              -122.00342999970539,
              47.356858000216164
            ],
            [
              -122.00360100030791,
              47.356954000047494
            ],
            [
              -122.00377200001216,
              47.35704999970412
            ],
            [
              -122.00387900014228,
              47.35711100007349
            ],
            [
              -122.00405099967142,
              47.35705299982369
            ],
            [
              -122.00425099968793,
              47.356985999749604
            ],
            [
              -122.00427900017536,
              47.35697699998748
            ],
            [
              -122.00442499976523,
              47.356927999970964
            ],
            [
              -122.0047050001477,
              47.356833999774665
            ],
            [
              -122.00487000000416,
              47.35639800029985
            ],
            [
              -122.00500800009638,
              47.35624300029131
            ],
            [
              -122.00474899963031,
              47.35569099980585
            ],
            [
              -122.00494500034722,
              47.3554329998875
            ],
            [
              -122.00500200024862,
              47.3553580000213
            ],
            [
              -122.00555200006956,
              47.35463399975918
            ],
            [
              -122.00537999964209,
              47.35442400021528
            ],
            [
              -122.00507000002068,
              47.35404399987265
            ],
            [
              -122.00427900017536,
              47.35351200002964
            ],
            [
              -122.00408900020454,
              47.3533849998873
            ],
            [
              -122.00390000005866,
              47.35325700013904
            ],
            [
              -122.00383599958624,
              47.35321199995881
            ],
            [
              -122.00368199960047,
              47.353110999847424
            ],
            [
              -122.00357799984339,
              47.35304099989781
            ],
            [
              -122.00387800031737,
              47.352902000244335
            ],
            [
              -122.00397899970139,
              47.35285499992839
            ],
            [
              -122.0045000001083,
              47.3526130000993
            ],
            [
              -122.00456000038277,
              47.35258499986643
            ],
            [
              -122.00465800029204,
              47.352564000290556
            ],
            [
              -122.00472000021631,
              47.352550000162985
            ],
            [
              -122.00549000014526,
              47.35237999970823
            ],
            [
              -122.0055500004197,
              47.352367000066195
            ],
            [
              -122.006626999597,
              47.35212900015501
            ],
            [
              -122.00670299976498,
              47.35211200012026
            ],
            [
              -122.00677899993296,
              47.35214099992561
            ],
            [
              -122.00777399999279,
              47.3525040000653
            ],
            [
              -122.00797700038238,
              47.35257799980586
            ],
            [
              -122.0081189997743,
              47.35262999997266
            ],
            [
              -122.00860900021907,
              47.35280900009662
            ],
            [
              -122.00932300007149,
              47.35367699976764
            ],
            [
              -122.01001500018262,
              47.35442000005935
            ],
            [
              -122.01006799988606,
              47.354477000274635
            ],
            [
              -122.01030600043575,
              47.354733000236735
            ],
            [
              -122.0103370003979,
              47.35475800029724
            ],
            [
              -122.01053900006428,
              47.35493100002606
            ],
            [
              -122.01092499985363,
              47.35525800023678
            ],
            [
              -122.011098000106,
              47.355404999933675
            ],
            [
              -122.0113430003284,
              47.355613000105116
            ],
            [
              -122.01154199962173,
              47.35578100015992
            ],
            [
              -122.01179699988982,
              47.35599899985396
            ],
            [
              -122.01184999959328,
              47.35604300023565
            ],
            [
              -122.01193099978413,
              47.35600100017638
            ],
            [
              -122.01245499966576,
              47.355769999861174
            ],
            [
              -122.01247399993234,
              47.35576199975312
            ],
            [
              -122.01249200037401,
              47.35575500011397
            ],
            [
              -122.01250999991736,
              47.35574899972705
            ],
            [
              -122.01252900018393,
              47.355742999948
            ],
            [
              -122.01254699972729,
              47.3557380000302
            ],
            [
              -122.01256699981877,
              47.35573300011192
            ],
            [
              -122.01258600008535,
              47.355728000193125
            ],
            [
              -122.01260500035191,
              47.355724000136085
            ],
            [
              -122.0126250004434,
              47.35572099994094
            ],
            [
              -122.01264499963656,
              47.355717999745636
            ],
            [
              -122.01266499972805,
              47.35571500015872
            ],
            [
              -122.01268499981954,
              47.35571299982546
            ],
            [
              -122.01270599973594,
              47.355711000100655
            ],
            [
              -122.01272599982742,
              47.35571000023822
            ],
            [
              -122.01274599991889,
              47.35570899976724
            ],
            [
              -122.01276699983532,
              47.35570899976724
            ],
            [
              -122.01278699992679,
              47.35571000023822
            ],
            [
              -122.01280799984319,
              47.35571000023822
            ],
            [
              -122.01282799993469,
              47.35571199996307
            ],
            [
              -122.01284800002617,
              47.35571299982546
            ],
            [
              -122.0128780001634,
              47.35571699988333
            ],
            [
              -122.01289800025488,
              47.3557200000787
            ],
            [
              -122.01291800034635,
              47.355723000273905
            ],
            [
              -122.01293400023988,
              47.35572599986036
            ],
            [
              -122.01295699980612,
              47.355730999779304
            ],
            [
              -122.01297600007267,
              47.355735999697814
            ],
            [
              -122.01299500033926,
              47.35574100022437
            ],
            [
              -122.01301399970751,
              47.355747000003646
            ],
            [
              -122.01303200014918,
              47.35575299978224
            ],
            [
              -122.01304999969251,
              47.35576000003017
            ],
            [
              -122.01306800013418,
              47.35576700027721
            ],
            [
              -122.01308499985262,
              47.355773999914774
            ],
            [
              -122.01310999996697,
              47.35578600007369
            ],
            [
              -122.01312599986052,
              47.355794000178115
            ],
            [
              -122.01315000014995,
              47.35580800005365
            ],
            [
              -122.01316500021858,
              47.35581700001516
            ],
            [
              -122.01318000028716,
              47.355826999835365
            ],
            [
              -122.01319399963258,
              47.3558370002622
            ],
            [
              -122.01320700005137,
              47.35584700007861
            ],
            [
              -122.01322100029506,
              47.35585799975274
            ],
            [
              -122.0132329999906,
              47.35586900003314
            ],
            [
              -122.0132449996862,
              47.35587999970273
            ],
            [
              -122.01325599955685,
              47.3558919998375
            ],
            [
              -122.01326700032583,
              47.35590300011085
            ],
            [
              -122.01327800019648,
              47.355916000098944
            ],
            [
              -122.01328999989207,
              47.355932000267195
            ],
            [
              -122.01329999993777,
              47.355946000106115
            ],
            [
              -122.01338600015148,
              47.35607899991214
            ],
            [
              -122.01343300000718,
              47.356152000262604
            ],
            [
              -122.01347999986284,
              47.35622499990352
            ],
            [
              -122.01357000027453,
              47.3563630000825
            ],
            [
              -122.01359399966566,
              47.356395999992486
            ],
            [
              -122.01362200015306,
              47.356443000197444
            ],
            [
              -122.01363899987149,
              47.35646599975161
            ],
            [
              -122.01364999974214,
              47.35648099990526
            ],
            [
              -122.0136609996128,
              47.35649500020708
            ],
            [
              -122.01367400003161,
              47.35650899989665
            ],
            [
              -122.01368800027531,
              47.356523000191046
            ],
            [
              -122.0137019996207,
              47.35653699987317
            ],
            [
              -122.01371800041254,
              47.356549999705116
            ],
            [
              -122.01390900020824,
              47.35669600021892
            ],
            [
              -122.01396000026185,
              47.356735000196075
            ],
            [
              -122.01397899963011,
              47.35674899982196
            ],
            [
              -122.01411699972239,
              47.35711400018959
            ],
            [
              -122.01413699981389,
              47.35716300003339
            ],
            [
              -122.01419399971526,
              47.357309999900245
            ],
            [
              -122.01445499983117,
              47.35798000000134
            ],
            [
              -122.01447900012064,
              47.35804199972233
            ],
            [
              -122.0145190003036,
              47.35804199972233
            ],
            [
              -122.01470900027441,
              47.35804099990411
            ],
            [
              -122.01581399993908,
              47.35802700001248
            ],
            [
              -122.01610799966696,
              47.35802600019393
            ],
            [
              -122.01620599957624,
              47.35802600019393
            ],
            [
              -122.01620499975135,
              47.358643000249636
            ],
            [
              -122.01620800012441,
              47.359924000160646
            ],
            [
              -122.01631100005658,
              47.36180099984227
            ],
            [
              -122.01633299979787,
              47.362104000202784
            ],
            [
              -122.01633600017092,
              47.36287999999619
            ],
            [
              -122.01633500034599,
              47.36299700012353
            ],
            [
              -122.01632699995008,
              47.3640530002667
            ],
            [
              -122.01631899955416,
              47.36516800016259
            ],
            [
              -122.01631799972925,
              47.36526400008525
            ],
            [
              -122.0163150002545,
              47.36577400001532
            ],
            [
              -122.01632600012515,
              47.366060999934945
            ],
            [
              -122.01633100014804,
              47.36746399981842
            ],
            [
              -122.01634500039174,
              47.36878399990742
            ],
            [
              -122.01629400033812,
              47.37242699988399
            ],
            [
              -122.01630600003368,
              47.37355999975563
            ],
            [
              -122.01630600003368,
              47.373734000015794
            ],
            [
              -122.0163069998586,
              47.37400099977064
            ],
            [
              -122.0163069998586,
              47.37419599989257
            ],
            [
              -122.01631000023166,
              47.37432100019983
            ],
            [
              -122.01630799968349,
              47.374510000276906
            ],
            [
              -122.01739999982773,
              47.37420599987942
            ],
            [
              -122.01774600033244,
              47.374154999805164
            ],
            [
              -122.01809799978662,
              47.37417499979242
            ],
            [
              -122.01855800009419,
              47.374322999827584
            ],
            [
              -122.02146299990774,
              47.3760449997675
            ],
            [
              -122.02149300004497,
              47.37867900009011
            ],
            [
              -122.01738800013216,
              47.37870000022144
            ],
            [
              -122.01821999998535,
              47.37905799998641
            ],
            [
              -122.01929799988586,
              47.379522000095086
            ],
            [
              -122.0201029999749,
              47.37986700019557
            ],
            [
              -122.02080199975875,
              47.3801660001597
            ],
            [
              -122.0209619995923,
              47.38025000009069
            ],
            [
              -122.0211420004157,
              47.38037000002062
            ],
            [
              -122.02128800000554,
              47.38050600030042
            ],
            [
              -122.0214040003565,
              47.38064900021624
            ],
            [
              -122.02147999962617,
              47.380801999696686
            ],
            [
              -122.02154099972553,
              47.38096799984732
            ],
            [
              -122.02178500012302,
              47.38185799981751
            ],
            [
              -122.02181400043531,
              47.382172000195034
            ],
            [
              -122.02183199997866,
              47.38223400007171
            ],
            [
              -122.02186600031388,
              47.3823529997779
            ],
            [
              -122.0219750000938,
              47.382596000015056
            ],
            [
              -122.02209999976726,
              47.382786000193676
            ],
            [
              -122.02228399989029,
              47.383029000259675
            ],
            [
              -122.02236000005827,
              47.38316800022187
            ],
            [
              -122.02256599992258,
              47.383549999915
            ],
            [
              -122.02352800037046,
              47.38432400001312
            ],
            [
              -122.02383899981677,
              47.3845430002886
            ],
            [
              -122.02419500036723,
              47.38477700027735
            ],
            [
              -122.02501899982455,
              47.385343999778776
            ],
            [
              -122.02728400030382,
              47.38678999980513
            ],
            [
              -122.02785300039129,
              47.387103000124014
            ],
            [
              -122.02970700006856,
              47.388121999780374
            ],
            [
              -122.03099099983338,
              47.38880400015011
            ],
            [
              -122.03201900040345,
              47.389361999804684
            ],
            [
              -122.03202500025127,
              47.39006099991719
            ],
            [
              -122.03202699990109,
              47.39028900023792
            ],
            [
              -122.03206000041135,
              47.39338700015827
            ],
            [
              -122.03206100023625,
              47.39348400015893
            ],
            [
              -122.03206100023625,
              47.3935040001118
            ],
            [
              -122.03246000044446,
              47.39349999987856
            ],
            [
              -122.03262899960053,
              47.39349700000752
            ],
            [
              -122.03289999976218,
              47.39349400013631
            ],
            [
              -122.03294300031818,
              47.39349499989067
            ],
            [
              -122.03304000040258,
              47.393496000253194
            ],
            [
              -122.03313999996169,
              47.39349799976187
            ],
            [
              -122.0333430003513,
              47.39350499986597
            ],
            [
              -122.03362299983544,
              47.39352100018735
            ],
            [
              -122.03371700044508,
              47.3935299997959
            ],
            [
              -122.03380799978338,
              47.393536999895794
            ],
            [
              -122.03398500023368,
              47.3935539999607
            ],
            [
              -122.03411099973208,
              47.39356699979207
            ],
            [
              -122.03420500034171,
              47.393578999867394
            ],
            [
              -122.03431199957352,
              47.3935939998057
            ],
            [
              -122.03459699997887,
              47.393640999706385
            ],
            [
              -122.03470999995679,
              47.39366100020779
            ],
            [
              -122.03483399980534,
              47.39368399995404
            ],
            [
              -122.03494599995832,
              47.39370599993991
            ],
            [
              -122.03508999989839,
              47.3937390002055
            ],
            [
              -122.03520799989916,
              47.393764000024426
            ],
            [
              -122.03533500012078,
              47.39379500014828
            ],
            [
              -122.03547900006082,
              47.39383299970634
            ],
            [
              -122.03554699983287,
              47.393851000031546
            ],
            [
              -122.03565700033606,
              47.39388099974907
            ],
            [
              -122.03579799990305,
              47.39392199970026
            ],
            [
              -122.0358459995836,
              47.39393700014907
            ],
            [
              -122.03595899956153,
              47.393973000114165
            ],
            [
              -122.03607099971451,
              47.39400699995724
            ],
            [
              -122.03619899976103,
              47.3940510002582
            ],
            [
              -122.03629099982253,
              47.394082999956424
            ],
            [
              -122.036567999832,
              47.39418800025512
            ],
            [
              -122.03668500000785,
              47.39423100005639
            ],
            [
              -122.0368309995977,
              47.394296000170264
            ],
            [
              -122.03698399975858,
              47.394363000287946
            ],
            [
              -122.03724300022465,
              47.39448400005772
            ],
            [
              -122.03891899962667,
              47.395323000206915
            ],
            [
              -122.03953200009508,
              47.3955750001153
            ],
            [
              -122.04083900032447,
              47.396214999851736
            ],
            [
              -122.04133800009174,
              47.39652600014201
            ],
            [
              -122.04135300016034,
              47.39648099977758
            ],
            [
              -122.04136700040405,
              47.39642100024533
            ],
            [
              -122.04136400003101,
              47.39639300015649
            ],
            [
              -122.04135900000814,
              47.396348000286544
            ],
            [
              -122.04133600044193,
              47.39629800004818
            ],
            [
              -122.0412929998859,
              47.39624399973742
            ],
            [
              -122.04122799958854,
              47.39618100021707
            ],
            [
              -122.0411819995578,
              47.39614800026452
            ],
            [
              -122.04104900038672,
              47.39606499983182
            ],
            [
              -122.04083299957834,
              47.395939999995775
            ],
            [
              -122.04042000002478,
              47.395713999831386
            ],
            [
              -122.04021300033556,
              47.3956070001043
            ],
            [
              -122.03846199969219,
              47.39465899971569
            ],
            [
              -122.03831100007945,
              47.39457199982633
            ],
            [
              -122.03823999993433,
              47.39453000003803
            ],
            [
              -122.03817499963701,
              47.3944740002682
            ],
            [
              -122.03816600031448,
              47.39446399986866
            ],
            [
              -122.03814200002503,
              47.394433999874956
            ],
            [
              -122.03811600008576,
              47.39438799981084
            ],
            [
              -122.03809500016938,
              47.394326000242586
            ],
            [
              -122.03809099997143,
              47.39426399999326
            ],
            [
              -122.03810299966698,
              47.39420099993004
            ],
            [
              -122.03814399967484,
              47.39410800022028
            ],
            [
              -122.03821099962201,
              47.39402699971161
            ],
            [
              -122.03830600005656,
              47.39396600007218
            ],
            [
              -122.03841700038465,
              47.39391899985324
            ],
            [
              -122.03878200025763,
              47.39385199977918
            ],
            [
              -122.03891199995398,
              47.39382900010625
            ],
            [
              -122.03904099982542,
              47.393807000171726
            ],
            [
              -122.03925300043582,
              47.39377699980395
            ],
            [
              -122.03937499973625,
              47.393754000098276
            ],
            [
              -122.04132499967295,
              47.395096000104715
            ],
            [
              -122.0432649995639,
              47.39643199997212
            ],
            [
              -122.04429899998178,
              47.39714499980907
            ],
            [
              -122.04456900031853,
              47.39744699992884
            ],
            [
              -122.0447080002357,
              47.39666800008065
            ],
            [
              -122.04476299958898,
              47.3963120001197
            ],
            [
              -122.04479799974906,
              47.39608300000271
            ],
            [
              -122.04482399968836,
              47.39593799997165
            ],
            [
              -122.04495000008502,
              47.395240000299005
            ],
            [
              -122.04507700030665,
              47.39454300023666
            ],
            [
              -122.04510200042101,
              47.394421999994286
            ],
            [
              -122.0451810000637,
              47.39419600000867
            ],
            [
              -122.0451869999115,
              47.39417999989223
            ],
            [
              -122.04566399993747,
              47.394137999791496
            ],
            [
              -122.04628200042879,
              47.39378300012215
            ],
            [
              -122.04639299985853,
              47.393703000080556
            ],
            [
              -122.04664899995157,
              47.393558000189834
            ],
            [
              -122.04683200024967,
              47.393454999970565
            ],
            [
              -122.04710699971098,
              47.39329999999326
            ],
            [
              -122.04724099960528,
              47.39322499984055
            ],
            [
              -122.04762599956975,
              47.39300799989225
            ],
            [
              -122.04773100005005,
              47.39295800013339
            ],
            [
              -122.04783700035524,
              47.39290799971896
            ],
            [
              -122.04789900027953,
              47.39287899982177
            ],
            [
              -122.04801899993012,
              47.39281899983694
            ],
            [
              -122.04803999984654,
              47.39280899973148
            ],
            [
              -122.04814600015173,
              47.392758999783815
            ],
            [
              -122.048208000076,
              47.39272900003571
            ],
            [
              -122.0487429998283,
              47.39247499974066
            ],
            [
              -122.0489820002029,
              47.392360999871045
            ],
            [
              -122.04932500033459,
              47.39219600010306
            ],
            [
              -122.04937700021311,
              47.392246999754775
            ],
            [
              -122.05051899968772,
              47.39169899994712
            ],
            [
              -122.05136599960954,
              47.39127099996501
            ],
            [
              -122.05169100019789,
              47.39109999981034
            ],
            [
              -122.05208799985792,
              47.39089000007754
            ],
            [
              -122.0524729998224,
              47.390680000116184
            ],
            [
              -122.05294700037363,
              47.39041499991196
            ],
            [
              -122.05287799987835,
              47.39035900002645
            ],
            [
              -122.05315499988778,
              47.39019899976503
            ],
            [
              -122.05342100002657,
              47.39004499976165
            ],
            [
              -122.05365799985303,
              47.38990799994121
            ],
            [
              -122.05423500033645,
              47.38955899994369
            ],
            [
              -122.05429899991056,
              47.389519999906675
            ],
            [
              -122.05519199986311,
              47.388971999719416
            ],
            [
              -122.05560000029212,
              47.38871800017056
            ],
            [
              -122.05604100033308,
              47.38844200026445
            ],
            [
              -122.0565919999789,
              47.388103999931104
            ],
            [
              -122.05711400021073,
              47.38779100008263
            ],
            [
              -122.05701600030143,
              47.38771100006798
            ],
            [
              -122.05689800030063,
              47.38761799985263
            ],
            [
              -122.05747300023592,
              47.38732800024651
            ],
            [
              -122.05781800001742,
              47.38715399983863
            ],
            [
              -122.05788099976661,
              47.387129999800194
            ],
            [
              -122.0576339998944,
              47.38693099994761
            ],
            [
              -122.05590200041591,
              47.38691400017907
            ],
            [
              -122.05494800036395,
              47.3869040001695
            ],
            [
              -122.05263000018122,
              47.38694000007331
            ],
            [
              -122.05251499965519,
              47.386940999952046
            ],
            [
              -122.05178999993208,
              47.386920000062204
            ],
            [
              -122.05083900025318,
              47.386915999937465
            ],
            [
              -122.05068899956706,
              47.386910000053824
            ],
            [
              -122.04972399964446,
              47.38690500004893
            ],
            [
              -122.04941499984795,
              47.38690500004893
            ],
            [
              -122.04943499993946,
              47.38687300024958
            ],
            [
              -122.04945099983296,
              47.38684800020274
            ],
            [
              -122.0494659999016,
              47.38682400002497
            ],
            [
              -122.04962900010818,
              47.38653799985339
            ],
            [
              -122.04977300004822,
              47.38616799985537
            ],
            [
              -122.0498390001705,
              47.385929999759625
            ],
            [
              -122.04989199987394,
              47.38565800007216
            ],
            [
              -122.04992299983607,
              47.38530700009176
            ],
            [
              -122.04991600016339,
              47.384985000206306
            ],
            [
              -122.04987000013263,
              47.384638000300114
            ],
            [
              -122.04978800011688,
              47.38430600008335
            ],
            [
              -122.0496869998345,
              47.38402000023905
            ],
            [
              -122.04960999984164,
              47.383847999734364
            ],
            [
              -122.04956899983377,
              47.38375799981952
            ],
            [
              -122.04946400025176,
              47.383562999781006
            ],
            [
              -122.04930900044106,
              47.38331699990122
            ],
            [
              -122.04914100021158,
              47.383087999881454
            ],
            [
              -122.0489520000657,
              47.3828619999517
            ],
            [
              -122.04878300001128,
              47.38268300021066
            ],
            [
              -122.0485529998575,
              47.38246600004253
            ],
            [
              -122.04838899982599,
              47.38232700005416
            ],
            [
              -122.04822800016751,
              47.382203999806926
            ],
            [
              -122.04810099994589,
              47.382110000245405
            ],
            [
              -122.04810099994589,
              47.38150200017256
            ],
            [
              -122.04810699979367,
              47.380764999863025
            ],
            [
              -122.04810799961858,
              47.380685000133916
            ],
            [
              -122.04810900034181,
              47.38054399970764
            ],
            [
              -122.04880899995055,
              47.38055299970728
            ],
            [
              -122.04947699977225,
              47.3805579997064
            ],
            [
              -122.04949600003881,
              47.379628000223406
            ],
            [
              -122.04954899974226,
              47.37962900024079
            ],
            [
              -122.04954500044263,
              47.37958099999196
            ],
            [
              -122.04954500044263,
              47.37910600010308
            ],
            [
              -122.04954899974226,
              47.3783859998471
            ],
            [
              -122.04954600026753,
              47.378285999912585
            ],
            [
              -122.05118099966164,
              47.37831199980431
            ],
            [
              -122.05120099975312,
              47.376967999927395
            ],
            [
              -122.05096499975157,
              47.37698200026743
            ],
            [
              -122.05096099955362,
              47.3768490002327
            ],
            [
              -122.05097599962224,
              47.37684299981163
            ],
            [
              -122.05106100001106,
              47.3768490002327
            ],
            [
              -122.05116200029337,
              47.37681599973309
            ],
            [
              -122.05122800041562,
              47.376816999803815
            ],
            [
              -122.0512760000962,
              47.37681099998738
            ],
            [
              -122.05147100008985,
              47.37678800017775
            ],
            [
              -122.05159699958826,
              47.3767739997862
            ],
            [
              -122.0519110003059,
              47.37685899971645
            ],
            [
              -122.05200500001726,
              47.376865000135744
            ],
            [
              -122.05293800015279,
              47.37609800000762
            ],
            [
              -122.05306899967407,
              47.37610000017633
            ],
            [
              -122.05363199991375,
              47.37611099988623
            ],
            [
              -122.05427700016924,
              47.37612300028605
            ],
            [
              -122.05437500007851,
              47.37612499984547
            ],
            [
              -122.05452400004144,
              47.376128000096955
            ],
            [
              -122.0547819997843,
              47.376132999907426
            ],
            [
              -122.05498199980084,
              47.37613600015845
            ],
            [
              -122.0554229998418,
              47.37614200005173
            ],
            [
              -122.05578100004209,
              47.37614900002769
            ],
            [
              -122.05592800035517,
              47.37615200027785
            ],
            [
              -122.05633300041113,
              47.37615999972737
            ],
            [
              -122.0566620002991,
              47.37616699970098
            ],
            [
              -122.05696699989764,
              47.37617300019902
            ],
            [
              -122.0571479996476,
              47.376176999922336
            ],
            [
              -122.0575490004039,
              47.3761849999764
            ],
            [
              -122.0577750003597,
              47.37618899969881
            ],
            [
              -122.05807400011047,
              47.37619400011179
            ],
            [
              -122.05865999991637,
              47.37620399971975
            ],
            [
              -122.058746999955,
              47.37620599988444
            ],
            [
              -122.05883499981857,
              47.376206999966726
            ],
            [
              -122.05907900021603,
              47.37621000021358
            ],
            [
              -122.05908000004095,
              47.3760799997025
            ],
            [
              -122.05908599988872,
              47.37589500013058
            ],
            [
              -122.05916500042976,
              47.37266299980512
            ],
            [
              -122.05957899980822,
              47.37266399995465
            ],
            [
              -122.06110299977257,
              47.372667999944134
            ],
            [
              -122.06254999974402,
              47.37267599992219
            ],
            [
              -122.06254200024642,
              47.37233500023699
            ],
            [
              -122.06253899987337,
              47.37217500001896
            ],
            [
              -122.0625330000256,
              47.37191500007427
            ],
            [
              -122.06252600035289,
              47.371634999729835
            ],
            [
              -122.06251200010921,
              47.37106500008457
            ],
            [
              -122.06251100028429,
              47.371025000176985
            ],
            [
              -122.06249000036789,
              47.36983999979963
            ],
            [
              -122.06247899959891,
              47.36949100017751
            ],
            [
              -122.06247100010131,
              47.36924299991752
            ],
            [
              -122.06246299970539,
              47.36897200014003
            ],
            [
              -122.06245500020778,
              47.36869899973761
            ],
            [
              -122.06244699981185,
              47.36844999978307
            ],
            [
              -122.06244000013918,
              47.3682050001979
            ],
            [
              -122.06242699972039,
              47.36778000000614
            ],
            [
              -122.06241699967464,
              47.367446999856696
            ],
            [
              -122.06241000000196,
              47.36721099971483
            ],
            [
              -122.0624069996289,
              47.36711400003868
            ],
            [
              -122.06238999991047,
              47.36653299971845
            ],
            [
              -122.06238700043572,
              47.366439999865776
            ],
            [
              -122.06238599971249,
              47.36640000010111
            ],
            [
              -122.06231399974249,
              47.3643159997341
            ],
            [
              -122.06212600031981,
              47.36440799998319
            ],
            [
              -122.0620059997709,
              47.36447800006524
            ],
            [
              -122.06186199983087,
              47.36457499972115
            ],
            [
              -122.06172799993656,
              47.364679999781174
            ],
            [
              -122.0616269996542,
              47.36477700028258
            ],
            [
              -122.06153499959268,
              47.36487799996899
            ],
            [
              -122.06147299966842,
              47.36495000001897
            ],
            [
              -122.06140300024654,
              47.36505899989918
            ],
            [
              -122.06134100032226,
              47.365166000187706
            ],
            [
              -122.06130600016215,
              47.365245999732764
            ],
            [
              -122.06128400042086,
              47.365315999919716
            ],
            [
              -122.06125400028364,
              47.36540699996302
            ],
            [
              -122.06120800025288,
              47.36553399976769
            ],
            [
              -122.0611610003972,
              47.36562399976035
            ],
            [
              -122.0610960000999,
              47.365720000070006
            ],
            [
              -122.06102800032781,
              47.36580399989341
            ],
            [
              -122.0609420001141,
              47.36588699991352
            ],
            [
              -122.06090299975601,
              47.36592199989752
            ],
            [
              -122.06087000014408,
              47.365951000023124
            ],
            [
              -122.06083499998398,
              47.36597899985649
            ],
            [
              -122.06075700016616,
              47.366033999811876
            ],
            [
              -122.06067299960228,
              47.36608800004419
            ],
            [
              -122.06064599983807,
              47.366104999835464
            ],
            [
              -122.06050000024821,
              47.366180999909034
            ],
            [
              -122.06032500034603,
              47.36625300000583
            ],
            [
              -122.06016399978924,
              47.36630599974391
            ],
            [
              -122.05998100038947,
              47.366348999779234
            ],
            [
              -122.05977799999985,
              47.366384000065096
            ],
            [
              -122.05958999967889,
              47.36639899983283
            ],
            [
              -122.05923800022471,
              47.366409000081255
            ],
            [
              -122.0590979995843,
              47.366414999864304
            ],
            [
              -122.05909500010956,
              47.36615500012035
            ],
            [
              -122.05909099991162,
              47.36586899977367
            ],
            [
              -122.05908699971364,
              47.36551400015409
            ],
            [
              -122.05906199959927,
              47.365004000144076
            ],
            [
              -122.05906300032251,
              47.36464999987231
            ],
            [
              -122.0590480002539,
              47.36416800021364
            ],
            [
              -122.05898399978147,
              47.36324900003136
            ],
            [
              -122.05897700010878,
              47.36299500006634
            ],
            [
              -122.05897299991082,
              47.36206200010005
            ],
            [
              -122.05897299991082,
              47.361936999944184
            ],
            [
              -122.05897299991082,
              47.360203999999335
            ],
            [
              -122.05897200008592,
              47.358969999972444
            ],
            [
              -122.05897399973574,
              47.35799000002019
            ],
            [
              -122.0593520000275,
              47.35798799977317
            ],
            [
              -122.06031000027744,
              47.3579949997246
            ],
            [
              -122.06090399958093,
              47.358003999921635
            ],
            [
              -122.06308500039464,
              47.35801799981937
            ],
            [
              -122.06393399996628,
              47.35802099988391
            ],
            [
              -122.06440000012161,
              47.358029000258014
            ],
            [
              -122.06490700028483,
              47.35802399994827
            ],
            [
              -122.06507299996616,
              47.35802300012968
            ],
            [
              -122.06571999987146,
              47.35803199971339
            ],
            [
              -122.06575599985645,
              47.35776899995354
            ],
            [
              -122.0657580004046,
              47.357755999813435
            ],
            [
              -122.0657940003896,
              47.357106000285306
            ]
          ]
        ]
      },
      "properties": {
        "AREALAND": "15550155",
        "AREAWATER": "467324",
        "BASENAME": "Maple Valley",
        "CBSAPCI": "N",
        "CENTLAT": "+47.3658963",
        "CENTLON": "-122.0368251",
        "FUNCSTAT": "A",
        "GEOID": "5343150",
        "INTPTLAT": "+47.3671468",
        "INTPTLON": "-122.0348152",
        "LSADC": "25",
        "MTFCC": "G4110",
        "NAME": "Maple Valley city",
        "NECTAPCI": "N",
        "OBJECTID": 26168,
        "OID": "27890836057933",
        "PLACE": "43150",
        "PLACECC": "C1",
        "PLACENS": "02411028",
        "STATE": "53",
        "DISP_CLR": 1,
        "slug": "maple_valley",
        "jurisdiction_key": "maple_valley_city",
        "county_fips": [
          "53033"
        ]
      }
    }
  ]
}
