{
  "type": "FeatureCollection",
  "features": [
    {
      "type": "Feature",
      "geometry": {
        "type": "Polygon",
        "coordinates": [
          [
            [
              -119.92757000022753,
              46.737592999880626
            ],
            [
              -119.92750800030326,
              46.73385699978918
            ],
            [
              -119.92282300043232,
              46.73387199995655
            ],
            [
              -119.92233100033769,
              46.733875000235805
            ],
            [
              -119.92230000037556,
              46.733875000235805
            ],
            [
              -119.922132999971,
              46.733876000123615
            ],
            [
              -119.9219070000152,
              46.73387700001142
            ],
            [
              -119.92188799974862,
              46.73326499994991
            ],
            [
              -119.9220409999095,
              46.733105999745085
            ],
            [
              -119.92198300018318,
              46.730221000048566
            ],
            [
              -119.92212799994813,
              46.73021199983195
            ],
            [
              -119.92218400002461,
              46.72655600019707
            ],
            [
              -119.91687499981461,
              46.726683999976366
            ],
            [
              -119.91696299967815,
              46.7302109998762
            ],
            [
              -119.91696500022631,
              46.73031999986927
            ],
            [
              -119.9169660000512,
              46.730345999891554
            ],
            [
              -119.91700000038641,
              46.7318380000202
            ],
            [
              -119.91709200044792,
              46.73576799970729
            ],
            [
              -119.9170940000977,
              46.735860000239995
            ],
            [
              -119.9153530003984,
              46.73588200003626
            ],
            [
              -119.91512499989446,
              46.73589199977281
            ],
            [
              -119.9149950001981,
              46.7358940000893
            ],
            [
              -119.91490899998439,
              46.73589499993968
            ],
            [
              -119.9143969997983,
              46.73590500028949
            ],
            [
              -119.91358300038677,
              46.73591900003725
            ],
            [
              -119.9098809999818,
              46.73598300024528
            ],
            [
              -119.9098340001261,
              46.734483000025726
            ],
            [
              -119.9098190000575,
              46.73397900016735
            ],
            [
              -119.90971000027754,
              46.73397800028145
            ],
            [
              -119.90960700034537,
              46.73397800028145
            ],
            [
              -119.9084969997595,
              46.73397400012194
            ],
            [
              -119.90819800000875,
              46.73397199973423
            ],
            [
              -119.90786800029588,
              46.73396999996214
            ],
            [
              -119.90753699985977,
              46.73396800018998
            ],
            [
              -119.907242000307,
              46.733967000303885
            ],
            [
              -119.90678899967214,
              46.73396499991591
            ],
            [
              -119.90656600008938,
              46.73396400002974
            ],
            [
              -119.90656600008938,
              46.73394700011507
            ],
            [
              -119.90656299971634,
              46.7338160000493
            ],
            [
              -119.90656199989142,
              46.73374099970861
            ],
            [
              -119.90656600008938,
              46.733090000078
            ],
            [
              -119.90653900032521,
              46.73238600017577
            ],
            [
              -119.90653599995215,
              46.732295999707695
            ],
            [
              -119.90652799955623,
              46.732171000074025
            ],
            [
              -119.90650699963986,
              46.73100999986071
            ],
            [
              -119.90647999987564,
              46.73040999994043
            ],
            [
              -119.90644600043878,
              46.730315000100376
            ],
            [
              -119.90639399966193,
              46.73026899974179
            ],
            [
              -119.90624600042223,
              46.730266999832345
            ],
            [
              -119.90559600014393,
              46.73026100010371
            ],
            [
              -119.90538000023383,
              46.73026000014888
            ],
            [
              -119.9051669997985,
              46.73026000014888
            ],
            [
              -119.90507800011005,
              46.73026100010371
            ],
            [
              -119.90452800028913,
              46.73026100010371
            ],
            [
              -119.90431599967873,
              46.73026100010371
            ],
            [
              -119.90422600016535,
              46.730259000194025
            ],
            [
              -119.90395599982863,
              46.730255999713606
            ],
            [
              -119.90386700014014,
              46.730255999713606
            ],
            [
              -119.90357199968906,
              46.73025299984876
            ],
            [
              -119.90268999960713,
              46.730244000253236
            ],
            [
              -119.90261699981221,
              46.73024300029808
            ],
            [
              -119.90255800026097,
              46.73024300029808
            ],
            [
              -119.90252399992578,
              46.73024300029808
            ],
            [
              -119.90250399983428,
              46.73024300029808
            ],
            [
              -119.90239300040453,
              46.730244000253236
            ],
            [
              -119.90202500015847,
              46.73024500020836
            ],
            [
              -119.90161300042985,
              46.73024800007366
            ],
            [
              -119.90092299996853,
              46.73025499975868
            ],
            [
              -119.90055600044572,
              46.73026000014888
            ],
            [
              -119.90055600044572,
              46.73027899990339
            ],
            [
              -119.90055700027064,
              46.73033900021834
            ],
            [
              -119.90055800009556,
              46.730358999898
            ],
            [
              -119.90055899992048,
              46.73041499970052
            ],
            [
              -119.9005630001184,
              46.73058399993946
            ],
            [
              -119.90056499976824,
              46.730641000071905
            ],
            [
              -119.90056800014129,
              46.7307609998297
            ],
            [
              -119.9005770003621,
              46.731121999902925
            ],
            [
              -119.90057999983685,
              46.7312429997586
            ],
            [
              -119.90058700040785,
              46.73155599994771
            ],
            [
              -119.90060699960104,
              46.7324269997714
            ],
            [
              -119.90060900014916,
              46.73249799982339
            ],
            [
              -119.90061699964677,
              46.732812000025135
            ],
            [
              -119.90062300039288,
              46.73307999982188
            ],
            [
              -119.90062400021777,
              46.73312700014749
            ],
            [
              -119.90063300043862,
              46.73351400011876
            ],
            [
              -119.90064000011132,
              46.7337590001939
            ],
            [
              -119.90064400030927,
              46.73388399984116
            ],
            [
              -119.90065199980688,
              46.73415199985196
            ],
            [
              -119.90035499970594,
              46.73414799970537
            ],
            [
              -119.89946599995132,
              46.7341359998795
            ],
            [
              -119.89916999967532,
              46.734131999731716
            ],
            [
              -119.89913399969032,
              46.734131999731716
            ],
            [
              -119.8991329998654,
              46.73409100020087
            ],
            [
              -119.89912700001761,
              46.73374499988539
            ],
            [
              -119.89910100007835,
              46.73212599998721
            ],
            [
              -119.89762499979459,
              46.73210700026767
            ],
            [
              -119.89756500041844,
              46.73210599973133
            ],
            [
              -119.8975689997181,
              46.73316199977388
            ],
            [
              -119.89758700015973,
              46.73347699969908
            ],
            [
              -119.8975910003577,
              46.7337300002984
            ],
            [
              -119.8975970002055,
              46.73412499993416
            ],
            [
              -119.89719200014952,
              46.73410700018668
            ],
            [
              -119.89680600036016,
              46.734096000235425
            ],
            [
              -119.89664300015353,
              46.734071000058044
            ],
            [
              -119.896182999846,
              46.73399299979946
            ],
            [
              -119.89603899990597,
              46.733970999848204
            ],
            [
              -119.89603800008105,
              46.73393399974205
            ],
            [
              -119.89597799980659,
              46.73393399974205
            ],
            [
              -119.89583399986655,
              46.73393399974205
            ],
            [
              -119.89572599991152,
              46.73393399974205
            ],
            [
              -119.89334099978161,
              46.733938999791164
            ],
            [
              -119.89142600000505,
              46.73394200006669
            ],
            [
              -119.88833299987051,
              46.73395300004936
            ],
            [
              -119.88840999986338,
              46.737500999841934
            ],
            [
              -119.88841499988625,
              46.7376760001756
            ],
            [
              -119.88822900011343,
              46.73767300010782
            ],
            [
              -119.88600899983997,
              46.7376509998109
            ],
            [
              -119.87755999963977,
              46.7375680000931
            ],
            [
              -119.87474400041299,
              46.73754100003867
            ],
            [
              -119.87477700002496,
              46.737976999765706
            ],
            [
              -119.87480600033726,
              46.73835700016001
            ],
            [
              -119.87483300010145,
              46.73925699974324
            ],
            [
              -119.87483300010145,
              46.739287000147854
            ],
            [
              -119.87483300010145,
              46.73938500016296
            ],
            [
              -119.87483300010145,
              46.739426999763126
            ],
            [
              -119.87987199997471,
              46.73942500019328
            ],
            [
              -119.88547800028567,
              46.73945799985742
            ],
            [
              -119.89090100029846,
              46.73951300027877
            ],
            [
              -119.89097699956815,
              46.73951400006204
            ],
            [
              -119.89403200006787,
              46.73952200017445
            ],
            [
              -119.89600100027111,
              46.739528000104094
            ],
            [
              -119.89617899964803,
              46.73951900020942
            ],
            [
              -119.89617799982314,
              46.739551000033416
            ],
            [
              -119.89617600017331,
              46.739616999802806
            ],
            [
              -119.89616699995247,
              46.739911999752756
            ],
            [
              -119.89616500030266,
              46.74001100025284
            ],
            [
              -119.89616299975452,
              46.74006399994836
            ],
            [
              -119.89615899955655,
              46.74022200018348
            ],
            [
              -119.89615799973163,
              46.74027600005637
            ],
            [
              -119.89615299970876,
              46.74052400010045
            ],
            [
              -119.89617799982314,
              46.741354000201746
            ],
            [
              -119.89629699964883,
              46.74136299979018
            ],
            [
              -119.8971679998601,
              46.741369999879396
            ],
            [
              -119.89803800024646,
              46.74137499985464
            ],
            [
              -119.89857899984652,
              46.74138400005514
            ],
            [
              -119.89912700001761,
              46.74139199989013
            ],
            [
              -119.89949899956329,
              46.74142399983374
            ],
            [
              -119.90005900032826,
              46.74142599994497
            ],
            [
              -119.90060900014916,
              46.741428000056175
            ],
            [
              -119.90115899997008,
              46.741428999803944
            ],
            [
              -119.90158599976735,
              46.741430000167306
            ],
            [
              -119.90166000028547,
              46.74497500017677
            ],
            [
              -119.90581500042704,
              46.74498999971368
            ],
            [
              -119.9070039997573,
              46.74499400028716
            ],
            [
              -119.907089999971,
              46.74499400028716
            ],
            [
              -119.9071939997281,
              46.74499400028716
            ],
            [
              -119.91062400014653,
              46.74503300016869
            ],
            [
              -119.91236499984586,
              46.7450529999392
            ],
            [
              -119.91212600036955,
              46.74126100005763
            ],
            [
              -119.91191299993423,
              46.737876000213284
            ],
            [
              -119.91190500043662,
              46.7377679999157
            ],
            [
              -119.91291600038998,
              46.73775799991139
            ],
            [
              -119.9135869996864,
              46.73775099996883
            ],
            [
              -119.91396099978022,
              46.737746000273155
            ],
            [
              -119.91508499971148,
              46.73773300020037
            ],
            [
              -119.9154599996302,
              46.73773000013575
            ],
            [
              -119.91579500026427,
              46.73772600025457
            ],
            [
              -119.91680100019477,
              46.737713000176946
            ],
            [
              -119.91713699975543,
              46.73771000011123
            ],
            [
              -119.91722999964185,
              46.73912400006745
            ],
            [
              -119.91739600022152,
              46.73912400006745
            ],
            [
              -119.91854500026713,
              46.73911700030222
            ],
            [
              -119.91851699977974,
              46.738563999972264
            ],
            [
              -119.91855199993984,
              46.73768700001227
            ],
            [
              -119.9192320003554,
              46.737676999992935
            ],
            [
              -119.91967500004618,
              46.73767300010782
            ],
            [
              -119.92130399959252,
              46.737660999835065
            ],
            [
              -119.92202699966577,
              46.737654999697654
            ],
            [
              -119.92234700023126,
              46.737653000062146
            ],
            [
              -119.92234899988107,
              46.73754199985851
            ],
            [
              -119.9223239997667,
              46.73708999998074
            ],
            [
              -119.92232100029196,
              46.73695200011575
            ],
            [
              -119.92231700009401,
              46.73671399984893
            ],
            [
              -119.9260329998444,
              46.736686999982545
            ],
            [
              -119.92603600021744,
              46.73760599998717
            ],
            [
              -119.92663700009199,
              46.73760299991549
            ],
            [
              -119.92749400005955,
              46.7375939996995
            ],
            [
              -119.92757000022753,
              46.737592999880626
            ]
          ],
          [
            [
              -119.8961329996173,
              46.73763999996694
            ],
            [
              -119.89613900036339,
              46.73774499984149
            ],
            [
              -119.89558500034451,
              46.73773000013575
            ],
            [
              -119.89536199986344,
              46.737724999822476
            ],
            [
              -119.89392300028791,
              46.73771199974462
            ],
            [
              -119.89342199997249,
              46.73770700004533
            ],
            [
              -119.89341699994962,
              46.737517999867634
            ],
            [
              -119.89338000013969,
              46.73584099998894
            ],
            [
              -119.89396099992274,
              46.73584699971251
            ],
            [
              -119.89458000023893,
              46.73585399990219
            ],
            [
              -119.89538500032798,
              46.735862999792964
            ],
            [
              -119.89606900004318,
              46.735869999980615
            ],
            [
              -119.89606900004318,
              46.735890999922375
            ],
            [
              -119.89606800021828,
              46.7359500003014
            ],
            [
              -119.8960699998681,
              46.73602299972102
            ],
            [
              -119.89607599971589,
              46.73624499999691
            ],
            [
              -119.89607800026403,
              46.73631900009102
            ],
            [
              -119.89607999991384,
              46.73642199977835
            ],
            [
              -119.89608800030976,
              46.736734000242876
            ],
            [
              -119.89609099978449,
              46.7368380002018
            ],
            [
              -119.89609499998244,
              46.73691500020788
            ],
            [
              -119.89610699967803,
              46.73714600018212
            ],
            [
              -119.89611099987597,
              46.73722299974839
            ],
            [
              -119.89611599989884,
              46.73732699999549
            ],
            [
              -119.8961329996173,
              46.73763999996694
            ]
          ]
        ]
      },
      "properties": {
        "AREALAND": "2751855",
        "AREAWATER": "0",
        "BASENAME": "Mattawa",
        "CBSAPCI": "N",
        "CENTLAT": "+46.7368022",
        "CENTLON": "-119.9052448",
        "FUNCSTAT": "A",
        "GEOID": "5344165",
        "INTPTLAT": "+46.7368022",
        "INTPTLON": "-119.9052448",
        "LSADC": "25",
        "MTFCC": "G4110",
        "NAME": "Mattawa city",
        "NECTAPCI": "N",
        "OBJECTID": 12220,
        "OID": "27890249576490",
        "PLACE": "44165",
        "PLACECC": "C1",
        "PLACENS": "02412963",
        "STATE": "53",
        "DISP_CLR": 4,
        "slug": "mattawa",
        "jurisdiction_key": "mattawa_city",
        "county_fips": [
          "53025"
        ]
      }
    }
  ]
}
