{"type":"FeatureCollection","features":[{"type":"Feature","geometry":{"type":"Polygon","coordinates":[[[-122.26272199964457,47.621146000096786],[-122.26365099958217,47.613115000230216],[-122.25227999984996,47.610363000242835],[-122.24673399981349,47.60902100001758],[-122.24307400013961,47.608348000191526],[-122.23477100042756,47.60682200021287],[-122.23313399958698,47.606520999855384],[-122.22833400008832,47.60452099993922],[-122.22043399988412,47.59682100027658],[-122.22041899981548,47.597838000178626],[-122.22028900011915,47.60645499976279],[-122.22023399986757,47.610120999709125],[-122.22044399992986,47.61446900011585],[-122.2202410004386,47.615223000255895],[-122.22019700005768,47.61538700014461],[-122.22017000029346,47.615422999947945],[-122.22000999956158,47.615639000064235],[-122.22000999956158,47.615828000115265],[-122.22001100028483,47.61601999998668],[-122.22001499958445,47.61650899982426],[-122.22040899976977,47.61671199990579],[-122.22051699972481,47.616911999958106],[-122.22059399971768,47.61691100021104],[-122.22063399990066,47.616911999958106],[-122.2208339999172,47.616909999858414],[-122.22103499975866,47.61700700006311],[-122.22109199966006,47.61703300009366],[-122.22114899956146,47.617040000122984],[-122.22114899956146,47.61715699978195],[-122.22172600004487,47.61716000022003],[-122.22178399977119,47.61716000022003],[-122.22181599955825,47.61716000022003],[-122.22214399962132,47.61715899987215],[-122.2221589996899,47.61715899987215],[-122.22228099988864,47.61715899987215],[-122.2223689997522,47.61715899987215],[-122.22241700033108,47.61715899987215],[-122.22259100040837,47.61715899987215],[-122.22272299975454,47.61715800012986],[-122.22257499961654,47.61740700017367],[-122.222494000324,47.61740799991121],[-122.22248500010316,47.61837599971656],[-122.2215100001348,47.618522000276215],[-122.22140100035485,47.618537999972645],[-122.22141999972314,47.61857299970787],[-122.22145599970814,47.61863500018478],[-122.2217910003422,47.61922199982602],[-122.22249199977584,47.6196830000899],[-122.2227989999225,47.619885999958605],[-122.22208300042024,47.62036799978222],[-122.22204599971202,47.620407000040935],[-122.22202800016865,47.62044899991442],[-122.2220249997956,47.62048299990261],[-122.22203999986424,47.62052400003708],[-122.2220790002223,47.620557999976484],[-122.22215600021516,47.62059500013473],[-122.22245800033897,47.620629000028],[-122.222454000141,47.62067300028445],[-122.222454000141,47.620711000035726],[-122.22244599974508,47.62104200020683],[-122.22305599984044,47.62104099993324],[-122.22312899963539,47.621040000265126],[-122.22315299992484,47.621040000265126],[-122.22357399987432,47.62104099993324],[-122.22377899991373,47.62104099993324],[-122.22385699973155,47.62104099993324],[-122.22467500023937,47.62104099993324],[-122.22471200004927,47.621040000265126],[-122.22495800009658,47.621040000265126],[-122.22516700033395,47.62104899969938],[-122.22688200009401,47.62103700004971],[-122.22756499998432,47.621031999892104],[-122.22800199982733,47.62102900028168],[-122.2279780004362,47.62130100018349],[-122.22791899998664,47.62657499978648],[-122.22791399996376,47.627084999884026],[-122.2279010004433,47.62830000027755],[-122.22788100035179,47.63006899975234],[-122.22786899975792,47.631176999855114],[-122.22787899980366,47.63195300020226],[-122.22788999967432,47.63387899990766],[-122.22788600037465,47.634089999928044],[-122.22787100030605,47.63553399995658],[-122.22874400016714,47.635563999835874],[-122.22895199968131,47.6355719998008],[-122.23101799996897,47.63557499978733],[-122.23327599987724,47.635588999722145],[-122.23328699974789,47.63616999976286],[-122.2332730004025,47.6363900000372],[-122.23327199967926,47.63647000018246],[-122.23327000002945,47.636578000153975],[-122.23326800037961,47.636701000118634],[-122.23326599983147,47.63682699970845],[-122.23326300035676,47.636851000230024],[-122.23326199963353,47.63701400010086],[-122.23323700041747,47.63829400028384],[-122.23323700041747,47.63837499987696],[-122.23321599960276,47.63864200002295],[-122.2332109995799,47.63869199986459],[-122.2332109995799,47.63876599990557],[-122.23320999975499,47.638987000074856],[-122.23320999975499,47.63916300020103],[-122.23316600027236,47.63919199988638],[-122.23296299988279,47.639324000275266],[-122.23293799976842,47.63934100018648],[-122.23278899980552,47.639442000221365],[-122.23270400031501,47.63949299982323],[-122.23275399964541,47.63961500027098],[-122.233029000005,47.64028100023294],[-122.23613800003308,47.648069999867204],[-122.23983700006501,47.65769599999263],[-122.24199000039131,47.6577669998142],[-122.24592600024971,47.65613200025578],[-122.24955300031164,47.654243999908736],[-122.2510300004203,47.65334600005513],[-122.25116699978933,47.653242999751846],[-122.25335100007779,47.65141299998008],[-122.25529199979363,47.64938400024242],[-122.25690799981949,47.64722900012818],[-122.25818200043689,47.644970999787475],[-122.25909999960551,47.642635999801165],[-122.25936999994225,47.64152399982453],[-122.25948299992017,47.641006999756904],[-122.25952899995094,47.64079499993001],[-122.259604000294,47.64045399992545],[-122.25962199983734,47.64037399982747],[-122.25984600014331,47.63860399999021],[-122.26005100018274,47.63699000025953],[-122.2606749996235,47.632007000040986],[-122.26100299968655,47.62938699977774],[-122.26109100044842,47.62869399979785],[-122.26221200000664,47.62488500023581],[-122.26223399974795,47.62481200011252],[-122.2622379999459,47.62477600011369],[-122.26272199964457,47.621146000096786]]]},"properties":{"AREALAND":"3717601","AREAWATER":"8789865","BASENAME":"Medina","CBSAPCI":"N","CENTLAT":"+47.6272854","CENTLON":"-122.2427188","FUNCSTAT":"A","GEOID":"5344725","INTPTLAT":"+47.6265731","INTPTLON":"-122.2407147","LSADC":"25","MTFCC":"G4110","NAME":"Medina city","NECTAPCI":"N","OBJECTID":15059,"OID":"27890836057934","PLACE":"44725","PLACECC":"C1","PLACENS":"02411071","STATE":"53","DISP_CLR":4,"slug":"medina","jurisdiction_key":"medina_city","county_fips":["53033"]}}]}
