{
  "type": "FeatureCollection",
  "features": [
    {
      "type": "Feature",
      "geometry": {
        "type": "Polygon",
        "coordinates": [
          [
            [
              -117.29348299973509,
              47.679022999958896
            ],
            [
              -117.29348399956001,
              47.67891500004893
            ],
            [
              -117.29300999990707,
              47.67900900017359
            ],
            [
              -117.29158800004997,
              47.67929300026776
            ],
            [
              -117.29111500022196,
              47.67938800007773
            ],
            [
              -117.29100700026693,
              47.67941100003118
            ],
            [
              -117.29068300040183,
              47.679479000070934
            ],
            [
              -117.29057600027171,
              47.679502999743626
            ],
            [
              -117.29006300026073,
              47.67961100025086
            ],
            [
              -117.28852699970248,
              47.679936999933226
            ],
            [
              -117.28801600023964,
              47.68004700024952
            ],
            [
              -117.28773199965919,
              47.680098999867454
            ],
            [
              -117.28688300008756,
              47.68025399987494
            ],
            [
              -117.28660000023032,
              47.68030700024009
            ],
            [
              -117.28584899966965,
              47.68046000014768
            ],
            [
              -117.28428100022268,
              47.68078100008468
            ],
            [
              -117.28359800033239,
              47.68091299999442
            ],
            [
              -117.28284699977173,
              47.68105999974824
            ],
            [
              -117.28281900018263,
              47.68106500020982
            ],
            [
              -117.28273499961873,
              47.68108100011126
            ],
            [
              -117.28270799985454,
              47.68108700029979
            ],
            [
              -117.2824509999366,
              47.68115400024179
            ],
            [
              -117.28243599986796,
              47.681157000029565
            ],
            [
              -117.28160999986255,
              47.6813229999118
            ],
            [
              -117.28133500040126,
              47.68137900017556
            ],
            [
              -117.28107099991229,
              47.68142999995306
            ],
            [
              -117.28028099989186,
              47.681583999915446
            ],
            [
              -117.28001800012613,
              47.681635999815775
            ],
            [
              -117.27976000038326,
              47.68168600022936
            ],
            [
              -117.27898600025637,
              47.68183500025831
            ],
            [
              -117.27872900033843,
              47.681886000194815
            ],
            [
              -117.27846900004744,
              47.681935999764
            ],
            [
              -117.27768900007277,
              47.68208699970817
            ],
            [
              -117.27742999960665,
              47.68213800000308
            ],
            [
              -117.27713199968082,
              47.68219499970451
            ],
            [
              -117.27623799990336,
              47.682368000263146
            ],
            [
              -117.27594099980243,
              47.68242600002136
            ],
            [
              -117.27514400010932,
              47.68258000006749
            ],
            [
              -117.27275599960639,
              47.683043000193585
            ],
            [
              -117.27209700000553,
              47.68317200015119
            ],
            [
              -117.27196099956306,
              47.68319900021443
            ],
            [
              -117.27106099993779,
              47.683375999812704
            ],
            [
              -117.26998100038747,
              47.68358900003986
            ],
            [
              -117.26836799983636,
              47.683939999990315
            ],
            [
              -117.26747200040903,
              47.684135999889506
            ],
            [
              -117.26644600038706,
              47.68435200024605
            ],
            [
              -117.26567800010795,
              47.684515000043355
            ],
            [
              -117.26336699959792,
              47.68498100010103
            ],
            [
              -117.26233999975102,
              47.685188999756285
            ],
            [
              -117.26250299995766,
              47.68555800006066
            ],
            [
              -117.26299300040242,
              47.686664999825354
            ],
            [
              -117.26305899962634,
              47.68681299992269
            ],
            [
              -117.2630979999844,
              47.68690400026845
            ],
            [
              -117.26311499970282,
              47.686969999775265
            ],
            [
              -117.26310600038032,
              47.68704399974608
            ],
            [
              -117.2630910003117,
              47.687076000109535
            ],
            [
              -117.2631320003196,
              47.68717000004319
            ],
            [
              -117.26378900027063,
              47.68864500010479
            ],
            [
              -117.26380099996618,
              47.68867299994237
            ],
            [
              -117.26403299976978,
              47.68865699995062
            ],
            [
              -117.26418099990777,
              47.68864699987769
            ],
            [
              -117.2643449999393,
              47.68863600021859
            ],
            [
              -117.26491499985171,
              47.688653999989405
            ],
            [
              -117.26501299976101,
              47.68866400006098
            ],
            [
              -117.26513800033278,
              47.68867599990248
            ],
            [
              -117.26559400044236,
              47.68872200007544
            ],
            [
              -117.26628200035552,
              47.68875899973822
            ],
            [
              -117.26685800011572,
              47.6888479999472
            ],
            [
              -117.26756600012035,
              47.68895599985412
            ],
            [
              -117.26796199995549,
              47.68898400012945
            ],
            [
              -117.26830099988919,
              47.6890010002029
            ],
            [
              -117.26906499997035,
              47.68905199978523
            ],
            [
              -117.26971100005075,
              47.68903599990979
            ],
            [
              -117.26985300034096,
              47.68903700009111
            ],
            [
              -117.27009600001522,
              47.68903899984898
            ],
            [
              -117.27048699982745,
              47.68904100021153
            ],
            [
              -117.27107600000642,
              47.68904700008925
            ],
            [
              -117.27188799976814,
              47.689042999969296
            ],
            [
              -117.27239999995423,
              47.68898199976475
            ],
            [
              -117.27301400024757,
              47.68894800020465
            ],
            [
              -117.27347899967965,
              47.68896199974162
            ],
            [
              -117.27405100014016,
              47.688980000004655
            ],
            [
              -117.27464699999184,
              47.688948999782944
            ],
            [
              -117.27510599957617,
              47.68891299983398
            ],
            [
              -117.27554099976933,
              47.68889800009989
            ],
            [
              -117.27600699992465,
              47.68886300030038
            ],
            [
              -117.27647200025508,
              47.688849000132116
            ],
            [
              -117.27661600019509,
              47.688844999996974
            ],
            [
              -117.2769469997329,
              47.68881300011414
            ],
            [
              -117.27750199957669,
              47.68878000002544
            ],
            [
              -117.2780299996563,
              47.68880400025692
            ],
            [
              -117.27856199993384,
              47.688777000071305
            ],
            [
              -117.27897500038574,
              47.688782999979395
            ],
            [
              -117.27921100038728,
              47.68882300015523
            ],
            [
              -117.27944700038883,
              47.688862000115726
            ],
            [
              -117.27966900014668,
              47.688908000124684
            ],
            [
              -117.27989599992738,
              47.68895500027596
            ],
            [
              -117.28011400038561,
              47.68901599990736
            ],
            [
              -117.28023999988399,
              47.68905199978523
            ],
            [
              -117.28072399958265,
              47.68911700002249
            ],
            [
              -117.28118499971511,
              47.689203000295656
            ],
            [
              -117.28145000002897,
              47.689267999740004
            ],
            [
              -117.28156700020484,
              47.68929899977211
            ],
            [
              -117.28174999960463,
              47.68934600017575
            ],
            [
              -117.28210399960696,
              47.68939199975783
            ],
            [
              -117.28257599961005,
              47.6894829998369
            ],
            [
              -117.28268100009035,
              47.689506000177275
            ],
            [
              -117.28295200025202,
              47.6895660002025
            ],
            [
              -117.28328699998777,
              47.68962600015866
            ],
            [
              -117.28361300040099,
              47.689701000158
            ],
            [
              -117.28377200040967,
              47.68973799973092
            ],
            [
              -117.28448000041432,
              47.68982800024951
            ],
            [
              -117.28450700017848,
              47.68983199970461
            ],
            [
              -117.28456800027786,
              47.689842999716184
            ],
            [
              -117.28527600028251,
              47.68992700027783
            ],
            [
              -117.28586899976114,
              47.69003599992664
            ],
            [
              -117.28654300032895,
              47.69020199997499
            ],
            [
              -117.28695400023265,
              47.69029599971707
            ],
            [
              -117.2872460003107,
              47.69036199976925
            ],
            [
              -117.28819899963943,
              47.69044799980352
            ],
            [
              -117.28827900000539,
              47.6904550002782
            ],
            [
              -117.28877399957469,
              47.69050600025278
            ],
            [
              -117.2888079999099,
              47.69051199996198
            ],
            [
              -117.28889099975056,
              47.69052600028853
            ],
            [
              -117.28920100027027,
              47.690576000041894
            ],
            [
              -117.29001300003202,
              47.69064100019388
            ],
            [
              -117.29041899991286,
              47.69068299984895
            ],
            [
              -117.29053799973855,
              47.690687999992775
            ],
            [
              -117.29079300000667,
              47.690698999823816
            ],
            [
              -117.29101399993961,
              47.69073300005649
            ],
            [
              -117.29122900002479,
              47.69076499997068
            ],
            [
              -117.29173199999,
              47.69084199983485
            ],
            [
              -117.29250500029201,
              47.69085499992638
            ],
            [
              -117.29301999995282,
              47.69092800028698
            ],
            [
              -117.29346799966645,
              47.69097899979905
            ],
            [
              -117.29346799966645,
              47.690936999777676
            ],
            [
              -117.29346900038969,
              47.690868000014625
            ],
            [
              -117.29346799966645,
              47.690750999708285
            ],
            [
              -117.29346600001666,
              47.690400000237815
            ],
            [
              -117.29346600001666,
              47.69028400024831
            ],
            [
              -117.29346600001666,
              47.690135999720376
            ],
            [
              -117.29346699984156,
              47.68969599991949
            ],
            [
              -117.29346799966645,
              47.68954899970851
            ],
            [
              -117.29346799966645,
              47.6893439998249
            ],
            [
              -117.29345099994804,
              47.68872999975962
            ],
            [
              -117.29344599992515,
              47.68852599987152
            ],
            [
              -117.29344699975007,
              47.688365000297615
            ],
            [
              -117.29345199977296,
              47.687884000210374
            ],
            [
              -117.2934540003211,
              47.68772400007067
            ],
            [
              -117.29345099994804,
              47.68738899996488
            ],
            [
              -117.29344500010023,
              47.68638299980957
            ],
            [
              -117.29344400027534,
              47.68604899979582
            ],
            [
              -117.29344400027534,
              47.686028000223246
            ],
            [
              -117.29344400027534,
              47.6859659998807
            ],
            [
              -117.29344400027534,
              47.68594599991055
            ],
            [
              -117.29344400027534,
              47.68588200019644
            ],
            [
              -117.29344400027534,
              47.68569300010982
            ],
            [
              -117.29076100021962,
              47.68571300017703
            ],
            [
              -117.29075399964862,
              47.6854760002186
            ],
            [
              -117.29076200004454,
              47.68526200018587
            ],
            [
              -117.29076299986946,
              47.684928000251055
            ],
            [
              -117.29076799989234,
              47.68392699998943
            ],
            [
              -117.29077000044046,
              47.68359400025907
            ],
            [
              -117.29077000044046,
              47.68332999976305
            ],
            [
              -117.29077399974013,
              47.682541000248015
            ],
            [
              -117.29077600028826,
              47.68227800017695
            ],
            [
              -117.29215700013746,
              47.68227600015987
            ],
            [
              -117.29346699984156,
              47.68226499976193
            ],
            [
              -117.29346699984156,
              47.68217199976885
            ],
            [
              -117.29347299968934,
              47.681267000192726
            ],
            [
              -117.29347400041259,
              47.681197999732625
            ],
            [
              -117.29347900043545,
              47.68036200003717
            ],
            [
              -117.29348199991018,
              47.67945900003287
            ],
            [
              -117.29348199991018,
              47.679350000053546
            ],
            [
              -117.29348299973509,
              47.679022999958896
            ]
          ]
        ]
      },
      "properties": {
        "AREALAND": "1802927",
        "AREAWATER": "14240",
        "BASENAME": "Millwood",
        "CBSAPCI": "N",
        "CENTLAT": "+47.6855914",
        "CENTLON": "-117.2806273",
        "FUNCSTAT": "A",
        "GEOID": "5345985",
        "INTPTLAT": "+47.6847014",
        "INTPTLON": "-117.2767694",
        "LSADC": "25",
        "MTFCC": "G4110",
        "NAME": "Millwood city",
        "NECTAPCI": "N",
        "OBJECTID": 7759,
        "OID": "27890481567801",
        "PLACE": "45985",
        "PLACECC": "C1",
        "PLACENS": "02413003",
        "STATE": "53",
        "DISP_CLR": 5,
        "slug": "millwood",
        "jurisdiction_key": "millwood_city",
        "county_fips": [
          "53063"
        ]
      }
    }
  ]
}
