{
  "type": "FeatureCollection",
  "features": [
    {
      "type": "Feature",
      "geometry": {
        "type": "Polygon",
        "coordinates": [
          [
            [
              -117.39464299983706,
              48.85914900028976
            ],
            [
              -117.39462600011862,
              48.85809000007272
            ],
            [
              -117.39462399957048,
              48.85799499976909
            ],
            [
              -117.39462199992067,
              48.85792399972307
            ],
            [
              -117.39462199992067,
              48.857890999708985
            ],
            [
              -117.39462000027085,
              48.857808999884334
            ],
            [
              -117.39461600007287,
              48.857520000274675
            ],
            [
              -117.39460400037733,
              48.85647700003627
            ],
            [
              -117.39459400033157,
              48.855552000106826
            ],
            [
              -117.3945819997377,
              48.854648000209934
            ],
            [
              -117.39457599988991,
              48.85423799977973
            ],
            [
              -117.39457400024008,
              48.854091999781645
            ],
            [
              -117.39457000004214,
              48.85375399977977
            ],
            [
              -117.39455900017148,
              48.85289899983913
            ],
            [
              -117.39454499992777,
              48.85195499976021
            ],
            [
              -117.39453499988203,
              48.85118899989469
            ],
            [
              -117.39428600036001,
              48.85078300015285
            ],
            [
              -117.39377900019679,
              48.849957000136726
            ],
            [
              -117.39451700033868,
              48.84982599981113
            ],
            [
              -117.39449700024718,
              48.848359000101304
            ],
            [
              -117.39296800025997,
              48.848368000208794
            ],
            [
              -117.39242500011177,
              48.84837100024427
            ],
            [
              -117.39236300018747,
              48.847965999741376
            ],
            [
              -117.39223500014097,
              48.847977999978525
            ],
            [
              -117.39211399976715,
              48.84795899999579
            ],
            [
              -117.39201000001006,
              48.84789599987711
            ],
            [
              -117.39183199973483,
              48.84774100008274
            ],
            [
              -117.39178400005426,
              48.84773600015769
            ],
            [
              -117.3917020000385,
              48.847121999888216
            ],
            [
              -117.39170399968832,
              48.8471010002946
            ],
            [
              -117.39171600028219,
              48.846990000185286
            ],
            [
              -117.39171600028219,
              48.84671399978964
            ],
            [
              -117.39172499960472,
              48.84654399975273
            ],
            [
              -117.3917310003508,
              48.84641400020443
            ],
            [
              -117.39173700019859,
              48.84621899995367
            ],
            [
              -117.39160400012919,
              48.84619900023364
            ],
            [
              -117.39157599964179,
              48.84619499981577
            ],
            [
              -117.39090600017029,
              48.84609499990552
            ],
            [
              -117.39070199995578,
              48.846064000288884
            ],
            [
              -117.3896819997816,
              48.84590400003636
            ],
            [
              -117.38845099972022,
              48.84572399995407
            ],
            [
              -117.38782399990642,
              48.84671100024602
            ],
            [
              -117.38292499977521,
              48.85260900013107
            ],
            [
              -117.38213700030295,
              48.85399600006911
            ],
            [
              -117.38214099960257,
              48.854008000043265
            ],
            [
              -117.3824789997114,
              48.8547780002507
            ],
            [
              -117.3842899997309,
              48.85573399985638
            ],
            [
              -117.38472699957391,
              48.856094000107575
            ],
            [
              -117.38473999999272,
              48.85611400001278
            ],
            [
              -117.38510200039094,
              48.856634000062996
            ],
            [
              -117.38501000032944,
              48.85709100025193
            ],
            [
              -117.3846909995889,
              48.85741399976234
            ],
            [
              -117.38426100031691,
              48.857982000142776
            ],
            [
              -117.3839519996221,
              48.85832800004801
            ],
            [
              -117.38346600027361,
              48.85864799984032
            ],
            [
              -117.38287500044481,
              48.85888000012447
            ],
            [
              -117.3821630002422,
              48.8591660001769
            ],
            [
              -117.38310800007334,
              48.85916200020398
            ],
            [
              -117.38355099976413,
              48.85916300019726
            ],
            [
              -117.38426999963941,
              48.85916100021072
            ],
            [
              -117.38438000014261,
              48.85916100021072
            ],
            [
              -117.3845690002885,
              48.85916500018372
            ],
            [
              -117.38476900030503,
              48.8591600002174
            ],
            [
              -117.38503799991855,
              48.8591600002174
            ],
            [
              -117.38515199972134,
              48.8591600002174
            ],
            [
              -117.38557000019608,
              48.85915900022406
            ],
            [
              -117.38565300003678,
              48.85915800023074
            ],
            [
              -117.38572800037984,
              48.85915800023074
            ],
            [
              -117.3858029998246,
              48.85915800023074
            ],
            [
              -117.38600500038928,
              48.85915800023074
            ],
            [
              -117.38614500013136,
              48.85915700023736
            ],
            [
              -117.38631400018578,
              48.85915700023736
            ],
            [
              -117.38644700025515,
              48.859156000244
            ],
            [
              -117.38656299970779,
              48.859156000244
            ],
            [
              -117.38664200024883,
              48.859155000250574
            ],
            [
              -117.38670400017311,
              48.859156000244
            ],
            [
              -117.38676299972434,
              48.859156000244
            ],
            [
              -117.38682700019676,
              48.859155000250574
            ],
            [
              -117.38688999994595,
              48.859155000250574
            ],
            [
              -117.38696100009106,
              48.859155000250574
            ],
            [
              -117.38701799999245,
              48.859155000250574
            ],
            [
              -117.38713099997038,
              48.859156000244
            ],
            [
              -117.38754299969902,
              48.85915300026372
            ],
            [
              -117.38900300008926,
              48.85915000028326
            ],
            [
              -117.39083099982722,
              48.85915000028326
            ],
            [
              -117.39269799992324,
              48.85914900028976
            ],
            [
              -117.39297199955963,
              48.85914900028976
            ],
            [
              -117.39436199962968,
              48.859152000270235
            ],
            [
              -117.39452599966121,
              48.85914900028976
            ],
            [
              -117.39464299983706,
              48.85914900028976
            ]
          ]
        ]
      },
      "properties": {
        "AREALAND": "791623",
        "AREAWATER": "221683",
        "BASENAME": "Metaline",
        "CBSAPCI": "N",
        "CENTLAT": "+48.8533390",
        "CENTLON": "-117.3892296",
        "FUNCSTAT": "A",
        "GEOID": "5345285",
        "INTPTLAT": "+48.8523358",
        "INTPTLON": "-117.3870643",
        "LSADC": "43",
        "MTFCC": "G4110",
        "NAME": "Metaline town",
        "NECTAPCI": "N",
        "OBJECTID": 4111,
        "OID": "27890480856143",
        "PLACE": "45285",
        "PLACECC": "C1",
        "PLACENS": "02412989",
        "STATE": "53",
        "DISP_CLR": 4,
        "slug": "metaline",
        "jurisdiction_key": "metaline_city",
        "county_fips": [
          "53051"
        ]
      }
    }
  ]
}
