{"type":"FeatureCollection","features":[{"type":"Feature","geometry":{"type":"Polygon","coordinates":[[[-119.01737600025531,46.57445899971144],[-119.01743599963145,46.56932699974361],[-119.00682700033057,46.56930800018263],[-119.00458299976768,46.56930800018263],[-119.00369200036324,46.56835800006095],[-119.00322200000997,46.56780200025544],[-119.00266799999109,46.567065999700816],[-119.0021680003989,46.56636300011895],[-119.00243700001243,46.56627300027717],[-119.0018649995519,46.565426999777415],[-119.00158900026567,46.56550099987901],[-119.00133200034773,46.56504300003294],[-119.00114200037692,46.564619000245564],[-119.00096499992662,46.56411200009981],[-119.00084000025313,46.56359599996889],[-119.00079000002442,46.56324899995529],[-119.00077999997869,46.56317399990985],[-119.00075900006229,46.56260099996996],[-119.00080300044321,46.562038999947355],[-119.00004000018697,46.562038999947355],[-118.99970299990308,46.562040999909385],[-118.99940300032742,46.56204499983327],[-118.99904000010427,46.562040999909385],[-118.9960289999855,46.56204499983327],[-118.99594000029704,46.56204699979508],[-118.9958880004185,46.56204599981418],[-118.99584400003756,46.56204499983327],[-118.9954170002403,46.562047999775956],[-118.99437399960158,46.56204699979508],[-118.9857150002374,46.56205800020147],[-118.98567900025238,46.56929600016395],[-118.98566800038174,46.57159599969951],[-118.98566300035887,46.572821999815126],[-118.98566300035887,46.57285899977463],[-118.98565999998578,46.57317899995671],[-118.98565999998578,46.57322099978257],[-118.98564499991721,46.576586000056764],[-118.99621499975832,46.57658699976963],[-118.99605300027494,46.583839000008375],[-119.0016550003879,46.58384399975616],[-119.00213099969065,46.58384399975616],[-119.00477500028663,46.583846999728095],[-119.00574199985904,46.58384799992451],[-119.00629000003013,46.583849000120914],[-119.00791899957646,46.58385099989623],[-119.00845000002911,46.58385099989623],[-119.01311300015877,46.58386500017363],[-119.01725800025454,46.583859999810365],[-119.01736299983652,46.57560499991287],[-119.01736799985939,46.575090000167506],[-119.0173689996843,46.57500099972785],[-119.01737600025531,46.57445899971144]]]},"properties":{"AREALAND":"4290738","AREAWATER":"0","BASENAME":"Mesa","CBSAPCI":"N","CENTLAT":"+46.5734882","CENTLON":"-119.0013184","FUNCSTAT":"A","GEOID":"5345180","INTPTLAT":"+46.5734882","INTPTLON":"-119.0013184","LSADC":"25","MTFCC":"G4110","NAME":"Mesa city","NECTAPCI":"N","OBJECTID":15937,"OID":"27890246554181","PLACE":"45180","PLACECC":"C1","PLACENS":"02411088","STATE":"53","DISP_CLR":2,"slug":"mesa","jurisdiction_key":"mesa_city","county_fips":["53021"]}}]}
