{"type":"FeatureCollection","features":[{"type":"Feature","geometry":{"type":"Polygon","coordinates":[[[-117.37850000019529,48.8585159997897],[-117.37840499976072,48.857692999758804],[-117.37815100021584,48.85671099982838],[-117.37669599984844,48.85577600006833],[-117.37379000020997,48.85577700012926],[-117.37288600038674,48.85577600006833],[-117.37288899986147,48.85657299971958],[-117.37288499966351,48.85687299990752],[-117.37288499966351,48.8573919997283],[-117.37288499966351,48.857614999706705],[-117.37284399965563,48.857619999827314],[-117.3728129996935,48.857630000067125],[-117.37275599979208,48.8576489999262],[-117.37273900007365,48.8576790000312],[-117.37272599965486,48.85770800009589],[-117.37273999989854,48.85780000029184],[-117.37277300040884,48.85800599995033],[-117.37281900043958,48.858059000198764],[-117.37288300001369,48.85812599999758],[-117.3728839998386,48.858187000221626],[-117.37288300001369,48.8583599997647],[-117.37288100036385,48.85900099984602],[-117.37287600034101,48.85990800026504],[-117.37287299996795,48.86032600011621],[-117.37041599986806,48.860325000146204],[-117.37011999959203,48.860315999824046],[-117.37012700016304,48.85989200001756],[-117.37013399983573,48.85939199990149],[-117.36994300004002,48.85940099979882],[-117.36988299976558,48.85940399976419],[-117.36956399992337,48.85939899982174],[-117.36925900032482,48.85939499986744],[-117.36899499983585,48.859390999912826],[-117.36864199965846,48.859390999912826],[-117.36864000000861,48.8609070000099],[-117.36864000000861,48.86097700000468],[-117.36804499998186,48.86136899993928],[-117.36790299969164,48.8614619998546],[-117.36781300017827,48.8615220002039],[-117.36595399957987,48.86152100025775],[-117.36402200008483,48.86151999972063],[-117.36400399964317,48.865483000008346],[-117.36399699997048,48.866016999996596],[-117.36774200003319,48.866050999827245],[-117.367715000269,48.8656000002642],[-117.36839200031149,48.86559700007921],[-117.368404999832,48.865181000265665],[-117.36961800035,48.865048999715704],[-117.36973200015282,48.8650360001486],[-117.37052899984594,48.864949000231285],[-117.37062500010542,48.8649769997525],[-117.37094399994763,48.86527099998437],[-117.37202000019833,48.86524200016488],[-117.37326700015325,48.86509800009927],[-117.37400000027228,48.865028999834834],[-117.37485700023983,48.86485899993348],[-117.37556100004652,48.86444500026106],[-117.37616000027124,48.86380199977326],[-117.37658500041867,48.86324500005107],[-117.37696199998724,48.86208299993057],[-117.37746900015044,48.8609219999748],[-117.37850000019529,48.8585159997897]]]},"properties":{"AREALAND":"515555","AREAWATER":"166264","BASENAME":"Metaline Falls","CBSAPCI":"N","CENTLAT":"+48.8615420","CENTLON":"-117.3718306","FUNCSTAT":"A","GEOID":"5345320","INTPTLAT":"+48.8612950","INTPTLON":"-117.3718917","LSADC":"43","MTFCC":"G4110","NAME":"Metaline Falls town","NECTAPCI":"N","OBJECTID":1197,"OID":"27890480856144","PLACE":"45320","PLACECC":"C1","PLACENS":"02412990","STATE":"53","DISP_CLR":4,"slug":"metaline_falls","jurisdiction_key":"metaline_falls_city","county_fips":["53051"]}}]}
