{
  "type": "FeatureCollection",
  "features": [
    {
      "type": "Feature",
      "geometry": {
        "type": "MultiPolygon",
        "coordinates": [
          [
            [
              [
                -123.62534799998885,
                46.98778099975281
              ],
              [
                -123.62529600011032,
                46.98769999993036
              ],
              [
                -123.62519400000308,
                46.987655999710555
              ],
              [
                -123.62499099961349,
                46.98763000020431
              ],
              [
                -123.62455100029574,
                46.987631999742554
              ],
              [
                -123.62422400005758,
                46.98758000008124
              ],
              [
                -123.62344699955763,
                46.987412999919485
              ],
              [
                -123.62336200006715,
                46.987341999736685
              ],
              [
                -123.62337899978557,
                46.987260999861796
              ],
              [
                -123.62353100012153,
                46.98714299980927
              ],
              [
                -123.62370699984862,
                46.987124000036104
              ],
              [
                -123.62393199997953,
                46.987149999788464
              ],
              [
                -123.62412899962303,
                46.987148999703955
              ],
              [
                -123.62414600023979,
                46.98705799990082
              ],
              [
                -123.62407799956941,
                46.986996000033756
              ],
              [
                -123.62387500007814,
                46.986943000278174
              ],
              [
                -123.62357100030451,
                46.98690000013726
              ],
              [
                -123.62343300021226,
                46.986863999978404
              ],
              [
                -123.62336799991492,
                46.986847000286495
              ],
              [
                -123.623259000135,
                46.986759999723795
              ],
              [
                -123.62136199990174,
                46.98675000003038
              ],
              [
                -123.61850599959367,
                46.98673599996627
              ],
              [
                -123.61850599959367,
                46.98679399977037
              ],
              [
                -123.61840799968436,
                46.98679399977037
              ],
              [
                -123.61840900040758,
                46.98942500023777
              ],
              [
                -123.6144950002905,
                46.98946099989736
              ],
              [
                -123.61385099985996,
                46.989470000268
              ],
              [
                -123.61377200021724,
                46.9877200001854
              ],
              [
                -123.61324400013763,
                46.98772900023644
              ],
              [
                -123.61323999993968,
                46.98768199981699
              ],
              [
                -123.61307000006035,
                46.987683999966045
              ],
              [
                -123.61306900023543,
                46.98752799975658
              ],
              [
                -123.61306699968729,
                46.98726799982558
              ],
              [
                -123.61306400021256,
                46.98687300017359
              ],
              [
                -123.61306300038767,
                46.986428000078874
              ],
              [
                -123.61308099993101,
                46.98595000011382
              ],
              [
                -123.61389000021799,
                46.98591299982035
              ],
              [
                -123.61421900010596,
                46.985906999786884
              ],
              [
                -123.61448000022187,
                46.98590199986065
              ],
              [
                -123.61448000022187,
                46.98586600025531
              ],
              [
                -123.61445400028263,
                46.98485499985462
              ],
              [
                -123.61444500006179,
                46.98430700013097
              ],
              [
                -123.61444099986382,
                46.984079000116516
              ],
              [
                -123.61321900002328,
                46.98413500007036
              ],
              [
                -123.6132120003506,
                46.98315900009275
              ],
              [
                -123.61320399995465,
                46.98269599976876
              ],
              [
                -123.61585799969805,
                46.98265100016413
              ],
              [
                -123.61589200003324,
                46.98260400018251
              ],
              [
                -123.61600300036133,
                46.982604999739245
              ],
              [
                -123.61608000035423,
                46.98260400018251
              ],
              [
                -123.61616499984471,
                46.98260300001296
              ],
              [
                -123.61625699990621,
                46.98260100028659
              ],
              [
                -123.61635200034077,
                46.982597999777695
              ],
              [
                -123.61644799970193,
                46.982594999881435
              ],
              [
                -123.61654099958837,
                46.98259199998501
              ],
              [
                -123.61662900035022,
                46.98259099981523
              ],
              [
                -123.61671499966562,
                46.98259000025824
              ],
              [
                -123.61680099987936,
                46.982596000051146
              ],
              [
                -123.61688700009307,
                46.98258600019165
              ],
              [
                -123.61697699960645,
                46.98258200012477
              ],
              [
                -123.61707100021609,
                46.98257999978481
              ],
              [
                -123.61716900012539,
                46.98257800005759
              ],
              [
                -123.61727000040771,
                46.98257599971748
              ],
              [
                -123.61737300033987,
                46.9825739999901
              ],
              [
                -123.61747700009694,
                46.982572000262664
              ],
              [
                -123.6175800000291,
                46.98256899975213
              ],
              [
                -123.61768100031148,
                46.9825670000245
              ],
              [
                -123.617873999757,
                46.982562999956194
              ],
              [
                -123.61796099979563,
                46.982561000228344
              ],
              [
                -123.6180379997885,
                46.982558999887594
              ],
              [
                -123.61815400013946,
                46.98255300009053
              ],
              [
                -123.61823600015522,
                46.982533999911645
              ],
              [
                -123.61842299975298,
                46.9825310000118
              ],
              [
                -123.61842299975298,
                46.982607000078275
              ],
              [
                -123.6184029996615,
                46.98398699984607
              ],
              [
                -123.61840100001166,
                46.98421999972413
              ],
              [
                -123.61827700016312,
                46.98422200000273
              ],
              [
                -123.61827100031533,
                46.98571199986549
              ],
              [
                -123.61826999959212,
                46.985861999821026
              ],
              [
                -123.61851700036264,
                46.98586400003823
              ],
              [
                -123.61854099975375,
                46.984216999918885
              ],
              [
                -123.61854800032478,
                46.984115999840874
              ],
              [
                -123.61867200017333,
                46.98409099998023
              ],
              [
                -123.61867200017333,
                46.98386099997811
              ],
              [
                -123.61867600037128,
                46.982167999857126
              ],
              [
                -123.61842199992806,
                46.9821700002125
              ],
              [
                -123.618430000324,
                46.98137599971162
              ],
              [
                -123.618418999555,
                46.980496999754
              ],
              [
                -123.61695300021532,
                46.98050899980887
              ],
              [
                -123.61638699960257,
                46.98051799984828
              ],
              [
                -123.6163459995947,
                46.98052000026539
              ],
              [
                -123.61632999970114,
                46.97974700017236
              ],
              [
                -123.61632800005135,
                46.979403999803665
              ],
              [
                -123.61633499972403,
                46.97881699980882
              ],
              [
                -123.61634800014282,
                46.978257999788184
              ],
              [
                -123.61636499986125,
                46.977824999733365
              ],
              [
                -123.61637200043228,
                46.977585000172866
              ],
              [
                -123.61638499995274,
                46.97746700021358
              ],
              [
                -123.6163969996483,
                46.97715999990452
              ],
              [
                -123.61640000002136,
                46.97709199979328
              ],
              [
                -123.61613200023272,
                46.97708599999563
              ],
              [
                -123.6160590004378,
                46.977082000130174
              ],
              [
                -123.61591100029982,
                46.97707399978544
              ],
              [
                -123.61552100031247,
                46.97706799998577
              ],
              [
                -123.61552700016027,
                46.97695999979917
              ],
              [
                -123.61555700029747,
                46.97644599993975
              ],
              [
                -123.61556099959714,
                46.976186000046624
              ],
              [
                -123.61534600041028,
                46.976203999740505
              ],
              [
                -123.61507900044657,
                46.976252000120375
              ],
              [
                -123.61488899957749,
                46.97630700001742
              ],
              [
                -123.61489799979833,
                46.9761460000923
              ],
              [
                -123.61491899971472,
                46.97579800026916
              ],
              [
                -123.61449299974237,
                46.97579399969442
              ],
              [
                -123.61427500018246,
                46.97581299981685
              ],
              [
                -123.61420400003738,
                46.97581200013318
              ],
              [
                -123.61377300004214,
                46.97581099983656
              ],
              [
                -123.61372199998853,
                46.976462000203064
              ],
              [
                -123.61371600014074,
                46.976527999936145
              ],
              [
                -123.61371000029295,
                46.97662200012112
              ],
              [
                -123.6130609998395,
                46.9767939998362
              ],
              [
                -123.61300399993813,
                46.974832000188634
              ],
              [
                -123.61299399989237,
                46.974663999725834
              ],
              [
                -123.61297999964866,
                46.97407600007905
              ],
              [
                -123.61296600030326,
                46.97356999972521
              ],
              [
                -123.61296200010531,
                46.973413000281184
              ],
              [
                -123.61295799990734,
                46.97321800014653
              ],
              [
                -123.61285300032539,
                46.97319599990436
              ],
              [
                -123.61261599960058,
                46.973147000112675
              ],
              [
                -123.61217799993268,
                46.97310899980545
              ],
              [
                -123.61123999977424,
                46.973045999962466
              ],
              [
                -123.61046399999753,
                46.97305599976739
              ],
              [
                -123.60976500021371,
                46.97311399970225
              ],
              [
                -123.60965999973341,
                46.97312800026889
              ],
              [
                -123.60946599956466,
                46.97315299973931
              ],
              [
                -123.60907899995034,
                46.97320400021638
              ],
              [
                -123.60709899987644,
                46.973275000174574
              ],
              [
                -123.607110999572,
                46.96974900023768
              ],
              [
                -123.61036000024046,
                46.96966200004828
              ],
              [
                -123.61127900013233,
                46.969641999780414
              ],
              [
                -123.61167400014251,
                46.9696319999502
              ],
              [
                -123.61150199971507,
                46.969570000102756
              ],
              [
                -123.61074400038002,
                46.96895300017656
              ],
              [
                -123.61056199990682,
                46.96850000009401
              ],
              [
                -123.61038700000465,
                46.96814999990241
              ],
              [
                -123.61018899963793,
                46.96741299978163
              ],
              [
                -123.61005100044397,
                46.96708900014672
              ],
              [
                -123.60979000032809,
                46.966917999718476
              ],
              [
                -123.60963200014433,
                46.96686600013949
              ],
              [
                -123.6089049998731,
                46.9666240001134
              ],
              [
                -123.60790300014058,
                46.966218000250116
              ],
              [
                -123.60732700038038,
                46.96600199997302
              ],
              [
                -123.60667799992696,
                46.96586899970907
              ],
              [
                -123.606533000162,
                46.96579000014709
              ],
              [
                -123.60651399989543,
                46.965773999755996
              ],
              [
                -123.60635200041204,
                46.96573700021262
              ],
              [
                -123.60604500026538,
                46.965583999956735
              ],
              [
                -123.60579599984503,
                46.9653969997309
              ],
              [
                -123.6056539995548,
                46.965201999795724
              ],
              [
                -123.60564100003434,
                46.964992000249566
              ],
              [
                -123.60566899962342,
                46.96481700030456
              ],
              [
                -123.60573300009584,
                46.96464799975478
              ],
              [
                -123.60603000019675,
                46.96432999992807
              ],
              [
                -123.60628100026693,
                46.964131000173786
              ],
              [
                -123.60652200029135,
                46.96410299984397
              ],
              [
                -123.60664299976685,
                46.963948999913704
              ],
              [
                -123.60682699988986,
                46.96381299972613
              ],
              [
                -123.60691700030156,
                46.963741000172035
              ],
              [
                -123.60722500027313,
                46.96353699988738
              ],
              [
                -123.60734499992375,
                46.96343300023628
              ],
              [
                -123.60737300041114,
                46.96329300029236
              ],
              [
                -123.60733099968003,
                46.9630459998176
              ],
              [
                -123.60726299990797,
                46.96289800007388
              ],
              [
                -123.60732900003022,
                46.962731000062
              ],
              [
                -123.60732700038038,
                46.96262700007018
              ],
              [
                -123.6073430002739,
                46.9624609997587
              ],
              [
                -123.60743799981017,
                46.96232999975864
              ],
              [
                -123.60764100019975,
                46.96217099993603
              ],
              [
                -123.60767899983456,
                46.96141499987874
              ],
              [
                -123.60736699966503,
                46.96152899989504
              ],
              [
                -123.60721699987721,
                46.96159299976545
              ],
              [
                -123.60705700004365,
                46.96165199981763
              ],
              [
                -123.60543799964474,
                46.96190500025979
              ],
              [
                -123.60368900044783,
                46.962179000057915
              ],
              [
                -123.603419999936,
                46.962220999911914
              ],
              [
                -123.60286400026729,
                46.96223700013953
              ],
              [
                -123.60267199974835,
                46.962242999763866
              ],
              [
                -123.6019910004062,
                46.96232699995145
              ],
              [
                -123.60181099958284,
                46.96260199997128
              ],
              [
                -123.60180200026032,
                46.96266499985484
              ],
              [
                -123.60175399968139,
                46.962688000066315
              ],
              [
                -123.60159200019804,
                46.96419200029423
              ],
              [
                -123.60155100019014,
                46.964487000286944
              ],
              [
                -123.60139100035656,
                46.96563700004283
              ],
              [
                -123.60094000026986,
                46.96641800006959
              ],
              [
                -123.60070900029116,
                46.96666200012411
              ],
              [
                -123.6000759997313,
                46.96743000013588
              ],
              [
                -123.59943300002396,
                46.96816300010287
              ],
              [
                -123.59883600034739,
                46.96924600004734
              ],
              [
                -123.59856199981269,
                46.96966100024963
              ],
              [
                -123.59839799978114,
                46.97022000003201
              ],
              [
                -123.59840299980402,
                46.97070599972366
              ],
              [
                -123.59836000014633,
                46.97125899977939
              ],
              [
                -123.59801600018973,
                46.971764999931935
              ],
              [
                -123.59745499959985,
                46.97220399975342
              ],
              [
                -123.59680900041779,
                46.972437000106346
              ],
              [
                -123.59593499983347,
                46.97245100023729
              ],
              [
                -123.59538599983746,
                46.97240000026804
              ],
              [
                -123.59492600042823,
                46.97220399975342
              ],
              [
                -123.59468200003077,
                46.97188600009865
              ],
              [
                -123.59465199989356,
                46.971670999790774
              ],
              [
                -123.59423599996695,
                46.97149100019406
              ],
              [
                -123.59390100023116,
                46.9720999997891
              ],
              [
                -123.59304699973833,
                46.97366499993018
              ],
              [
                -123.59295700022496,
                46.973660000084884
              ],
              [
                -123.59194399972347,
                46.973686999979364
              ],
              [
                -123.59195200011939,
                46.97417300003972
              ],
              [
                -123.59195299994431,
                46.974943000095415
              ],
              [
                -123.59188500017223,
                46.97493900006966
              ],
              [
                -123.59120200028194,
                46.974953000158564
              ],
              [
                -123.59121599962734,
                46.97613699992989
              ],
              [
                -123.59122800022121,
                46.977258999713605
              ],
              [
                -123.58867599968676,
                46.97728300004831
              ],
              [
                -123.58593499990471,
                46.977309000296614
              ],
              [
                -123.58592200038426,
                46.979292999963555
              ],
              [
                -123.58592700040711,
                46.97948100025306
              ],
              [
                -123.58592499985897,
                46.979885000125215
              ],
              [
                -123.58590300011768,
                46.98010599996504
              ],
              [
                -123.58527399975574,
                46.98017999998457
              ],
              [
                -123.58441699978816,
                46.98028100014416
              ],
              [
                -123.58240199955414,
                46.98053299991056
              ],
              [
                -123.58226099998716,
                46.98055200018774
              ],
              [
                -123.58127199977508,
                46.98068699989813
              ],
              [
                -123.57989599994875,
                46.98090299970638
              ],
              [
                -123.57987000000948,
                46.98090800010018
              ],
              [
                -123.57819000040952,
                46.981258999733164
              ],
              [
                -123.57725200025111,
                46.98147100014479
              ],
              [
                -123.5769569998,
                46.98154200015835
              ],
              [
                -123.57604600030407,
                46.9817629998905
              ],
              [
                -123.57455699960151,
                46.98206700019799
              ],
              [
                -123.57386100019073,
                46.98220899977351
              ],
              [
                -123.57217400001976,
                46.98260400018251
              ],
              [
                -123.57099999985978,
                46.98286599984004
              ],
              [
                -123.57100200040794,
                46.982619999828856
              ],
              [
                -123.57100300023286,
                46.98225300018694
              ],
              [
                -123.57061300024549,
                46.98232000030122
              ],
              [
                -123.5697810003923,
                46.9824210000952
              ],
              [
                -123.56861800010294,
                46.98254099988158
              ],
              [
                -123.56294999986774,
                46.98298199981628
              ],
              [
                -123.56271700023926,
                46.98300000028667
              ],
              [
                -123.56059400005019,
                46.983165999980834
              ],
              [
                -123.55920300015524,
                46.983273999889086
              ],
              [
                -123.55928199979795,
                46.98366199996122
              ],
              [
                -123.5595329998681,
                46.98446400007017
              ],
              [
                -123.55962699957945,
                46.98463400003476
              ],
              [
                -123.55974299993038,
                46.98484499980489
              ],
              [
                -123.55983699964173,
                46.985014999783495
              ],
              [
                -123.5612150000162,
                46.98471799999075
              ],
              [
                -123.56442799980132,
                46.984025999920085
              ],
              [
                -123.56539100007411,
                46.98382699990451
              ],
              [
                -123.56547300008988,
                46.984033999837465
              ],
              [
                -123.56546999971683,
                46.98451100025503
              ],
              [
                -123.56469099956706,
                46.984520000233594
              ],
              [
                -123.56468499971926,
                46.98506700010156
              ],
              [
                -123.56467999969642,
                46.98549800010724
              ],
              [
                -123.56730800039885,
                46.985473000280024
              ],
              [
                -123.56730000000293,
                46.986380999741044
              ],
              [
                -123.56685499976403,
                46.986385000136494
              ],
              [
                -123.56490599965223,
                46.986403000073814
              ],
              [
                -123.56466899982577,
                46.98640500027078
              ],
              [
                -123.5646579999551,
                46.98730900012021
              ],
              [
                -123.56497500014753,
                46.98730599987555
              ],
              [
                -123.5672890001323,
                46.98728399991439
              ],
              [
                -123.56727700043672,
                46.98825599969855
              ],
              [
                -123.56696199989412,
                46.988257999826125
              ],
              [
                -123.5658749997728,
                46.9882689999138
              ],
              [
                -123.56586999974994,
                46.98904800025283
              ],
              [
                -123.56495800042907,
                46.98904800025283
              ],
              [
                -123.56463700003872,
                46.98904900030181
              ],
              [
                -123.56463500038889,
                46.98914500001541
              ],
              [
                -123.56497699979731,
                46.98914700010976
              ],
              [
                -123.56632900023254,
                46.98914700010976
              ],
              [
                -123.56863300017159,
                46.98914399996822
              ],
              [
                -123.5699150002866,
                46.98914700010976
              ],
              [
                -123.5699100002637,
                46.990053000216825
              ],
              [
                -123.56990000021797,
                46.991331000240336
              ],
              [
                -123.57037499969582,
                46.991331000240336
              ],
              [
                -123.57056300001678,
                46.99134999974356
              ],
              [
                -123.57087199981325,
                46.991155000070435
              ],
              [
                -123.57115700021863,
                46.99100800029897
              ],
              [
                -123.57157099959709,
                46.99087999979354
              ],
              [
                -123.571867999698,
                46.99073599993081
              ],
              [
                -123.57222699972321,
                46.99055200008628
              ],
              [
                -123.57243299958755,
                46.99045399979063
              ],
              [
                -123.5728309999708,
                46.99021499996066
              ],
              [
                -123.57305799975151,
                46.99004399994432
              ],
              [
                -123.57300000002522,
                46.98982999975873
              ],
              [
                -123.57296800023813,
                46.98960099997695
              ],
              [
                -123.5730710001703,
                46.98939600023909
              ],
              [
                -123.57318599979804,
                46.98929500014187
              ],
              [
                -123.57331800004253,
                46.989178999770495
              ],
              [
                -123.57354099962528,
                46.989133000060626
              ],
              [
                -123.57373700034216,
                46.98915000025109
              ],
              [
                -123.57378400019785,
                46.98880299994232
              ],
              [
                -123.57381400033506,
                46.988617000069674
              ],
              [
                -123.5738579998177,
                46.98835399973483
              ],
              [
                -123.57388799995492,
                46.988195000060415
              ],
              [
                -123.57322299960795,
                46.988183999957556
              ],
              [
                -123.57326399961585,
                46.98737900026664
              ],
              [
                -123.57390399984841,
                46.987371000237026
              ],
              [
                -123.57390499967333,
                46.98732999998997
              ],
              [
                -123.57393399998566,
                46.98546299973307
              ],
              [
                -123.57439900031606,
                46.98549699999183
              ],
              [
                -123.57527800002497,
                46.98549999972519
              ],
              [
                -123.57587899989947,
                46.98548800017775
              ],
              [
                -123.5758859995722,
                46.985969000304266
              ],
              [
                -123.57630200039712,
                46.98595899985007
              ],
              [
                -123.57629800019915,
                46.98608099987048
              ],
              [
                -123.57674799956263,
                46.986067000243935
              ],
              [
                -123.57674500008791,
                46.985472000164144
              ],
              [
                -123.57785200030072,
                46.98541099980022
              ],
              [
                -123.57787099966899,
                46.98644900029473
              ],
              [
                -123.57846599969572,
                46.986446000001756
              ],
              [
                -123.57945400008288,
                46.98641700022519
              ],
              [
                -123.57945200043305,
                46.98536999988817
              ],
              [
                -123.58060899997628,
                46.98534000002234
              ],
              [
                -123.58060599960322,
                46.985474999898955
              ],
              [
                -123.58060099958035,
                46.98572000014339
              ],
              [
                -123.58098899991788,
                46.98571199986549
              ],
              [
                -123.58152000037052,
                46.98570099986443
              ],
              [
                -123.58141200041548,
                46.987851999965294
              ],
              [
                -123.58139700034688,
                46.98813100015431
              ],
              [
                -123.5814349999817,
                46.98813100015431
              ],
              [
                -123.58216899992564,
                46.98812900002198
              ],
              [
                -123.58216399990278,
                46.988703000005586
              ],
              [
                -123.58172700005974,
                46.98868799978448
              ],
              [
                -123.58145699972302,
                46.98869700028533
              ],
              [
                -123.58144699967728,
                46.98879500012585
              ],
              [
                -123.58142499993596,
                46.98902499973371
              ],
              [
                -123.58140900004246,
                46.98937499995549
              ],
              [
                -123.58207900041225,
                46.989370999783816
              ],
              [
                -123.58215999970479,
                46.98936899969789
              ],
              [
                -123.58214600035943,
                46.98993999974929
              ],
              [
                -123.5834900003987,
                46.98993400016785
              ],
              [
                -123.58346500028435,
                46.990818000070384
              ],
              [
                -123.58343699979694,
                46.99169300006293
              ],
              [
                -123.5857990003606,
                46.99169200006342
              ],
              [
                -123.58580000018551,
                46.99166200006919
              ],
              [
                -123.5858069998582,
                46.991392999981095
              ],
              [
                -123.58664700010735,
                46.99140500004124
              ],
              [
                -123.5866379998865,
                46.99169200006342
              ],
              [
                -123.58741299983832,
                46.99169400006242
              ],
              [
                -123.58744100032571,
                46.99087100027305
              ],
              [
                -123.58749400002917,
                46.98994199981385
              ],
              [
                -123.58825300008746,
                46.98994199981385
              ],
              [
                -123.58823700019393,
                46.99043299992278
              ],
              [
                -123.58819299981299,
                46.991697000060825
              ],
              [
                -123.58896899958972,
                46.99170200005776
              ],
              [
                -123.58899399970409,
                46.990997000162274
              ],
              [
                -123.58910400020723,
                46.990998000174784
              ],
              [
                -123.58911599990282,
                46.99040299983457
              ],
              [
                -123.58991299959592,
                46.99039899973988
              ],
              [
                -123.59005400006123,
                46.990393000209956
              ],
              [
                -123.59005599971107,
                46.99089800005549
              ],
              [
                -123.59000800003048,
                46.99171700004575
              ],
              [
                -123.59008500002338,
                46.991716000046694
              ],
              [
                -123.59208799966353,
                46.991744000013554
              ],
              [
                -123.59442799958754,
                46.99176099998625
              ],
              [
                -123.59448899968692,
                46.99178799993182
              ],
              [
                -123.59454999978628,
                46.99528400019835
              ],
              [
                -123.59424199981471,
                46.995272999716384
              ],
              [
                -123.59316899993708,
                46.99529500006544
              ],
              [
                -123.5930300000199,
                46.99528699999524
              ],
              [
                -123.58570300010115,
                46.995328000265694
              ],
              [
                -123.58569999972809,
                46.99511900008287
              ],
              [
                -123.58573800026123,
                46.99255000012357
              ],
              [
                -123.58308199996969,
                46.99254600018952
              ],
              [
                -123.58283199972443,
                46.99254600018952
              ],
              [
                -123.58186500015202,
                46.99254100027155
              ],
              [
                -123.5817660004178,
                46.995350999910464
              ],
              [
                -123.58010299963797,
                46.99535899997104
              ],
              [
                -123.58002200034544,
                46.997641000066906
              ],
              [
                -123.57998999966007,
                46.99887099974011
              ],
              [
                -123.57865599966652,
                46.998914999917154
              ],
              [
                -123.57553699959271,
                46.99889000023873
              ],
              [
                -123.57496199965746,
                46.99889199996836
              ],
              [
                -123.57497699972608,
                46.998694999894965
              ],
              [
                -123.57510099957463,
                46.99538500000656
              ],
              [
                -123.57451800014178,
                46.99537400015804
              ],
              [
                -123.57307600019317,
                46.99533800019235
              ],
              [
                -123.56459299965776,
                46.995131999854216
              ],
              [
                -123.56445200009078,
                46.99918199979666
              ],
              [
                -123.56424399967831,
                47.00493800022019
              ],
              [
                -123.56409499971541,
                47.00919699975502
              ],
              [
                -123.56408899986762,
                47.00934600028324
              ],
              [
                -123.56407799999697,
                47.00965100018743
              ],
              [
                -123.56406200010346,
                47.00967399979226
              ],
              [
                -123.56350700025966,
                47.00967399979226
              ],
              [
                -123.55529099968795,
                47.00966799997618
              ],
              [
                -123.55367700021023,
                47.009662999822694
              ],
              [
                -123.55344700005648,
                47.009664000098454
              ],
              [
                -123.5533859999571,
                47.01234800018763
              ],
              [
                -123.55326299993344,
                47.018127000096506
              ],
              [
                -123.55317699971972,
                47.024027000182706
              ],
              [
                -123.54241400043304,
                47.02416699971584
              ],
              [
                -123.5424169999078,
                47.02806700000699
              ],
              [
                -123.54241600008288,
                47.02808899971008
              ],
              [
                -123.5424119998849,
                47.0289789997454
              ],
              [
                -123.54239199979344,
                47.0316320000663
              ],
              [
                -123.54484899989335,
                47.0316609997956
              ],
              [
                -123.54624900000911,
                47.03165400013683
              ],
              [
                -123.54779100041512,
                47.031646000000926
              ],
              [
                -123.54777600034653,
                47.0325080000974
              ],
              [
                -123.54779300006496,
                47.03501899980276
              ],
              [
                -123.54778600039228,
                47.03605099976214
              ],
              [
                -123.54778800004209,
                47.038831000013936
              ],
              [
                -123.54776499957757,
                47.03932200017713
              ],
              [
                -123.55311200032071,
                47.03932000012456
              ],
              [
                -123.55299000012197,
                47.04057200001704
              ],
              [
                -123.55290399990825,
                47.04168499984456
              ],
              [
                -123.55290300008333,
                47.04201300027478
              ],
              [
                -123.5528770001441,
                47.042006999807214
              ],
              [
                -123.55250899989804,
                47.04615399998981
              ],
              [
                -123.56003599983337,
                47.04583000015169
              ],
              [
                -123.56804099961957,
                47.045466000079465
              ],
              [
                -123.57359400022702,
                47.04522900011167
              ],
              [
                -123.57372599957318,
                47.039193999720915
              ],
              [
                -123.57374200036503,
                47.03840800016425
              ],
              [
                -123.57896100016339,
                47.038118000256034
              ],
              [
                -123.58165199971668,
                47.03797700022308
              ],
              [
                -123.58281099980803,
                47.03791399969713
              ],
              [
                -123.58608499969256,
                47.03773599982072
              ],
              [
                -123.5959990003059,
                47.037208999845454
              ],
              [
                -123.59986400001918,
                47.03703100006616
              ],
              [
                -123.6000980003709,
                47.03702399988725
              ],
              [
                -123.60010199967056,
                47.03675600022003
              ],
              [
                -123.6001419998535,
                47.03618600008887
              ],
              [
                -123.60017399964056,
                47.03338699993849
              ],
              [
                -123.6053299996897,
                47.03328899984232
              ],
              [
                -123.60536900004779,
                47.03196399988855
              ],
              [
                -123.60538800031433,
                47.03105699970967
              ],
              [
                -123.60548000037585,
                47.02740100013853
              ],
              [
                -123.60550600031512,
                47.0263830001654
              ],
              [
                -123.60963200014433,
                47.02630200007235
              ],
              [
                -123.61200100038069,
                47.02626700009239
              ],
              [
                -123.6120239999469,
                47.02510600020828
              ],
              [
                -123.61208199967322,
                47.0215270001578
              ],
              [
                -123.61211900038144,
                47.01931000013509
              ],
              [
                -123.61217499955963,
                47.0173270001399
              ],
              [
                -123.61224599970474,
                47.013812999876926
              ],
              [
                -123.61230799962902,
                47.01209300027032
              ],
              [
                -123.61232400042087,
                47.011027000211165
              ],
              [
                -123.6123560002079,
                47.008961000086344
              ],
              [
                -123.61247900023157,
                47.00713000018988
              ],
              [
                -123.61259600040742,
                47.00538399970139
              ],
              [
                -123.6127629999137,
                47.00285900008919
              ],
              [
                -123.61282300018814,
                47.002001999944575
              ],
              [
                -123.61284400010454,
                47.00171100029462
              ],
              [
                -123.61285999999807,
                47.00145899989186
              ],
              [
                -123.61288400028752,
                47.00114399970795
              ],
              [
                -123.61289299961004,
                47.00095499980886
              ],
              [
                -123.61295200005958,
                47.00008999979053
              ],
              [
                -123.61302999987737,
                46.99882899987149
              ],
              [
                -123.61326500005403,
                46.995422999800034
              ],
              [
                -123.61373500040729,
                46.99499300010832
              ],
              [
                -123.61390899958626,
                46.99488000028209
              ],
              [
                -123.6141799997479,
                46.99477900013214
              ],
              [
                -123.6143830001375,
                46.99467000024149
              ],
              [
                -123.61478900001836,
                46.99439800012926
              ],
              [
                -123.61519400007433,
                46.99406300026905
              ],
              [
                -123.61535100043315,
                46.993899999976314
              ],
              [
                -123.61555499974935,
                46.99373699979909
              ],
              [
                -123.61615300014915,
                46.99333800028582
              ],
              [
                -123.61669399974922,
                46.99306500016014
              ],
              [
                -123.61793400003144,
                46.992239000069326
              ],
              [
                -123.6180589997049,
                46.99204999992069
              ],
              [
                -123.61810300008585,
                46.99194999993149
              ],
              [
                -123.6181929995992,
                46.991878000264606
              ],
              [
                -123.61845299989021,
                46.99184099978529
              ],
              [
                -123.61859900037838,
                46.99183999978855
              ],
              [
                -123.61870099958732,
                46.991865999697914
              ],
              [
                -123.61871099963308,
                46.99220799977954
              ],
              [
                -123.61889300010627,
                46.99240499987231
              ],
              [
                -123.61907200020639,
                46.99246700020536
              ],
              [
                -123.61920899957545,
                46.992573999721536
              ],
              [
                -123.61925399978128,
                46.992636999840414
              ],
              [
                -123.61930900003286,
                46.992943000149154
              ],
              [
                -123.619444999577,
                46.99303199978785
              ],
              [
                -123.61995299956511,
                46.99316399992923
              ],
              [
                -123.62033599987974,
                46.99339600027881
              ],
              [
                -123.6208179999286,
                46.993628000233926
              ],
              [
                -123.62100200005162,
                46.99362700027063
              ],
              [
                -123.62102399979292,
                46.993535999854565
              ],
              [
                -123.62103600038682,
                46.993158000097
              ],
              [
                -123.62105899995304,
                46.993023000017054
              ],
              [
                -123.62117000028113,
                46.99296900013466
              ],
              [
                -123.62129499995459,
                46.99299500010752
              ],
              [
                -123.62152000008547,
                46.993146999790035
              ],
              [
                -123.62166599967534,
                46.99320899987505
              ],
              [
                -123.6217669999577,
                46.99322599999448
              ],
              [
                -123.62186900006493,
                46.99322599999448
              ],
              [
                -123.62194900043086,
                46.99317199970448
              ],
              [
                -123.6219939997384,
                46.992964000256265
              ],
              [
                -123.62200499960905,
                46.99249599976325
              ],
              [
                -123.62207199955618,
                46.99241499973324
              ],
              [
                -123.6222189998693,
                46.992395999995885
              ],
              [
                -123.62254600010746,
                46.99245699974143
              ],
              [
                -123.62282800013975,
                46.99245599975621
              ],
              [
                -123.62289599991183,
                46.99240099992742
              ],
              [
                -123.62276000036772,
                46.99226699976219
              ],
              [
                -123.622782000109,
                46.99219499990965
              ],
              [
                -123.62263599962084,
                46.99206999977351
              ],
              [
                -123.62261399987952,
                46.99199800026828
              ],
              [
                -123.62260200018395,
                46.99175499999651
              ],
              [
                -123.62271599998677,
                46.99166500006935
              ],
              [
                -123.62307500001198,
                46.991609000038224
              ],
              [
                -123.62312100004272,
                46.99152699988669
              ],
              [
                -123.62313199991337,
                46.9914550002627
              ],
              [
                -123.62309799957819,
                46.99140200002644
              ],
              [
                -123.62292900042209,
                46.991250000282875
              ],
              [
                -123.62293000024701,
                46.99118699975446
              ],
              [
                -123.62300800006481,
                46.99110500018103
              ],
              [
                -123.62328900027222,
                46.991031999976634
              ],
              [
                -123.62335799986919,
                46.99099500013714
              ],
              [
                -123.62342599964124,
                46.990941000043925
              ],
              [
                -123.62343599968698,
                46.99086900024322
              ],
              [
                -123.62336899973984,
                46.990788000198336
              ],
              [
                -123.62315500037792,
                46.99067200000345
              ],
              [
                -123.62308699970752,
                46.9906009998603
              ],
              [
                -123.62308800043077,
                46.99051099982814
              ],
              [
                -123.62314299978404,
                46.990447000244124
              ],
              [
                -123.62333600012786,
                46.990338000096386
              ],
              [
                -123.62370699984862,
                46.99023699994097
              ],
              [
                -123.62381999982652,
                46.99018299969463
              ],
              [
                -123.62392100010891,
                46.99010099980631
              ],
              [
                -123.62402200039122,
                46.98996599997019
              ],
              [
                -123.62402300021613,
                46.98982200009596
              ],
              [
                -123.6239429998502,
                46.989705000218876
              ],
              [
                -123.62366099981789,
                46.98952700012936
              ],
              [
                -123.6233460001736,
                46.98941100026149
              ],
              [
                -123.6231989998605,
                46.98933099988898
              ],
              [
                -123.6232109995561,
                46.98923199976012
              ],
              [
                -123.62337899978557,
                46.98916799987011
              ],
              [
                -123.6239989999267,
                46.98912899987088
              ],
              [
                -123.62417999967666,
                46.98910099975956
              ],
              [
                -123.62433799986039,
                46.98902799988193
              ],
              [
                -123.62443900014276,
                46.98890200025304
              ],
              [
                -123.62443900014276,
                46.98872199983023
              ],
              [
                -123.62440499980754,
                46.98865899999867
              ],
              [
                -123.62431500029417,
                46.988542000026875
              ],
              [
                -123.62430400042354,
                46.988415999865126
              ],
              [
                -123.62433799986039,
                46.988290000019106
              ],
              [
                -123.62437200019559,
                46.98822700029115
              ],
              [
                -123.62440499980754,
                46.988127999955786
              ],
              [
                -123.62449500021924,
                46.98802799998174
              ],
              [
                -123.62467599996923,
                46.987945999851206
              ],
              [
                -123.62485500006935,
                46.98788200025976
              ],
              [
                -123.62525099990448,
                46.987862000065306
              ],
              [
                -123.62534799998885,
                46.98778099975281
              ]
            ],
            [
              [
                -123.61326800042707,
                46.991372999874926
              ],
              [
                -123.6133129997346,
                46.99496300012898
              ],
              [
                -123.60702000023372,
                46.995084999817536
              ],
              [
                -123.60704399962486,
                46.99151499985399
              ],
              [
                -123.60807399984478,
                46.99146899970357
              ],
              [
                -123.60960600020505,
                46.99146100028612
              ],
              [
                -123.61093400035082,
                46.991437000188334
              ],
              [
                -123.612391000368,
                46.99139700000145
              ],
              [
                -123.612391000368,
                46.989701000071896
              ],
              [
                -123.61238799999495,
                46.98948999986077
              ],
              [
                -123.61238299997211,
                46.98862399985588
              ],
              [
                -123.61258600036169,
                46.988760000072105
              ],
              [
                -123.61324999998541,
                46.98877699976842
              ],
              [
                -123.6132569996581,
                46.989472999778464
              ],
              [
                -123.61325800038131,
                46.98953799995587
              ],
              [
                -123.61326800042707,
                46.991372999874926
              ]
            ]
          ],
          [
            [
              [
                -123.62758599980565,
                46.980405000060884
              ],
              [
                -123.62765799977565,
                46.98040399985019
              ],
              [
                -123.62738199959114,
                46.980155000121954
              ],
              [
                -123.62726000029073,
                46.980022999721875
              ],
              [
                -123.62706600012194,
                46.979810999697335
              ],
              [
                -123.62635899994221,
                46.979087999918114
              ],
              [
                -123.6253720002783,
                46.9780780002974
              ],
              [
                -123.62532500042263,
                46.97803600002256
              ],
              [
                -123.62500400003228,
                46.97775199977931
              ],
              [
                -123.62469299968764,
                46.97756499980335
              ],
              [
                -123.62428400033204,
                46.97735900022
              ],
              [
                -123.62378899986439,
                46.97712500020057
              ],
              [
                -123.62326499998278,
                46.97689900014222
              ],
              [
                -123.62303200035426,
                46.976777000006614
              ],
              [
                -123.62282899996467,
                46.97668199981375
              ],
              [
                -123.62267400015396,
                46.97655099970324
              ],
              [
                -123.62189099980625,
                46.97655399993863
              ],
              [
                -123.62094099995224,
                46.976557999843585
              ],
              [
                -123.62108700044044,
                46.9762580000116
              ],
              [
                -123.62069099970698,
                46.97625000015646
              ],
              [
                -123.62007499976383,
                46.9762370000829
              ],
              [
                -123.62006800009115,
                46.97649400010239
              ],
              [
                -123.62006899991607,
                46.97654800008062
              ],
              [
                -123.62007300011405,
                46.97662499973959
              ],
              [
                -123.62007700031197,
                46.97692300002562
              ],
              [
                -123.62007999978673,
                46.97697399997185
              ],
              [
                -123.62008300015975,
                46.977111000067424
              ],
              [
                -123.6200859996345,
                46.97826999973265
              ],
              [
                -123.62007800013689,
                46.978877999729306
              ],
              [
                -123.62090199959418,
                46.978895999742775
              ],
              [
                -123.6210639999759,
                46.97890000008549
              ],
              [
                -123.62154100000188,
                46.97907999987352
              ],
              [
                -123.62174000019351,
                46.979154999708506
              ],
              [
                -123.62217100018873,
                46.9791449998183
              ],
              [
                -123.62246099971864,
                46.97913900025105
              ],
              [
                -123.62366400019094,
                46.97889099977371
              ],
              [
                -123.6236540001452,
                46.98044799991053
              ],
              [
                -123.62758599980565,
                46.980405000060884
              ]
            ]
          ],
          [
            [
              [
                -123.62828799996251,
                46.97303499980718
              ],
              [
                -123.62829200016046,
                46.97230100004471
              ],
              [
                -123.6282860003127,
                46.97225600027271
              ],
              [
                -123.62745299973624,
                46.972027999742494
              ],
              [
                -123.62743799966763,
                46.973036999891285
              ],
              [
                -123.62741000007856,
                46.973036999891285
              ],
              [
                -123.6273930003601,
                46.97328000005581
              ],
              [
                -123.62805100013604,
                46.973277999980795
              ],
              [
                -123.62822000019045,
                46.97328000005581
              ],
              [
                -123.62828799996251,
                46.97303499980718
              ]
            ]
          ]
        ]
      },
      "properties": {
        "AREALAND": "28250588",
        "AREAWATER": "403620",
        "BASENAME": "Montesano",
        "CBSAPCI": "N",
        "CENTLAT": "+47.0097802",
        "CENTLON": "-123.5850040",
        "FUNCSTAT": "A",
        "GEOID": "5346895",
        "INTPTLAT": "+47.0147256",
        "INTPTLON": "-123.5857108",
        "LSADC": "25",
        "MTFCC": "G4110",
        "NAME": "Montesano city",
        "NECTAPCI": "N",
        "OBJECTID": 28896,
        "OID": "27890479425101",
        "PLACE": "46895",
        "PLACECC": "C1",
        "PLACENS": "02411147",
        "STATE": "53",
        "DISP_CLR": 4,
        "slug": "montesano",
        "jurisdiction_key": "montesano_city",
        "county_fips": [
          "53027"
        ]
      }
    }
  ]
}
