{"type":"FeatureCollection","features":[{"type":"Feature","geometry":{"type":"Polygon","coordinates":[[[-122.34025900002511,47.26104499993116],[-122.34016100011581,47.25865699980723],[-122.34010099984137,47.25737200006316],[-122.34007800027516,47.25737200006316],[-122.34006999987923,47.256994999814026],[-122.33883299997007,47.25697400003177],[-122.33874699975635,47.25697200022625],[-122.33874900030447,47.25679300025646],[-122.33877199987069,47.25456500030393],[-122.33877900044172,47.25393399995008],[-122.33899399962856,47.253934999910186],[-122.33892800040462,47.25378800008132],[-122.33890800031313,47.25374499983021],[-122.33887800017591,47.25370300011846],[-122.33884700021378,47.25365699990237],[-122.33881700007653,47.25359300025102],[-122.3388070000308,47.252926000052675],[-122.33891699963564,47.252048000087846],[-122.33893799955204,47.25176999993029],[-122.33620699981577,47.25175799991694],[-122.33621400038678,47.25118799981017],[-122.33622000023456,47.24998999994933],[-122.33624899964856,47.24810900023581],[-122.33625200002162,47.24672800003518],[-122.33628499963356,47.246234000214976],[-122.33646799993168,47.246239000132526],[-122.33647299995452,47.24622700008565],[-122.33656800038908,47.24608299992091],[-122.33667200014617,47.24594199969789],[-122.33678599994897,47.24580400005039],[-122.33690800014772,47.24566899978219],[-122.33703899966896,47.245538000254605],[-122.33717900030936,47.24541100027765],[-122.33730200033301,47.24530900002761],[-122.3368439996753,47.24505399976298],[-122.33667200014617,47.2449599998628],[-122.33633700041041,47.244774999961265],[-122.33632300016673,47.24473000005236],[-122.33618699972426,47.24430200015986],[-122.33605700002794,47.24389099996779],[-122.33588399977556,47.244082000174714],[-122.33572899996487,47.24425299988742],[-122.33558199965178,47.2444289997464],[-122.33544699993259,47.24460699990302],[-122.33538800038134,47.244689000034306],[-122.33532999975671,47.24477200017183],[-122.3352739996802,47.24485500017931],[-122.33522000015182,47.244939999706794],[-122.33516999992311,47.245024999707795],[-122.33512300006748,47.245110999699065],[-122.3350770000367,47.245197000160616],[-122.33500099986873,47.24535400005452],[-122.33498800034826,47.24538100029625],[-122.33497400010455,47.245412999909895],[-122.33487000034748,47.24567899972354],[-122.33477699956275,47.24594700025284],[-122.3346950004453,47.24621600014192],[-122.33467199998076,47.246298999716316],[-122.33465100006437,47.24638199977049],[-122.3345840001172,47.24664100013199],[-122.33454599958407,47.24678600009455],[-122.33451299997209,47.24690900006289],[-122.33450999959904,47.24701999987834],[-122.33450899977414,47.24706500028115],[-122.33446600011644,47.2472310002981],[-122.33444500020003,47.247309999770835],[-122.33438099972763,47.24755399987613],[-122.33408399962669,47.24868100005992],[-122.33398999991537,47.249034999754215],[-122.33356200029321,47.249041000069695],[-122.33337499979714,47.249054000141136],[-122.33321400013865,47.24905799974033],[-122.33279999986186,47.24907099980759],[-122.33266599996756,47.249071999859574],[-122.33240400002676,47.249078000170854],[-122.3309550004055,47.24911699973861],[-122.33029000005853,47.24913099984226],[-122.32997799988897,47.249139000248256],[-122.32816199984657,47.24917999987095],[-122.32816199984657,47.249672000185],[-122.3281550001739,47.25010100001575],[-122.32696099992243,47.25009899995072],[-122.32650599963777,47.25010400011324],[-122.3255010004305,47.25012200008458],[-122.32549999970728,47.25002399989549],[-122.32549800005746,47.24970400025535],[-122.32549700023255,47.24952300002209],[-122.32549600040763,47.249250000268866],[-122.32549399985949,47.24890999973445],[-122.32549200020966,47.24861000006895],[-122.32549100038474,47.24841299994769],[-122.32548899983662,47.24816000012878],[-122.3254880000117,47.247953000043275],[-122.32548600036188,47.247632000007606],[-122.32548399981376,47.24727000000622],[-122.32548200016393,47.24707299977962],[-122.32548200016393,47.24697100029064],[-122.32561199986026,47.2468539998099],[-122.32588200019701,47.24663600025237],[-122.32602799978687,47.24653100023206],[-122.32615400018356,47.24644799980153],[-122.32629300010073,47.246363999747736],[-122.32647999969848,47.24625899979808],[-122.32667399986725,47.246160000282146],[-122.3268739998838,47.24606599990528],[-122.3270789999232,47.24597800002403],[-122.32728899998548,47.2458960000586],[-122.32750499989555,47.24582000003679],[-122.33095399968225,47.24466200004971],[-122.33316300008502,47.243904000083546],[-122.3340130003799,47.243614999994456],[-122.3341690000155,47.24356200029239],[-122.3343780002529,47.24349299985288],[-122.33442500010855,47.24347799993109],[-122.33468399967632,47.24339999978123],[-122.33521500012898,47.243262999771666],[-122.33518300034193,47.24315200001155],[-122.33513700031116,47.24299299996652],[-122.33495200036323,47.24303699996536],[-122.3343089997576,47.243242000032666],[-122.33383599992958,47.24340499996628],[-122.33224199964503,47.24393099984462],[-122.3309500003826,47.24435700001336],[-122.32821799992308,47.24527899998846],[-122.32732900016843,47.24557499975365],[-122.32710400003755,47.2456539998667],[-122.32688499975443,47.24574000005648],[-122.32667100039252,47.24583100006275],[-122.32646200015513,47.245927999970995],[-122.32625899976557,47.246030999748236],[-122.32606299994697,47.24613999996942],[-122.32587299997617,47.24625399988241],[-122.32569100040129,47.24637300006479],[-122.32547899979087,47.24652699983222],[-122.32556099980665,47.244411999809806],[-122.32564100017258,47.24275600017577],[-122.32647100037597,47.2427410000453],[-122.32661000029314,47.24273800014063],[-122.32665399977579,47.24273699996911],[-122.32674900021031,47.24273599979753],[-122.3268959996251,47.24273500023585],[-122.3288179999727,47.24269999970755],[-122.32883800006418,47.24001400015652],[-122.32884999975975,47.239049000048055],[-122.3283030003119,47.239049000048055],[-122.32757199984272,47.23905099992045],[-122.3275640003451,47.23893300000067],[-122.32753599985769,47.23883900021763],[-122.32739000026781,47.23859700011274],[-122.3273529995596,47.238549000303344],[-122.32728300013773,47.23848000004368],[-122.32713300034987,47.23834500001834],[-122.32694000000603,47.23820799974485],[-122.32668599956281,47.238021000139824],[-122.32655400021665,47.237923999781444],[-122.32646899982782,47.23786399986073],[-122.3264589997821,47.23826299982598],[-122.32645799995719,47.23832699970433],[-122.32563399960158,47.23833100011348],[-122.32560500018758,47.239055999906064],[-122.32491999974913,47.239062000132165],[-122.3250350002752,47.23880799992819],[-122.3247339999763,47.238524000131264],[-122.32440599991325,47.23845799998623],[-122.3243409996159,47.238563999791005],[-122.32419400020113,47.23882900020494],[-122.3241699999117,47.23885900023735],[-122.32404100004025,47.23901799988149],[-122.32397200044329,47.23912199991611],[-122.32393800010809,47.2391159996968],[-122.32362500011364,47.23907700008451],[-122.32350200009,47.23907399997241],[-122.3233559996018,47.239070000229276],[-122.32306100004905,47.23907599984388],[-122.32294700024622,47.239077999715256],[-122.32166799960595,47.23908599980991],[-122.32037799999333,47.23909000016175],[-122.31910799957389,47.239095999774094],[-122.31780399971755,47.23910599973639],[-122.31691400013801,47.23912199991611],[-122.31655000008995,47.239141999828966],[-122.31646399987622,47.23914699980604],[-122.31613199961522,47.239167999948414],[-122.3154830000601,47.23922099977699],[-122.31525999957903,47.239231999953454],[-122.31463299976522,47.23924399975515],[-122.3139919997077,47.23924499999267],[-122.31396499994354,47.24014999980918],[-122.31396800031659,47.24031300010784],[-122.31396699959336,47.24060900017625],[-122.31396699959336,47.24070400007839],[-122.31322099995388,47.24069399980784],[-122.31268600020158,47.24068700016618],[-122.31262599992712,47.240685999955936],[-122.31256599965265,47.24068499974568],[-122.31255099958405,47.24106299982044],[-122.31249200003283,47.24106299982044],[-122.3099079997113,47.24105099982078],[-122.30984400013722,47.24103899981844],[-122.30949099995979,47.241034000019916],[-122.30908599990381,47.24102900022097],[-122.30869400026668,47.24102399981166],[-122.30800200015553,47.241014999805515],[-122.3073229995649,47.24100599979789],[-122.30721399978495,47.241003999999286],[-122.30721299996004,47.24103700002107],[-122.30719200004363,47.24282599991551],[-122.30513599980173,47.242809000074374],[-122.30453599975209,47.24280399983302],[-122.30378599991467,47.24279999976164],[-122.30256300024918,47.24279299978836],[-122.30066500019102,47.24278000000984],[-122.30040999992289,47.24277800027818],[-122.30040099970205,47.24301900002571],[-122.30038300015873,47.24358299990455],[-122.30003800037721,47.243581000203214],[-122.29940700036545,47.24357700019045],[-122.2992009996028,47.24357600003477],[-122.29874500039156,47.243573000177385],[-122.29841700032851,47.24357099986585],[-122.29803400001386,47.24356800000819],[-122.29801100044762,47.24356800000819],[-122.2975369998964,47.24356599969643],[-122.29715899960463,47.24356299983852],[-122.29640799994226,47.24355800027824],[-122.29641999963782,47.24283999985238],[-122.29642300001086,47.24275799990825],[-122.29459600009781,47.242746999854035],[-122.29410999985102,47.24274500012114],[-122.29390200033687,47.24274399994975],[-122.29389499976587,47.243659000086566],[-122.293889999743,47.24425900013476],[-122.29388499972013,47.24501199986714],[-122.29388200024536,47.24538900004899],[-122.2938770002225,47.24602499970161],[-122.29386600035187,47.247316999757025],[-122.29386899982657,47.25003100013279],[-122.29384200006241,47.250607000024715],[-122.29386299997881,47.25070299970253],[-122.29384100023749,47.25220299981181],[-122.29383000036684,47.25292500007352],[-122.2938279998187,47.25303200017761],[-122.2938279998187,47.25305300030374],[-122.29381899959786,47.25370899990514],[-122.29382600016889,47.25488800027639],[-122.29386700017679,47.25520699975389],[-122.2939819998045,47.255880999952865],[-122.29457099998346,47.25721100022694],[-122.29463600028079,47.25720999971899],[-122.29483600029732,47.25721399992161],[-122.29485300001578,47.25724599970278],[-122.29478500024369,47.25724599970278],[-122.29459600009781,47.25724599970278],[-122.29449599964039,47.25724700021005],[-122.29421699998113,47.257248000107644],[-122.2938200003211,47.25725099980023],[-122.2937359997572,47.25725099980023],[-122.29366499961209,47.25724999990273],[-122.29121900028117,47.257202999820876],[-122.29115200033401,47.25720199992248],[-122.29319199978409,47.25873800026639],[-122.29306200008773,47.25892199969741],[-122.29292599964529,47.25911399982687],[-122.29282899956092,47.259251000296956],[-122.29268700016901,47.25945000005466],[-122.2926169998488,47.25956899985264],[-122.29261100000102,47.259579000217954],[-122.2932770001729,47.25967800025777],[-122.29331099960977,47.259683000125555],[-122.29576400041,47.26004400018322],[-122.29583899985477,47.26005500030336],[-122.29589999995414,47.26006400012286],[-122.29602100032797,47.26009100018186],[-122.2960730002065,47.26010600027642],[-122.29656000027822,47.26023500006074],[-122.29795899967077,47.26212599999841],[-122.29796100021892,47.2619149997846],[-122.29796399969366,47.26087199990294],[-122.29949000020612,47.260879999754614],[-122.29962900012332,47.26088100019322],[-122.29982900013985,47.26088299985109],[-122.30010500032438,47.26088400028964],[-122.30017499974628,47.26088999987231],[-122.30042499999152,47.26094299991594],[-122.30054100034248,47.26097799997321],[-122.3012400001263,47.261293000056845],[-122.30116599960813,47.26134199980657],[-122.30151700013572,47.26177100020755],[-122.30185799971923,47.26211499969891],[-122.30244699989822,47.26246100021109],[-122.30303799972701,47.262615999937935],[-122.30330999971358,47.26268799984548],[-122.30330899988869,47.26275700027459],[-122.30330399986582,47.26290499999056],[-122.30525100032774,47.263375999916626],[-122.3070089997455,47.26380099998093],[-122.30713099994425,47.26382899973628],[-122.30725300014299,47.26385499993129],[-122.30737600016664,47.26387899995925],[-122.3075410000231,47.26390899982656],[-122.30765599965082,47.26392600021118],[-122.30774000021472,47.26393700013438],[-122.30785300019262,47.26394800005534],[-122.30793799968313,47.26395300012946],[-122.30802300007196,47.26395699982265],[-122.30810900028567,47.26395899997397],[-122.30819399977617,47.26395899997397],[-122.30827999998989,47.26395699982265],[-122.30836500037871,47.26395300012946],[-122.3084499998692,47.263947000284276],[-122.30850699977059,47.26394099982878],[-122.30853500025802,47.263939000286456],[-122.3085629998471,47.263934999982276],[-122.30861899992362,47.26392900013504],[-122.308647000411,47.26392499983011],[-122.30870299958919,47.26391699982892],[-122.30878600032818,47.263902999976395],[-122.30886900016885,47.26388699996619],[-122.30895000035973,47.26386899979652],[-122.30902999982735,47.26384999984791],[-122.30908400025403,47.263835999977616],[-122.30913699995747,47.26382099972063],[-122.30918899983598,47.263805000295285],[-122.30924099971453,47.263789000255464],[-122.30929199976815,47.26377199982685],[-122.30934299982178,47.263754000227706],[-122.30939300005049,47.26373500023778],[-122.30944199955597,47.263714999856006],[-122.30949099995979,47.263695000076304],[-122.30953899964038,47.26367399990319],[-122.3095820001964,47.263654000108],[-122.3096320004251,47.26362999997802],[-122.30967799955755,47.26360700022422],[-122.3097229997634,47.26358300007294],[-122.30976700014432,47.26355800013236],[-122.309809999802,47.263533000180026],[-122.30985300035803,47.26350699982687],[-122.30989400036593,47.263480000290706],[-122.3099350003738,47.263453000131165],[-122.30997499965846,47.263425999957875],[-122.31001400001652,47.26339700020791],[-122.31005199965134,47.26336799983251],[-122.3100890003596,47.263339000050784],[-122.3101250003446,47.2633089998605],[-122.3101599996064,47.263277999869565],[-122.31019200029176,47.2632480002543],[-122.31022599972863,47.2632150000483],[-122.31025800041398,47.26318300021682],[-122.31028900037614,47.263149999970295],[-122.31031799979014,47.26311699970315],[-122.31034700010244,47.26308300023777],[-122.31037399986663,47.26304999992887],[-122.31039999980588,47.26301500002216],[-122.31042499992023,47.26298000009231],[-122.31045300040765,47.26293900017989],[-122.3104850001947,47.2628909998704],[-122.31051500033195,47.26284199972541],[-122.31054299992103,47.26279399993757],[-122.31057100040843,47.262743999909056],[-122.31059700034768,47.26269500023769],[-122.31062300028695,47.262645000115675],[-122.31064699967811,47.26259499994644],[-122.31066599994467,47.26255399973585],[-122.3107379999147,47.26238999979526],[-122.31075999965601,47.26234300000857],[-122.31080700041,47.262248999700375],[-122.31083300034926,47.262203000202184],[-122.31086000011342,47.26215700005432],[-122.31088699987761,47.26211099986649],[-122.31091700001484,47.26206600005496],[-122.31094600032716,47.26202299981995],[-122.31097100044153,47.26198700003588],[-122.31099800020569,47.261952000036],[-122.3110269996197,47.26191799982243],[-122.31105599993201,47.26188400019663],[-122.31108600006925,47.26184999993935],[-122.31111799985628,47.26181700008115],[-122.31114999964333,47.261784000202375],[-122.3111670002601,47.261768000161396],[-122.31118399997855,47.26175200011557],[-122.31120200042018,47.26173500025212],[-122.31121800031372,47.261720000009426],[-122.31123599985708,47.261703999949106],[-122.31125400029873,47.261688999697625],[-122.31127199984208,47.261673000237586],[-122.31129100010864,47.261657999977324],[-122.311308999652,47.26164299971281],[-122.31132600026875,47.261630000293025],[-122.31134700018514,47.2616129997807],[-122.31136700027665,47.261598000113096],[-122.31138700036811,47.26158400025695],[-122.31140599973638,47.26156899997147],[-122.31142699965278,47.26155500010761],[-122.31144699974425,47.2615410002401],[-122.31146799966068,47.26152699975922],[-122.31148799975215,47.26151299988425],[-122.31150799984363,47.26149999982289],[-122.3118300000589,47.26125800020782],[-122.31230399971184,47.260899999988126],[-122.31286600012662,47.260902000254944],[-122.31300199967076,47.260902000254944],[-122.31305000024963,47.260902000254944],[-122.31342099997039,47.260903000083474],[-122.31359599987259,47.260903000083474],[-122.31383100004925,47.260903000083474],[-122.31382600002637,47.2612629999264],[-122.31381900035366,47.26180799994998],[-122.31381199978266,47.262248999700375],[-122.31380500010995,47.262734000141556],[-122.31453700040406,47.262723999762514],[-122.31641600019564,47.26271600018947],[-122.31638299968537,47.26450000002445],[-122.31702999959066,47.264512999958775],[-122.3171640003833,47.26452899977976],[-122.31725300007173,47.26453899981783],[-122.31765999977752,47.264543999836135],[-122.31793000011427,47.26454000018729],[-122.31836799978218,47.264538000057925],[-122.31874000022617,47.26455099998291],[-122.3188549998539,47.26455699975965],[-122.31898399972533,47.2645639999047],[-122.3194480002308,47.26457999971028],[-122.31988900027176,47.26457300017696],[-122.32062400004061,47.26456000025737],[-122.32106300043176,47.26455099998291],[-122.32275200025255,47.26454899985401],[-122.32324099997409,47.26454899985401],[-122.32402699979654,47.264548000094294],[-122.32416700043697,47.26441899984596],[-122.3250439995977,47.263610999943594],[-122.3260500004265,47.26271199979288],[-122.32665999962354,47.26216699993082],[-122.32690200037119,47.26228799993284],[-122.32749300019998,47.26176400030282],[-122.32758100006353,47.26164299971281],[-122.32760899965261,47.26165400011039],[-122.3280589999144,47.26124500008384],[-122.3287479996525,47.2606149999098],[-122.32862200015414,47.260554000247765],[-122.32858899964384,47.260539000280126],[-122.3289369997984,47.26020800007518],[-122.32895500024006,47.26018599989613],[-122.32913599999002,47.26000100013488],[-122.32925700036387,47.259878000087454],[-122.3294869996193,47.25963599976468],[-122.3296199996887,47.259493999795964],[-122.32992400036062,47.25916000017998],[-122.33024200037796,47.25878699994208],[-122.33053899958054,47.25843599982086],[-122.33064499988576,47.258306999921146],[-122.33091600004741,47.25795100024517],[-122.33095899970512,47.25789599987455],[-122.3309910003905,47.257851000138494],[-122.33132199992825,47.25736500018647],[-122.33424600000842,47.25736899976773],[-122.33491399983009,47.25736600008184],[-122.33491999967787,47.25759400011369],[-122.33491100035536,47.25791600001594],[-122.33492899989872,47.259572000023404],[-122.33497400010455,47.259675999944704],[-122.33499500002094,47.260184000211936],[-122.33502199978513,47.2609369997296],[-122.33502400033326,47.26100299991282],[-122.33497900012745,47.26102700001447],[-122.33491300000517,47.26194999980889],[-122.33483000016449,47.26310999997638],[-122.33502000013532,47.263240000150844],[-122.33546299982608,47.2635410002392],[-122.33587399972983,47.26381999994717],[-122.33676500003257,47.264428000142864],[-122.33699199981329,47.264581999838065],[-122.34012099993285,47.26460999978991],[-122.34025900002511,47.26104499993116]]]},"properties":{"AREALAND":"7204263","AREAWATER":"98909","BASENAME":"Milton","CBSAPCI":"N","CENTLAT":"+47.2524215","CENTLON":"-122.3153422","FUNCSTAT":"A","GEOID":"5346020","INTPTLAT":"+47.2519937","INTPTLON":"-122.3172889","LSADC":"25","MTFCC":"G4110","NAME":"Milton city","NECTAPCI":"N","OBJECTID":20278,"OID":"27890836057936","PLACE":"46020","PLACECC":"C1","PLACENS":"02411114","STATE":"53","DISP_CLR":1,"slug":"milton","jurisdiction_key":"milton_city","county_fips":["53033","53053"]}}]}
