{
  "type": "FeatureCollection",
  "features": [
    {
      "type": "Feature",
      "geometry": {
        "type": "MultiPolygon",
        "coordinates": [
          [
            [
              [
                -122.01259699995602,
                47.88623400003244
              ],
              [
                -122.01259199993312,
                47.885905999905525
              ],
              [
                -122.01258500026043,
                47.88530899981327
              ],
              [
                -122.01258299971231,
                47.88519200024206
              ],
              [
                -122.01257400038978,
                47.88425700022935
              ],
              [
                -122.01256000014607,
                47.88301499999189
              ],
              [
                -122.01255099992525,
                47.8821359999457
              ],
              [
                -122.01252499998598,
                47.880948000023714
              ],
              [
                -122.01252099978801,
                47.88055200002033
              ],
              [
                -122.01250800026753,
                47.880156000002366
              ],
              [
                -122.01248900000095,
                47.879362000243695
              ],
              [
                -122.01248700035114,
                47.87928900014827
              ],
              [
                -122.01247300010742,
                47.878761000035375
              ],
              [
                -122.01246999973439,
                47.87864699999615
              ],
              [
                -122.01245700021393,
                47.87804800026132
              ],
              [
                -122.01245499966576,
                47.87795800028109
              ],
              [
                -122.01245200019106,
                47.87782699979619
              ],
              [
                -122.012448999818,
                47.87768999974881
              ],
              [
                -122.01244799999309,
                47.87760099992411
              ],
              [
                -122.01244499962003,
                47.877460999951445
              ],
              [
                -122.01244700016817,
                47.877225999857
              ],
              [
                -122.0124349995743,
                47.87682799994512
              ],
              [
                -122.01240699998519,
                47.87659199979789
              ],
              [
                -122.01236699980224,
                47.87640600006305
              ],
              [
                -122.01239699993944,
                47.87565599980028
              ],
              [
                -122.01239600011455,
                47.87442700008579
              ],
              [
                -122.01239500028963,
                47.87422799970399
              ],
              [
                -122.01239500028963,
                47.873913999912084
              ],
              [
                -122.01239399956641,
                47.87322400026694
              ],
              [
                -122.01240100013742,
                47.872597000140715
              ],
              [
                -122.01230300022813,
                47.87255900005358
              ],
              [
                -122.01226499969499,
                47.872495000065825
              ],
              [
                -122.01222700006015,
                47.872429000052165
              ],
              [
                -122.01227700028886,
                47.87229200019374
              ],
              [
                -122.01230300022813,
                47.87222300029062
              ],
              [
                -122.01230300022813,
                47.87209199976764
              ],
              [
                -122.01230300022813,
                47.872008000178035
              ],
              [
                -122.01230300022813,
                47.871794000063005
              ],
              [
                -122.01230300022813,
                47.870590999979946
              ],
              [
                -122.01230300022813,
                47.87050699976511
              ],
              [
                -122.01230300022813,
                47.87007900011449
              ],
              [
                -122.01238000022103,
                47.868766999818384
              ],
              [
                -122.01237799967289,
                47.86848100027209
              ],
              [
                -122.01235900030463,
                47.86368299985328
              ],
              [
                -122.01235599993157,
                47.863149000112415
              ],
              [
                -122.01235299955852,
                47.86208400001571
              ],
              [
                -122.01236400032747,
                47.86064799980867
              ],
              [
                -122.012336999665,
                47.85804299991106
              ],
              [
                -122.01231800029676,
                47.85610399979501
              ],
              [
                -122.01228099958848,
                47.856087999999744
              ],
              [
                -122.01220600014375,
                47.85608700001237
              ],
              [
                -122.01220600014375,
                47.85607500016244
              ],
              [
                -122.01218799970209,
                47.85593199992878
              ],
              [
                -122.01213499999864,
                47.855741000211246
              ],
              [
                -122.01213499999864,
                47.85559200028077
              ],
              [
                -122.01215699973996,
                47.855411999919134
              ],
              [
                -122.01222799988504,
                47.855185999939856
              ],
              [
                -122.01222399968712,
                47.85486499983104
              ],
              [
                -122.01219299972496,
                47.852456000087415
              ],
              [
                -122.01217900037956,
                47.85140699978984
              ],
              [
                -122.01217500018159,
                47.85074899999217
              ],
              [
                -122.01219299972496,
                47.85021500025112
              ],
              [
                -122.01219299972496,
                47.84931199979163
              ],
              [
                -122.01224399977859,
                47.84873900012861
              ],
              [
                -122.01227499974073,
                47.84873799999952
              ],
              [
                -122.01234800043397,
                47.84873599974128
              ],
              [
                -122.0123719998251,
                47.84873599974128
              ],
              [
                -122.01234500006092,
                47.84834999969868
              ],
              [
                -122.01227100044107,
                47.846860000253145
              ],
              [
                -122.0122739999158,
                47.8468480000766
              ],
              [
                -122.01225700019738,
                47.84682300015196
              ],
              [
                -122.01225800002227,
                47.84680999980058
              ],
              [
                -122.01225899984718,
                47.84678300012694
              ],
              [
                -122.01225399982432,
                47.846754000104575
              ],
              [
                -122.01225200017448,
                47.84673700027099
              ],
              [
                -122.01222299986219,
                47.84655100009687
              ],
              [
                -122.01220899961847,
                47.84604800012917
              ],
              [
                -122.01219199990004,
                47.845513000024155
              ],
              [
                -122.01218600005225,
                47.845289000099264
              ],
              [
                -122.01218400040246,
                47.84517699977404
              ],
              [
                -122.01218299967923,
                47.84509199977491
              ],
              [
                -122.01217699983142,
                47.844986000233405
              ],
              [
                -122.01217199980856,
                47.84472000022538
              ],
              [
                -122.01215900028808,
                47.84425299992156
              ],
              [
                -122.01212800032593,
                47.84311800025274
              ],
              [
                -122.0120760004474,
                47.84123399977082
              ],
              [
                -122.01214500004437,
                47.83790600018865
              ],
              [
                -122.01215300044032,
                47.83754999984971
              ],
              [
                -122.00121500035313,
                47.837675999730635
              ],
              [
                -122.00128499977501,
                47.84076300011381
              ],
              [
                -122.0012970003689,
                47.84129799976927
              ],
              [
                -122.00092300027508,
                47.841299999711445
              ],
              [
                -121.99714700025022,
                47.8413210000038
              ],
              [
                -121.99574299993652,
                47.84132899976843
              ],
              [
                -121.99557800008006,
                47.84133000004039
              ],
              [
                -121.99559800017157,
                47.8410699998289
              ],
              [
                -121.99568100001223,
                47.84002300015238
              ],
              [
                -121.99340200018753,
                47.839914999904316
              ],
              [
                -121.99338899976874,
                47.840100999756174
              ],
              [
                -121.99335399960866,
                47.84061000001938
              ],
              [
                -121.99328900020966,
                47.84134400022813
              ],
              [
                -121.99327199959289,
                47.84134400022813
              ],
              [
                -121.99321800006454,
                47.841342999956446
              ],
              [
                -121.99160899971137,
                47.84135099971768
              ],
              [
                -121.99140000037231,
                47.84135099971768
              ],
              [
                -121.99128800021933,
                47.841353000260725
              ],
              [
                -121.99115199977689,
                47.84135399992926
              ],
              [
                -121.99098699992047,
                47.84135399992926
              ],
              [
                -121.99109800024853,
                47.84125899997745
              ],
              [
                -121.99112199963966,
                47.841222999772555
              ],
              [
                -121.99115900034789,
                47.841165000126836
              ],
              [
                -121.99119000031003,
                47.841121999734256
              ],
              [
                -121.99121000040151,
                47.8410899999378
              ],
              [
                -121.991222999922,
                47.84104700008601
              ],
              [
                -121.9912449996633,
                47.841004000198616
              ],
              [
                -121.99127399997565,
                47.840963999906776
              ],
              [
                -121.99129099969406,
                47.84091700003693
              ],
              [
                -121.9913009997398,
                47.840872999761
              ],
              [
                -121.99130199956473,
                47.84084299977074
              ],
              [
                -121.99129599971694,
                47.840812999763095
              ],
              [
                -121.99128700039444,
                47.84078099977608
              ],
              [
                -121.99127099960256,
                47.8407230002391
              ],
              [
                -121.991258999907,
                47.840678999798634
              ],
              [
                -121.9912439998384,
                47.84063600020914
              ],
              [
                -121.99122799994485,
                47.840579999877036
              ],
              [
                -121.99120500037864,
                47.84053399994661
              ],
              [
                -121.99119299978477,
                47.84051000028133
              ],
              [
                -121.9911800002643,
                47.840487000290196
              ],
              [
                -121.991150999952,
                47.84044300025252
              ],
              [
                -121.99113000003558,
                47.84036200029112
              ],
              [
                -121.99109700042362,
                47.84023600030075
              ],
              [
                -121.9908990000569,
                47.83934699987941
              ],
              [
                -121.99076000013972,
                47.83931999993885
              ],
              [
                -121.99056099994812,
                47.83927899984597
              ],
              [
                -121.99022500038741,
                47.839208999700794
              ],
              [
                -121.98992499991344,
                47.8391789999542
              ],
              [
                -121.98828200012342,
                47.83901599986217
              ],
              [
                -121.98511199999601,
                47.839007999740865
              ],
              [
                -121.98204300015091,
                47.8393799998546
              ],
              [
                -121.98102399980164,
                47.83969099992377
              ],
              [
                -121.98006599955171,
                47.83998400000497
              ],
              [
                -121.97999100010698,
                47.84005800029056
              ],
              [
                -121.97972099977022,
                47.840324000086994
              ],
              [
                -121.97941399962355,
                47.84062599976665
              ],
              [
                -121.9792820002774,
                47.841231999826135
              ],
              [
                -121.97803600014738,
                47.842078999956215
              ],
              [
                -121.97724600012698,
                47.84261700004593
              ],
              [
                -121.97382699957922,
                47.84463000024472
              ],
              [
                -121.97257100030178,
                47.845275999966255
              ],
              [
                -121.9708980003745,
                47.84613699988176
              ],
              [
                -121.97086900006218,
                47.846152000156934
              ],
              [
                -121.97073000014504,
                47.8462239997294
              ],
              [
                -121.97035400040139,
                47.84641699988216
              ],
              [
                -121.96834800038818,
                47.846900000218824
              ],
              [
                -121.96689100037099,
                47.84760799975061
              ],
              [
                -121.96574300015031,
                47.84819299972004
              ],
              [
                -121.96135799985501,
                47.850415000095985
              ],
              [
                -121.95958799984336,
                47.851311000084856
              ],
              [
                -121.95860399965419,
                47.85216700017393
              ],
              [
                -121.95742500036965,
                47.85322099977873
              ],
              [
                -121.95536300027995,
                47.85444700020165
              ],
              [
                -121.95496999991954,
                47.854588000278746
              ],
              [
                -121.95366000021545,
                47.855060999797594
              ],
              [
                -121.95356200030615,
                47.85508899999067
              ],
              [
                -121.95356999980379,
                47.85600099982099
              ],
              [
                -121.95357200035193,
                47.85637599977863
              ],
              [
                -121.95358200039763,
                47.857895999870586
              ],
              [
                -121.95358200039763,
                47.85799000014132
              ],
              [
                -121.95291399967766,
                47.85760700013807
              ],
              [
                -121.95288600008855,
                47.85763800003421
              ],
              [
                -121.95214899977158,
                47.85777600000829
              ],
              [
                -121.95048199969212,
                47.85730899972388
              ],
              [
                -121.95045499992793,
                47.85730100001276
              ],
              [
                -121.94883600042733,
                47.85724900005227
              ],
              [
                -121.94829599975385,
                47.857283000055524
              ],
              [
                -121.94809499991241,
                47.85729600019271
              ],
              [
                -121.947925999858,
                47.85730699979623
              ],
              [
                -121.94707599956313,
                47.85736200018975
              ],
              [
                -121.94690999988177,
                47.857372999779265
              ],
              [
                -121.94605700011216,
                47.85737700023216
              ],
              [
                -121.94593499991345,
                47.85737700023216
              ],
              [
                -121.94508299996875,
                47.857381000081986
              ],
              [
                -121.94324699983483,
                47.85728400001982
              ],
              [
                -121.94302300042717,
                47.857268999950506
              ],
              [
                -121.94302099987904,
                47.857396000118904
              ],
              [
                -121.94302000005412,
                47.8575190001373
              ],
              [
                -121.9428490003499,
                47.85750899993601
              ],
              [
                -121.94284400032703,
                47.85736999989142
              ],
              [
                -121.94237700034678,
                47.857347000143
              ],
              [
                -121.94235700025531,
                47.857346000179916
              ],
              [
                -121.94110799975228,
                47.8572820000912
              ],
              [
                -121.94105699969863,
                47.85727199984415
              ],
              [
                -121.94100800019314,
                47.85725799973621
              ],
              [
                -121.94096299998732,
                47.857239999764
              ],
              [
                -121.9409210001545,
                47.85721599999233
              ],
              [
                -121.9408840003446,
                47.85718899970846
              ],
              [
                -121.94085400020737,
                47.857159000113285
              ],
              [
                -121.94083099974283,
                47.85712699996339
              ],
              [
                -121.94081400002439,
                47.85709199988986
              ],
              [
                -121.94082999991791,
                47.856799000000684
              ],
              [
                -121.94083199956775,
                47.856752000012484
              ],
              [
                -121.94084099978856,
                47.85659200022058
              ],
              [
                -121.94079800013085,
                47.85659000026527
              ],
              [
                -121.93897000039291,
                47.85649299992881
              ],
              [
                -121.93779000038516,
                47.8564299999735
              ],
              [
                -121.93776299972266,
                47.85642899999273
              ],
              [
                -121.93774900037727,
                47.858402999824534
              ],
              [
                -121.93774699982913,
                47.85970800025457
              ],
              [
                -121.93774600000421,
                47.860079000279434
              ],
              [
                -121.93851000008534,
                47.8600940001385
              ],
              [
                -121.93883099957742,
                47.86010000020145
              ],
              [
                -121.93915100014287,
                47.8601060002637
              ],
              [
                -121.9392170002651,
                47.86010700017355
              ],
              [
                -121.93947199963492,
                47.86011199972257
              ],
              [
                -121.93947099981,
                47.86042900027997
              ],
              [
                -121.93947300035815,
                47.861104000151926
              ],
              [
                -121.93953600010734,
                47.861120000207414
              ],
              [
                -121.94000100043775,
                47.86123699989828
              ],
              [
                -121.94015600024844,
                47.861275999736584
              ],
              [
                -121.94016999959383,
                47.861279999888325
              ],
              [
                -121.94066199968843,
                47.861411000016524
              ],
              [
                -121.94071399956695,
                47.86142399972132
              ],
              [
                -121.94139099960948,
                47.86159799981462
              ],
              [
                -121.94164199967966,
                47.861651999994976
              ],
              [
                -121.94189500029796,
                47.86169399976157
              ],
              [
                -121.94215100039098,
                47.861726999984796
              ],
              [
                -121.94241300033181,
                47.8617460000855
              ],
              [
                -121.94268100012042,
                47.861751000079124
              ],
              [
                -121.94299099974181,
                47.861747999841924
              ],
              [
                -121.94317999988769,
                47.86170899975604
              ],
              [
                -121.94344400037666,
                47.86164600011165
              ],
              [
                -121.94368500040109,
                47.8615669998754
              ],
              [
                -121.94391600037977,
                47.86148300010243
              ],
              [
                -121.94394999981664,
                47.86147200017951
              ],
              [
                -121.94415200038131,
                47.86141000013182
              ],
              [
                -121.94439900025351,
                47.86135200015618
              ],
              [
                -121.9446519999735,
                47.8613090002259
              ],
              [
                -121.94490600041674,
                47.86128400003977
              ],
              [
                -121.94542199990244,
                47.86124299982898
              ],
              [
                -121.94594400013426,
                47.86118999971423
              ],
              [
                -121.94612300023441,
                47.861147000252245
              ],
              [
                -121.94618099996072,
                47.86114399998009
              ],
              [
                -121.94657400032112,
                47.86105699984725
              ],
              [
                -121.94682500039127,
                47.861006999822635
              ],
              [
                -121.9469059996838,
                47.86099599979867
              ],
              [
                -121.94707599956313,
                47.86097600013268
              ],
              [
                -121.94758799974919,
                47.860935000281025
              ],
              [
                -121.9479040001167,
                47.86092699992398
              ],
              [
                -121.94836900044709,
                47.8608850001387
              ],
              [
                -121.9488909997806,
                47.860846999901874
              ],
              [
                -121.9490160003524,
                47.86083300015652
              ],
              [
                -121.94929599983658,
                47.86082299999171
              ],
              [
                -121.94936699998166,
                47.860822000095666
              ],
              [
                -121.94963099957232,
                47.860846999901874
              ],
              [
                -121.94969199967169,
                47.86084400021508
              ],
              [
                -121.94975299977106,
                47.860846999901874
              ],
              [
                -121.94985999990118,
                47.860867000220345
              ],
              [
                -121.95016200002499,
                47.86091400009452
              ],
              [
                -121.95040100039958,
                47.86096199981948
              ],
              [
                -121.95066099979226,
                47.86100400014505
              ],
              [
                -121.95092000025834,
                47.86103100025029
              ],
              [
                -121.95117600035138,
                47.86103200014231
              ],
              [
                -121.9512059995903,
                47.86103499981828
              ],
              [
                -121.95144699961472,
                47.86102299990807
              ],
              [
                -121.95170799973063,
                47.86098800005376
              ],
              [
                -121.95196200017382,
                47.86094399992782
              ],
              [
                -121.95221099969588,
                47.86089500029154
              ],
              [
                -121.95245400026842,
                47.86083900013398
              ],
              [
                -121.95269899959251,
                47.86077400024108
              ],
              [
                -121.95325000013663,
                47.8606100000008
              ],
              [
                -121.9533389998251,
                47.860583000279014
              ],
              [
                -121.95342099984086,
                47.86055900024663
              ],
              [
                -121.953487999788,
                47.860535000203136
              ],
              [
                -121.95360400013895,
                47.86049599980743
              ],
              [
                -121.95369299982742,
                47.86046599971488
              ],
              [
                -121.95374999972883,
                47.860535000203136
              ],
              [
                -121.95407000029427,
                47.86116400018398
              ],
              [
                -121.95410999957893,
                47.86120499985453
              ],
              [
                -121.95412999967043,
                47.86119700014187
              ],
              [
                -121.95419400014283,
                47.861158000244174
              ],
              [
                -121.95444199983996,
                47.86101000010272
              ],
              [
                -121.95452499968064,
                47.860960999926114
              ],
              [
                -121.95456200038886,
                47.860938999856366
              ],
              [
                -121.95491100036833,
                47.86075899997607
              ],
              [
                -121.95503400039198,
                47.86069599977988
              ],
              [
                -121.95577900020655,
                47.86035899974566
              ],
              [
                -121.95592700034456,
                47.86029299994742
              ],
              [
                -121.9558949996592,
                47.860214000060196
              ],
              [
                -121.9558109999936,
                47.86000199988988
              ],
              [
                -121.95568100029726,
                47.85967599986975
              ],
              [
                -121.95564500031226,
                47.859589000286974
              ],
              [
                -121.9558029995977,
                47.859521000268956
              ],
              [
                -121.95584699997862,
                47.85950600024409
              ],
              [
                -121.95598900026886,
                47.859472999812525
              ],
              [
                -121.95606899973647,
                47.859454000084185
              ],
              [
                -121.95617800041474,
                47.85944299973069
              ],
              [
                -121.95617099984372,
                47.85937899981965
              ],
              [
                -121.95616800036898,
                47.859352000059445
              ],
              [
                -121.95614999992732,
                47.85920600004122
              ],
              [
                -121.95638799957871,
                47.8590669997244
              ],
              [
                -121.9568189995739,
                47.858815999834256
              ],
              [
                -121.9570210001386,
                47.85863599981563
              ],
              [
                -121.95739600005733,
                47.85830399997694
              ],
              [
                -121.95738199981362,
                47.85846499985197
              ],
              [
                -121.95736900029314,
                47.85862399995289
              ],
              [
                -121.95740500027814,
                47.8587139997598
              ],
              [
                -121.95743200004233,
                47.85892800024036
              ],
              [
                -121.95739799970713,
                47.859257999847166
              ],
              [
                -121.95736199972214,
                47.85938599988909
              ],
              [
                -121.95732099971427,
                47.85953100008218
              ],
              [
                -121.95731200039174,
                47.85956000019271
              ],
              [
                -121.9571120003752,
                47.859637999952156
              ],
              [
                -121.95700299969693,
                47.85967900022687
              ],
              [
                -121.95693999994775,
                47.85970300006391
              ],
              [
                -121.95676400022066,
                47.85976900001053
              ],
              [
                -121.95672599968749,
                47.85978900014215
              ],
              [
                -121.95669399990047,
                47.85979999981946
              ],
              [
                -121.95666600031136,
                47.85980900026606
              ],
              [
                -121.95660400038709,
                47.859828999779516
              ],
              [
                -121.95646200009686,
                47.85988200008022
              ],
              [
                -121.9563290000275,
                47.85993199998444
              ],
              [
                -121.95618199971437,
                47.85998799991634
              ],
              [
                -121.95644500037842,
                47.85997800019127
              ],
              [
                -121.95648399983816,
                47.859977000278924
              ],
              [
                -121.9566849996796,
                47.85996899977405
              ],
              [
                -121.9570150002908,
                47.85985099971759
              ],
              [
                -121.95723700004866,
                47.85979000005812
              ],
              [
                -121.95735099985149,
                47.85976399982574
              ],
              [
                -121.9574730000502,
                47.859747999954436
              ],
              [
                -121.9578250004027,
                47.859665000166096
              ],
              [
                -121.9579650001448,
                47.85968900000962
              ],
              [
                -121.95834300043659,
                47.859717000114415
              ],
              [
                -121.9590699998095,
                47.8597010002286
              ],
              [
                -121.95912800043412,
                47.859699999708184
              ],
              [
                -121.95939100019987,
                47.8597010002286
              ],
              [
                -121.95964999976762,
                47.859683999817115
              ],
              [
                -121.95991099988353,
                47.85964300014909
              ],
              [
                -121.96015399955779,
                47.85956800015797
              ],
              [
                -121.96038299988665,
                47.85948400015961
              ],
              [
                -121.96082399992761,
                47.859302000198596
              ],
              [
                -121.96097299989054,
                47.8592360002602
              ],
              [
                -121.96127400018943,
                47.859104000131296
              ],
              [
                -121.96142399997723,
                47.85904699991699
              ],
              [
                -121.9615770001381,
                47.85899100017409
              ],
              [
                -121.96195600025479,
                47.859389000262986
              ],
              [
                -121.9621339996317,
                47.85951999974506
              ],
              [
                -121.9622109996246,
                47.859582000244934
              ],
              [
                -121.96298099955352,
                47.86019500000068
              ],
              [
                -121.96316300002673,
                47.8603220002344
              ],
              [
                -121.9632519997152,
                47.86036299996816
              ],
              [
                -121.96369299975616,
                47.86084099992539
              ],
              [
                -121.96454200022615,
                47.86134100020546
              ],
              [
                -121.96384799956688,
                47.861917999950904
              ],
              [
                -121.9636240001592,
                47.86210600020222
              ],
              [
                -121.96342800034061,
                47.862254000228205
              ],
              [
                -121.96331399963947,
                47.862341000160285
              ],
              [
                -121.96306099991948,
                47.8625100002692
              ],
              [
                -121.96253399966481,
                47.862826000167885
              ],
              [
                -121.96246800044088,
                47.86286699972943
              ],
              [
                -121.96202400002686,
                47.863149000112415
              ],
              [
                -121.96190299965302,
                47.86323099989743
              ],
              [
                -121.9612049996941,
                47.863708999928235
              ],
              [
                -121.96095199997414,
                47.86387600012174
              ],
              [
                -121.96068900020839,
                47.864031999794825
              ],
              [
                -121.96007200044033,
                47.86437799971233
              ],
              [
                -121.95967900007994,
                47.8645720002302
              ],
              [
                -121.95955799970612,
                47.864654999997
              ],
              [
                -121.95952400026925,
                47.86467899994109
              ],
              [
                -121.95917199991675,
                47.86487299993505
              ],
              [
                -121.95879699999801,
                47.8650669998056
              ],
              [
                -121.95855799962341,
                47.86520000023242
              ],
              [
                -121.95847300013294,
                47.86524200013769
              ],
              [
                -121.9583230003451,
                47.86530300001126
              ],
              [
                -121.95802500041927,
                47.865450999949545
              ],
              [
                -121.95763600025683,
                47.865636999834614
              ],
              [
                -121.95749099959357,
                47.865703000061096
              ],
              [
                -121.95676199967252,
                47.86604300029797
              ],
              [
                -121.95587600029093,
                47.86642500026455
              ],
              [
                -121.95425299969408,
                47.867128000124
              ],
              [
                -121.9535940000932,
                47.86741500027632
              ],
              [
                -121.95358300022255,
                47.86909900014412
              ],
              [
                -121.95358200039763,
                47.8693599999888
              ],
              [
                -121.95357599965158,
                47.870448000013475
              ],
              [
                -121.95548200010563,
                47.870437999895685
              ],
              [
                -121.95603799977434,
                47.87043500016128
              ],
              [
                -121.95631200030904,
                47.87043399984804
              ],
              [
                -121.95635800033978,
                47.87043399984804
              ],
              [
                -121.95659299961811,
                47.870431999824085
              ],
              [
                -121.95691499983337,
                47.8704310001134
              ],
              [
                -121.95703700003212,
                47.870429999800066
              ],
              [
                -121.95716000005577,
                47.870429999800066
              ],
              [
                -121.95756000008886,
                47.87042799977597
              ],
              [
                -121.95887200034109,
                47.870420999992376
              ],
              [
                -121.95885399989943,
                47.87121299998824
              ],
              [
                -121.95882299993728,
                47.872582999953295
              ],
              [
                -121.95875699981507,
                47.875537999903315
              ],
              [
                -121.95875299961709,
                47.87583599976885
              ],
              [
                -121.95795500009908,
                47.87583699997783
              ],
              [
                -121.95353200016895,
                47.87584100021098
              ],
              [
                -121.95354100038976,
                47.87764499976857
              ],
              [
                -121.95547399970971,
                47.877659999967136
              ],
              [
                -121.95562500022078,
                47.877661000140904
              ],
              [
                -121.95611399994232,
                47.87766500023323
              ],
              [
                -121.95635800033978,
                47.877666999978025
              ],
              [
                -121.95656400020411,
                47.87766899972274
              ],
              [
                -121.95680600005345,
                47.877671000069846
              ],
              [
                -121.95705100027583,
                47.87767200024341
              ],
              [
                -121.95727499968348,
                47.87767399998792
              ],
              [
                -121.95741399960067,
                47.87767500016141
              ],
              [
                -121.95751900008096,
                47.877675999732354
              ],
              [
                -121.95776400030336,
                47.87767800007925
              ],
              [
                -121.95797400036567,
                47.877679999823535
              ],
              [
                -121.9582189996897,
                47.877682000170225
              ],
              [
                -121.95846300008716,
                47.87768399991436
              ],
              [
                -121.95870800030956,
                47.87768500008766
              ],
              [
                -121.95924899990962,
                47.87768099999691
              ],
              [
                -121.9608370003464,
                47.877666999978025
              ],
              [
                -121.96160100042756,
                47.877659999967136
              ],
              [
                -121.96205199961595,
                47.87765700004831
              ],
              [
                -121.96270500026735,
                47.87765199978144
              ],
              [
                -121.9627589997957,
                47.87765199978144
              ],
              [
                -121.9629279998501,
                47.87765199978144
              ],
              [
                -121.96346500015053,
                47.87764400019702
              ],
              [
                -121.96407600007082,
                47.8776389999289
              ],
              [
                -121.96448299977658,
                47.877634999834605
              ],
              [
                -121.96515300014642,
                47.877628999993775
              ],
              [
                -121.96524699985771,
                47.87762799981939
              ],
              [
                -121.9654200001101,
                47.877627000247514
              ],
              [
                -121.96548600023235,
                47.87765000003607
              ],
              [
                -121.96575499984586,
                47.87776099994614
              ],
              [
                -121.96599500004535,
                47.87787600029688
              ],
              [
                -121.96651700027718,
                47.878168999754024
              ],
              [
                -121.96671200027085,
                47.878273999991094
              ],
              [
                -121.96677800039309,
                47.87830999978239
              ],
              [
                -121.96702600009021,
                47.87844999987098
              ],
              [
                -121.96720500019036,
                47.878560999874615
              ],
              [
                -121.96718000007601,
                47.878380999732556
              ],
              [
                -121.96716599983228,
                47.87817100008188
              ],
              [
                -121.96716599983228,
                47.87815199997683
              ],
              [
                -121.9671669996572,
                47.87803399973913
              ],
              [
                -121.96714800028893,
                47.87779300001174
              ],
              [
                -121.96714699956573,
                47.87761600013547
              ],
              [
                -121.96848599958214,
                47.87760099992411
              ],
              [
                -121.96927999980053,
                47.87759500007939
              ],
              [
                -121.97203499982623,
                47.877572999839366
              ],
              [
                -121.97201700028289,
                47.87857800012014
              ],
              [
                -121.97214799980416,
                47.87857800012014
              ],
              [
                -121.97319399991761,
                47.87858500000695
              ],
              [
                -121.973727999845,
                47.878587999872096
              ],
              [
                -121.97471799988196,
                47.87859400020434
              ],
              [
                -121.97471600023212,
                47.87811000029067
              ],
              [
                -121.97475100039223,
                47.87796199974798
              ],
              [
                -121.97473899979836,
                47.877893999731434
              ],
              [
                -121.9747339997755,
                47.87779899983353
              ],
              [
                -121.97473200012567,
                47.877765000030706
              ],
              [
                -121.97472899975261,
                47.877711999939166
              ],
              [
                -121.9747279999277,
                47.87768600026094
              ],
              [
                -121.9747279999277,
                47.87766500023323
              ],
              [
                -121.9747279999277,
                47.87763199991428
              ],
              [
                -121.9747279999277,
                47.877569999915444
              ],
              [
                -121.97491399970053,
                47.87756500024271
              ],
              [
                -121.9762069996862,
                47.877555999866566
              ],
              [
                -121.97642299959627,
                47.877555000293306
              ],
              [
                -121.97650399978711,
                47.877555000293306
              ],
              [
                -121.97691200021612,
                47.87755199976586
              ],
              [
                -121.97736599977758,
                47.87755000001663
              ],
              [
                -121.97740099993769,
                47.87755000001663
              ],
              [
                -121.97872400006057,
                47.87754299998994
              ],
              [
                -121.97881600012208,
                47.87754199981394
              ],
              [
                -121.97905499959836,
                47.87754100024037
              ],
              [
                -121.98009400003914,
                47.87753499978617
              ],
              [
                -121.9809650002504,
                47.877530000110056
              ],
              [
                -121.98141499961389,
                47.87752700018369
              ],
              [
                -121.98257299988035,
                47.87752000015389
              ],
              [
                -121.98274199993473,
                47.87751899997741
              ],
              [
                -121.98309000008928,
                47.87751600005041
              ],
              [
                -121.98483400016164,
                47.87750600009154
              ],
              [
                -121.98493600026892,
                47.87750499991479
              ],
              [
                -121.98500200039113,
                47.87750399973801
              ],
              [
                -121.98529399957089,
                47.87750199998694
              ],
              [
                -121.98541699959453,
                47.87750199998694
              ],
              [
                -121.98541599976961,
                47.87734499970473
              ],
              [
                -121.98541599976961,
                47.87728599990554
              ],
              [
                -121.98541599976961,
                47.877172999816615
              ],
              [
                -121.98541599976961,
                47.87711600019009
              ],
              [
                -121.98541400011977,
                47.87693899980864
              ],
              [
                -121.98541300029487,
                47.876587000030774
              ],
              [
                -121.98541199957164,
                47.876382999722274
              ],
              [
                -121.98541099974675,
                47.87624100027392
              ],
              [
                -121.98561800033431,
                47.87626500027589
              ],
              [
                -121.98621300036103,
                47.87633400021969
              ],
              [
                -121.9862369997522,
                47.87633700021513
              ],
              [
                -121.98627699993514,
                47.87634099980715
              ],
              [
                -121.98631700011812,
                47.876346000200535
              ],
              [
                -121.98641000000453,
                47.87627199987267
              ],
              [
                -121.98646199988308,
                47.87622300026512
              ],
              [
                -121.98648199997456,
                47.876204000048205
              ],
              [
                -121.98649600021827,
                47.876190000232754
              ],
              [
                -121.98656399999032,
                47.876100000037724
              ],
              [
                -121.9867459995652,
                47.875939000102235
              ],
              [
                -121.98686100009124,
                47.87578699974898
              ],
              [
                -121.98697999991694,
                47.87548799998849
              ],
              [
                -121.98704400038936,
                47.87533100023152
              ],
              [
                -121.98712700023002,
                47.87508000015761
              ],
              [
                -121.98718400013142,
                47.87495299992826
              ],
              [
                -121.9872040002229,
                47.87478299978877
              ],
              [
                -121.98723400036013,
                47.874730000262126
              ],
              [
                -121.987343999965,
                47.874535000172884
              ],
              [
                -121.98700199965825,
                47.87444000014166
              ],
              [
                -121.98695900000054,
                47.87442000023973
              ],
              [
                -121.98663500013544,
                47.8742639998963
              ],
              [
                -121.98631899976795,
                47.87412200006377
              ],
              [
                -121.98544000005906,
                47.87398100008685
              ],
              [
                -121.98543800040925,
                47.87367700010057
              ],
              [
                -121.98543500003619,
                47.873235999762926
              ],
              [
                -121.98543800040925,
                47.87212699995816
              ],
              [
                -121.98417999968537,
                47.87188900012459
              ],
              [
                -121.98393600018619,
                47.87182200025784
              ],
              [
                -121.98381700036052,
                47.87177800028923
              ],
              [
                -121.98368799959077,
                47.87170600004088
              ],
              [
                -121.98304800025649,
                47.87128999999507
              ],
              [
                -121.98288000002698,
                47.87121099999436
              ],
              [
                -121.98224399999238,
                47.87095500014104
              ],
              [
                -121.98163700027004,
                47.87071000000102
              ],
              [
                -121.98155899955394,
                47.870669999720576
              ],
              [
                -121.9814809997361,
                47.87061900022217
              ],
              [
                -121.98140799994118,
                47.87056200001443
              ],
              [
                -121.98136500028347,
                47.87052200022235
              ],
              [
                -121.98132199972747,
                47.87047000026576
              ],
              [
                -121.9812759996967,
                47.870352999720666
              ],
              [
                -121.98127200039707,
                47.870337999817075
              ],
              [
                -121.9812339998639,
                47.87002599999484
              ],
              [
                -121.9810149995808,
                47.868225000190925
              ],
              [
                -121.98099700003745,
                47.86756699987708
              ],
              [
                -121.98094000013604,
                47.86716800012507
              ],
              [
                -121.98093000009031,
                47.86702100004478
              ],
              [
                -121.98091300037186,
                47.866768999712065
              ],
              [
                -121.98110499999251,
                47.86676299981835
              ],
              [
                -121.9813440003671,
                47.86676400020245
              ],
              [
                -121.98449699987778,
                47.86676700014934
              ],
              [
                -121.9852950002941,
                47.8667659997653
              ],
              [
                -121.98536700026413,
                47.866767999930715
              ],
              [
                -121.98536600043921,
                47.86642200029787
              ],
              [
                -121.98535899986821,
                47.864387999794054
              ],
              [
                -121.98535399984534,
                47.863520000222266
              ],
              [
                -121.98548400044001,
                47.8635700002338
              ],
              [
                -121.98574600038081,
                47.86367000011228
              ],
              [
                -121.98600999997144,
                47.863775000198935
              ],
              [
                -121.98618499987364,
                47.86384499973674
              ],
              [
                -121.98675700033418,
                47.86406300006799
              ],
              [
                -121.98708500039723,
                47.86419399979291
              ],
              [
                -121.98725799975126,
                47.86426300014058
              ],
              [
                -121.9882810002985,
                47.86466299977871
              ],
              [
                -121.9897809999734,
                47.86525699970819
              ],
              [
                -121.98979600004203,
                47.865262999776235
              ],
              [
                -121.99068200032191,
                47.8656080001103
              ],
              [
                -121.99068399997175,
                47.86555300002749
              ],
              [
                -121.99069300019258,
                47.86539000025016
              ],
              [
                -121.99069599966731,
                47.86533599974503
              ],
              [
                -121.99348099983025,
                47.86644200027331
              ],
              [
                -121.99866500036681,
                47.868501999803634
              ],
              [
                -122.00154300041618,
                47.869630999999764
              ],
              [
                -122.00184299999184,
                47.86974900009093
              ],
              [
                -122.00342499968251,
                47.87037000024889
              ],
              [
                -122.00357700001847,
                47.87042900008934
              ],
              [
                -122.00277100010453,
                47.87042300001675
              ],
              [
                -122.00154099986806,
                47.870414999918815
              ],
              [
                -122.00154199969295,
                47.870931999791004
              ],
              [
                -122.00154500006602,
                47.871321999839004
              ],
              [
                -121.99613399974876,
                47.87127699975149
              ],
              [
                -121.99613200009892,
                47.87073600016674
              ],
              [
                -121.99612899972587,
                47.87037999977719
              ],
              [
                -121.9956800001873,
                47.870383999829
              ],
              [
                -121.9906449996137,
                47.87034300018715
              ],
              [
                -121.99063999959081,
                47.870420999992376
              ],
              [
                -121.99062799989525,
                47.87059399970532
              ],
              [
                -121.99062500042052,
                47.870650999877874
              ],
              [
                -121.99062799989525,
                47.87140100027309
              ],
              [
                -121.99063000044339,
                47.87215199973547
              ],
              [
                -121.99063700011607,
                47.872749999876575
              ],
              [
                -121.99063700011607,
                47.87299100016305
              ],
              [
                -121.99063700011607,
                47.87318600003701
              ],
              [
                -121.99063700011607,
                47.87338399994625
              ],
              [
                -121.99064100031404,
                47.87346300024968
              ],
              [
                -121.99062700007033,
                47.87376099999759
              ],
              [
                -121.9906170000246,
                47.87385900020749
              ],
              [
                -121.9906110001768,
                47.87405000005939
              ],
              [
                -121.99062700007033,
                47.87425000015926
              ],
              [
                -121.99073500002537,
                47.87556200023096
              ],
              [
                -121.99073500002537,
                47.8756669997259
              ],
              [
                -121.990858000049,
                47.87570099970041
              ],
              [
                -121.99091400012551,
                47.875612000074376
              ],
              [
                -121.99414299980417,
                47.87643199978105
              ],
              [
                -121.99615300001531,
                47.87714399991933
              ],
              [
                -121.99666000017851,
                47.87732400014134
              ],
              [
                -121.997149999725,
                47.877578000113814
              ],
              [
                -121.99636700027557,
                47.87756400006714
              ],
              [
                -121.99640499991041,
                47.87813400002944
              ],
              [
                -121.996348000009,
                47.87813599975608
              ],
              [
                -121.99635899987965,
                47.87829999997673
              ],
              [
                -121.99661999999556,
                47.878291999889846
              ],
              [
                -121.99671200005706,
                47.87966099994069
              ],
              [
                -121.99605400028112,
                47.87968100022961
              ],
              [
                -121.9959179998387,
                47.87968600030062
              ],
              [
                -121.9958219995792,
                47.879696999973184
              ],
              [
                -121.99583300034818,
                47.87976899996316
              ],
              [
                -121.99583900019597,
                47.87990700006593
              ],
              [
                -121.99583699964785,
                47.88001000013878
              ],
              [
                -121.99582499995226,
                47.88014599995055
              ],
              [
                -121.99580700040892,
                47.88025000027452
              ],
              [
                -121.99578700031745,
                47.88046499992893
              ],
              [
                -121.99577100042389,
                47.880564999744394
              ],
              [
                -121.99575600035531,
                47.88095299997243
              ],
              [
                -121.99599499983157,
                47.88096699970587
              ],
              [
                -121.99621300028979,
                47.88101199981315
              ],
              [
                -121.99630700000111,
                47.88104999972599
              ],
              [
                -121.99650100016987,
                47.881146999900444
              ],
              [
                -121.99657099959177,
                47.88120000009293
              ],
              [
                -121.99670399966114,
                47.88132700007205
              ],
              [
                -121.9967980002708,
                47.88147000014083
              ],
              [
                -121.99685900037015,
                47.881711999728694
              ],
              [
                -121.99687899956334,
                47.882028000037955
              ],
              [
                -121.99688600013434,
                47.882121999925744
              ],
              [
                -121.99689000033229,
                47.882181000242475
              ],
              [
                -121.99688799978415,
                47.8823379997266
              ],
              [
                -121.99685900037015,
                47.882492000300935
              ],
              [
                -121.99682199966192,
                47.882644999737494
              ],
              [
                -121.99680099974555,
                47.88280599992059
              ],
              [
                -121.9968140001643,
                47.882965000063095
              ],
              [
                -121.99685500017218,
                47.883123999717554
              ],
              [
                -121.99690600022583,
                47.88326999984196
              ],
              [
                -121.99694100038592,
                47.883420999867795
              ],
              [
                -121.99695899992926,
                47.88357600029433
              ],
              [
                -121.99696399995213,
                47.88370099975633
              ],
              [
                -121.99697099962485,
                47.88384900017041
              ],
              [
                -121.99695800010434,
                47.883927000128885
              ],
              [
                -121.99690899970055,
                47.8840979998355
              ],
              [
                -121.9968409999285,
                47.8842450002735
              ],
              [
                -121.99674999969189,
                47.884473000164434
              ],
              [
                -121.99672700012567,
                47.88454300006174
              ],
              [
                -121.99672600030078,
                47.88456200023267
              ],
              [
                -121.99670899968402,
                47.88497600029308
              ],
              [
                -122.00175599995319,
                47.885040999956914
              ],
              [
                -122.00314500019833,
                47.88505999994518
              ],
              [
                -122.01062000025513,
                47.885163000014025
              ],
              [
                -122.01093599972428,
                47.88515899989817
              ],
              [
                -122.01184899976838,
                47.88582499986661
              ],
              [
                -122.01218400040246,
                47.885976000275896
              ],
              [
                -122.01240500033536,
                47.88610600002432
              ],
              [
                -122.01259699995602,
                47.88623400003244
              ]
            ]
          ],
          [
            [
              [
                -121.93529300010228,
                47.877827999966726
              ],
              [
                -121.93510700032944,
                47.87767500016141
              ],
              [
                -121.93463799980104,
                47.87728899984589
              ],
              [
                -121.93454800028769,
                47.87721899978658
              ],
              [
                -121.93451999980029,
                47.87719699998942
              ],
              [
                -121.93318099978386,
                47.87786999988149
              ],
              [
                -121.93350399982405,
                47.87786299989807
              ],
              [
                -121.9348450003886,
                47.87783700029562
              ],
              [
                -121.93529300010228,
                47.877827999966726
              ]
            ]
          ],
          [
            [
              [
                -121.94775099995583,
                47.872331999824766
              ],
              [
                -121.94772400019163,
                47.8723030002309
              ],
              [
                -121.94769300022949,
                47.87227099978756
              ],
              [
                -121.9476279999322,
                47.87221099995751
              ],
              [
                -121.94752099980205,
                47.872093000048885
              ],
              [
                -121.94747700031945,
                47.872027999805724
              ],
              [
                -121.94745499967982,
                47.87195999983489
              ],
              [
                -121.94742899974055,
                47.87182400022814
              ],
              [
                -121.94744100033445,
                47.871757999962476
              ],
              [
                -121.9474949998628,
                47.87162500009389
              ],
              [
                -121.94734099987699,
                47.87160000006236
              ],
              [
                -121.94721799985335,
                47.8715989997716
              ],
              [
                -121.94718100004343,
                47.8715989997716
              ],
              [
                -121.94694800041493,
                47.87161199993435
              ],
              [
                -121.94671999991097,
                47.871638999937545
              ],
              [
                -121.94638600000016,
                47.87168199973501
              ],
              [
                -121.94610999981562,
                47.87171900017684
              ],
              [
                -121.94597699974624,
                47.87173400028327
              ],
              [
                -121.94576000001125,
                47.87205599987412
              ],
              [
                -121.94548700019978,
                47.872540999970866
              ],
              [
                -121.94688800014046,
                47.87254400018591
              ],
              [
                -121.94775099995583,
                47.872331999824766
              ]
            ]
          ],
          [
            [
              [
                -121.95094199999964,
                47.87576900018502
              ],
              [
                -121.9509450003727,
                47.87547099993414
              ],
              [
                -121.95093600015186,
                47.874338000079135
              ],
              [
                -121.95093600015186,
                47.87331099986387
              ],
              [
                -121.95036299986643,
                47.873312000121544
              ],
              [
                -121.94832300041635,
                47.87331299977671
              ],
              [
                -121.94832900026414,
                47.87373599979143
              ],
              [
                -121.94833699976172,
                47.87443899990571
              ],
              [
                -121.94834099995973,
                47.87535999993844
              ],
              [
                -121.94834099995973,
                47.87543999985613
              ],
              [
                -121.94834099995973,
                47.875458999750656
              ],
              [
                -121.94834199978462,
                47.875491000032966
              ],
              [
                -121.94834799963238,
                47.875681000285205
              ],
              [
                -121.94835100000546,
                47.8757619999177
              ],
              [
                -121.94865800015211,
                47.8757630001281
              ],
              [
                -121.94883600042733,
                47.8757649999463
              ],
              [
                -121.94896199992574,
                47.875767999974734
              ],
              [
                -121.94906499985791,
                47.8757649999463
              ],
              [
                -121.95022599959907,
                47.8757649999463
              ],
              [
                -121.95029300044452,
                47.875766000156645
              ],
              [
                -121.95044400005727,
                47.875771000002985
              ],
              [
                -121.95063300020315,
                47.87576900018502
              ],
              [
                -121.95077700014322,
                47.875792000195794
              ],
              [
                -121.95094199999964,
                47.87576900018502
              ]
            ]
          ]
        ]
      },
      "properties": {
        "AREALAND": "16509978",
        "AREAWATER": "156304",
        "BASENAME": "Monroe",
        "CBSAPCI": "N",
        "CENTLAT": "+47.8604296",
        "CENTLON": "-121.9858646",
        "FUNCSTAT": "A",
        "GEOID": "5346685",
        "INTPTLAT": "+47.8597925",
        "INTPTLON": "-121.9840060",
        "LSADC": "25",
        "MTFCC": "G4110",
        "NAME": "Monroe city",
        "NECTAPCI": "N",
        "OBJECTID": 26764,
        "OID": "27890921610446",
        "PLACE": "46685",
        "PLACECC": "C1",
        "PLACENS": "02411137",
        "STATE": "53",
        "DISP_CLR": 1,
        "slug": "monroe",
        "jurisdiction_key": "monroe_city",
        "county_fips": [
          "53061"
        ]
      }
    }
  ]
}
