{"type":"FeatureCollection","features":[{"type":"Feature","geometry":{"type":"Polygon","coordinates":[[[-120.71085499981422,46.73996299999575],[-120.7107820000193,46.73483799997794],[-120.71079500043808,46.73354200023647],[-120.71079399971485,46.733467000130425],[-120.71079399971485,46.73343499977428],[-120.71073900036158,46.73342899978236],[-120.71056000026144,46.73341099980262],[-120.71023200019836,46.7333559999298],[-120.70972800040822,46.73322199996014],[-120.70939299977417,46.73313300017302],[-120.70906700025922,46.733029999744886],[-120.7086270000432,46.732892999862884],[-120.70828800010946,46.73278799977618],[-120.70680099995504,46.732291000121975],[-120.70670399987065,46.73227400029561],[-120.70634200037071,46.73213300004423],[-120.70558300031244,46.73187399979233],[-120.70540500003722,46.731796999976815],[-120.70540500003722,46.73178600017012],[-120.70540300038738,46.73094599990811],[-120.70560199968071,46.730990999748016],[-120.70566299978007,46.73100400021473],[-120.70596300025403,46.731136000276685],[-120.70603900042202,46.731162999843725],[-120.70615300022483,46.73120299981599],[-120.70622600001978,46.73122900002835],[-120.70626500037784,46.73115299984602],[-120.70630399983757,46.73104999994649],[-120.70630999968536,46.73102899996671],[-120.70634300019563,46.730953000118284],[-120.70635599971611,46.73090000008769],[-120.7063619995639,46.73088099993624],[-120.70640199974687,46.730784999749204],[-120.70648100028791,46.73061199973121],[-120.7063909998762,46.730599999734295],[-120.7055740000916,46.730476999765905],[-120.70568700006953,46.73022599982618],[-120.70544400039527,46.730155999818656],[-120.70544100002222,46.729812000044895],[-120.70543900037241,46.72968299971801],[-120.70558900016023,46.729725000101766],[-120.70565299973431,46.72974300008026],[-120.70584600007817,46.72979699997979],[-120.7059110003755,46.72981499993426],[-120.70607700005685,46.729861000064346],[-120.70657699964904,46.730000000178805],[-120.70674400005363,46.73004700010991],[-120.70684199996293,46.7300740002221],[-120.70713599969079,46.73015499986188],[-120.70723399960006,46.73018299987634],[-120.70789599957398,46.730367000137235],[-120.7080720001994,46.73041600026823],[-120.70806899982634,46.730359999851004],[-120.70797500011504,46.728668999879474],[-120.70797099991707,46.728592999784325],[-120.70794900017574,46.72817399981654],[-120.70677400019085,46.727231000147285],[-120.70678400023661,46.72771100021386],[-120.7067850000615,46.727772999692895],[-120.70680599997793,46.7287600002252],[-120.70642600003629,46.7287600002252],[-120.70641599999058,46.72874499986754],[-120.70642900040934,46.72833599975499],[-120.70640400029501,46.72758399979722],[-120.70350100013127,46.72759199983227],[-120.70264099979065,46.72758899981927],[-120.70261700039951,46.72701399978637],[-120.70261800022443,46.726857000277825],[-120.70009099980433,46.72686799985819],[-120.70005399999441,46.72654399991356],[-120.70005099962135,46.72651699988164],[-120.70004599959849,46.7265050002052],[-120.69998600022235,46.72636699973194],[-120.69998500039743,46.72635099991301],[-120.69996699995578,46.72585300002098],[-120.6999619999329,46.725686999856414],[-120.69995199988713,46.72540600030539],[-120.69992199974992,46.724563000259614],[-120.69991500007724,46.72434300005681],[-120.69991300042743,46.7242829998458],[-120.69990900022945,46.72418299996163],[-120.69990400020659,46.72402799974402],[-120.69974500019791,46.72397100001287],[-120.69929400011122,46.72403999997142],[-120.69899500036048,46.72406700001153],[-120.69841500040233,46.72401899972562],[-120.69754800038902,46.72397400022709],[-120.69667200015488,46.72397899996793],[-120.69589600037816,46.724060000139254],[-120.69538199964394,46.72454100015654],[-120.69492399988454,46.72492299988783],[-120.69445500025448,46.724906000202324],[-120.69345299962363,46.724430000059535],[-120.69313899980428,46.72434799976351],[-120.69248699987612,46.72434799976351],[-120.69169000018302,46.72414900011888],[-120.69158499970271,46.72412300018846],[-120.69089900033767,46.724080000299686],[-120.69037100025807,46.72409700024548],[-120.68778699993656,46.72259399984216],[-120.68732300032937,46.72251299993296],[-120.68703299990115,46.722399999772904],[-120.68636699972927,46.72186899980262],[-120.68620799972064,46.72170999987334],[-120.68581500025856,46.7214129998774],[-120.68563000031065,46.72131300021587],[-120.68517199965292,46.721029999799725],[-120.68495800029099,46.72086300006107],[-120.68477199961983,46.72071899976083],[-120.6846999996498,46.72072700019814],[-120.68437199958674,46.72073899992814],[-120.6843530002185,46.72077199994166],[-120.6842560001341,46.72094100021722],[-120.68389799993383,46.720728999845385],[-120.68385500027613,46.72070499976241],[-120.68398300032263,46.720482000046374],[-120.6839670004291,46.719068999835166],[-120.68396099968302,46.71837599992084],[-120.68395099963726,46.717493000011196],[-120.68394999981237,46.7173590000483],[-120.68366699995514,46.71737699984205],[-120.68291700011768,46.71742700026411],[-120.68252100028258,46.717465999760506],[-120.68238099964218,46.717465999760506],[-120.682101000158,46.71722499975263],[-120.68192000040803,46.717127999698654],[-120.68181599975266,46.71704000003853],[-120.6817560003765,46.716924999713505],[-120.6817200003915,46.71679899997574],[-120.68158099957601,46.716696999972484],[-120.68149400043569,46.71662300005481],[-120.68140900004688,46.71649900003179],[-120.68135299997039,46.716311999865454],[-120.68126000008395,46.71595899974821],[-120.68120700038051,46.71570900022776],[-120.68124300036551,46.71533999985639],[-120.68096399980796,46.71489999970737],[-120.68017700016057,46.71453499971694],[-120.6786499998232,46.714462000161696],[-120.67861499966308,46.71445000026757],[-120.67861800003611,46.714570999950595],[-120.678623000059,46.714777000278296],[-120.67862600043206,46.714951000199584],[-120.67811099987291,46.71467500014854],[-120.67807999991078,46.71472699986443],[-120.67697400042117,46.714289000146486],[-120.67691699962145,46.71435300015265],[-120.67664800000796,46.71465299970883],[-120.67620000029427,46.71515499983888],[-120.67552999992446,46.715905000161726],[-120.67531400001442,46.71614599990601],[-120.67523299982355,46.71623699982087],[-120.67519600001363,46.71627600017733],[-120.67498599995135,46.71615600022226],[-120.6748000001785,46.71604899976014],[-120.67326799981825,46.71516900004547],[-120.6732150001148,46.715260999993085],[-120.67038100044633,46.715209000175875],[-120.67052000036352,46.71547599974773],[-120.6706109997018,46.71564999987882],[-120.66912299972245,46.715651000104494],[-120.66912100007262,46.71503400023345],[-120.6679219997983,46.715036000091686],[-120.6679279996461,46.71706900028533],[-120.66911699987467,46.716833000139225],[-120.66980300013802,46.71768299972832],[-120.66862700032823,46.718114000201254],[-120.66814399955614,46.717585999881756],[-120.66793199984404,46.71735399969395],[-120.66793400039217,46.72071499984961],[-120.66818600028726,46.72071899976083],[-120.6707460003193,46.72075900008804],[-120.67103199965126,46.72074799987786],[-120.67197599965746,46.72071300020185],[-120.67157099960151,46.72045200026557],[-120.67131200003374,46.72031399970403],[-120.67114299997935,46.72017999997242],[-120.67092899971912,46.72005600011731],[-120.67073299990051,46.71990999983319],[-120.67054399975466,46.71980700001935],[-120.67038200027125,46.71974899998987],[-120.67025400022473,46.719657999839114],[-120.66994799990297,46.7193709999691],[-120.66980300013802,46.71921600009113],[-120.6696819997642,46.719132999715136],[-120.66941099960255,46.718895999808595],[-120.67140499992018,46.71888000023733],[-120.67140900011813,46.7200629998932],[-120.67289500044764,46.720087999789314],[-120.67311999968024,46.720104999761354],[-120.67319000000042,46.72010700004751],[-120.67325299974961,46.72010999986076],[-120.67329899978037,46.720121999727986],[-120.67333399994045,46.72016599983419],[-120.6733430001613,46.72025100013362],[-120.67336099970464,46.72034400017743],[-120.67437800040412,46.720346999977544],[-120.67566700019181,46.72034999977745],[-120.67567700023756,46.72080499993505],[-120.67653099983208,46.72082699971414],[-120.67660799982497,46.719945000030116],[-120.67762700017424,46.71997100012649],[-120.67859799994463,46.720533000189775],[-120.6786930003792,46.72058800020584],[-120.67869699967885,46.720880999917654],[-120.67869900022698,46.721223999868556],[-120.67870300042493,46.72174799985647],[-120.67868699963311,46.72187100002339],[-120.67868300033345,46.72188400022493],[-120.67864499980033,46.722012000004995],[-120.67860999964022,46.72209099983795],[-120.67856399960945,46.722232999964056],[-120.67855699993676,46.72225400028928],[-120.67928699968272,46.72254000012149],[-120.67928900023084,46.72265400008417],[-120.67958499960855,46.722769999993446],[-120.67977100027971,46.72283999973306],[-120.68010699984038,46.72301699978678],[-120.68055000042946,46.723207999843915],[-120.68109699987734,46.72344100019094],[-120.68128299965016,46.723496999786086],[-120.68137999973455,46.72353900006007],[-120.68165500009417,46.72366000030012],[-120.68201599976919,46.72384299995415],[-120.68209899960986,46.72393499989233],[-120.68225400031888,46.72401299991783],[-120.6824090001296,46.72412599977842],[-120.68256399994029,46.72426800009051],[-120.68257700035906,46.7242829998458],[-120.68271600027623,46.72444399970708],[-120.68393200026902,46.72441100009216],[-120.68691200042564,46.724330999896814],[-120.6876709995856,46.724310999829434],[-120.68830199959737,46.72531000022634],[-120.68844800008556,46.72553699986184],[-120.68850400016207,46.72562599986788],[-120.6885789996068,46.725744000237604],[-120.68862299998773,46.72585500009404],[-120.68868900010997,46.72589400027234],[-120.68879000039233,46.72595900009631],[-120.68937799984805,46.72635099991301],[-120.68988900020922,46.72632199972882],[-120.6909999997217,46.72672100013018],[-120.69121499980685,46.726546999984684],[-120.69134700005132,46.72660200002765],[-120.69153700002212,46.72667999989166],[-120.69193899970503,46.726627999994854],[-120.69205300040616,46.726614000298255],[-120.6921119999574,46.72653200024312],[-120.69216600038408,46.72740799995696],[-120.69218999977521,46.72779799971097],[-120.69179099956705,46.72781299971623],[-120.69078499963655,46.727860999705065],[-120.68950900026763,46.72792100024685],[-120.6894309995515,46.727924000241394],[-120.68718799971187,46.727985000094364],[-120.68723299991768,46.7280149999967],[-120.68728499979623,46.72808299971365],[-120.68730400006282,46.7281370000436],[-120.6873600001393,46.72829400013695],[-120.68739000027654,46.728372000017345],[-120.68743899978202,46.728497999822714],[-120.68761500040745,46.7285989996985],[-120.68802200011322,46.728809999950585],[-120.6882270001526,46.72887100003306],[-120.68851699968252,46.728955000185174],[-120.68856699991123,46.72896899988991],[-120.68859299985051,46.728973999783584],[-120.68864899992703,46.72898400018529],[-120.68878600019436,46.72901000023589],[-120.68878899966909,46.72907799992994],[-120.68879700006501,46.72929999985567],[-120.68880499956262,46.72958100005737],[-120.68880600028582,46.729620000004715],[-120.6893240003197,46.729606999820135],[-120.68955399957514,46.7296010000181],[-120.68955399957514,46.72961200027042],[-120.68955500029838,46.72964299984996],[-120.68955699994822,46.7297119999425],[-120.69037700010585,46.72971000001242],[-120.69037600028093,46.729597000149695],[-120.69075700004747,46.729597000149695],[-120.69117299997406,46.72959600018255],[-120.69119999973823,46.72961400020411],[-120.69121300015702,46.729762000016855],[-120.69137600036365,46.72976100005277],[-120.69141300017357,46.72979400008941],[-120.69167799958915,46.72999299984494],[-120.69187099993297,46.73012799979024],[-120.69206799957645,46.73024600016348],[-120.69218999977521,46.73031799996177],[-120.69237399989822,46.73039999980311],[-120.69255999967105,46.730472000011524],[-120.69290500035086,46.7305900002479],[-120.69301400013082,46.73061400024355],[-120.69319900007875,46.730618999984735],[-120.69338900004952,46.730641000071905],[-120.6933940000724,46.73066999978126],[-120.69350200002745,46.73137100011451],[-120.69351700009604,46.73146100027904],[-120.69359200043912,46.73145999973072],[-120.69421699970478,46.73145099972086],[-120.69440300037594,46.7314280000309],[-120.69445899955413,46.731416000215546],[-120.69459900019454,46.73138700029157],[-120.6947389999366,46.731343000101106],[-120.69496099969446,46.73138299993988],[-120.6951039998096,46.731381000071785],[-120.69514399999258,46.73138000013772],[-120.69518099980247,46.73138000013772],[-120.69669499972109,46.73135100019438],[-120.69669600044432,46.73144799992248],[-120.69679000015567,46.731445000123934],[-120.69679199980546,46.73156499994005],[-120.69680400039935,46.73201500010511],[-120.69681299972189,46.732299000074626],[-120.69753900016819,46.732305000192234],[-120.69756500010746,46.732896000196604],[-120.6975679995822,46.73294800020789],[-120.69758500019894,46.73330700000709],[-120.69802799988973,46.73351500001327],[-120.69826899991418,46.73351699980222],[-120.69825899986841,46.73402599970952],[-120.6983009997012,46.73402899998016],[-120.69843899979348,46.73404099982984],[-120.69878000027532,46.7340679997897],[-120.69878899959782,46.734185000280384],[-120.69879799981867,46.73432799985132],[-120.69881399971219,46.73456799993222],[-120.69900200003318,46.73456899980718],[-120.70006599968997,46.734577999912425],[-120.7001679997972,46.734578999787196],[-120.70035100009532,46.734581000152396],[-120.70034400042262,46.734717000183885],[-120.70033900039977,46.7348439998131],[-120.70031699976013,46.735344000148956],[-120.70039600030117,46.735344000148956],[-120.70070699974748,46.73534300028836],[-120.70187699970948,46.73534000009082],[-120.70226800042005,46.73534000009082],[-120.70227099989481,46.735455999810334],[-120.70229400035933,46.736264999949135],[-120.70223099971183,46.736264999949135],[-120.70094000027429,46.736268000095265],[-120.700321999783,46.73627100024122],[-120.70029599984375,46.73627100024122],[-120.70024999981298,46.73627100024122],[-120.70025800020889,46.736562000060125],[-120.70027400010243,46.73713799971714],[-120.70027499992734,46.73723800021078],[-120.70027599975226,46.73725900023546],[-120.70028300032327,46.73761399976705],[-120.70031199973724,46.73779600028722],[-120.70025999985874,46.737896999989495],[-120.70030300041475,46.7379109998358],[-120.70060499964023,46.73800199997927],[-120.70083899999196,46.73804000018314],[-120.70107400016859,46.738030000229315],[-120.701271999637,46.73797999981658],[-120.70174500036332,46.737797000102326],[-120.70198600038776,46.73773799989724],[-120.70229500018425,46.737703999979274],[-120.70351299982684,46.73780199979327],[-120.70378300016357,46.7378700000998],[-120.70388600009574,46.73793799970497],[-120.70425000014382,46.738570999809276],[-120.70426299966427,46.738592999730834],[-120.7043060002203,46.73865399983015],[-120.70436099957357,46.73872999990778],[-120.70442500004602,46.73871900028392],[-120.70456899998602,46.73869900001057],[-120.70471499957591,46.73867899972981],[-120.70503699979116,46.73867499991901],[-120.70516200036296,46.73865999985639],[-120.70523299960976,46.738628000119206],[-120.70533499971701,46.738564999773146],[-120.70541400025803,46.73849200010092],[-120.70547299980927,46.73841300027687],[-120.70550799996936,46.73832999988504],[-120.70553499973354,46.73816900022191],[-120.7055449997793,46.73737399969798],[-120.7055459996042,46.73582099987941],[-120.70554700032744,46.734921000203755],[-120.70554700032744,46.73490399997502],[-120.70554700032744,46.734855000227434],[-120.70554700032744,46.734838999847895],[-120.70573700029824,46.73483799997794],[-120.70630600038571,46.73483799997794],[-120.70649700018143,46.73483799997794],[-120.70683000026735,46.73483799997794],[-120.70787899985555,46.73485600009708],[-120.70906800008414,46.73484200007336],[-120.70909499984833,46.7386500000175],[-120.71006200031906,46.738647999803234],[-120.71007700038768,46.740004999761304],[-120.71011199964946,46.74000600015109],[-120.7102349996731,46.739993999781916],[-120.71038399963604,46.73997399998151],[-120.71085499981422,46.73996299999575]]]},"properties":{"AREALAND":"2256744","AREAWATER":"0","BASENAME":"Naches","CBSAPCI":"N","CENTLAT":"+46.7259848","CENTLON":"-120.6912084","FUNCSTAT":"A","GEOID":"5347805","INTPTLAT":"+46.7259848","INTPTLON":"-120.6912084","LSADC":"43","MTFCC":"G4110","NAME":"Naches town","NECTAPCI":"N","OBJECTID":10220,"OID":"27890483243446","PLACE":"47805","PLACECC":"C1","PLACENS":"02413032","STATE":"53","DISP_CLR":3,"slug":"naches","jurisdiction_key":"naches_city","county_fips":["53077"]}}]}
