{"type":"FeatureCollection","features":[{"type":"Feature","geometry":{"type":"MultiPolygon","coordinates":[[[[-122.50653700011382,46.52939000018546],[-122.50652299987013,46.52932499997387],[-122.50648799971003,46.52926200023655],[-122.50643699965639,46.5292050002347],[-122.5064209997629,46.529192999998955],[-122.5063710004325,46.52915799986286],[-122.50629100006654,46.52911999979551],[-122.50620300020297,46.529093999961795],[-122.50611000031658,46.529080999731256],[-122.50582900010916,46.529080999731256],[-122.50117699985019,46.52907499990901],[-122.49665199981281,46.529094999931836],[-122.49643099987989,46.529094999931836],[-122.49580599971591,46.529094999931836],[-122.49577999977664,46.52895800015336],[-122.4958600001426,46.52552900017132],[-122.4958629996173,46.52541699976548],[-122.4905669998261,46.525448999728404],[-122.48421300022585,46.52541300023234],[-122.48118100019069,46.52539600020448],[-122.47572899986555,46.52536500024909],[-122.47563900035217,46.52770900026755],[-122.4754450001834,46.53278799987924],[-122.4754369997875,46.53381100005774],[-122.48402300025505,46.53381100005774],[-122.48400900001134,46.53449900002419],[-122.48380099959887,46.53453299993846],[-122.48379800012417,46.534808999799566],[-122.48378100040571,46.53566700004162],[-122.48564099993074,46.535655999847044],[-122.48584400032031,46.535654000148476],[-122.48716999991795,46.535646000117595],[-122.48830200024513,46.53563999978468],[-122.49019899958007,46.535629000202555],[-122.49026999972516,46.535627999734835],[-122.49028800016684,46.53505699970529],[-122.49034099987027,46.53345799996207],[-122.4916790000618,46.53323699978112],[-122.49247499993001,46.533111000038836],[-122.49285999989445,46.53305500026553],[-122.49325099970672,46.533007000237305],[-122.49364499989201,46.532968999772905],[-122.49423800026895,46.53293000000044],[-122.4948330002957,46.53291199995341],[-122.49839300041046,46.53291399975295],[-122.50092999997798,46.53291600017036],[-122.50093400017593,46.53455799977097],[-122.50608400037731,46.53453799990589],[-122.50624599986072,46.534536000166156],[-122.50633399972422,46.53453500029628],[-122.50634200012014,46.53341800003233],[-122.50634399977,46.53318999980845],[-122.50632200002867,46.53292100028667],[-122.50644699970215,46.53274000023304],[-122.5063930001738,46.53178000025396],[-122.50640200039463,46.53156199981672],[-122.50640599969425,46.53146500024238],[-122.50653700011382,46.52939000018546]]],[[[-122.47344500001799,46.5282130000235],[-122.4732199998871,46.5279330000497],[-122.47316999965838,46.52785400004985],[-122.47246099982881,46.52811999998258],[-122.47275100025703,46.52847900005228],[-122.47344500001799,46.5282130000235]]]]},"properties":{"AREALAND":"1942335","AREAWATER":"0","BASENAME":"Mossyrock","CBSAPCI":"N","CENTLAT":"+46.5302238","CENTLON":"-122.4890572","FUNCSTAT":"A","GEOID":"5347315","INTPTLAT":"+46.5302238","INTPTLON":"-122.4890572","LSADC":"25","MTFCC":"G4110","NAME":"Mossyrock city","NECTAPCI":"N","OBJECTID":8700,"OID":"27890932748905","PLACE":"47315","PLACECC":"C1","PLACENS":"02411175","STATE":"53","DISP_CLR":2,"slug":"mossyrock","jurisdiction_key":"mossyrock_city","county_fips":["53041"]}}]}
