{
  "type": "FeatureCollection",
  "features": [
    {
      "type": "Feature",
      "geometry": {
        "type": "MultiPolygon",
        "coordinates": [
          [
            [
              [
                -122.36086899997797,
                48.42430800004537
              ],
              [
                -122.36087700037388,
                48.42254300011431
              ],
              [
                -122.3608630001302,
                48.42074799975191
              ],
              [
                -122.36041600024143,
                48.4207440000354
              ],
              [
                -122.357759000125,
                48.420719999940985
              ],
              [
                -122.35773700038368,
                48.42168300012507
              ],
              [
                -122.35720199973309,
                48.42168600000615
              ],
              [
                -122.35721900034983,
                48.42249400007879
              ],
              [
                -122.3566770000265,
                48.422501999832356
              ],
              [
                -122.35450199995891,
                48.422536999857016
              ],
              [
                -122.35448299969234,
                48.421625000203754
              ],
              [
                -122.35395499961274,
                48.42163099997258
              ],
              [
                -122.35359700031077,
                48.42165000022937
              ],
              [
                -122.35353200001346,
                48.42165300011235
              ],
              [
                -122.3524719996563,
                48.42166899988289
              ],
              [
                -122.3524509997399,
                48.42167000024095
              ],
              [
                -122.35245300028804,
                48.42151100028889
              ],
              [
                -122.35246199961053,
                48.420809000010564
              ],
              [
                -122.35238100031802,
                48.42081100016442
              ],
              [
                -122.35171099994818,
                48.42082299989347
              ],
              [
                -122.3514880003654,
                48.420827999978435
              ],
              [
                -122.35125800021163,
                48.42083200028457
              ],
              [
                -122.3505710001234,
                48.420844999786816
              ],
              [
                -122.35034199979454,
                48.420849999869624
              ],
              [
                -122.35019500037976,
                48.42085499995198
              ],
              [
                -122.35005700028749,
                48.420860000033805
              ],
              [
                -122.3500849998766,
                48.42068600023498
              ],
              [
                -122.35009800029539,
                48.42006599971417
              ],
              [
                -122.35010099977009,
                48.41992500002305
              ],
              [
                -122.35011099981585,
                48.419409000000705
              ],
              [
                -122.35014199977799,
                48.41760599993574
              ],
              [
                -122.35020000040264,
                48.414039000118734
              ],
              [
                -122.35021899977089,
                48.41363099980294
              ],
              [
                -122.35022100031902,
                48.41343899988934
              ],
              [
                -122.35039000037341,
                48.41343600011785
              ],
              [
                -122.35049699960523,
                48.41343899988934
              ],
              [
                -122.3506559996139,
                48.41345100016602
              ],
              [
                -122.35091900027794,
                48.413485999863774
              ],
              [
                -122.35105599964696,
                48.41350700002861
              ],
              [
                -122.35112699979209,
                48.41351900028924
              ],
              [
                -122.35183599962164,
                48.41368199987237
              ],
              [
                -122.35250500016656,
                48.41381099999507
              ],
              [
                -122.35287099986444,
                48.413867000057415
              ],
              [
                -122.35286900021464,
                48.413680999953336
              ],
              [
                -122.3528669996665,
                48.41345100016602
              ],
              [
                -122.35286500001666,
                48.41316600028245
              ],
              [
                -122.35286400019177,
                48.41299099985526
              ],
              [
                -122.35286400019177,
                48.412647999751194
              ],
              [
                -122.35286599984158,
                48.411839999996864
              ],
              [
                -122.3528669996665,
                48.41161799990729
              ],
              [
                -122.35286800038972,
                48.4112760000482
              ],
              [
                -122.35287099986444,
                48.411059999705266
              ],
              [
                -122.35288199973509,
                48.41041299971379
              ],
              [
                -122.3528859999331,
                48.41019799986659
              ],
              [
                -122.35299899991097,
                48.41019999984162
              ],
              [
                -122.35313500035342,
                48.41020299980403
              ],
              [
                -122.35319800010261,
                48.41020499977887
              ],
              [
                -122.35332299977607,
                48.410203999791456
              ],
              [
                -122.35334100021772,
                48.410203999791456
              ],
              [
                -122.35340399996694,
                48.410203999791456
              ],
              [
                -122.35343699957889,
                48.40955000023688
              ],
              [
                -122.35357600039438,
                48.40954900023658
              ],
              [
                -122.35436700023972,
                48.40955700023835
              ],
              [
                -122.35436300004174,
                48.40976099985794
              ],
              [
                -122.3551460003895,
                48.4097599998618
              ],
              [
                -122.35516099955979,
                48.409525000223795
              ],
              [
                -122.35520599976563,
                48.408854000050425
              ],
              [
                -122.3552619998421,
                48.406399000130776
              ],
              [
                -122.3559360004099,
                48.40639100022857
              ],
              [
                -122.35593399986176,
                48.40614100011577
              ],
              [
                -122.3559079999225,
                48.4028410001059
              ],
              [
                -122.35455499966237,
                48.40283700017333
              ],
              [
                -122.35455399983748,
                48.40253200006351
              ],
              [
                -122.3545499996395,
                48.401296999773216
              ],
              [
                -122.35454899981458,
                48.40097200017494
              ],
              [
                -122.35717400014398,
                48.40097900016434
              ],
              [
                -122.35722299964945,
                48.400979999736734
              ],
              [
                -122.35722099999964,
                48.400606000240785
              ],
              [
                -122.35722099999964,
                48.40047500025665
              ],
              [
                -122.35721500015188,
                48.40018999981331
              ],
              [
                -122.35720000008324,
                48.399388000131815
              ],
              [
                -122.35719599988529,
                48.39914600003963
              ],
              [
                -122.35184400001756,
                48.39915800011073
              ],
              [
                -122.35183399997183,
                48.40047500025665
              ],
              [
                -122.35182499975099,
                48.40173200004139
              ],
              [
                -122.35181899990322,
                48.40247499990273
              ],
              [
                -122.3517689996745,
                48.409275000012975
              ],
              [
                -122.3517689996745,
                48.40928700007981
              ],
              [
                -122.35176600019977,
                48.409401999980254
              ],
              [
                -122.35175699997893,
                48.409870999909494
              ],
              [
                -122.35175199995606,
                48.4099819997149
              ],
              [
                -122.35174899958301,
                48.410088999915764
              ],
              [
                -122.35174699993318,
                48.41020199981658
              ],
              [
                -122.35165099967371,
                48.41020199981658
              ],
              [
                -122.35134299970215,
                48.410203999791456
              ],
              [
                -122.35085700035366,
                48.41020499977887
              ],
              [
                -122.3502199995958,
                48.410206999753626
              ],
              [
                -122.34997000024887,
                48.4102089997283
              ],
              [
                -122.34940100016136,
                48.41019799986659
              ],
              [
                -122.34891599973949,
                48.41018899997801
              ],
              [
                -122.34866800004237,
                48.410184000039195
              ],
              [
                -122.3479240000527,
                48.4101690002198
              ],
              [
                -122.34767600035558,
                48.41016500026723
              ],
              [
                -122.34768300002827,
                48.41010199977994
              ],
              [
                -122.34768399985319,
                48.410082999977384
              ],
              [
                -122.34768600040131,
                48.41006100019706
              ],
              [
                -122.34768899987606,
                48.41000700009967
              ],
              [
                -122.3476980000969,
                48.409884999823106
              ],
              [
                -122.34769700027198,
                48.40985899998048
              ],
              [
                -122.34769399989892,
                48.40983900009253
              ],
              [
                -122.34768399985319,
                48.40975899986564
              ],
              [
                -122.34766999960947,
                48.409625000202475
              ],
              [
                -122.3476289996016,
                48.40922599971074
              ],
              [
                -122.3476160000811,
                48.40909299984496
              ],
              [
                -122.34761000023333,
                48.40888199983744
              ],
              [
                -122.34760900040841,
                48.40883399976721
              ],
              [
                -122.34751300014894,
                48.40856499996379
              ],
              [
                -122.34740099999595,
                48.40828899975501
              ],
              [
                -122.34737900025463,
                48.40823300010893
              ],
              [
                -122.34731599960713,
                48.40809699994491
              ],
              [
                -122.3473059995614,
                48.40795599985569
              ],
              [
                -122.34731499978224,
                48.40776199991014
              ],
              [
                -122.34733800024676,
                48.40760800018265
              ],
              [
                -122.34737300040688,
                48.4074789998274
              ],
              [
                -122.3475929996166,
                48.406921000124555
              ],
              [
                -122.34759799963946,
                48.406890000292854
              ],
              [
                -122.34758900031694,
                48.40681399981752
              ],
              [
                -122.34757500007323,
                48.40669000011642
              ],
              [
                -122.34755699963156,
                48.40663000026796
              ],
              [
                -122.34749399988237,
                48.40649900029314
              ],
              [
                -122.34718000006302,
                48.406500999817304
              ],
              [
                -122.34624000025477,
                48.40650700017836
              ],
              [
                -122.34592700026035,
                48.40650999976228
              ],
              [
                -122.3458750003818,
                48.40650999976228
              ],
              [
                -122.34571999967278,
                48.40651299994237
              ],
              [
                -122.34566899961916,
                48.40651400000236
              ],
              [
                -122.34563600000719,
                48.40651400000236
              ],
              [
                -122.34553899992282,
                48.40651400000236
              ],
              [
                -122.34550700013577,
                48.40651500006233
              ],
              [
                -122.34542500011999,
                48.40651500006233
              ],
              [
                -122.34518200044573,
                48.40651600012228
              ],
              [
                -122.34507399959242,
                48.40651600012228
              ],
              [
                -122.34500900019339,
                48.40651500006233
              ],
              [
                -122.34493800004827,
                48.40651299994237
              ],
              [
                -122.34493600039846,
                48.406373000294906
              ],
              [
                -122.34493499967522,
                48.40630999988053
              ],
              [
                -122.34493399985033,
                48.40620999994289
              ],
              [
                -122.34490899973595,
                48.4047459997904
              ],
              [
                -122.34490100023835,
                48.404465999923715
              ],
              [
                -122.34483900031408,
                48.40332300011643
              ],
              [
                -122.3448190002226,
                48.402960999726375
              ],
              [
                -122.33635199958073,
                48.403119999845934
              ],
              [
                -122.33636699964933,
                48.402955000139734
              ],
              [
                -122.3363929995886,
                48.40268900006102
              ],
              [
                -122.33724700008142,
                48.39392099974955
              ],
              [
                -122.33746499964131,
                48.392064000117806
              ],
              [
                -122.33816000012548,
                48.384809000167756
              ],
              [
                -122.33801799983529,
                48.38480800027759
              ],
              [
                -122.33784999960578,
                48.38480800027759
              ],
              [
                -122.33627200011308,
                48.38481099994793
              ],
              [
                -122.33596099976846,
                48.38481199983799
              ],
              [
                -122.33574700040656,
                48.38481199983799
              ],
              [
                -122.33571700026931,
                48.38451099982441
              ],
              [
                -122.33568799995697,
                48.38421400002448
              ],
              [
                -122.33567500043652,
                48.384142999787485
              ],
              [
                -122.33563199988049,
                48.38400300002162
              ],
              [
                -122.33557900017703,
                48.38388799996842
              ],
              [
                -122.33553899999409,
                48.383823999836686
              ],
              [
                -122.3354970001613,
                48.38375599998141
              ],
              [
                -122.33542900038921,
                48.38367400007017
              ],
              [
                -122.33537499996255,
                48.38360899975563
              ],
              [
                -122.33535499987104,
                48.383589000284694
              ],
              [
                -122.33531399986317,
                48.383550000040806
              ],
              [
                -122.3352710002055,
                48.383510999767054
              ],
              [
                -122.33522699982454,
                48.38347399989272
              ],
              [
                -122.33521199975591,
                48.383466999881236
              ],
              [
                -122.33520300043341,
                48.38345600020215
              ],
              [
                -122.33515400002962,
                48.383421000122645
              ],
              [
                -122.33510299997597,
                48.38338799985519
              ],
              [
                -122.33505000027253,
                48.383356000081626
              ],
              [
                -122.33499599984586,
                48.383326000126516
              ],
              [
                -122.33496700043186,
                48.383310000222764
              ],
              [
                -122.3348219997686,
                48.38323999983892
              ],
              [
                -122.33428199999342,
                48.38302800004951
              ],
              [
                -122.3340419997939,
                48.38293399984346
              ],
              [
                -122.33384599997534,
                48.382857000040396
              ],
              [
                -122.33325799962127,
                48.38262599993227
              ],
              [
                -122.33316300008502,
                48.38258900001126
              ],
              [
                -122.3330469997341,
                48.38272700022476
              ],
              [
                -122.33279700038713,
                48.38300900027576
              ],
              [
                -122.33270000030275,
                48.38311899971551
              ],
              [
                -122.33233200005672,
                48.383506000188724
              ],
              [
                -122.3321200003446,
                48.38376600028164
              ],
              [
                -122.33193000037383,
                48.38403200026896
              ],
              [
                -122.3317549995733,
                48.384305999856494
              ],
              [
                -122.33167099990773,
                48.38444099989906
              ],
              [
                -122.33154000038648,
                48.384658999724515
              ],
              [
                -122.33149699983045,
                48.38473200021814
              ],
              [
                -122.33146900024137,
                48.38478499981632
              ],
              [
                -122.33135000041568,
                48.38478399992572
              ],
              [
                -122.33122999986675,
                48.38478399992572
              ],
              [
                -122.33115600024692,
                48.38478399992572
              ],
              [
                -122.3309009999788,
                48.38478399992572
              ],
              [
                -122.33087199966648,
                48.38478499981632
              ],
              [
                -122.3307529998408,
                48.38478999986561
              ],
              [
                -122.3303179996476,
                48.384785999706885
              ],
              [
                -122.32956199996237,
                48.38478700019404
              ],
              [
                -122.32668200026318,
                48.38479400002399
              ],
              [
                -122.32625299991778,
                48.38478999986561
              ],
              [
                -122.32621600010785,
                48.38657899981285
              ],
              [
                -122.32586700012838,
                48.38657799995746
              ],
              [
                -122.32743600029858,
                48.38829100017611
              ],
              [
                -122.32735099990975,
                48.38888899981072
              ],
              [
                -122.32703899974022,
                48.389448000273134
              ],
              [
                -122.32674900021031,
                48.38987499974022
              ],
              [
                -122.3265569996914,
                48.390116000003495
              ],
              [
                -122.32652099970637,
                48.39020400017157
              ],
              [
                -122.32640899955337,
                48.39020400017157
              ],
              [
                -122.32604600022853,
                48.392014000187494
              ],
              [
                -122.326170999902,
                48.39201799977812
              ],
              [
                -122.32638500016223,
                48.392024999806566
              ],
              [
                -122.32638599998715,
                48.3921860001949
              ],
              [
                -122.32638500016223,
                48.39256799984502
              ],
              [
                -122.32643299984282,
                48.39296100021952
              ],
              [
                -122.3265280002774,
                48.393222999776974
              ],
              [
                -122.32656400026241,
                48.3936269997336
              ],
              [
                -122.32650999983572,
                48.3937700002031
              ],
              [
                -122.32639100001002,
                48.39412100003115
              ],
              [
                -122.32631599966697,
                48.39450100007046
              ],
              [
                -122.32634599980418,
                48.39459800007633
              ],
              [
                -122.32648700026951,
                48.39497600015479
              ],
              [
                -122.32647499967561,
                48.39512900026865
              ],
              [
                -122.32645100028448,
                48.39515600017083
              ],
              [
                -122.32645100028448,
                48.395560999966186
              ],
              [
                -122.32648600044462,
                48.39566000028739
              ],
              [
                -122.32650900001083,
                48.39584000026939
              ],
              [
                -122.32653300030024,
                48.396110000241265
              ],
              [
                -122.32652699955416,
                48.39662099984681
              ],
              [
                -122.32590999978609,
                48.39663499982912
              ],
              [
                -122.3259020002885,
                48.39719399989494
              ],
              [
                -122.32589800009052,
                48.39745699996186
              ],
              [
                -122.32512200031383,
                48.39802599982635
              ],
              [
                -122.32493399999284,
                48.39816399993307
              ],
              [
                -122.32463400041719,
                48.39838399986512
              ],
              [
                -122.32345100003637,
                48.39833799987125
              ],
              [
                -122.32353999972482,
                48.39849799974848
              ],
              [
                -122.32357499988493,
                48.39857100007326
              ],
              [
                -122.32370200010654,
                48.398832999967716
              ],
              [
                -122.32377400007657,
                48.39895900015581
              ],
              [
                -122.32381599990937,
                48.39903300002616
              ],
              [
                -122.32400599988017,
                48.39932699981782
              ],
              [
                -122.32408600024613,
                48.39944999997512
              ],
              [
                -122.32415900004105,
                48.39961499971903
              ],
              [
                -122.32416499988881,
                48.39962799987488
              ],
              [
                -122.32420900026976,
                48.399764000021904
              ],
              [
                -122.3243530002098,
                48.40007399976994
              ],
              [
                -122.32437199957806,
                48.40011200028629
              ],
              [
                -122.32443000020267,
                48.40022299992128
              ],
              [
                -122.3244610001648,
                48.40027000018266
              ],
              [
                -122.32450600037065,
                48.40041800017644
              ],
              [
                -122.32456300027208,
                48.400599000200096
              ],
              [
                -122.32461699980043,
                48.40073200021228
              ],
              [
                -122.32465600015848,
                48.400857999871675
              ],
              [
                -122.32468799994555,
                48.40095700002406
              ],
              [
                -122.3246920001435,
                48.400983999815345
              ],
              [
                -122.32454800020345,
                48.40098499998405
              ],
              [
                -122.32389000042753,
                48.40098900006227
              ],
              [
                -122.32385000024455,
                48.40099000023087
              ],
              [
                -122.3237690000537,
                48.40099000023087
              ],
              [
                -122.3237690000537,
                48.40105599998381
              ],
              [
                -122.32376800022878,
                48.401169000274734
              ],
              [
                -122.32130699993091,
                48.401096000099656
              ],
              [
                -122.31995799986876,
                48.401058999889266
              ],
              [
                -122.31950900033019,
                48.40104600009906
              ],
              [
                -122.31919299996268,
                48.401042000025335
              ],
              [
                -122.31919100031287,
                48.40091900013899
              ],
              [
                -122.31923399997058,
                48.39976299982919
              ],
              [
                -122.31925200041225,
                48.399290000109964
              ],
              [
                -122.31860600033188,
                48.39927699986768
              ],
              [
                -122.31835299971357,
                48.399273000251235
              ],
              [
                -122.31819600025304,
                48.39926900003808
              ],
              [
                -122.3181739996134,
                48.400051999834716
              ],
              [
                -122.31817199996358,
                48.40009399991972
              ],
              [
                -122.31836399958421,
                48.40029399979182
              ],
              [
                -122.3177769999534,
                48.400783000097825
              ],
              [
                -122.3177150000291,
                48.40083500010384
              ],
              [
                -122.31762399979252,
                48.40091200014133
              ],
              [
                -122.3153499999907,
                48.402788999765036
              ],
              [
                -122.31741499955514,
                48.40283099997568
              ],
              [
                -122.31767800021917,
                48.40283600004104
              ],
              [
                -122.31767700039426,
                48.40284799983811
              ],
              [
                -122.31767599967102,
                48.40289699972549
              ],
              [
                -122.31767499984613,
                48.40291599982732
              ],
              [
                -122.31747700037772,
                48.403186999942555
              ],
              [
                -122.31741499955514,
                48.40324500002607
              ],
              [
                -122.31719100014746,
                48.40346200028674
              ],
              [
                -122.31710199956069,
                48.40354899991689
              ],
              [
                -122.3169629996435,
                48.40371000021779
              ],
              [
                -122.31691699961276,
                48.40374600017461
              ],
              [
                -122.31688099962776,
                48.403799999763876
              ],
              [
                -122.31683600032022,
                48.403960999866605
              ],
              [
                -122.31685700023662,
                48.40408699987678
              ],
              [
                -122.31688800019876,
                48.40417900016031
              ],
              [
                -122.31692300035886,
                48.40434799988456
              ],
              [
                -122.3168560004117,
                48.40450500024036
              ],
              [
                -122.31575599987157,
                48.40548099970991
              ],
              [
                -122.31531599965554,
                48.40578800017531
              ],
              [
                -122.31510599959323,
                48.40590900007107
              ],
              [
                -122.31501699990477,
                48.40596000013307
              ],
              [
                -122.31496800039928,
                48.40629799970756
              ],
              [
                -122.31495800035353,
                48.406392999756974
              ],
              [
                -122.31461400039696,
                48.40638800004128
              ],
              [
                -122.31448399980232,
                48.406385999916324
              ],
              [
                -122.31431999977077,
                48.40638299972874
              ],
              [
                -122.31383100004925,
                48.406374999824024
              ],
              [
                -122.31366799984262,
                48.406373000294906
              ],
              [
                -122.31361699978899,
                48.406372000232146
              ],
              [
                -122.31346399962811,
                48.40637599988672
              ],
              [
                -122.31313700028826,
                48.406378000012076
              ],
              [
                -122.31201500000682,
                48.406385999916324
              ],
              [
                -122.31154499965355,
                48.406390000166155
              ],
              [
                -122.31140900010944,
                48.40639100022857
              ],
              [
                -122.31101499992411,
                48.406394999881655
              ],
              [
                -122.31031399959217,
                48.40639800006853
              ],
              [
                -122.3099970002981,
                48.40640000019301
              ],
              [
                -122.30887500001664,
                48.406405999969635
              ],
              [
                -122.30821499969257,
                48.4064110002799
              ],
              [
                -122.30751099988586,
                48.40640100025522
              ],
              [
                -122.30694299962329,
                48.40639399981932
              ],
              [
                -122.30592599982214,
                48.40638100019995
              ],
              [
                -122.30582799991284,
                48.406343000192486
              ],
              [
                -122.30572800035372,
                48.40629600017542
              ],
              [
                -122.30565300001066,
                48.406244999854
              ],
              [
                -122.30563299991917,
                48.406232000196496
              ],
              [
                -122.30560299978195,
                48.406206000275255
              ],
              [
                -122.30556199977408,
                48.406146999922996
              ],
              [
                -122.30554800042869,
                48.406082999756556
              ],
              [
                -122.30554900025359,
                48.40589099996678
              ],
              [
                -122.30556400032222,
                48.40571099976649
              ],
              [
                -122.30559699993417,
                48.40556300026427
              ],
              [
                -122.30564899981272,
                48.40542199970931
              ],
              [
                -122.3056639998813,
                48.40538599974603
              ],
              [
                -122.3057259998056,
                48.40524299972314
              ],
              [
                -122.30578600008005,
                48.40510599982458
              ],
              [
                -122.30581899969202,
                48.40503099975423
              ],
              [
                -122.30587099957056,
                48.40487000005671
              ],
              [
                -122.30590900010371,
                48.40470100027783
              ],
              [
                -122.30591999997435,
                48.40456699981057
              ],
              [
                -122.30591400012656,
                48.40443699999
              ],
              [
                -122.30587499976853,
                48.40420200020518
              ],
              [
                -122.3058730001187,
                48.404186999814094
              ],
              [
                -122.30581399966916,
                48.40393499997711
              ],
              [
                -122.30579000027802,
                48.40374600017461
              ],
              [
                -122.30577600003434,
                48.40355700026613
              ],
              [
                -122.30574099987423,
                48.40332900025604
              ],
              [
                -122.30568200032299,
                48.40309699990818
              ],
              [
                -122.30560199995703,
                48.40287400028325
              ],
              [
                -122.30554800042869,
                48.40276000006793
              ],
              [
                -122.30547999975829,
                48.402661999981994
              ],
              [
                -122.30538000019921,
                48.40254299979424
              ],
              [
                -122.30514900022051,
                48.402309999893305
              ],
              [
                -122.30563299991917,
                48.402297999969356
              ],
              [
                -122.30824300017997,
                48.40223399973062
              ],
              [
                -122.30836899967834,
                48.39914600003963
              ],
              [
                -122.3083929999678,
                48.39914600003963
              ],
              [
                -122.30898200014676,
                48.39914600003963
              ],
              [
                -122.31387600025509,
                48.399150999870784
              ],
              [
                -122.31386200001137,
                48.39797200007166
              ],
              [
                -122.31387999955471,
                48.39779699984317
              ],
              [
                -122.31392399993564,
                48.39196299986199
              ],
              [
                -122.30326600023098,
                48.39196599970713
              ],
              [
                -122.30308899978064,
                48.39196599970713
              ],
              [
                -122.30308799995572,
                48.391905000037895
              ],
              [
                -122.30308799995572,
                48.39188300014906
              ],
              [
                -122.30308700013083,
                48.39180600016488
              ],
              [
                -122.30308600030592,
                48.3916569998181
              ],
              [
                -122.3030839997578,
                48.39143100027295
              ],
              [
                -122.3030799995598,
                48.391045000174955
              ],
              [
                -122.30307799990999,
                48.390856000201204
              ],
              [
                -122.30307600026016,
                48.39062799993303
              ],
              [
                -122.30306399966629,
                48.38936699978831
              ],
              [
                -122.30305699999359,
                48.38876799999285
              ],
              [
                -122.30305299979564,
                48.38832500006841
              ],
              [
                -122.30304899959766,
                48.38800500025304
              ],
              [
                -122.3030439995748,
                48.387557999711426
              ],
              [
                -122.30304500029803,
                48.387053000030825
              ],
              [
                -122.30315800027594,
                48.38705700001133
              ],
              [
                -122.30412300019853,
                48.38706700025961
              ],
              [
                -122.30458299960777,
                48.38707100023902
              ],
              [
                -122.30495400022683,
                48.38707500021816
              ],
              [
                -122.3050780000754,
                48.387076000063736
              ],
              [
                -122.30505299996105,
                48.38474199973005
              ],
              [
                -122.30505299996105,
                48.38467200012246
              ],
              [
                -122.30450499978996,
                48.38466600016866
              ],
              [
                -122.30443500036806,
                48.384663999786184
              ],
              [
                -122.30250200014981,
                48.38464500002652
              ],
              [
                -122.30223099998815,
                48.38463999996298
              ],
              [
                -122.30075999972726,
                48.38462800004713
              ],
              [
                -122.29981400007125,
                48.38461299985001
              ],
              [
                -122.29778700014165,
                48.38459300017696
              ],
              [
                -122.29562200011978,
                48.384566999933945
              ],
              [
                -122.29211999973134,
                48.384532000021835
              ],
              [
                -122.29220699976997,
                48.390981999864046
              ],
              [
                -122.29222199983862,
                48.391964000208056
              ],
              [
                -122.29221799964064,
                48.392857999894254
              ],
              [
                -122.29220599994505,
                48.39513599986912
              ],
              [
                -122.29222299966351,
                48.39707500003703
              ],
              [
                -122.29218900022664,
                48.39882000020509
              ],
              [
                -122.29218699967848,
                48.39893300009525
              ],
              [
                -122.29218500002867,
                48.39903100020841
              ],
              [
                -122.29218400020375,
                48.3991159998494
              ],
              [
                -122.2844999999096,
                48.3990809998039
              ],
              [
                -122.28105399959767,
                48.399066999898295
              ],
              [
                -122.27950700006711,
                48.39906200005884
              ],
              [
                -122.26988999955466,
                48.39902599976902
              ],
              [
                -122.26961199972034,
                48.399022999743735
              ],
              [
                -122.2643510000892,
                48.39897300009119
              ],
              [
                -122.26436000031005,
                48.40289699972549
              ],
              [
                -122.2643369998455,
                48.40354500003998
              ],
              [
                -122.2695599998418,
                48.4035929997349
              ],
              [
                -122.2698820000571,
                48.403596000087056
              ],
              [
                -122.26983100000345,
                48.40906700019371
              ],
              [
                -122.2697499998126,
                48.41354699989267
              ],
              [
                -122.27005299976132,
                48.41355699970472
              ],
              [
                -122.27120600000487,
                48.41355800022245
              ],
              [
                -122.27527999995553,
                48.41358800024239
              ],
              [
                -122.27528599980333,
                48.41376199988998
              ],
              [
                -122.27528300032859,
                48.413966999844924
              ],
              [
                -122.27528300032859,
                48.41401000027743
              ],
              [
                -122.27527999995553,
                48.41432399987894
              ],
              [
                -122.2766359996904,
                48.41432200006611
              ],
              [
                -122.27752699999317,
                48.41432299997253
              ],
              [
                -122.27804300037721,
                48.414333000228176
              ],
              [
                -122.27803099978331,
                48.415878999879105
              ],
              [
                -122.27802800030858,
                48.41626199976424
              ],
              [
                -122.27802699958536,
                48.41641799984475
              ],
              [
                -122.27802499993555,
                48.416779999846206
              ],
              [
                -122.2780219995625,
                48.417140999803955
              ],
              [
                -122.27802099973758,
                48.4173069998391
              ],
              [
                -122.27801800026286,
                48.41761600014187
              ],
              [
                -122.27801599971471,
                48.417902999794244
              ],
              [
                -122.27800099964608,
                48.41994099974126
              ],
              [
                -122.27800400001912,
                48.420849999869624
              ],
              [
                -122.27760300016115,
                48.420847999717346
              ],
              [
                -122.27712299976211,
                48.420844000008664
              ],
              [
                -122.27568300036167,
                48.420833999841335
              ],
              [
                -122.27520399978758,
                48.420830999909974
              ],
              [
                -122.2749229995802,
                48.42082899975691
              ],
              [
                -122.27478100018826,
                48.420827999978435
              ],
              [
                -122.27351199959372,
                48.42082099974009
              ],
              [
                -122.27308999981935,
                48.42081900018282
              ],
              [
                -122.27245100030999,
                48.4208160002506
              ],
              [
                -122.27053399998525,
                48.420809000010564
              ],
              [
                -122.27010700018798,
                48.4208080002317
              ],
              [
                -122.2698960003008,
                48.42079299996937
              ],
              [
                -122.26987200001133,
                48.42079099981481
              ],
              [
                -122.26966699997192,
                48.420751000284355
              ],
              [
                -122.269622999591,
                48.42073600000516
              ],
              [
                -122.26969799993408,
                48.42176199971614
              ],
              [
                -122.26968000039071,
                48.424435999728544
              ],
              [
                -122.26959199962886,
                48.42443700003219
              ],
              [
                -122.26955499981894,
                48.42443700003219
              ],
              [
                -122.26849700000992,
                48.42442899998708
              ],
              [
                -122.26836999978829,
                48.42442800027942
              ],
              [
                -122.26711199996274,
                48.4244189999289
              ],
              [
                -122.26691000029638,
                48.42441800022104
              ],
              [
                -122.26690899957313,
                48.42463100014453
              ],
              [
                -122.26688099998405,
                48.42804699979298
              ],
              [
                -122.26643900011818,
                48.42804699979298
              ],
              [
                -122.26642200039973,
                48.42837400028197
              ],
              [
                -122.26686500009053,
                48.42988099982325
              ],
              [
                -122.26701999990125,
                48.42987700022928
              ],
              [
                -122.26711600016068,
                48.42987600003271
              ],
              [
                -122.26828199992477,
                48.42990700015645
              ],
              [
                -122.26847000024574,
                48.42992500010425
              ],
              [
                -122.26865299964552,
                48.42995500000308
              ],
              [
                -122.26886000023306,
                48.430006999984435
              ],
              [
                -122.26902799956426,
                48.43006499987799
              ],
              [
                -122.26907000029534,
                48.43008200017337
              ],
              [
                -122.26916200035686,
                48.43012099991788
              ],
              [
                -122.26969600028423,
                48.430365000223084
              ],
              [
                -122.269694999561,
                48.43045700005352
              ],
              [
                -122.26969799993408,
                48.43177000027242
              ],
              [
                -122.26985899959253,
                48.43177099983566
              ],
              [
                -122.27028000044035,
                48.43177199999495
              ],
              [
                -122.2722980001491,
                48.431776000035754
              ],
              [
                -122.2724660003786,
                48.431777000194934
              ],
              [
                -122.27264700012856,
                48.43189199989065
              ],
              [
                -122.2738120000677,
                48.43262799976701
              ],
              [
                -122.27554500026942,
                48.43372300026044
              ],
              [
                -122.27575600015659,
                48.433841000079724
              ],
              [
                -122.27597799991447,
                48.433948000133476
              ],
              [
                -122.2762110004413,
                48.4340450000098
              ],
              [
                -122.27651500021489,
                48.43415100011759
              ],
              [
                -122.27683200040731,
                48.434238000288225
              ],
              [
                -122.2770929996249,
                48.43429500001097
              ],
              [
                -122.27751600012252,
                48.43436499988622
              ],
              [
                -122.27887699988024,
                48.4345899998963
              ],
              [
                -122.27942599987624,
                48.434691000146366
              ],
              [
                -122.28107299986425,
                48.43499400028781
              ],
              [
                -122.28162199986023,
                48.435095999828555
              ],
              [
                -122.28199299958099,
                48.43516400020332
              ],
              [
                -122.28310800018977,
                48.43536900027398
              ],
              [
                -122.28322500036562,
                48.43539099983117
              ],
              [
                -122.28348099956033,
                48.435431999847516
              ],
              [
                -122.28360500030719,
                48.43544900013529
              ],
              [
                -122.28369599964549,
                48.4354589998111
              ],
              [
                -122.28380699997358,
                48.43547299983072
              ],
              [
                -122.2839090000808,
                48.43548300009781
              ],
              [
                -122.28431800033475,
                48.43551300029127
              ],
              [
                -122.28434599992383,
                48.43551300029127
              ],
              [
                -122.28456400038203,
                48.435520999783584
              ],
              [
                -122.28473000006338,
                48.435522999954486
              ],
              [
                -122.2848449996911,
                48.435522999954486
              ],
              [
                -122.28538100016664,
                48.43552400003987
              ],
              [
                -122.28537799979358,
                48.43560499974099
              ],
              [
                -122.28536199990006,
                48.43704499989001
              ],
              [
                -122.28536100007514,
                48.43732999999794
              ],
              [
                -122.28476699987328,
                48.437333000147405
              ],
              [
                -122.2841269996407,
                48.437336999750435
              ],
              [
                -122.28218400027501,
                48.43734800029609
              ],
              [
                -122.28216800038149,
                48.439185000200865
              ],
              [
                -122.28335599988687,
                48.439185000200865
              ],
              [
                -122.28471900019272,
                48.43918700022748
              ],
              [
                -122.28502499961617,
                48.43918700022748
              ],
              [
                -122.28594600005616,
                48.43918700022748
              ],
              [
                -122.2862530002028,
                48.439188000240776
              ],
              [
                -122.28704300022324,
                48.439185000200865
              ],
              [
                -122.28902400012207,
                48.439179000120475
              ],
              [
                -122.28941699958415,
                48.439178000107
              ],
              [
                -122.29020800032781,
                48.43917600008003
              ],
              [
                -122.2905179999492,
                48.4391750000665
              ],
              [
                -122.29068100015581,
                48.4391750000665
              ],
              [
                -122.29067000028516,
                48.44007400010627
              ],
              [
                -122.29079400013372,
                48.44007300011046
              ],
              [
                -122.29078800028593,
                48.44060599987274
              ],
              [
                -122.28896600039577,
                48.44059500003257
              ],
              [
                -122.28896499967253,
                48.440652999759024
              ],
              [
                -122.2889620001978,
                48.440975000282705
              ],
              [
                -122.2892650001465,
                48.44096799983961
              ],
              [
                -122.29174499981264,
                48.440988999974174
              ],
              [
                -122.29177300030003,
                48.4421270001292
              ],
              [
                -122.29177400012492,
                48.44214799978462
              ],
              [
                -122.29172300007131,
                48.44280300005849
              ],
              [
                -122.29276499998682,
                48.44281300007452
              ],
              [
                -122.29279699977387,
                48.44281300007452
              ],
              [
                -122.29302399955456,
                48.44281300007452
              ],
              [
                -122.29330800013503,
                48.44281300007452
              ],
              [
                -122.29416299955446,
                48.44281300007452
              ],
              [
                -122.2944479999598,
                48.44281400001643
              ],
              [
                -122.29460699996847,
                48.44281300007452
              ],
              [
                -122.29508599964427,
                48.442812000132626
              ],
              [
                -122.29524600037615,
                48.442812000132626
              ],
              [
                -122.29534900030832,
                48.44281100019067
              ],
              [
                -122.29565999975463,
                48.44281100019067
              ],
              [
                -122.29576400041,
                48.44281100019067
              ],
              [
                -122.29583999967969,
                48.4428100002487
              ],
              [
                -122.29584200022782,
                48.44291799982628
              ],
              [
                -122.29584300005271,
                48.44296400001801
              ],
              [
                -122.29584399987765,
                48.44302900017908
              ],
              [
                -122.29584899990051,
                48.443306000033765
              ],
              [
                -122.29585300009849,
                48.44352099990157
              ],
              [
                -122.29585700029644,
                48.44371699970866
              ],
              [
                -122.29585899994625,
                48.44381499992446
              ],
              [
                -122.29586399996914,
                48.44410800011688
              ],
              [
                -122.29587400001488,
                48.44462400025317
              ],
              [
                -122.29716500035072,
                48.444622999751026
              ],
              [
                -122.29726699955964,
                48.450028999704635
              ],
              [
                -122.29184000024719,
                48.45003099990011
              ],
              [
                -122.29188100025506,
                48.45198300001037
              ],
              [
                -122.29193200030869,
                48.453756999705945
              ],
              [
                -122.29235200043325,
                48.45375300020425
              ],
              [
                -122.29361399955845,
                48.45374200023231
              ],
              [
                -122.29403500040624,
                48.45373899986046
              ],
              [
                -122.29472800034229,
                48.45373100025804
              ],
              [
                -122.29680999962515,
                48.45371099975707
              ],
              [
                -122.2973469999256,
                48.4537059999285
              ],
              [
                -122.29733600005494,
                48.45357100020017
              ],
              [
                -122.29732199981122,
                48.45278700019504
              ],
              [
                -122.2973050000928,
                48.451839999971256
              ],
              [
                -122.29749400023869,
                48.45184200009539
              ],
              [
                -122.29877299998064,
                48.45184200009539
              ],
              [
                -122.30002300030863,
                48.45184299985955
              ],
              [
                -122.30000700041508,
                48.45125199997347
              ],
              [
                -122.29999499982118,
                48.45065799980464
              ],
              [
                -122.30131399974614,
                48.45064999971685
              ],
              [
                -122.30163000011365,
                48.45064800014154
              ],
              [
                -122.30268899974756,
                48.45063900026433
              ],
              [
                -122.3027049996411,
                48.451101000242154
              ],
              [
                -122.30274599964896,
                48.452168999971164
              ],
              [
                -122.30274999984694,
                48.452371999833076
              ],
              [
                -122.30275999989267,
                48.45279600028735
              ],
              [
                -122.30276400009065,
                48.45296800028842
              ],
              [
                -122.3027699999384,
                48.45323200000177
              ],
              [
                -122.30365500039339,
                48.45322999993238
              ],
              [
                -122.30365700004323,
                48.45348700016158
              ],
              [
                -122.30365799986814,
                48.453604999949334
              ],
              [
                -122.30397500006055,
                48.453604999949334
              ],
              [
                -122.30552499996416,
                48.45360299989459
              ],
              [
                -122.30566800007928,
                48.45360299989459
              ],
              [
                -122.30634199974877,
                48.45360200016515
              ],
              [
                -122.30635299961943,
                48.45356099991917
              ],
              [
                -122.3063800002819,
                48.45345600012644
              ],
              [
                -122.30638600012969,
                48.453432999722956
              ],
              [
                -122.30639500035052,
                48.45339699979579
              ],
              [
                -122.30639199997746,
                48.453337000257726
              ],
              [
                -122.3063869999546,
                48.45326399990986
              ],
              [
                -122.3064229999396,
                48.45310299983262
              ],
              [
                -122.30646999979528,
                48.45300399992394
              ],
              [
                -122.30659600019194,
                48.45283400012988
              ],
              [
                -122.30660799988753,
                48.45281100004045
              ],
              [
                -122.30664399987253,
                48.45274399979823
              ],
              [
                -122.30667900003264,
                48.45265399990282
              ],
              [
                -122.30671199964462,
                48.452546999925524
              ],
              [
                -122.30673699975898,
                48.45236699987265
              ],
              [
                -122.30676000022349,
                48.452286000087526
              ],
              [
                -122.30676900044433,
                48.452223999723365
              ],
              [
                -122.3067950003836,
                48.452052000181034
              ],
              [
                -122.30694299962329,
                48.451967000250974
              ],
              [
                -122.30719100021874,
                48.451943000006644
              ],
              [
                -122.30740200010592,
                48.45164699983398
              ],
              [
                -122.30800499963027,
                48.45090100000944
              ],
              [
                -122.30821200021784,
                48.45062600004169
              ],
              [
                -122.30859399980923,
                48.44998899994912
              ],
              [
                -122.30966300038725,
                48.44998200015256
              ],
              [
                -122.31064500002827,
                48.44997499975915
              ],
              [
                -122.31083499999907,
                48.449973000157264
              ],
              [
                -122.31078800014342,
                48.448638999705274
              ],
              [
                -122.31077499972463,
                48.44819899993926
              ],
              [
                -122.31214300005335,
                48.44819100005988
              ],
              [
                -122.31219699958173,
                48.44996299976348
              ],
              [
                -122.31354700036711,
                48.449955000161985
              ],
              [
                -122.31373899998773,
                48.45717500001629
              ],
              [
                -122.31243000010853,
                48.457190999921785
              ],
              [
                -122.31222900026707,
                48.45720899973497
              ],
              [
                -122.31216999981754,
                48.45721699998087
              ],
              [
                -122.31199999993824,
                48.45724400028019
              ],
              [
                -122.31174100037046,
                48.45725800025324
              ],
              [
                -122.31138999984286,
                48.45725699999999
              ],
              [
                -122.31112999955187,
                48.45725699999999
              ],
              [
                -122.31031699996522,
                48.45725599974669
              ],
              [
                -122.31004300032883,
                48.45725599974669
              ],
              [
                -122.3088730003668,
                48.4572679998061
              ],
              [
                -122.30848699967912,
                48.4572679998061
              ],
              [
                -122.30833600006636,
                48.45726599989566
              ],
              [
                -122.3083660002036,
                48.463656999798324
              ],
              [
                -122.30836200000566,
                48.46435599988796
              ],
              [
                -122.31100700042653,
                48.464317999734256
              ],
              [
                -122.31189199998317,
                48.46430600015008
              ],
              [
                -122.31195999975526,
                48.464119999977974
              ],
              [
                -122.31202000002972,
                48.463818999888645
              ],
              [
                -122.31258699956905,
                48.460969000183816
              ],
              [
                -122.31643299991408,
                48.4588600000099
              ],
              [
                -122.31712900022316,
                48.458201999995886
              ],
              [
                -122.31942399994136,
                48.45603600015389
              ],
              [
                -122.319919000409,
                48.45556999984577
              ],
              [
                -122.3211439997243,
                48.45311600001691
              ],
              [
                -122.32107099992938,
                48.45099699990961
              ],
              [
                -122.32072600014787,
                48.449771000042716
              ],
              [
                -122.32055700009347,
                48.44917099973702
              ],
              [
                -122.32045199961317,
                48.44879599974441
              ],
              [
                -122.32059200025358,
                48.44738699979776
              ],
              [
                -122.32098499971566,
                48.4464210002357
              ],
              [
                -122.32138300009889,
                48.44618899986708
              ],
              [
                -122.32179800020062,
                48.445948999993774
              ],
              [
                -122.32211200001996,
                48.445767000023935
              ],
              [
                -122.3222080002794,
                48.44571099994784
              ],
              [
                -122.32357099968698,
                48.445554999793366
              ],
              [
                -122.32475800026575,
                48.44548800010704
              ],
              [
                -122.32496300030516,
                48.44547600024281
              ],
              [
                -122.32702600021976,
                48.44535999982021
              ],
              [
                -122.33065499993153,
                48.4451550001413
              ],
              [
                -122.33073699994726,
                48.4451500000661
              ],
              [
                -122.33081800013811,
                48.44513999991428
              ],
              [
                -122.33380400014254,
                48.44478999991467
              ],
              [
                -122.33516800027333,
                48.44472700002807
              ],
              [
                -122.33554099964388,
                48.44470899996097
              ],
              [
                -122.33691200034569,
                48.44464599997386
              ],
              [
                -122.34002499967339,
                48.44471800029324
              ],
              [
                -122.34102999977897,
                48.444812000159345
              ],
              [
                -122.34112299966539,
                48.44481999997511
              ],
              [
                -122.34311000031032,
                48.44500599995422
              ],
              [
                -122.34483400029119,
                48.44527199973385
              ],
              [
                -122.34520500001194,
                48.445330000078776
              ],
              [
                -122.34590499962071,
                48.44543499999017
              ],
              [
                -122.34642199982964,
                48.445509000160534
              ],
              [
                -122.34660699977758,
                48.44553299987052
              ],
              [
                -122.34686799989349,
                48.4455659997512
              ],
              [
                -122.34771700036347,
                48.445684000069996
              ],
              [
                -122.34772099966311,
                48.445207000059675
              ],
              [
                -122.34772200038631,
                48.44507599996856
              ],
              [
                -122.34772300021123,
                48.44497000001142
              ],
              [
                -122.3477419995795,
                48.44318600028003
              ],
              [
                -122.34763899964734,
                48.44318800014915
              ],
              [
                -122.34758400029408,
                48.439697000277214
              ],
              [
                -122.34755400015683,
                48.43948799976242
              ],
              [
                -122.34750999977591,
                48.4375560000343
              ],
              [
                -122.34749999973015,
                48.43617799983217
              ],
              [
                -122.34749399988237,
                48.43596299987521
              ],
              [
                -122.3473409997215,
                48.43040699971282
              ],
              [
                -122.34734200044474,
                48.43026399971853
              ],
              [
                -122.3473259996529,
                48.429817999923486
              ],
              [
                -122.34735800033826,
                48.42894700025936
              ],
              [
                -122.34701400038166,
                48.428939999947005
              ],
              [
                -122.34690800007647,
                48.42893399984881
              ],
              [
                -122.34624600010255,
                48.428880000125375
              ],
              [
                -122.34621699979023,
                48.42887800028904
              ],
              [
                -122.34615900006392,
                48.42887500023635
              ],
              [
                -122.34616200043696,
                48.428128000088265
              ],
              [
                -122.34616300026188,
                48.427891999868805
              ],
              [
                -122.34616499991171,
                48.42775599983059
              ],
              [
                -122.34620099989671,
                48.426497000141325
              ],
              [
                -122.34614599964513,
                48.42545599995422
              ],
              [
                -122.34614499982023,
                48.425421999839315
              ],
              [
                -122.34614300017039,
                48.42531999995436
              ],
              [
                -122.34614300017039,
                48.4252870000354
              ],
              [
                -122.34613999979736,
                48.42505099973757
              ],
              [
                -122.3461439999953,
                48.42499500007188
              ],
              [
                -122.34621400031553,
                48.42412199998709
              ],
              [
                -122.34623799970663,
                48.423831999922854
              ],
              [
                -122.34623699988174,
                48.42368899990695
              ],
              [
                -122.346234000407,
                48.4232610001567
              ],
              [
                -122.346234000407,
                48.423119000056175
              ],
              [
                -122.34651100041641,
                48.423121999852505
              ],
              [
                -122.34694099968841,
                48.42312699971138
              ],
              [
                -122.34734300026963,
                48.42311799972664
              ],
              [
                -122.347621000104,
                48.42311200013334
              ],
              [
                -122.34789700028851,
                48.42311600025972
              ],
              [
                -122.34822199997853,
                48.423121999852505
              ],
              [
                -122.3487269995936,
                48.42312399991535
              ],
              [
                -122.34900399960301,
                48.4231259999781
              ],
              [
                -122.34905200018191,
                48.4231370000237
              ],
              [
                -122.34905100035702,
                48.423103999879665
              ],
              [
                -122.34906200022765,
                48.42261000025671
              ],
              [
                -122.34927800013772,
                48.42260800017369
              ],
              [
                -122.34981500043816,
                48.42259900009705
              ],
              [
                -122.34979899964631,
                48.42338299993463
              ],
              [
                -122.35037100010685,
                48.42337399999522
              ],
              [
                -122.35042499963522,
                48.423373000266814
              ],
              [
                -122.35041899978744,
                48.423637999741416
              ],
              [
                -122.3504029998939,
                48.42434900006281
              ],
              [
                -122.350550000207,
                48.42434599974276
              ],
              [
                -122.35176299982672,
                48.424318999835215
              ],
              [
                -122.35177399969736,
                48.42386700022394
              ],
              [
                -122.35184800021551,
                48.42380400002228
              ],
              [
                -122.35223800020286,
                48.423474000159786
              ],
              [
                -122.352337999762,
                48.42338900009205
              ],
              [
                -122.35280499974222,
                48.42299399984093
              ],
              [
                -122.35288900030612,
                48.423036999792274
              ],
              [
                -122.35314100020119,
                48.42316699975672
              ],
              [
                -122.35322499986677,
                48.42321099988949
              ],
              [
                -122.35393000039672,
                48.423576000172645
              ],
              [
                -122.35604799966455,
                48.42467199990143
              ],
              [
                -122.35653399991138,
                48.42492400010892
              ],
              [
                -122.35715599970231,
                48.424359000134764
              ],
              [
                -122.3571549998774,
                48.42427700008293
              ],
              [
                -122.36086899997797,
                48.42430800004537
              ]
            ],
            [
              [
                -122.30400099999979,
                48.401058999889266
              ],
              [
                -122.30399599997692,
                48.4011790001353
              ],
              [
                -122.3039370004257,
                48.40124000001767
              ],
              [
                -122.30384700001402,
                48.40117500007203
              ],
              [
                -122.30355199956294,
                48.4009290000487
              ],
              [
                -122.30342500023964,
                48.40081500024544
              ],
              [
                -122.30326899970571,
                48.400675999998406
              ],
              [
                -122.30229100026261,
                48.399707999935245
              ],
              [
                -122.30215999984304,
                48.39958300000933
              ],
              [
                -122.30198900013885,
                48.39943199997063
              ],
              [
                -122.30167100012152,
                48.39915000026245
              ],
              [
                -122.30302000018366,
                48.39914900005767
              ],
              [
                -122.3031840002152,
                48.3994690001717
              ],
              [
                -122.30386700010548,
                48.4007979997036
              ],
              [
                -122.30400099999979,
                48.401058999889266
              ]
            ]
          ],
          [
            [
              [
                -122.35184400001756,
                48.39915800011073
              ],
              [
                -122.35182999977388,
                48.397388999832216
              ],
              [
                -122.34914800044137,
                48.3973930001932
              ],
              [
                -122.3491509999161,
                48.398905000198646
              ],
              [
                -122.3491509999161,
                48.39891799993955
              ],
              [
                -122.3491509999161,
                48.3991589997189
              ],
              [
                -122.35184400001756,
                48.39915800011073
              ]
            ]
          ]
        ]
      },
      "properties": {
        "AREALAND": "31850643",
        "AREAWATER": "844565",
        "BASENAME": "Mount Vernon",
        "CBSAPCI": "Y",
        "CENTLAT": "+48.4202671",
        "CENTLON": "-122.3115473",
        "FUNCSTAT": "A",
        "GEOID": "5347560",
        "INTPTLAT": "+48.4170713",
        "INTPTLON": "-122.3118318",
        "LSADC": "25",
        "MTFCC": "G4110",
        "NAME": "Mount Vernon city",
        "NECTAPCI": "N",
        "OBJECTID": 29604,
        "OID": "27890481269332",
        "PLACE": "47560",
        "PLACECC": "C1",
        "PLACENS": "02411183",
        "STATE": "53",
        "DISP_CLR": 5,
        "slug": "mount_vernon",
        "jurisdiction_key": "mount_vernon_city",
        "county_fips": [
          "53057"
        ]
      }
    }
  ]
}
