{"type":"FeatureCollection","features":[{"type":"Feature","geometry":{"type":"Polygon","coordinates":[[[-122.92234800023743,46.58350900019926],[-122.92235099971214,46.58232900012716],[-122.92150200014052,46.5816119999422],[-122.92119699964366,46.58135499999924],[-122.91996899995533,46.58032100006028],[-122.91967400040252,46.5800879997641],[-122.9196199999759,46.58004599969957],[-122.9192569997527,46.57977999977043],[-122.91907000015496,46.57965000013811],[-122.9187839999247,46.57946000025733],[-122.91878700029775,46.578870999791775],[-122.91879200032062,46.577898999901485],[-122.91880400001617,46.576352999765106],[-122.91880400001617,46.576264999882156],[-122.91880499984109,46.5761780001943],[-122.91878599957451,46.5726529999128],[-122.9135319996161,46.57267099975208],[-122.91353099979118,46.571409999855824],[-122.91352900014134,46.569852999931506],[-122.91352800031645,46.56904100021985],[-122.91342799985901,46.56904100021985],[-122.91346999969181,46.5689219997945],[-122.91349499980618,46.5688139999973],[-122.91350900004987,46.56870500012684],[-122.91351300024783,46.56861499984779],[-122.91351200042291,46.56849499986094],[-122.91351200042291,46.56847500014612],[-122.91344299992763,46.568474000283715],[-122.912991000016,46.568472999803696],[-122.90828799970343,46.568472999803696],[-122.90815200015929,46.568472999803696],[-122.90814200011356,46.56711899993512],[-122.90300399960776,46.56710199999379],[-122.90300399960776,46.56711899993512],[-122.90300699998079,46.56762200025689],[-122.90301200000368,46.5688569999709],[-122.90302100022453,46.570958999830786],[-122.902083999891,46.570249000020475],[-122.90127600032723,46.56964400024573],[-122.90049100032968,46.56906399989832],[-122.89775200019746,46.5692299997049],[-122.89772999955784,46.57262900011783],[-122.8943899995511,46.572609999860894],[-122.8935359999566,46.5726049996947],[-122.89261899971453,46.57260000014553],[-122.89247399994957,46.572598999741615],[-122.89246200025401,46.57619199998316],[-122.88729000031137,46.57619499976099],[-122.88357700003571,46.57620000021371],[-122.88215500017863,46.57619499976099],[-122.88197100005559,46.57619499976099],[-122.87849600032965,46.57619100026295],[-122.87765799973033,46.57504299999517],[-122.87433799981508,46.57618599980941],[-122.873613000092,46.57643599969227],[-122.87150499997153,46.577162999896125],[-122.86872400000655,46.578129999738614],[-122.8657349996291,46.579171000218274],[-122.8724799999399,46.580966000014406],[-122.87368099986406,46.58128599990079],[-122.87996699969223,46.582959000169595],[-122.88050499981759,46.583102000158405],[-122.8804849997261,46.58509299985546],[-122.88048200025138,46.58538000009659],[-122.88194000009345,46.58489299999162],[-122.88233099990572,46.58476300027092],[-122.88319600026921,46.58450599982985],[-122.88362499971629,46.584368000156864],[-122.88373000019659,46.58433500015619],[-122.88372900037169,46.58437400004257],[-122.8837369998693,46.58448599984533],[-122.88397299987083,46.58715699994957],[-122.88432199985029,46.58715599981421],[-122.88717800015837,46.5871479999654],[-122.88713600032557,46.58973100014764],[-122.88713999962523,46.589909000060445],[-122.88711799988391,46.59078499977741],[-122.88983600009972,46.59078499977741],[-122.8946850000022,46.59081399990155],[-122.89527599983099,46.59081800017291],[-122.89548599989327,46.590819000240664],[-122.89613699999651,46.59082399996201],[-122.89501999973794,46.58966000003665],[-122.8950449998523,46.5879819997651],[-122.8950520004233,46.58718700029758],[-122.89766799963355,46.58718700029758],[-122.90170200029958,46.58997000024636],[-122.90292099976706,46.59081199976576],[-122.90292400014012,46.59169500006556],[-122.90293900020875,46.59582099980069],[-122.90282200003287,46.59582099980069],[-122.90282000038303,46.59801399980435],[-122.90258299965828,46.59802299983597],[-122.90273699964405,46.59824499973131],[-122.9029230003152,46.59852200021037],[-122.90271099970481,46.598475999907976],[-122.90245999963462,46.59846300024488],[-122.90230599964883,46.59850800001516],[-122.90222399963307,46.59854600027212],[-122.90211499985314,46.5985960002123],[-122.90203799986024,46.598606999995425],[-122.9018739998287,46.59860600007139],[-122.90164299985003,46.598639000025194],[-122.90132999985558,46.59873900030506],[-122.90126600028147,46.598759999889786],[-122.90085200000468,46.5989200000151],[-122.90073499982883,46.598993000173785],[-122.90066799988166,46.59904999973047],[-122.90064299976731,46.59909099997007],[-122.90063500026972,46.5991540001423],[-122.90064299976731,46.5992320001659],[-122.90067399972945,46.59931000007716],[-122.90068700014824,46.59947099972099],[-122.90064699996529,46.59956299983171],[-122.90059599991163,46.5996349998362],[-122.90053999983516,46.599669000302306],[-122.90056099975158,46.60023300027413],[-122.90057300034542,46.60055700016367],[-122.900585000041,46.60084999990994],[-122.90059099988879,46.60104699989337],[-122.90059199971371,46.60164100008779],[-122.90094900008906,46.60163699999814],[-122.9009299998225,46.60183400020598],[-122.90093499984536,46.60242100020304],[-122.90095499993684,46.60511699969859],[-122.90095599976176,46.605208000294546],[-122.90089399983746,46.605208000294546],[-122.90089800003544,46.6057860001718],[-122.90089899986036,46.60694299970936],[-122.90113099966393,46.607032999937935],[-122.90280100011648,46.60768299989146],[-122.90630699980456,46.60904799970743],[-122.90669199976902,46.609175999730894],[-122.90711299971854,46.60930299972521],[-122.90771899961591,46.60943699996005],[-122.90818800014429,46.60955299993248],[-122.91187499958235,46.61046200007402],[-122.91226600029293,46.6105589997857],[-122.91297799959722,46.61073499976699],[-122.91343600025493,46.61084799971643],[-122.91344299992763,46.609691999997835],[-122.91346600039218,46.60611300015342],[-122.91346800004199,46.60582899983291],[-122.91347200023996,46.60521800016762],[-122.91267700019665,46.6052340000841],[-122.91256099984571,46.605096999913364],[-122.91249300007364,46.60503900012407],[-122.91243600017224,46.60494199978445],[-122.91228600038441,46.60479100030348],[-122.91218900030003,46.60467199995411],[-122.91160699979375,46.60395799977448],[-122.91125899963923,46.60353200030405],[-122.91063699984828,46.60271399974405],[-122.91052899989324,46.60247399982875],[-122.91036700040985,46.602109999759236],[-122.90986000024665,46.60160400001856],[-122.90968000032159,46.6014249997606],[-122.90930500040285,46.601167000058574],[-122.90842699962057,46.60070500006294],[-122.90820599968764,46.600589000276244],[-122.90820499986275,46.59899099972265],[-122.90820499986275,46.59889600011904],[-122.90820499986275,46.598113000069986],[-122.90820400003781,46.59799700028918],[-122.90820400003781,46.5971050000208],[-122.9084140001001,46.59710699992436],[-122.90855200019237,46.597107999876094],[-122.91176300032768,46.59710999977953],[-122.91346600039218,46.597108999827825],[-122.91347600043788,46.5907759997783],[-122.91348399993552,46.586255000006666],[-122.9123979996391,46.586258999997106],[-122.91210300008629,46.586261000300915],[-122.91209800006342,46.585359999817115],[-122.91131600043892,46.58536399987359],[-122.91131300006586,46.584797999751494],[-122.91131200024097,46.58460900018896],[-122.91131300006586,46.58458900024243],[-122.91131200024097,46.58457200022035],[-122.91130600039318,46.583554000038916],[-122.91301899960511,46.58354600027595],[-122.91389999986211,46.58354300028737],[-122.91870399955877,46.583524000149964],[-122.92234800023743,46.58350900019926]]]},"properties":{"AREALAND":"7489112","AREAWATER":"28686","BASENAME":"Napavine","CBSAPCI":"N","CENTLAT":"+46.5842741","CENTLON":"-122.9006626","FUNCSTAT":"A","GEOID":"5347980","INTPTLAT":"+46.5867959","INTPTLON":"-122.9020308","LSADC":"25","MTFCC":"G4110","NAME":"Napavine city","NECTAPCI":"N","OBJECTID":21001,"OID":"27890932748906","PLACE":"47980","PLACECC":"C1","PLACENS":"02411210","STATE":"53","DISP_CLR":2,"slug":"napavine","jurisdiction_key":"napavine_city","county_fips":["53041"]}}]}
