{"type":"FeatureCollection","features":[{"type":"Feature","geometry":{"type":"Polygon","coordinates":[[[-122.33339499988861,47.78588900017271],[-122.3334069995842,47.78570600020314],[-122.33244000001176,47.7857020002593],[-122.33198200025235,47.78570100012237],[-122.33176499961905,47.78522099978618],[-122.33141999983755,47.784468999723394],[-122.3312819997453,47.784155000248354],[-122.33116399974453,47.78389599989594],[-122.33129299961597,47.78380600006328],[-122.33144099975397,47.783720000171506],[-122.3316550000142,47.78353900016606],[-122.33182800026655,47.78327200010464],[-122.33187099992426,47.78284400001845],[-122.33169099999922,47.78219800001008],[-122.33115799989675,47.781702999734854],[-122.33071799968069,47.78147199992504],[-122.32943800011383,47.7814029999082],[-122.32797000022596,47.77925800008514],[-122.32754400025361,47.7786439998677],[-122.32698900040984,47.77803400017738],[-122.32722700006121,47.77776199997376],[-122.32722899971104,47.7776570002402],[-122.32684499957148,47.777679000012185],[-122.32659699987435,47.77768200028222],[-122.32653900014803,47.777682999969755],[-122.32627600038231,47.777686999927006],[-122.32470399983906,47.77766500015836],[-122.32463500024211,47.77766399986683],[-122.32455400005126,47.77766300017894],[-122.3230869999883,47.77765300028067],[-122.32229600014298,47.777646000048854],[-122.3218480004293,47.77764499975698],[-122.32140400001529,47.77764200008849],[-122.3212829996415,47.77764099979648],[-122.32121400004449,47.77764099979648],[-122.31968500005728,47.77763099989399],[-122.31943700036015,47.777630000205455],[-122.3186459996165,47.77762499995155],[-122.31855699992806,47.7776240002629],[-122.31825900000223,47.777622999970596],[-122.318004999559,47.77762200028191],[-122.31795900042657,47.77762200028191],[-122.31790499999991,47.777620999989516],[-122.31787300021283,47.777620999989516],[-122.31780899974042,47.777620999989516],[-122.31765200027992,47.77761799971601],[-122.31756199986822,47.77761799971601],[-122.31746300013403,47.77761799971601],[-122.31731300034618,47.77761700002723],[-122.31709900008596,47.77761599973474],[-122.31688700037384,47.77761599973474],[-122.31680500035809,47.77761599973474],[-122.31669099965696,47.77761599973474],[-122.31664999964907,47.77761599973474],[-122.31579100003168,47.77761599973474],[-122.31568100042679,47.77761599973474],[-122.31524799988345,47.77761900000841],[-122.31509100042291,47.77760999979057],[-122.31488100036066,47.77759900019298],[-122.31387700007998,47.777582000041974],[-122.31373499978976,47.77757800007669],[-122.31342199979532,47.77757000014513],[-122.313328000084,47.77756899985174],[-122.31314399996099,47.77756699986863],[-122.31312999971728,47.77756600017887],[-122.31299900019603,47.77756499988545],[-122.31267199995787,47.77756099991881],[-122.31265299969128,47.77756000022893],[-122.31232800000129,47.77755899993539],[-122.31228799981831,47.77755800024548],[-122.31192100029553,47.77755699995186],[-122.31190500040196,47.777556000261946],[-122.31155600042253,47.77755200029461],[-122.31092799988551,47.77754599973941],[-122.31070600012765,47.77754300006517],[-122.31047599997386,47.77754300006517],[-122.30982800024368,47.77754300006517],[-122.30955100023425,47.7775419997713],[-122.30928699974528,47.77753999978716],[-122.30922800019407,47.77753999978716],[-122.30903700039833,47.77753900009688],[-122.3089650004283,47.777537999802895],[-122.30883499983366,47.777535000128246],[-122.3083589996326,47.77753300014382],[-122.30810500008769,47.77752700019007],[-122.30795100010192,47.777523000220555],[-122.30758200003098,47.77751399998609],[-122.30669999994903,47.777506000044696],[-122.306331999703,47.7775029997645],[-122.30566600042947,47.7774969998073],[-122.30522899968814,47.77749200014428],[-122.30512400010616,47.77749200014428],[-122.30498400036407,47.77749099984939],[-122.30421299971191,47.77748400019949],[-122.3032179996521,47.77747499995829],[-122.3030079995898,47.777472999971565],[-122.3029790001758,47.777472999971565],[-122.30194300010805,47.77746300003671],[-122.30176300018302,47.77746100004952],[-122.30155200029581,47.777459000062265],[-122.30148199997564,47.77745799976673],[-122.30136300014993,47.77745599977936],[-122.30130100022565,47.77745599977936],[-122.30128699998195,47.77745599977936],[-122.29974200010122,47.77744100017331],[-122.29956499965088,47.77743900018528],[-122.29938300007603,47.77743700019718],[-122.29933700004527,47.77743700019718],[-122.29915899977001,47.77743500020895],[-122.29914500042464,47.77743500020895],[-122.29821099956587,47.7774259999593],[-122.29811799967943,47.777425000266824],[-122.2980309996408,47.777423999970644],[-122.2975939997978,47.77741999999321],[-122.29621499959843,47.777408000058934],[-122.2960370002215,47.77740600006963],[-122.29592000004563,47.77740400008021],[-122.29575500018919,47.77740299978367],[-122.29390599963652,47.777386999865485],[-122.293785000161,47.77738499987534],[-122.29367499965782,47.77738499987534],[-122.29249200017534,47.77737400023014],[-122.29242199985512,47.77737400023014],[-122.29233499981649,47.77737200023954],[-122.29222799968638,47.777370999942335],[-122.29176400007918,47.77736699996082],[-122.29163400038286,47.77736600026721],[-122.29103900035611,47.77736699996082],[-122.290932000226,47.77736699996082],[-122.29051999959901,47.77735899999679],[-122.29035899994055,47.77735899999679],[-122.29030100021421,47.777351999725404],[-122.29008699995396,47.777349000040026],[-122.28994800003679,47.777349000040026],[-122.28914600032081,47.77734199976732],[-122.28824400014737,47.77733399979946],[-122.28824400014737,47.777351999725404],[-122.28824300032248,47.77739099984547],[-122.28825300036821,47.77793599997949],[-122.28893799990834,47.777941999885996],[-122.28889699990047,47.778237000172176],[-122.28910799978765,47.778237000172176],[-122.28915200016857,47.778237000172176],[-122.28954899982863,47.778246000281484],[-122.28979499987591,47.778252000152264],[-122.28992899977021,47.7782560000657],[-122.28992499957229,47.778297000066466],[-122.28989699998318,47.77855099977759],[-122.28989299978521,47.77871499986347],[-122.28974899984517,47.77871200025672],[-122.28962699964644,47.778709999713904],[-122.28962400017171,47.77880500005885],[-122.28961800032393,47.77901199991692],[-122.28973999962433,47.779013999844445],[-122.289870000219,47.779015000110036],[-122.289862999648,47.77910200020184],[-122.289862999648,47.77924599997141],[-122.28986400037121,47.77947599975709],[-122.2898579996251,47.77967799990541],[-122.28985400032546,47.77982300014058],[-122.28985099995242,47.77990899983925],[-122.2898490003026,47.779986000192764],[-122.28971000038543,47.779981999808726],[-122.28943900022378,47.77997600013764],[-122.28901999992412,47.77996699972414],[-122.28902099974901,47.78005900005413],[-122.2882650000638,47.7807940002236],[-122.28826800043684,47.780954999793195],[-122.2882240000559,47.780954999793195],[-122.28812199994866,47.78095400016857],[-122.28683900000874,47.78094100021784],[-122.28683900000874,47.78095199971204],[-122.28683900000874,47.781007000166284],[-122.28683599963567,47.7815799998463],[-122.28683399998587,47.7818399998767],[-122.28682800013809,47.782867999789374],[-122.28681899991724,47.78451199997287],[-122.28681600044251,47.78464799979785],[-122.28679800000084,47.78785700011771],[-122.28679399980288,47.788194999890464],[-122.28678899978003,47.78891200016324],[-122.28678899978003,47.78901100026465],[-122.28677700008446,47.79090800014531],[-122.28635799978481,47.79091299972518],[-122.28627400011923,47.79091399976183],[-122.28626300024857,47.79095099989618],[-122.28624700035502,47.79144300014114],[-122.28622399989052,47.79184300012128],[-122.28598299986608,47.791829999876114],[-122.28583599955299,47.79182299974274],[-122.28575799973517,47.79182000028885],[-122.28526599964059,47.79182099970447],[-122.28523899987641,47.791821999723645],[-122.2850270001643,47.79181400017341],[-122.28476500022349,47.79181400017341],[-122.28446999977238,47.79181400017341],[-122.28420000033395,47.79180700003793],[-122.2841400000595,47.791806000018475],[-122.28415900032608,47.79363799972903],[-122.28319400040348,47.79362999985489],[-122.28217800042725,47.79362000001044],[-122.28146500039972,47.79361500008754],[-122.2814860003161,47.795468000131464],[-122.2814860003161,47.79549400000524],[-122.28148999961576,47.79586200025874],[-122.2814989998366,47.79685099986849],[-122.28152399995096,47.79884400001231],[-122.28152700032399,47.799163999924446],[-122.28326600037349,47.799163999924446],[-122.28412900018884,47.799163999924446],[-122.28610500006482,47.79916499980226],[-122.28611500011056,47.800067000043704],[-122.2851329995712,47.80006600018319],[-122.28515000018794,47.80162800014781],[-122.28516400043165,47.80277199991929],[-122.28156199958578,47.80274999990599],[-122.28156300030899,47.80280399981231],[-122.28156300030899,47.80283700009617],[-122.28156599978375,47.80304800000762],[-122.2815840002254,47.80374299970057],[-122.28158199967726,47.80379699978142],[-122.28157300035473,47.80411699995755],[-122.28197300038781,47.80415399974143],[-122.28221199986412,47.80418599998984],[-122.28309499977095,47.80430699992136],[-122.28330099963527,47.80433100003884],[-122.28350800022282,47.80434200001356],[-122.28371800028512,47.80434200001356],[-122.28413099983868,47.80432500016134],[-122.28423299994593,47.80432200022235],[-122.2847740004443,47.8042890002785],[-122.28488700042223,47.804282999792775],[-122.2852249996327,47.80426800008394],[-122.28533900033382,47.80426299997885],[-122.28541299995369,47.804265000141605],[-122.28552799958142,47.80426800008394],[-122.2855610000917,47.80426899986351],[-122.28554500019816,47.80367200010108],[-122.28554500019816,47.803518999860934],[-122.28558899968078,47.803503000137134],[-122.28689099988728,47.80349799995845],[-122.28689099988728,47.8036600001932],[-122.2868919997122,47.80376799986791],[-122.2868919997122,47.803864000060656],[-122.28689300043541,47.803946000059675],[-122.28689300043541,47.804027999929204],[-122.28689400026033,47.80411100005533],[-122.28689400026033,47.80419300026782],[-122.28689500008525,47.804274999747484],[-122.28689500008525,47.804393999917345],[-122.28689699973503,47.80453899998905],[-122.28696700005526,47.804549000145556],[-122.28696799988018,47.80465199971443],[-122.28696899970507,47.8047469997098],[-122.28698399977371,47.80639400029359],[-122.28698100029897,47.80653999994832],[-122.28698399977371,47.80666099982641],[-122.28698399977371,47.80684999980497],[-122.28704400004813,47.80684999980497],[-122.28710699979734,47.80684999980497],[-122.28719399983598,47.806851000138195],[-122.28730599998896,47.8068519998681],[-122.28752600009699,47.80685300020129],[-122.28967100002737,47.80686700003746],[-122.28966799965433,47.807127000273894],[-122.28966400035466,47.808220000272385],[-122.2914669999783,47.80822900001683],[-122.29230800005233,47.808239999769405],[-122.29230700022741,47.80820099986829],[-122.29231200025028,47.80784699970529],[-122.29231700027314,47.8075489999848],[-122.29231999974789,47.807345999829835],[-122.29234300021241,47.80681300013145],[-122.29234200038749,47.806788999954094],[-122.29233700036463,47.806436000161916],[-122.29247399973366,47.806436000161916],[-122.29288800001045,47.806438999978816],[-122.29302600010273,47.80643999971666],[-122.29344399967916,47.80644199979558],[-122.29470099967979,47.80645000011049],[-122.2948770003052,47.806452000189026],[-122.29493300038173,47.806452000189026],[-122.29505899988011,47.80645599974253],[-122.29511999997946,47.8064579998208],[-122.29556600004331,47.806471999763474],[-122.29565399990683,47.806475999918746],[-122.29593400028934,47.80648999985654],[-122.2969040002348,47.80649100019674],[-122.29725800023714,47.806494999747194],[-122.29742700029152,47.80649800016409],[-122.29779299998941,47.80648999985654],[-122.29820200024336,47.806494999747194],[-122.29868799959185,47.80650300005398],[-122.29921400002162,47.80648700004258],[-122.29942999993169,47.806487999779456],[-122.2998400000105,47.80648999985654],[-122.29995700018637,47.80649100019674],[-122.3003110001887,47.806496999824006],[-122.30042900018948,47.80649899990074],[-122.3005439998172,47.80649899990074],[-122.30089100014682,47.806501999714],[-122.3010069995995,47.80650300005398],[-122.30144699981552,47.80650799994339],[-122.30148399962545,47.806509000283214],[-122.3027699999384,47.80652899983571],[-122.30321099997938,47.80653700013721],[-122.30365700004323,47.80653000017512],[-122.30475099983727,47.8065420000234],[-122.30525800000046,47.80653999994832],[-122.30558699988843,47.80653799987317],[-122.30579699995072,47.80653299998664],[-122.3065429995902,47.80654899998386],[-122.30753099997736,47.8065559999434],[-122.30822100043865,47.8065620001665],[-122.30851799964125,47.806580000228415],[-122.30893699994091,47.80659400013816],[-122.30925099976028,47.80663199970178],[-122.3096819997555,47.806707000219674],[-122.31017899987295,47.806862999912255],[-122.3104440001868,47.80695899981507],[-122.31082300030353,47.80709700008097],[-122.31107000017572,47.80717800007941],[-122.31132299989572,47.807230000160786],[-122.31138999984286,47.80723900007677],[-122.31146400036101,47.80724899971342],[-122.31168899959361,47.807280000143514],[-122.31176399993667,47.807291000097074],[-122.31209500037278,47.80727800009686],[-122.31230600025997,47.807254999856475],[-122.31240300034435,47.80724500022099],[-122.31255999980489,47.8072170001453],[-122.31271399979066,47.80718099985345],[-122.3128579997307,47.807138000259854],[-122.31300000002092,47.80709000019436],[-122.31340500007687,47.806931000188555],[-122.31364199990334,47.806846000281794],[-122.31385500033866,47.806775999828226],[-122.31399500008075,47.80673700003451],[-122.31413900002079,47.80670900028832],[-122.3143919997408,47.806667999770845],[-122.31466000042772,47.80665300014732],[-122.31486399974389,47.80665100007651],[-122.31514199957823,47.80665599995172],[-122.31529899993708,47.80665800002229],[-122.3153700000822,47.806658999755925],[-122.31566600035822,47.80666400023366],[-122.3159480003905,47.80666700003739],[-122.31628899997402,47.80667199991102],[-122.31679299976419,47.80668299999334],[-122.31682700009938,47.80668399972648],[-122.31707599962142,47.80668299999334],[-122.31741299990532,47.80654800024813],[-122.31842300003376,47.80614599994773],[-122.31876100014254,47.80601199975954],[-122.31939299997923,47.80577100006848],[-122.32128900038758,47.80505100021683],[-122.32192200004914,47.80481100005965],[-122.32222400017295,47.80470099999411],[-122.32313100036923,47.80437299976522],[-122.32343400031795,47.804263999758575],[-122.32366199992356,47.80418399982404],[-122.32434700036201,47.80394800023459],[-122.32457599979256,47.803869999991356],[-122.32629200027583,47.80319100001229],[-122.327345000062,47.80277400013945],[-122.32797799972356,47.80249099989913],[-122.32851099982605,47.802146000234956],[-122.32869699959888,47.802018999953006],[-122.32955799976442,47.802274000024404],[-122.3297269998188,47.80232499976778],[-122.32987300030699,47.802373000012935],[-122.33173500038015,47.799654999779705],[-122.33161200035651,47.799652000174454],[-122.33139300007339,47.79964700022849],[-122.33077700013024,47.799634999994275],[-122.33050900034164,47.79962500009864],[-122.33037000042448,47.799625999967574],[-122.33025499989841,47.79962799970549],[-122.3301410000956,47.79962699983655],[-122.33002899994261,47.799625999967574],[-122.32996899966815,47.79962500009864],[-122.32999799998048,47.79951499991292],[-122.33002399991973,47.79941300028965],[-122.3300280001177,47.799120999728416],[-122.33007800034643,47.798834999848594],[-122.33006400010271,47.7985679999155],[-122.32996399964526,47.79814299996024],[-122.32996399964526,47.79712899986863],[-122.33005599970679,47.79689099976476],[-122.33005200040714,47.79675200021909],[-122.33003099959242,47.796086999861195],[-122.330049999859,47.7959709997909],[-122.32999499960742,47.795722999770724],[-122.32998299991183,47.79531499986792],[-122.33001700024705,47.79507599994702],[-122.33016200001201,47.794691000174154],[-122.3303379997391,47.794331999814354],[-122.33045400009003,47.79413199983088],[-122.33057499956557,47.79413199983088],[-122.33116200009472,47.79413900025667],[-122.3321539997815,47.79415099994987],[-122.33283800039503,47.79415899974385],[-122.33283699967178,47.79407600001134],[-122.33283599984689,47.793945999982164],[-122.33283500002197,47.79383799980338],[-122.33283400019705,47.7937339999332],[-122.33281999995334,47.79233499976701],[-122.33279999986186,47.79233499976701],[-122.33272799989183,47.79233399975775],[-122.33265900029488,47.79233299974844],[-122.3321760004211,47.79232700029579],[-122.33199300012299,47.79232500027692],[-122.33190699990926,47.792326000286344],[-122.3317889999085,47.792327999701705],[-122.33164999999133,47.792326000286344],[-122.3315649996025,47.79232500027692],[-122.33139700027134,47.79232200024844],[-122.33139899992118,47.79223499995123],[-122.3326559999218,47.78998999996634],[-122.33281699958032,47.789660999740036],[-122.33282699962605,47.78963600002659],[-122.3329639998934,47.78932000024622],[-122.33308500026722,47.78897899972214],[-122.33317800015365,47.7886379999784],[-122.33319900007005,47.78852200017861],[-122.3332729996899,47.78813700013211],[-122.33330399965203,47.787574000103014],[-122.33332899976638,47.7871380001614],[-122.3333449996599,47.78652299993969],[-122.3333649997514,47.78627299984502],[-122.33336899994936,47.78610100023567],[-122.3333930002388,47.78592399999788],[-122.33339499988861,47.78588900017271]],[[-122.32994199990397,47.79468900024626],[-122.32985499986533,47.794960999992306],[-122.32982599955304,47.79509600028048],[-122.32912900031734,47.79508999993986],[-122.32908099973844,47.795088999983626],[-122.32906599966982,47.79508800002732],[-122.32894299964619,47.79508800002732],[-122.32879600023139,47.795086000114715],[-122.32879600023139,47.79501999993792],[-122.32879500040649,47.79478299979147],[-122.32879500040649,47.794675000145375],[-122.32894400036939,47.794676000109575],[-122.32935799974787,47.794681999894564],[-122.32994199990397,47.79468900024626]],[[-122.30372999983817,47.78053500002734],[-122.30372800018831,47.780548000079605],[-122.30372999983817,47.78086500030145],[-122.30364500034766,47.78086299984149],[-122.3031480002302,47.780854000185215],[-122.30300699976488,47.78085100009827],[-122.30300900031301,47.780786999811085],[-122.30300599993998,47.78068599987676],[-122.30300199974201,47.78052500007776],[-122.30307700008507,47.78052599971063],[-122.30311600044314,47.78052599971063],[-122.30335499991942,47.78053000005277],[-122.30372999983817,47.78053500002734]],[[-122.29760399984356,47.77819499984276],[-122.29760399984356,47.77822499982279],[-122.29760200019372,47.778334999802716],[-122.29760100036881,47.77840499994319],[-122.29747099977415,47.77840199971488],[-122.2965369998137,47.77839300023625],[-122.2965369998137,47.778200999719424],[-122.29656000027822,47.77818700000614],[-122.29746999994923,47.7781960001241],[-122.29760399984356,47.77819499984276]]]},"properties":{"AREALAND":"10506791","AREAWATER":"271166","BASENAME":"Mountlake Terrace","CBSAPCI":"N","CENTLAT":"+47.7920987","CENTLON":"-122.3076380","FUNCSTAT":"A","GEOID":"5347490","INTPTLAT":"+47.7943686","INTPTLON":"-122.3024980","LSADC":"25","MTFCC":"G4110","NAME":"Mountlake Terrace city","NECTAPCI":"N","OBJECTID":23166,"OID":"27890921610447","PLACE":"47490","PLACECC":"C1","PLACENS":"02411187","STATE":"53","DISP_CLR":1,"slug":"mountlake_terrace","jurisdiction_key":"mountlake_terrace_city","county_fips":["53061"]}}]}
