{"type":"FeatureCollection","features":[{"type":"Feature","geometry":{"type":"Polygon","coordinates":[[[-122.19516900019757,47.542829000145794],[-122.19516900019757,47.542790000265725],[-122.19516800037265,47.54275099975028],[-122.1951669996494,47.542711999812184],[-122.19516599982451,47.542667000127445],[-122.19516800037265,47.54261099969769],[-122.19512300016682,47.54213000018106],[-122.19505899969437,47.54170300019141],[-122.19495900013528,47.541430999992286],[-122.19479599992864,47.54096699971304],[-122.1945959999121,47.5403950000794],[-122.19426200000126,47.53935700028079],[-122.1940889997489,47.538482000089466],[-122.19401299958095,47.538480000023775],[-122.19377499992954,47.538478999990915],[-122.19372800007388,47.538478999990915],[-122.19346299976002,47.538477999958],[-122.19341500007944,47.538477999958],[-122.19329200005579,47.538477999958],[-122.19320400019224,47.538477999958],[-122.1931570003366,47.538477999958],[-122.19283099992334,47.538476999925116],[-122.19258800024909,47.538478999990915],[-122.19249899966232,47.53848100005665],[-122.19251399973092,47.538437999839765],[-122.1925740000054,47.53834400023013],[-122.19275099955739,47.538100000108585],[-122.19285000018992,47.53796399993574],[-122.19287899960389,47.53792400003179],[-122.19244199976092,47.53774599987699],[-122.192440999936,47.53769199974466],[-122.192440999936,47.53758600001942],[-122.192440999936,47.53748499973284],[-122.192440999936,47.53737600003392],[-122.1924400001111,47.537311000127865],[-122.1924400001111,47.53726499999638],[-122.1924400001111,47.53712399979016],[-122.1924400001111,47.537021999765955],[-122.1924400001111,47.536967000039155],[-122.1924400001111,47.5368510000293],[-122.1924400001111,47.536809999818054],[-122.19243900028619,47.53662899992232],[-122.19243799956297,47.53581899970723],[-122.19243799956297,47.535620999759644],[-122.19243699973805,47.53557100021825],[-122.19243699973805,47.535514000003616],[-122.19243699973805,47.53527900029461],[-122.19310499955972,47.53527999978199],[-122.1931039997348,47.53491500002372],[-122.19310499955972,47.534822999761865],[-122.19304900038154,47.53482200026572],[-122.19285199983973,47.534820000060456],[-122.19251899975379,47.53481799985507],[-122.19237300016394,47.534816000256114],[-122.19238800023257,47.53300399990615],[-122.19298499990914,47.53300299976886],[-122.1937349997466,47.533005000043474],[-122.19373800011962,47.531928000039095],[-122.19367600019535,47.53184400005842],[-122.19363199981443,47.53174099991292],[-122.19360199967718,47.53163700000831],[-122.19358900015673,47.5315340000628],[-122.19357999993586,47.53126499978097],[-122.19347000033102,47.53126599995146],[-122.19341300042962,47.53126499978097],[-122.1933919996149,47.53126599995146],[-122.19239699955507,47.53126300004658],[-122.19118099956229,47.531260999705516],[-122.19105599988885,47.531260999705516],[-122.19092299981943,47.53125700023625],[-122.19092899966722,47.53077200015871],[-122.19093100021536,47.53064599978604],[-122.19094700010889,47.52935200028601],[-122.19096200017749,47.528435999853585],[-122.19097499969797,47.52767399982396],[-122.1909760004212,47.527587999827524],[-122.19097800007103,47.52752400016185],[-122.19098100044407,47.527244000251365],[-122.19098800011676,47.52683100027853],[-122.19099499978947,47.52641299998523],[-122.19100099963725,47.52601199975132],[-122.19100800020826,47.525598999783554],[-122.191010999683,47.525434000276796],[-122.191010999683,47.52520500018222],[-122.19101300023112,47.52510399970624],[-122.19101499988095,47.5250229999768],[-122.1909980001625,47.5249949997492],[-122.19055000044885,47.52421799975413],[-122.19042900007503,47.52400699991386],[-122.19030500022647,47.5238180000378],[-122.1901029996618,47.5235099999491],[-122.18974600018473,47.523082000258306],[-122.18968199971229,47.523004000210584],[-122.18955600021391,47.522862999876715],[-122.18950900035826,47.52281899986703],[-122.18938600033461,47.52273899997546],[-122.18927400018163,47.52268100003848],[-122.18923099962561,47.52266300008681],[-122.18908599986065,47.52260399973015],[-122.18898899977627,47.52258500002274],[-122.18877700006418,47.52257300023594],[-122.18871099994193,47.522575000301714],[-122.18862599955311,47.52258700008805],[-122.18853900041279,47.522607999859254],[-122.18843999978026,47.52264000027441],[-122.18836000031264,47.522670999729065],[-122.18829199964227,47.522709000288],[-122.18825599965724,47.52273299979667],[-122.18814000020463,47.52284900009822],[-122.18811099989229,47.522895000136316],[-122.18800999960996,47.52305299988078],[-122.18788499993649,47.523048999785615],[-122.18741100028357,47.52302099971755],[-122.18741299993339,47.52200699979178],[-122.187019999573,47.52200800013876],[-122.18655900033886,47.52201700022772],[-122.18608399996269,47.52201700022772],[-122.1860129998176,47.522027000055154],[-122.18598299968036,47.5220349997944],[-122.185816999999,47.522113999807935],[-122.1858000002806,47.52212999986527],[-122.18573199961018,47.52219100022878],[-122.18571200041703,47.522224000027926],[-122.18561299978452,47.522221000212504],[-122.18561500033266,47.52212799978258],[-122.18561600015755,47.522041000053015],[-122.18561600015755,47.5217899998713],[-122.18561699998247,47.52175800015096],[-122.18561699998247,47.521742999725554],[-122.18561799980739,47.52146999996949],[-122.1856820002798,47.521470999720066],[-122.18568300010472,47.52116499992403],[-122.18569599962521,47.51865300022106],[-122.18569800017335,47.51793700017695],[-122.18569800017335,47.5178090002716],[-122.18531900005664,47.51781099991229],[-122.18508999972778,47.5175940002302],[-122.18490499977986,47.517418999715495],[-122.18458000008984,47.517111000279776],[-122.18424899965375,47.5168000001241],[-122.18407799994952,47.51663600008589],[-122.18360599994641,47.51662999981582],[-122.18148399958227,47.51661200021489],[-122.18047299962892,47.51660299980538],[-122.18040300020701,47.51660299980538],[-122.18033000041208,47.51668299995317],[-122.17735100008036,47.51664400004045],[-122.17713400034538,47.51671799986572],[-122.17604999969878,47.516958000023905],[-122.17548200033453,47.51705499985719],[-122.17288200011949,47.517451000262305],[-122.17275099969993,47.51747099983578],[-122.1726720000572,47.51748000009635],[-122.17142299955415,47.517647999823986],[-122.170882999779,47.517714000263155],[-122.17068299976246,47.517738000236854],[-122.16908400035335,47.517953000294845],[-122.1680109995774,47.51809500029304],[-122.16589499995935,47.5183920002987],[-122.16571400020939,47.518409999895695],[-122.16536400040499,47.518434000157676],[-122.1652380000083,47.518432999742544],[-122.16481000038614,47.51841299992907],[-122.16449999986644,47.51837899974331],[-122.16347300001954,47.518278999890036],[-122.16322799979716,47.518271000184754],[-122.16272599965683,47.51826800014332],[-122.16263799979329,47.51824800026694],[-122.16257900024205,47.51822399991988],[-122.16254099970892,47.51820099998142],[-122.16251200029491,47.518174999986115],[-122.16248399980749,47.51813599996897],[-122.16245299984533,47.51805600021649],[-122.16243299975386,47.51778900022027],[-122.16237599985246,47.51770299979128],[-122.16233499984459,47.51766300020689],[-122.16220000012537,47.517568999759064],[-122.1609919996302,47.516872000052956],[-122.16031499958768,47.51645600017898],[-122.16000400014137,47.51626500009461],[-122.15982099984328,47.5161519999588],[-122.15978700040638,47.516131000030235],[-122.15908199987646,47.51569699982707],[-122.15889899957837,47.515726000023854],[-122.15896600042382,47.51580800001238],[-122.1590080002566,47.51585900005156],[-122.15908000022664,47.515965000010155],[-122.15911799986148,47.51603399970215],[-122.15915300002156,47.51609899989178],[-122.15922699964142,47.51628999997367],[-122.15925500012884,47.51644400020369],[-122.15927100002237,47.51653000026938],[-122.15929199993876,47.51671799986572],[-122.15919700040249,47.51786199982475],[-122.15919099965643,47.51793700017695],[-122.15885400027084,47.517927999994725],[-122.15877599955472,47.51792499993367],[-122.15877100043015,47.51800899975896],[-122.15875700018645,47.51825599997573],[-122.15874999961544,47.518387000038814],[-122.15881699956259,47.51838900026417],[-122.15915200019667,47.51840300001947],[-122.15912500043248,47.51872700024639],[-122.15638600030029,47.51829700013249],[-122.1536000003124,47.51787499990154],[-122.15217300043246,47.517649000254096],[-122.15103899955713,47.51749000018191],[-122.15089499961707,47.51747099983578],[-122.14985600007462,47.51735899969931],[-122.14880199956526,47.51725499979189],[-122.14851100021042,47.51722700027159],[-122.14595799985105,47.51705300018768],[-122.14592799971382,47.51705099991139],[-122.14473400036067,47.5169570001873],[-122.14446599967376,47.51690900012121],[-122.14407200038676,47.51682099978493],[-122.14388300024088,47.516761000298345],[-122.14359399963756,47.5166470001748],[-122.14350599977404,47.516604000255406],[-122.14336699985687,47.51653699978881],[-122.14318899958161,47.51645200018752],[-122.14299399958794,47.516357999997],[-122.14272499997442,47.516357999997],[-122.14175500002895,47.516358999845025],[-122.13993300013877,47.51634800030246],[-122.13899400015544,47.51634299984778],[-122.13848500034243,47.516344000302766],[-122.13784799958457,47.516345999999295],[-122.13775999972101,47.52361600022309],[-122.13783400023917,47.523614000197014],[-122.13955099964903,47.52362599974573],[-122.13988399973498,47.52362799977136],[-122.14011999973653,47.52362900008743],[-122.14043600010402,47.52363199982238],[-122.1431099999389,47.52365000004816],[-122.14305399986239,47.52541999997125],[-122.14303799996887,47.52591300016109],[-122.14302399972519,47.526363999813974],[-122.14301600022758,47.526602999869745],[-122.14300500035692,47.526950000162124],[-122.142996999961,47.52721999977352],[-122.14222000035936,47.52722100002115],[-122.14206499965034,47.52722100002115],[-122.14163700002818,47.52722100002115],[-122.14147299999665,47.52721999977352],[-122.14100900038946,47.52721799988485],[-122.14079799960396,47.5272170002438],[-122.14033999984457,47.527214999748416],[-122.13793299997336,47.52720299980756],[-122.13761999997894,47.52720200016618],[-122.13693200006577,47.52719799978084],[-122.13577700017237,47.5271929997536],[-122.13568400028593,47.52719200011208],[-122.13550199981273,47.52719200011208],[-122.1349410001212,47.527188999974165],[-122.13463599962434,47.52718700008431],[-122.13449500005734,47.52718700008431],[-122.13345599961656,47.52718200005602],[-122.13305099956061,47.52718000016594],[-122.13268700041087,47.52717800027575],[-122.13231699961669,47.52717599977889],[-122.1320060001704,47.52718000016594],[-122.1316899998029,47.527182999697786],[-122.13115400022568,47.527188999974165],[-122.1308239996145,47.5271929997536],[-122.13040000019029,47.52719799978084],[-122.13003500031729,47.52720200016618],[-122.12967100026921,47.52720599994467],[-122.12910800002953,47.52721200021842],[-122.12833499972753,47.52803199983155],[-122.1277480000967,47.52866700023347],[-122.12756999982145,47.5288369997529],[-122.12906500037182,47.53178199984198],[-122.12947399972741,47.53258699982589],[-122.13011800015798,47.53258799997112],[-122.13097199975249,47.532590000261564],[-122.13222299990537,47.53259400023564],[-122.13221700005758,47.534892000125005],[-122.13221500040775,47.53532400025588],[-122.13221500040775,47.5356130002729],[-122.13222200008045,47.535984999981544],[-122.13237199986827,47.536121999907095],[-122.13263200015929,47.53635999969694],[-122.13277799974914,47.536485000219066],[-122.13304600043605,47.53667999973502],[-122.13310400016238,47.5367220001143],[-122.13327599969152,47.53681500014138],[-122.13346900003535,47.53693000016843],[-122.13388999998483,47.53712200027914],[-122.13548699974413,47.53783000010712],[-122.13603699956504,47.538068000028275],[-122.13636800000114,47.53819799970233],[-122.13652799983471,47.538253999994375],[-122.1368219995626,47.53834000008818],[-122.13725799958068,47.538433999704985],[-122.13753299994028,47.53848500018784],[-122.14108499965914,47.53892900011957],[-122.14128800004872,47.538957000185924],[-122.14159900039334,47.53900600011442],[-122.14204200008413,47.53910399983406],[-122.14240199993424,47.53920400001514],[-122.14282999955643,47.53933499992126],[-122.1428260002568,47.539443999792766],[-122.14278199987585,47.540796000107605],[-122.1427790004011,47.54089700008028],[-122.14277000018026,47.541191000214184],[-122.14276599998232,47.54129300001156],[-122.14275400028677,47.54167699971613],[-122.1429190001432,47.54167599974426],[-122.1534300004331,47.54175499989041],[-122.15359600011445,47.54175499989041],[-122.15358600006871,47.54283299994525],[-122.15357600002295,47.54382099988783],[-122.15357299964992,47.544195999953104],[-122.15357100000011,47.54436999975143],[-122.15356900035026,47.54456299982089],[-122.15355900030453,47.54536999986321],[-122.15363799994725,47.54537099976462],[-122.15367599958209,47.54537099976462],[-122.1599570002857,47.54542900007848],[-122.16197599981938,47.5454549999056],[-122.16260400035642,47.5454629997099],[-122.16431999994137,47.54547800002178],[-122.16433900020795,47.5445909999102],[-122.16434500005573,47.54430400010502],[-122.16435400027655,47.543891999790745],[-122.16434300040592,47.543585999813715],[-122.16434300040592,47.54354500001794],[-122.16434300040592,47.54350799993814],[-122.16434199968268,47.543395000270145],[-122.16434000003287,47.54325400017647],[-122.16435099990352,47.543070000253685],[-122.16436599997213,47.542916999908506],[-122.16442700007148,47.54267099993926],[-122.16446499970633,47.54259399986946],[-122.16452599980569,47.542434000252626],[-122.16556000022359,47.540015000095615],[-122.1676459997044,47.54006800025862],[-122.16821999981478,47.54008500029956],[-122.16837600034869,47.54008799969978],[-122.16879700029817,47.540095999716684],[-122.16916600036912,47.54009899972271],[-122.16962999997631,47.540095999716684],[-122.16976600041873,47.540095999716684],[-122.1698690003509,47.540095999716684],[-122.16991399965843,47.54014499979357],[-122.17023300039898,47.540442999881385],[-122.1704550001568,47.540601000132185],[-122.17065599999827,47.54069599993089],[-122.17074300003691,47.54072500025647],[-122.170842999596,47.54075599993852],[-122.17107000027504,47.54080899995887],[-122.17135999980496,47.54085500001321],[-122.17152800003444,47.54086899983717],[-122.17386399976054,47.54093500016974],[-122.17489800017843,47.54096499974219],[-122.17504100029358,47.54096900029028],[-122.17580899967436,47.54099199994909],[-122.17702499966714,47.541025000048336],[-122.1780430001915,47.541049000272864],[-122.17904499992402,47.54107799979674],[-122.1798170004011,47.5411000000313],[-122.18092399971563,47.541131000098005],[-122.1811549996943,47.54114399986625],[-122.18125400032682,47.54115099974009],[-122.18163000007047,47.54119000023304],[-122.18198300024787,47.54124099985432],[-122.1822050000057,47.54127499977636],[-122.18357300033445,47.541486999863274],[-122.18425600022476,47.54160399989879],[-122.18447100030988,47.541654999723754],[-122.18481299971836,47.541756999831165],[-122.18502600015367,47.54183100001082],[-122.18544999957788,47.542013000106614],[-122.1856119999596,47.5420549998524],[-122.18577099996827,47.54208699992486],[-122.18588499977109,47.54210399991754],[-122.18711500000755,47.542119999941264],[-122.18813699983157,47.54213300007069],[-122.18834900044199,47.54213000018106],[-122.18882499974472,47.54213400003385],[-122.19055499957341,47.54213699992326],[-122.19064599981,47.542146000196844],[-122.19069299966566,47.54216000028248],[-122.19081400003951,47.5422120001346],[-122.19086699974297,47.5422710002659],[-122.19090100007811,47.54233300020894],[-122.19092199999454,47.542420000240156],[-122.1909129997737,47.542993000163534],[-122.19090500027609,47.543571000173166],[-122.19090000025322,47.5449150002888],[-122.19089799970509,47.5456619999816],[-122.19089799970509,47.545799000089126],[-122.19098700029184,47.54579800019588],[-122.1929050004415,47.545792000229525],[-122.1935459996007,47.54579800019588],[-122.19383000018112,47.545795999802905],[-122.19453399998783,47.545795999802905],[-122.19462100002647,47.545795999802905],[-122.19481099999727,47.545795999802905],[-122.19481199982219,47.54571300010331],[-122.19481299964708,47.545681999714205],[-122.19481299964708,47.54554699970345],[-122.19481500019522,47.54544100009359],[-122.19481600002014,47.545262999991934],[-122.1948190003932,47.5448950002635],[-122.19482299969283,47.544831999800564],[-122.19486500042393,47.544831999800564],[-122.19513599968727,47.54483600005358],[-122.19513800023543,47.54472300021633],[-122.19513999988524,47.54455300004527],[-122.19514499990808,47.54425099997968],[-122.19514800028116,47.544026999819195],[-122.19514900010606,47.54398700029619],[-122.19514900010606,47.54397499994822],[-122.19501699986158,47.54397499994822],[-122.19501900040973,47.54361199994856],[-122.19502299970937,47.54309799992766],[-122.19510100042551,47.54309999981719],[-122.19516300034977,47.5431009997619],[-122.1951669996494,47.54301099980885],[-122.19516800037265,47.542984000035354],[-122.19516900019757,47.54294600021827],[-122.19516900019757,47.54290699981888],[-122.19516900019757,47.54286799999685],[-122.19516900019757,47.542829000145794]]]},"properties":{"AREALAND":"11486798","AREAWATER":"64377","BASENAME":"Newcastle","CBSAPCI":"N","CENTLAT":"+47.5303654","CENTLON":"-122.1633323","FUNCSTAT":"A","GEOID":"5348645","INTPTLAT":"+47.5353138","INTPTLON":"-122.1669963","LSADC":"25","MTFCC":"G4110","NAME":"Newcastle city","NECTAPCI":"N","OBJECTID":24206,"OID":"27890836057937","PLACE":"48645","PLACECC":"C1","PLACENS":"02411243","STATE":"53","DISP_CLR":2,"slug":"newcastle","jurisdiction_key":"newcastle_city","county_fips":["53033"]}}]}
