{"type":"FeatureCollection","features":[{"type":"Feature","geometry":{"type":"MultiPolygon","coordinates":[[[[-117.0799659998762,48.16640800022608],[-117.08153900024433,48.16488900005288],[-117.07975900018697,48.16487899996186],[-117.0790639997028,48.16486799985947],[-117.07457899984836,48.16484900027622],[-117.07454500041149,48.16652600005491],[-117.07454000038862,48.16666600025117],[-117.07390099998094,48.16665299998371],[-117.06985499961935,48.16662999996332],[-117.06920000021647,48.16662500008778],[-117.0690389996597,48.166626000062934],[-117.06898199975826,48.166626000062934],[-117.06896500003982,48.16840599981502],[-117.06734800018907,48.16840599981502],[-117.06390400042527,48.16840499987457],[-117.0636399999363,48.16840499987457],[-117.06351899956248,48.16840399993409],[-117.06353700000413,48.16661900023647],[-117.06108400010218,48.16661900023647],[-117.06099600023863,48.16661900023647],[-117.06099500041374,48.166637999763175],[-117.0608179999634,48.16663699978825],[-117.06080700009275,48.16840499987457],[-117.05863500039823,48.168402999993646],[-117.05817699974051,48.168402999993646],[-117.05807700018138,48.168402000053135],[-117.05805500044008,48.17020899972004],[-117.05801600008202,48.173269000203604],[-117.05801500025713,48.17335400018984],[-117.05801299970896,48.17356700005782],[-117.06348099992763,48.17264599974623],[-117.06403099974854,48.17255299971046],[-117.06414399972644,48.172547999813254],[-117.06559599972078,48.17233599976975],[-117.06557300015454,48.17227200005909],[-117.06675499981213,48.17209299993885],[-117.06795800028443,48.171885999773714],[-117.06820799963137,48.171837999876516],[-117.06902799978903,48.17161400016172],[-117.06902600013919,48.171688999934496],[-117.06902199994124,48.171818999879854],[-117.06902000029143,48.17191799987988],[-117.06901899956819,48.1719400000536],[-117.06901400044363,48.17212099984492],[-117.06901199989551,48.17217899994406],[-117.06901199989551,48.1721900002757],[-117.06898199975826,48.17222200019217],[-117.06894699959815,48.17225999987979],[-117.0687459997567,48.172307999981065],[-117.06871999981746,48.17231500022921],[-117.06848899983876,48.17236300027895],[-117.06825500038535,48.17240499991117],[-117.06707000035473,48.17260100013646],[-117.0661670003564,48.17320300016649],[-117.06543000003943,48.17372399982723],[-117.06551799990297,48.17373499982739],[-117.06570600022395,48.17375999992788],[-117.06594200022549,48.17378599985178],[-117.0653220000844,48.17405499983404],[-117.06502400015856,48.174184999771754],[-117.0645479999575,48.17440499974493],[-117.06312100007753,48.17506800002208],[-117.06264599970139,48.17529000001239],[-117.0622619995618,48.175439000273656],[-117.06216200000271,48.17547799977601],[-117.0619090002827,48.17557699990025],[-117.06150900024964,48.17571099996355],[-117.06114299965343,48.17581300022405],[-117.06091500004779,48.175872999930135],[-117.06067099965031,48.17591900005658],[-117.06016199983728,48.17601700013629],[-117.06013599989802,48.17602200029424],[-117.0597400000629,48.17608399993624],[-117.05920899961023,48.17613400023066],[-117.05910999987607,48.17614399992424],[-117.05863899969785,48.17616300011547],[-117.05719599992436,48.176137999988484],[-117.05633200028409,48.17611400023855],[-117.05582199974786,48.17610000017954],[-117.05537300020927,48.1760779999935],[-117.05527399957677,48.17607200005006],[-117.05497700037417,48.176057000188344],[-117.05487799974166,48.17605299982511],[-117.05476800013678,48.17604800026919],[-117.05450799984578,48.17604000014005],[-117.05364400020552,48.17601700013629],[-117.05340099963294,48.17600800021011],[-117.053031999562,48.175995999707105],[-117.05299399992718,48.17599400012216],[-117.05288299959909,48.175991000145615],[-117.05284599978917,48.17598999975401],[-117.05255500043435,48.1759760002602],[-117.05236600028847,48.17596800011982],[-117.05168400022308,48.17594599987715],[-117.05139399979485,48.17593799973215],[-117.05110300044001,48.175925999811746],[-117.05080700016401,48.17591500028163],[-117.05023200022876,48.175905999738546],[-117.04994199980054,48.175901999962576],[-117.0497429996089,48.17591699986959],[-117.04964200022488,48.17593199977228],[-117.04939600017758,48.17596999970577],[-117.04875900031803,48.17611400023855],[-117.04873099983062,48.17612099996708],[-117.04847300008777,48.17620500022941],[-117.04818100000972,48.176318999937365],[-117.04771999987727,48.176501000227965],[-117.04730999979844,48.17667300028395],[-117.04719199979765,48.17672300000391],[-117.04713400007135,48.1767479998456],[-117.04713900009422,48.17628599979577],[-117.0471380002693,48.17620899998173],[-117.04706499957607,48.17624099978622],[-117.04707100032215,48.1759659999348],[-117.04707200014707,48.17593000018489],[-117.04707799999485,48.17570599977523],[-117.04707600034504,48.17561599989668],[-117.0471519996147,48.1755989997022],[-117.04717799955397,48.175592999702666],[-117.04730899997352,48.175561999893716],[-117.0478699996651,48.17543100004949],[-117.04804399974235,48.17539100010812],[-117.04812800030628,48.17537200022985],[-117.04813099978101,48.17529600004738],[-117.04813099978101,48.17525999982704],[-117.04849800020214,48.17515500023807],[-117.0488699997478,48.17505599989807],[-117.04924499966651,48.17496200022737],[-117.04945399990389,48.174915000027816],[-117.05077500037696,48.174653000292935],[-117.05179399982794,48.17448300029297],[-117.05535899996556,48.173886999914785],[-117.05564400037092,48.17383999992803],[-117.05532399980548,48.17383800025901],[-117.0549089997038,48.173835000156316],[-117.05395600037504,48.173832000053444],[-117.05323099975364,48.173828000115684],[-117.0525870002214,48.17382500001236],[-117.05142399993207,48.17382000023923],[-117.05129500006063,48.17381899980527],[-117.05118000043292,48.173496000000426],[-117.05118799993052,48.17343800019279],[-117.05118499955746,48.17333100017929],[-117.05131599997704,48.17301499984927],[-117.05139299996993,48.173016000298915],[-117.05182099959212,48.17301899985045],[-117.05186400014813,48.17301899985045],[-117.05260999978762,48.173023999701726],[-117.05260999978762,48.17294100007071],[-117.05263900009994,48.17179099980888],[-117.05268000010781,48.17017900015649],[-117.05131199977909,48.17017200021588],[-117.05128199964184,48.171379000163384],[-117.05124400000703,48.172913000013295],[-117.05124200035718,48.17301399999869],[-117.05058299985802,48.17300900014647],[-117.0498820004244,48.17300400029373],[-117.04988400007419,48.17290900000385],[-117.04992099988414,48.1712209999185],[-117.04994400034867,48.170163999769024],[-117.04857600001993,48.170155999920055],[-117.04721199988916,48.170152000294614],[-117.04722699995776,48.1695540000652],[-117.04729899992779,48.16660200005484],[-117.04729300008,48.16650000004489],[-117.04458800028299,48.16652600005491],[-117.04458599973485,48.166596000200826],[-117.04451999961262,48.16929299982093],[-117.04450000041943,48.170122000098594],[-117.04421099981612,48.170124999819464],[-117.04392399976096,48.17013699989926],[-117.04370399965292,48.17017400002781],[-117.04353499959852,48.170195999751556],[-117.04338599963559,48.17019300003489],[-117.04314700015932,48.1701780002506],[-117.04292100020352,48.17016899989868],[-117.04293799992195,48.17168999981091],[-117.04293000042433,48.17199799975841],[-117.04446000023648,48.17198899972587],[-117.0444209998784,48.17382500001236],[-117.04411000043211,48.173814999866494],[-117.04381900017896,48.17381400003151],[-117.04359200039826,48.17381300019651],[-117.04360900011667,48.17308100012837],[-117.04266400028555,48.17307300013537],[-117.0426459998439,48.17381199976245],[-117.04255100030765,48.173810999927404],[-117.04255899980527,48.17369200024901],[-117.04257300004898,48.17318199978289],[-117.04257499969879,48.173078999830715],[-117.04195700010582,48.17307300013537],[-117.04181099961762,48.173073999984794],[-117.04181399999068,48.17303599970223],[-117.04184699960265,48.172689000201764],[-117.04191600009796,48.17241200014612],[-117.04189600000645,48.17200500004887],[-117.04157799998912,48.17200599991913],[-117.0397109998931,48.172019000027866],[-117.03970699969513,48.17281400013704],[-117.0397040002204,48.173514999974785],[-117.03970500004532,48.173753999713185],[-117.03970500004532,48.17380699998801],[-117.03970599987024,48.17387400027967],[-117.03971000006818,48.173968000147816],[-117.03970699969513,48.17414100014307],[-117.03968800032689,48.17447899980693],[-117.03967599973299,48.17472199971278],[-117.0396749999081,48.17491199998814],[-117.03967599973299,48.175482999986556],[-117.03967800028113,48.1756759998333],[-117.03967599973299,48.175716999949245],[-117.03963600044834,48.17629999980398],[-117.0396339999002,48.176601999735205],[-117.03964399994597,48.176701000085245],[-117.03965399999169,48.17679800009147],[-117.03966200038762,48.176867999994364],[-117.03964800014391,48.17711699978126],[-117.03964899996883,48.177397000072226],[-117.03958500039472,48.177833999796114],[-117.03960100028826,48.17789299977775],[-117.03960999961076,48.177914000028956],[-117.03961700018178,48.177929999701114],[-117.03962700022753,48.17798700006506],[-117.03963600044834,48.17801300024158],[-117.0396339999002,48.17807299976917],[-117.03963600044834,48.17825900001482],[-117.0396389999231,48.17832300003992],[-117.03963999974799,48.178393000256705],[-117.0396409995729,48.178403000108716],[-117.03963499972512,48.17860600015724],[-117.03963499972512,48.17867800006692],[-117.0396339999002,48.178694999839486],[-117.03962899987734,48.17875600010455],[-117.03961399980874,48.17894599980711],[-117.03960999961076,48.17899700003932],[-117.03960299993807,48.17908400017738],[-117.03959700009031,48.17927199980621],[-117.03956199993017,48.18032100023281],[-117.03956000028039,48.180466999935234],[-117.03955899955714,48.18061299982084],[-117.03955699990733,48.18090500014153],[-117.03955600008241,48.18103399978839],[-117.0395550002575,48.18106499988265],[-117.0395550002575,48.18107899978384],[-117.03955199988444,48.18118599980071],[-117.03955100005952,48.18129700014761],[-117.03955000023463,48.181798000050144],[-117.03955000023463,48.18183599982863],[-117.03955100005952,48.18191999971185],[-117.03954900040972,48.18201599975211],[-117.03953000014315,48.18268500020679],[-117.03952299957211,48.182893999815036],[-117.03951699972436,48.18312100012358],[-117.03951900027249,48.18398200001629],[-117.03949499998303,48.184167000152904],[-117.03946800021885,48.184409000032616],[-117.03946200037109,48.18446599978112],[-117.03944899995227,48.18457400013946],[-117.03943300005876,48.18470999988992],[-117.03937399960921,48.185227999976966],[-117.03935600006587,48.18538900020828],[-117.03935199986792,48.185513000119826],[-117.03934400037029,48.18573600000285],[-117.03933900034743,48.185874000062185],[-117.03933699979929,48.185947000142974],[-117.03933599997437,48.18599600020447],[-117.03940499957135,48.18599000022394],[-117.03953099996804,48.185984999840265],[-117.03976500031976,48.18597800026068],[-117.04047999999713,48.18597599986725],[-117.04070500012804,48.18597700006396],[-117.04069000005941,48.186095999976935],[-117.04068500003655,48.186135999951055],[-117.04065499989933,48.18637599973913],[-117.04068699968636,48.18647899992991],[-117.04070699977784,48.18651399987204],[-117.04075199998368,48.18659300014973],[-117.04079200016666,48.186662000269955],[-117.04141200030779,48.18658099972877],[-117.04140899993473,48.18664599972956],[-117.04218700025957,48.186649999865104],[-117.04222900009236,48.18664900028047],[-117.04221599967357,48.187776999722914],[-117.04217399984078,48.18831099998156],[-117.04297700028,48.18831799984143],[-117.04280099965459,48.18863500002373],[-117.04263499997325,48.189013000079264],[-117.04252299982024,48.18907799999008],[-117.0423989999717,48.18915400010374],[-117.0423839999031,48.189161999983064],[-117.04209400037317,48.188946999947284],[-117.04114799981882,48.189610999742335],[-117.040893000449,48.18980399970239],[-117.04219200028244,48.190511000251966],[-117.0422240000695,48.19052999990938],[-117.04228000014601,48.19049699993253],[-117.04339499985645,48.18982300022081],[-117.04314999963404,48.18966600004393],[-117.04298899997555,48.18955800023425],[-117.04319499983988,48.189433999928134],[-117.04297499973187,48.18929000027797],[-117.04329899959697,48.188911999870015],[-117.04332000041168,48.18888699997129],[-117.0433999998793,48.18879299990761],[-117.04340499990217,48.18878399982874],[-117.04363800042897,48.18845700028369],[-117.04371600024679,48.18834899972284],[-117.0437649997523,48.18828000007716],[-117.0438779997302,48.18809700012432],[-117.04389699999675,48.18804000022155],[-117.04399599973097,48.18771000023185],[-117.04409100016552,48.18789600024779],[-117.04411799992971,48.187949000276866],[-117.0441880002499,48.18808699976771],[-117.04422599988473,48.18816199999912],[-117.04428500033428,48.18828000007716],[-117.04430799990052,48.188324000148384],[-117.04436200032715,48.18832199984652],[-117.04476300018516,48.18919299995281],[-117.04548999955809,48.190691999759615],[-117.04554399998477,48.1906800002984],[-117.04583900043586,48.19061700023639],[-117.0463289999823,48.19157500016136],[-117.0466729999389,48.19210199982976],[-117.04673900006114,48.19216900016634],[-117.04676099980243,48.19221000026652],[-117.04683699997041,48.19230899981813],[-117.04684500036633,48.191563999796934],[-117.04687100030563,48.19136499992764],[-117.04684600019125,48.19099899984164],[-117.04684799984108,48.190947000072214],[-117.04687399978035,48.19040700026884],[-117.04687499960527,48.190356000009935],[-117.04692300018415,48.18867000029018],[-117.04692099963603,48.188583000251064],[-117.04691599961313,48.188376000183844],[-117.04854400023288,48.188375000033915],[-117.04935799964441,48.18836099972983],[-117.04947700036843,48.188360000178555],[-117.049597000019,48.18837399988397],[-117.05212400043912,48.188376000183844],[-117.05783100013409,48.18838800018451],[-117.05784299982963,48.187940000049785],[-117.05785299987538,48.18756499976409],[-117.05832300022867,48.18759499993583],[-117.05830999980988,48.18756899982795],[-117.05819500018214,48.187335000059996],[-117.05814999997632,48.187234999710455],[-117.05810499977048,48.18713300001533],[-117.05808100037935,48.187082000091685],[-117.05790800012699,48.18671899990859],[-117.05785299987538,48.186639999825076],[-117.05785899972317,48.186271999749344],[-117.05786299992114,48.18598000005509],[-117.05786999959382,48.184722000150046],[-117.05786700011912,48.18398399988863],[-117.05673300014209,48.18398599976084],[-117.05654399999621,48.18398699999642],[-117.05654200034638,48.183897000280076],[-117.05653399995046,48.18356699996813],[-117.05665399960105,48.18357199998869],[-117.0578660002942,48.183597999728455],[-117.05801199988404,48.183597999728455],[-117.0580350003486,48.183597999728455],[-117.06039299981597,48.18359700008429],[-117.06062399979463,48.183597999728455],[-117.06064499971106,48.1829169997285],[-117.06331799972101,48.18292100015507],[-117.06332500029204,48.18278200027139],[-117.06340899995762,48.181136000240485],[-117.0635219999355,48.18113899991597],[-117.06368000011928,48.181144000173376],[-117.06370100003566,48.1811469998484],[-117.06376899980772,48.1811810001464],[-117.0649229998762,48.18116999994674],[-117.06496899990697,48.18116900025518],[-117.06500200041724,48.18116900025518],[-117.06517200029657,48.18116700027306],[-117.06517200029657,48.18125800027975],[-117.06516700027368,48.18185099979647],[-117.06569100015531,48.18185099979647],[-117.06631799996913,48.18185200007366],[-117.0663999999849,48.18185099979647],[-117.06647000030509,48.18185099979647],[-117.06684100002585,48.18185000011819],[-117.06692999971433,48.18185000011819],[-117.06693200026245,48.18181800022076],[-117.06697699956999,48.181156999762216],[-117.06680199966779,48.181150999814164],[-117.06647799980271,48.1811560000704],[-117.06636200035007,48.18115499977962],[-117.06640500000779,48.17982900012686],[-117.06644600001566,48.17864599998646],[-117.06556399993373,48.178641000084376],[-117.06558099965216,48.17801100013629],[-117.06559800026892,48.177999000102105],[-117.06562699968292,48.17799999985548],[-117.06582099985167,48.17800299971447],[-117.06597200036273,48.17800600017232],[-117.06606199987611,48.178008000277764],[-117.0661189997775,48.178008000277764],[-117.06629000038005,48.17801100013629],[-117.06634800010636,48.17801300024158],[-117.0664429996426,48.17801399999469],[-117.06649399969625,48.17801600009982],[-117.06655800016864,48.17801300024158],[-117.06655300014577,48.17814600017789],[-117.06655099959764,48.17819400016025],[-117.06654300010001,48.17839899992853],[-117.0665389999021,48.17850600014823],[-117.06649500041945,48.17968499984543],[-117.06656599966625,48.17978099987834],[-117.06680199966779,48.179712000078766],[-117.06755700042645,48.179483999924344],[-117.06755800025135,48.1794169997755],[-117.06756300027423,48.17925700028173],[-117.06760199973398,48.17808499978604],[-117.06760500010704,48.17801600009982],[-117.06750999967245,48.178014999747724],[-117.06694899998091,48.17800699992556],[-117.06676200038314,48.17800499982003],[-117.06681099988863,48.177950000182825],[-117.06682900033029,48.17788400018088],[-117.06685000024672,48.177419000291316],[-117.06683099998014,48.17705200027588],[-117.06681300043677,48.176907999981495],[-117.0668490004218,48.17678599977336],[-117.06688399968355,48.17675800001853],[-117.06692200021672,48.17672800009306],[-117.06707799985232,48.17669399983685],[-117.06746799983965,48.176701000085245],[-117.06795900010935,48.17672200022567],[-117.06820400033173,48.17671499998015],[-117.06847299994523,48.17670799973365],[-117.06859799961872,48.17667600022063],[-117.06864000034982,48.17665400028176],[-117.06868600038057,48.17661100015615],[-117.06871700034272,48.17652999990519],[-117.06875599980246,48.17579699989119],[-117.06871800016762,48.17571900014403],[-117.06868999968022,48.175677000230976],[-117.06847499959507,48.175612999898014],[-117.06841199984588,48.175608000299185],[-117.06796900015509,48.17557399989926],[-117.06677599972855,48.175483999789],[-117.06664299965915,48.17547399996669],[-117.06657900008504,48.17547000015703],[-117.0662660000906,48.17545099970898],[-117.06620099979325,48.17544699989752],[-117.06631799996913,48.1752939998361],[-117.06651200013788,48.17504399977129],[-117.06667000032165,48.1748349999078],[-117.06672899987286,48.17475900012743],[-117.06679300034529,48.17468700010547],[-117.06691800001875,48.17454499999884],[-117.06714800017252,48.174284999822085],[-117.06720099987598,48.1742250000549],[-117.06729700013543,48.17411799988646],[-117.0673940002198,48.17396000029321],[-117.06706600015676,48.17380799982313],[-117.06693800011026,48.17374199988071],[-117.06669200006297,48.17361599997256],[-117.06651600033585,48.17352699986038],[-117.06684600004874,48.17337999972048],[-117.0678360000857,48.17294299977466],[-117.06809800002652,48.17282799989512],[-117.0681680003467,48.17279800006647],[-117.06834900009669,48.17271800023787],[-117.06889200024489,48.17247899986421],[-117.06900600004772,48.17242799973803],[-117.06909599956109,48.17238899971299],[-117.06997500016828,48.17199799975841],[-117.07043799995056,48.171794000031156],[-117.07382399998804,48.17029599979301],[-117.07331699982484,48.17028799996463],[-117.07292299963953,48.17028799996463],[-117.07276799982886,48.170287000060874],[-117.07270400025475,48.1702860001571],[-117.0719839996562,48.17028399975042],[-117.0717150000427,48.17028000013501],[-117.0717510000277,48.17026100016015],[-117.0718289998455,48.17021999987517],[-117.07213099996929,48.17006200025302],[-117.07301300005125,48.16960199970382],[-117.0737570000409,48.16921299991622],[-117.07455999958178,48.168842000149745],[-117.07501200039174,48.16858899997133],[-117.07571000035065,48.16821200021964],[-117.07722599991908,48.167275000193],[-117.07761000005863,48.16699900021814],[-117.07795599966502,48.16675099979874],[-117.0780440004269,48.16668800028153],[-117.07966700012547,48.16669400012477],[-117.07986399976893,48.16650599991008],[-117.0799659998762,48.16640800022608]]],[[[-117.04127599986535,48.192734999862004],[-117.04129599995683,48.19268699972202],[-117.04125099975099,48.19253400021089],[-117.0412239999868,48.19242300024439],[-117.04105300028257,48.19217899972639],[-117.04086800033464,48.19213600004727],[-117.04059200015011,48.19203899971942],[-117.04033799970692,48.19189400012172],[-117.03999600029844,48.19166999999864],[-117.03948800031036,48.1916669997417],[-117.03929800033954,48.19177100016201],[-117.03926099963131,48.19179100003437],[-117.03913099993498,48.19188700015142],[-117.03912599991209,48.192052000138276],[-117.03900500043657,48.19555200024629],[-117.03900200006353,48.19564799990409],[-117.03901700013216,48.19565299994371],[-117.03908300025438,48.19568700020023],[-117.03940399974643,48.19580299970793],[-117.03969800037262,48.195774000155026],[-117.03979100025906,48.195449999739154],[-117.03971900028903,48.19509899977103],[-117.03981999967306,48.19478400010158],[-117.03998799990255,48.19461099970451],[-117.04012699981972,48.19446900029201],[-117.04022899992698,48.194365999991184],[-117.04034799975263,48.194270999762715],[-117.04053799972345,48.1941010001434],[-117.0405829999293,48.19398000017295],[-117.04062300011225,48.19386600021648],[-117.04067199961776,48.193730000209825],[-117.0406759998157,48.19367400003172],[-117.04068099983857,48.19351300007694],[-117.04076100020453,48.19340700009464],[-117.04086800033464,48.193259000012404],[-117.04089099990088,48.19324000016911],[-117.04106400015323,48.19310200018216],[-117.04112899955226,48.1930380000447],[-117.04112899955226,48.19302100023799],[-117.04119499967447,48.19294900011361],[-117.04127599986535,48.192734999862004]]],[[[-117.07402599965442,48.18843600015919],[-117.07404599974589,48.187524999707456],[-117.07068599964768,48.18748400005114],[-117.0687099997717,48.18746300012686],[-117.06854599974018,48.18746400029454],[-117.06857000002961,48.18661300024621],[-117.0686100002126,48.18519099993047],[-117.06854099971731,48.18519399996758],[-117.06844500035615,48.185204999902645],[-117.06816199960063,48.1852389999047],[-117.06800599996501,48.1852579997199],[-117.06668299984213,48.18550299985796],[-117.06657900008504,48.18550899989555],[-117.06643900034295,48.18550899989555],[-117.0662800003343,48.185476999886625],[-117.06623000010559,48.185466000009974],[-117.0661199996024,48.18542900013524],[-117.06607299974674,48.18539599986836],[-117.06600499997468,48.18534900025012],[-117.06592499960875,48.185278999948714],[-117.0658519998138,48.18519599979262],[-117.06579900011035,48.18513399979034],[-117.06570000037618,48.188415000026055],[-117.06565799964505,48.189674999967906],[-117.06849100038691,48.189724000058476],[-117.06852099962582,48.18844000015503],[-117.06862799975595,48.18843100001417],[-117.06884399966602,48.18841799987449],[-117.07402599965442,48.18843600015919]]]]},"properties":{"AREALAND":"3938307","AREAWATER":"0","BASENAME":"Newport","CBSAPCI":"N","CENTLAT":"+48.1783019","CENTLON":"-117.0545679","FUNCSTAT":"A","GEOID":"5348820","INTPTLAT":"+48.1783019","INTPTLON":"-117.0545679","LSADC":"25","MTFCC":"G4110","NAME":"Newport city","NECTAPCI":"N","OBJECTID":15649,"OID":"27890480856145","PLACE":"48820","PLACECC":"C1","PLACENS":"02411249","STATE":"53","DISP_CLR":2,"slug":"newport","jurisdiction_key":"newport_city","county_fips":["53051"]}}]}
