{
  "type": "FeatureCollection",
  "features": [
    {
      "type": "Feature",
      "geometry": {
        "type": "Polygon",
        "coordinates": [
          [
            [
              -122.32884499973689,
              48.93224699973104
            ],
            [
              -122.32884499973689,
              48.932111999980684
            ],
            [
              -122.32882499964539,
              48.92322199992454
            ],
            [
              -122.32882100034576,
              48.921207999968594
            ],
            [
              -122.32878799983547,
              48.92017000017523
            ],
            [
              -122.32824499968727,
              48.92016800026628
            ],
            [
              -122.32790599975353,
              48.920166999721474
            ],
            [
              -122.32464500028784,
              48.92016000003933
            ],
            [
              -122.32344400036368,
              48.92015700017522
            ],
            [
              -122.32187299964535,
              48.92015099985627
            ],
            [
              -122.32159700035915,
              48.92014999990142
            ],
            [
              -122.32151899964303,
              48.92014999990142
            ],
            [
              -122.32125300040255,
              48.92014799999166
            ],
            [
              -122.32095100027878,
              48.92014799999166
            ],
            [
              -122.32096499962415,
              48.9193070001438
            ],
            [
              -122.32096999964702,
              48.918560999717606
            ],
            [
              -122.32097100037026,
              48.918428000132295
            ],
            [
              -122.32097100037026,
              48.91837300009822
            ],
            [
              -122.32065199962972,
              48.91836800014577
            ],
            [
              -122.31721000041402,
              48.91837000012679
            ],
            [
              -122.31526799997495,
              48.91837100011728
            ],
            [
              -122.31531099963266,
              48.919675000194104
            ],
            [
              -122.31532499987635,
              48.920146000081786
            ],
            [
              -122.315299999762,
              48.920146000081786
            ],
            [
              -122.31527600037087,
              48.920146000081786
            ],
            [
              -122.3151740002636,
              48.920146000081786
            ],
            [
              -122.31488600038352,
              48.920146000081786
            ],
            [
              -122.31486899976676,
              48.92076700011593
            ],
            [
              -122.31488600038352,
              48.921212000293465
            ],
            [
              -122.3165109997319,
              48.921223000152125
            ],
            [
              -122.31670099970269,
              48.921225000018836
            ],
            [
              -122.31730800032334,
              48.92122899975205
            ],
            [
              -122.31747300017977,
              48.92128199972836
            ],
            [
              -122.31755400037062,
              48.92128400018299
            ],
            [
              -122.31764300005908,
              48.92143600026477
            ],
            [
              -122.31767700039426,
              48.92154400016609
            ],
            [
              -122.3177350001206,
              48.921634999928955
            ],
            [
              -122.31781499958822,
              48.92172899988608
            ],
            [
              -122.31786499981693,
              48.92183599982295
            ],
            [
              -122.3179679997491,
              48.921927000234355
            ],
            [
              -122.3180399997191,
              48.92201099987662
            ],
            [
              -122.31813299960552,
              48.92206600003668
            ],
            [
              -122.31807099968124,
              48.922237000222566
            ],
            [
              -122.31800700010713,
              48.92237499984207
            ],
            [
              -122.31801399977986,
              48.92250900004019
            ],
            [
              -122.31806300018366,
              48.9226739998739
            ],
            [
              -122.31802499965049,
              48.922753999829595
            ],
            [
              -122.31782499963396,
              48.92283199985485
            ],
            [
              -122.31761600029489,
              48.92291200014772
            ],
            [
              -122.31750099976885,
              48.922999000187914
            ],
            [
              -122.31728900005676,
              48.923121999864016
            ],
            [
              -122.3172010001932,
              48.923267999719826
            ],
            [
              -122.31706999977364,
              48.92338599987359
            ],
            [
              -122.31691999998581,
              48.92348299974116
            ],
            [
              -122.316617999862,
              48.92360699988168
            ],
            [
              -122.3164119999977,
              48.92367899986002
            ],
            [
              -122.3161879996917,
              48.923696000249706
            ],
            [
              -122.3159409998195,
              48.923660000285736
            ],
            [
              -122.31572099971146,
              48.92364700001364
            ],
            [
              -122.31561299975642,
              48.92368399987109
            ],
            [
              -122.31540500024231,
              48.9238470001929
            ],
            [
              -122.3152920002644,
              48.923976000001666
            ],
            [
              -122.31524200003567,
              48.924166000119826
            ],
            [
              -122.31515499999705,
              48.924452999859575
            ],
            [
              -122.31506200011061,
              48.92474200003683
            ],
            [
              -122.31518599995918,
              48.92498799994425
            ],
            [
              -122.31523399963974,
              48.92506600002175
            ],
            [
              -122.31538599997572,
              48.92513400024718
            ],
            [
              -122.31558000014448,
              48.925248000122316
            ],
            [
              -122.31576300044259,
              48.925372000011976
            ],
            [
              -122.31589300013891,
              48.92552999972043
            ],
            [
              -122.31592900012392,
              48.92561600007632
            ],
            [
              -122.3159480003905,
              48.92581299992847
            ],
            [
              -122.31596599993385,
              48.925875999935855
            ],
            [
              -122.31614099983604,
              48.925905999855246
            ],
            [
              -122.316293000172,
              48.925949999861814
            ],
            [
              -122.31623399972247,
              48.92610999977348
            ],
            [
              -122.31604499957659,
              48.92622500020485
            ],
            [
              -122.31606100036844,
              48.926359000106565
            ],
            [
              -122.31593800034476,
              48.926433999736055
            ],
            [
              -122.31582100016888,
              48.926470000061194
            ],
            [
              -122.31542299978565,
              48.92654800018476
            ],
            [
              -122.31534499996782,
              48.926551000255174
            ],
            [
              -122.31512200038507,
              48.926551000255174
            ],
            [
              -122.31466399972736,
              48.926552000081855
            ],
            [
              -122.31451999978732,
              48.926552000081855
            ],
            [
              -122.31259999998787,
              48.92658500025373
            ],
            [
              -122.31212399978678,
              48.92659399986759
            ],
            [
              -122.31206199986251,
              48.92497699973432
            ],
            [
              -122.31197399999895,
              48.9249440002705
            ],
            [
              -122.31163300041543,
              48.92474500021575
            ],
            [
              -122.31135300003292,
              48.924634999833266
            ],
            [
              -122.31114299997066,
              48.92454400022444
            ],
            [
              -122.31096700024356,
              48.924452999859575
            ],
            [
              -122.3106740003406,
              48.92426199978035
            ],
            [
              -122.3103019998966,
              48.92408000021801
            ],
            [
              -122.30991299973417,
              48.92383499985061
            ],
            [
              -122.30985699965768,
              48.92379099975124
            ],
            [
              -122.30983200044163,
              48.92377099974695
            ],
            [
              -122.3097160000907,
              48.92360900024318
            ],
            [
              -122.3095980000899,
              48.923554000011585
            ],
            [
              -122.30928300044565,
              48.92344399995702
            ],
            [
              -122.30889799958288,
              48.92327099998734
            ],
            [
              -122.30869799956632,
              48.92327000009492
            ],
            [
              -122.30852199983923,
              48.92336800007823
            ],
            [
              -122.3083710002265,
              48.923492999801994
            ],
            [
              -122.30808900019416,
              48.923707000151495
            ],
            [
              -122.30772599997101,
              48.9239120000787
            ],
            [
              -122.30719899971633,
              48.924168999743095
            ],
            [
              -122.30684800008704,
              48.92430199997794
            ],
            [
              -122.30633400025114,
              48.92443399998946
            ],
            [
              -122.30602999957922,
              48.92446800024896
            ],
            [
              -122.30589999988287,
              48.9244669997903
            ],
            [
              -122.3056899998206,
              48.92451999987191
            ],
            [
              -122.30535000006199,
              48.924733999952295
            ],
            [
              -122.30509300014403,
              48.92484000008275
            ],
            [
              -122.30480000024106,
              48.92485700007721
            ],
            [
              -122.30427299998638,
              48.92483200001395
            ],
            [
              -122.30422699995559,
              48.92585799985753
            ],
            [
              -122.30425299989489,
              48.92752600001927
            ],
            [
              -122.30426499959046,
              48.92820899999151
            ],
            [
              -122.30421299971191,
              48.93108500024533
            ],
            [
              -122.30488399990664,
              48.93108300018329
            ],
            [
              -122.30530599968104,
              48.93108500024533
            ],
            [
              -122.30582299988997,
              48.93108300018329
            ],
            [
              -122.3076959998338,
              48.93103899997838
            ],
            [
              -122.30798000041423,
              48.931041999778955
            ],
            [
              -122.30921300012542,
              48.930250999883064
            ],
            [
              -122.309773999817,
              48.92989200005618
            ],
            [
              -122.3097999997563,
              48.92932000019902
            ],
            [
              -122.31196899997607,
              48.929370999720824
            ],
            [
              -122.31202900025053,
              48.929370999720824
            ],
            [
              -122.31230399971184,
              48.92937499998199
            ],
            [
              -122.31235399994056,
              48.92937799988256
            ],
            [
              -122.31225699985617,
              48.93184100025425
            ],
            [
              -122.31220300032781,
              48.93326199991223
            ],
            [
              -122.31214399987827,
              48.93472299995485
            ],
            [
              -122.31314399996099,
              48.934729999956346
            ],
            [
              -122.3150040003843,
              48.934738999872486
            ],
            [
              -122.32073600019362,
              48.93478299976718
            ],
            [
              -122.32068799961472,
              48.93805300026517
            ],
            [
              -122.3206290000635,
              48.9421129997582
            ],
            [
              -122.32062200039081,
              48.94236500023904
            ],
            [
              -122.32091899959342,
              48.942371000249054
            ],
            [
              -122.32092000031665,
              48.9423559999277
            ],
            [
              -122.32097100037026,
              48.94220100008006
            ],
            [
              -122.32105000001295,
              48.9420730002579
            ],
            [
              -122.32114299989938,
              48.941980999869486
            ],
            [
              -122.3213050002811,
              48.941842000038456
            ],
            [
              -122.3214249999317,
              48.94172299972268
            ],
            [
              -122.32150299974951,
              48.9415589998142
            ],
            [
              -122.32153299988673,
              48.941403999851474
            ],
            [
              -122.3215720002448,
              48.940404999871305
            ],
            [
              -122.32164400021482,
              48.939569000293666
            ],
            [
              -122.32169000024555,
              48.938430000100624
            ],
            [
              -122.32183500001051,
              48.93842599997492
            ],
            [
              -122.32588600039496,
              48.93844600001032
            ],
            [
              -122.32593900009842,
              48.93622899975255
            ],
            [
              -122.3259530003421,
              48.934864999708864
            ],
            [
              -122.32595599981686,
              48.93471200011913
            ],
            [
              -122.326431000193,
              48.93471400003579
            ],
            [
              -122.32645600030737,
              48.93223700024293
            ],
            [
              -122.32884499973689,
              48.93224699973104
            ]
          ]
        ]
      },
      "properties": {
        "AREALAND": "2379920",
        "AREAWATER": "1990",
        "BASENAME": "Nooksack",
        "CBSAPCI": "N",
        "CENTLAT": "+48.9281485",
        "CENTLON": "-122.3189265",
        "FUNCSTAT": "A",
        "GEOID": "5349275",
        "INTPTLAT": "+48.9281057",
        "INTPTLON": "-122.3195655",
        "LSADC": "25",
        "MTFCC": "G4110",
        "NAME": "Nooksack city",
        "NECTAPCI": "N",
        "OBJECTID": 10853,
        "OID": "27890482591100",
        "PLACE": "49275",
        "PLACECC": "C1",
        "PLACENS": "02411263",
        "STATE": "53",
        "DISP_CLR": 2,
        "slug": "nooksack",
        "jurisdiction_key": "nooksack_city",
        "county_fips": [
          "53073"
        ]
      }
    }
  ]
}
