{
  "type": "FeatureCollection",
  "features": [
    {
      "type": "Feature",
      "geometry": {
        "type": "Polygon",
        "coordinates": [
          [
            [
              -122.37536999965462,
              47.445253000063154
            ],
            [
              -122.37708399958977,
              47.44525799999841
            ],
            [
              -122.36820900031552,
              47.443738000220684
            ],
            [
              -122.36108800026108,
              47.44026700003189
            ],
            [
              -122.36070199957337,
              47.440079000099544
            ],
            [
              -122.35929399995997,
              47.438782000263735
            ],
            [
              -122.35813900006657,
              47.437717999946166
            ],
            [
              -122.35689299993659,
              47.43274899996459
            ],
            [
              -122.35662699979778,
              47.43130700001805
            ],
            [
              -122.35643000015432,
              47.43023500011546
            ],
            [
              -122.3557730002033,
              47.42668499998018
            ],
            [
              -122.35575399993672,
              47.42661200002479
            ],
            [
              -122.35482099980115,
              47.42294400009745
            ],
            [
              -122.35453000044635,
              47.421800999748555
            ],
            [
              -122.35388699984068,
              47.419384999892344
            ],
            [
              -122.3534099998147,
              47.41758899988231
            ],
            [
              -122.35255000037237,
              47.41581000018204
            ],
            [
              -122.35129400019666,
              47.41320900025096
            ],
            [
              -122.34743500033115,
              47.41068399988383
            ],
            [
              -122.34359400000899,
              47.40850500004134
            ],
            [
              -122.34083300013548,
              47.40692699996838
            ],
            [
              -122.33588999962335,
              47.40321499970954
            ],
            [
              -122.33576400012497,
              47.4030359997734
            ],
            [
              -122.33133600017199,
              47.40463599996297
            ],
            [
              -122.33097299994881,
              47.40476800027253
            ],
            [
              -122.33065099973355,
              47.40437699973932
            ],
            [
              -122.32968199961297,
              47.404388000237155
            ],
            [
              -122.32950800043402,
              47.404385999925736
            ],
            [
              -122.3295140002818,
              47.4045460002808
            ],
            [
              -122.32954799971867,
              47.4053140000843
            ],
            [
              -122.32886200035362,
              47.40533099999765
            ],
            [
              -122.32891800043014,
              47.40637200000696
            ],
            [
              -122.32823200016679,
              47.4063880000691
            ],
            [
              -122.32826099958079,
              47.40693599971912
            ],
            [
              -122.32741299983405,
              47.40695700014478
            ],
            [
              -122.32742500042792,
              47.40717600000283
            ],
            [
              -122.32748499980406,
              47.40717499990007
            ],
            [
              -122.32749099965184,
              47.40728600024869
            ],
            [
              -122.32743100027571,
              47.40730099993282
            ],
            [
              -122.32708300012115,
              47.407389000182214
            ],
            [
              -122.32684999959434,
              47.40767200000152
            ],
            [
              -122.32682200000524,
              47.40794800011583
            ],
            [
              -122.32689300015038,
              47.40815200006378
            ],
            [
              -122.32691499989167,
              47.408540999780364
            ],
            [
              -122.32705800000682,
              47.40857000017709
            ],
            [
              -122.32724999962743,
              47.40857000017709
            ],
            [
              -122.3274580000399,
              47.40857000017709
            ],
            [
              -122.32752800036008,
              47.40857100025336
            ],
            [
              -122.32760299980485,
              47.40857100025336
            ],
            [
              -122.32771199958478,
              47.40856399971899
            ],
            [
              -122.32910800040094,
              47.40847400006056
            ],
            [
              -122.32929800037174,
              47.40844400014022
            ],
            [
              -122.32947200044899,
              47.40839100019871
            ],
            [
              -122.32977100019974,
              47.40832400028809
            ],
            [
              -122.33078700017597,
              47.40807199995187
            ],
            [
              -122.33099600041336,
              47.40802699972152
            ],
            [
              -122.33123900008759,
              47.40799499998019
            ],
            [
              -122.33142800023347,
              47.40799000015182
            ],
            [
              -122.33164300031865,
              47.40800400015637
            ],
            [
              -122.33185199965769,
              47.40803800006509
            ],
            [
              -122.33205099984933,
              47.408091999839264
            ],
            [
              -122.33223900017032,
              47.40816299977328
            ],
            [
              -122.33241099969943,
              47.408251999880825
            ],
            [
              -122.3324219995701,
              47.40825899984875
            ],
            [
              -122.33251000033195,
              47.408316999720846
            ],
            [
              -122.33260099967025,
              47.40838699987978
            ],
            [
              -122.3326819998611,
              47.40846199972972
            ],
            [
              -122.33278200031852,
              47.408579999723216
            ],
            [
              -122.33283500002197,
              47.408660000279454
            ],
            [
              -122.33287299965679,
              47.40872999998254
            ],
            [
              -122.33290899964182,
              47.40881999981145
            ],
            [
              -122.33307600004638,
              47.40964899971055
            ],
            [
              -122.33312899974983,
              47.409919000104324
            ],
            [
              -122.33314999966623,
              47.41001500001882
            ],
            [
              -122.33320900011579,
              47.410170000068696
            ],
            [
              -122.33325500014652,
              47.41025600029971
            ],
            [
              -122.33331000039811,
              47.410339999696994
            ],
            [
              -122.3333730001473,
              47.41042100005281
            ],
            [
              -122.3334429995692,
              47.41049900016511
            ],
            [
              -122.33352200011024,
              47.41057400004724
            ],
            [
              -122.33360800032395,
              47.41064400024616
            ],
            [
              -122.33403199974816,
              47.410932999787164
            ],
            [
              -122.33410000041853,
              47.41099099975427
            ],
            [
              -122.33421500004626,
              47.41111100021719
            ],
            [
              -122.33434899994056,
              47.41129700024237
            ],
            [
              -122.33441199968976,
              47.41141599998577
            ],
            [
              -122.3344700003144,
              47.41157899971389
            ],
            [
              -122.33458099974415,
              47.41216699979561
            ],
            [
              -122.3346820000265,
              47.41273100006973
            ],
            [
              -122.33480900024811,
              47.41342500030087
            ],
            [
              -122.33519699968733,
              47.41557899982721
            ],
            [
              -122.3352519999389,
              47.41604300000018
            ],
            [
              -122.33528299990104,
              47.416592999948044
            ],
            [
              -122.3352739996802,
              47.41736300019241
            ],
            [
              -122.33527200003039,
              47.41783700006099
            ],
            [
              -122.3352710002055,
              47.41857800000822
            ],
            [
              -122.33527000038056,
              47.41872699986868
            ],
            [
              -122.33526799983241,
              47.41917899994149
            ],
            [
              -122.33526799983241,
              47.41982299988861
            ],
            [
              -122.33526799983241,
              47.420183000254674
            ],
            [
              -122.33526199998462,
              47.42046000029909
            ],
            [
              -122.33526000033483,
              47.42055400014316
            ],
            [
              -122.33525299976381,
              47.42095300027071
            ],
            [
              -122.33525000028907,
              47.421087999926286
            ],
            [
              -122.33523900041841,
              47.42150799974741
            ],
            [
              -122.33520400025833,
              47.423094000165996
            ],
            [
              -122.33521199975591,
              47.42327300000854
            ],
            [
              -122.33526100015972,
              47.42395899977905
            ],
            [
              -122.33529899979457,
              47.424505999765714
            ],
            [
              -122.33535400004612,
              47.425171000038276
            ],
            [
              -122.33536099971884,
              47.42525799984095
            ],
            [
              -122.33536699956663,
              47.425317999956384
            ],
            [
              -122.335391999681,
              47.42560300017851
            ],
            [
              -122.33545500032851,
              47.426340000048974
            ],
            [
              -122.33552899994832,
              47.42732100029469
            ],
            [
              -122.33556300028351,
              47.427798999908525
            ],
            [
              -122.33557900017703,
              47.428026000087826
            ],
            [
              -122.33559400024566,
              47.428234000075335
            ],
            [
              -122.33562199983476,
              47.42863000003494
            ],
            [
              -122.33579000006424,
              47.430897000154395
            ],
            [
              -122.33580000010997,
              47.43106200025386
            ],
            [
              -122.33580400030795,
              47.43113300021113
            ],
            [
              -122.33580400030795,
              47.43126900014427
            ],
            [
              -122.33578800041442,
              47.4315519998571
            ],
            [
              -122.3356260000327,
              47.43275099980642
            ],
            [
              -122.33550899985684,
              47.43370800018223
            ],
            [
              -122.33547299987184,
              47.43397699976032
            ],
            [
              -122.33544699993259,
              47.43414600011113
            ],
            [
              -122.3354150001455,
              47.43431000015922
            ],
            [
              -122.33534700037345,
              47.43467299985224
            ],
            [
              -122.33531700023623,
              47.43492600007244
            ],
            [
              -122.33524400044128,
              47.43555499986628
            ],
            [
              -122.33519000001462,
              47.43593799972683
            ],
            [
              -122.33513300011322,
              47.43635100028252
            ],
            [
              -122.33511700021967,
              47.43646300004958
            ],
            [
              -122.33496200040899,
              47.437669999744394
            ],
            [
              -122.33488899971573,
              47.43820400028224
            ],
            [
              -122.33481900029382,
              47.438710000185466
            ],
            [
              -122.3346469998664,
              47.43997099987336
            ],
            [
              -122.33458199956907,
              47.440447999959034
            ],
            [
              -122.3345120001472,
              47.44096100002787
            ],
            [
              -122.33442000008569,
              47.44164399997865
            ],
            [
              -122.33418499990904,
              47.443440000106314
            ],
            [
              -122.33417200038856,
              47.44353899971792
            ],
            [
              -122.33408199997687,
              47.44420900013321
            ],
            [
              -122.33401400020482,
              47.44471999998584
            ],
            [
              -122.33397999986963,
              47.44497499987712
            ],
            [
              -122.33396099960305,
              47.44524300019122
            ],
            [
              -122.3339639999761,
              47.4474499999584
            ],
            [
              -122.3339639999761,
              47.447493000020174
            ],
            [
              -122.33396800017408,
              47.44860699992186
            ],
            [
              -122.33391999959515,
              47.449683999883206
            ],
            [
              -122.333936000387,
              47.450287999706575
            ],
            [
              -122.33392700016618,
              47.451060999967666
            ],
            [
              -122.333928999816,
              47.45210999986253
            ],
            [
              -122.33392999964092,
              47.452436000137645
            ],
            [
              -122.33392799999108,
              47.453288999976884
            ],
            [
              -122.33392399979316,
              47.45380800011536
            ],
            [
              -122.33391999959515,
              47.454214999985446
            ],
            [
              -122.33391000044773,
              47.45470099977816
            ],
            [
              -122.3339089997245,
              47.45475099984698
            ],
            [
              -122.3339079998996,
              47.455410000028564
            ],
            [
              -122.33390299987673,
              47.455721000034885
            ],
            [
              -122.33388000031051,
              47.45716699989937
            ],
            [
              -122.33388299978526,
              47.457338999742134
            ],
            [
              -122.33388399961015,
              47.457408999714765
            ],
            [
              -122.3338869999832,
              47.457465999745175
            ],
            [
              -122.33444400037514,
              47.45746299987298
            ],
            [
              -122.33632599964143,
              47.457467999862295
            ],
            [
              -122.33660199982599,
              47.45746900022454
            ],
            [
              -122.33661699989459,
              47.45746900022454
            ],
            [
              -122.33661699989459,
              47.457449000264674
            ],
            [
              -122.33661900044272,
              47.457085999792696
            ],
            [
              -122.33662399956727,
              47.45607000023647
            ],
            [
              -122.33687200016271,
              47.45607100001791
            ],
            [
              -122.33752999993865,
              47.45607300018814
            ],
            [
              -122.33759900043395,
              47.45607300018814
            ],
            [
              -122.33820699998118,
              47.45607499975089
            ],
            [
              -122.33833300037787,
              47.456076000139646
            ],
            [
              -122.33837100001271,
              47.456076000139646
            ],
            [
              -122.33894900032102,
              47.45607699992097
            ],
            [
              -122.33899899965142,
              47.456077999702266
            ],
            [
              -122.33931199964586,
              47.45607999987224
            ],
            [
              -122.3393130003691,
              47.45600199986897
            ],
            [
              -122.33932000004178,
              47.45571599987944
            ],
            [
              -122.3393280004377,
              47.45517199992578
            ],
            [
              -122.33933699976023,
              47.45448900007595
            ],
            [
              -122.33934400033124,
              47.453969999976884
            ],
            [
              -122.33934799963086,
              47.45373699977504
            ],
            [
              -122.33935299965374,
              47.45334399994745
            ],
            [
              -122.33935799967661,
              47.45297599987753
            ],
            [
              -122.33935799967661,
              47.452921000129535
            ],
            [
              -122.33936600007253,
              47.45242400010742
            ],
            [
              -122.33936500024762,
              47.45238399998698
            ],
            [
              -122.33940600025551,
              47.45238399998698
            ],
            [
              -122.3409419999154,
              47.45239500017501
            ],
            [
              -122.34101399988543,
              47.45239500017501
            ],
            [
              -122.3435160001912,
              47.452383000135434
            ],
            [
              -122.34434800004439,
              47.45237000024139
            ],
            [
              -122.3446169996579,
              47.45237400025583
            ],
            [
              -122.34481300037481,
              47.45237599995922
            ],
            [
              -122.34561199971775,
              47.45239600002632
            ],
            [
              -122.34657800036358,
              47.45241900024589
            ],
            [
              -122.34735800033826,
              47.452440000147114
            ],
            [
              -122.3483679995684,
              47.452428000117806
            ],
            [
              -122.35004600041682,
              47.45240599975329
            ],
            [
              -122.35042999965806,
              47.452401999741234
            ],
            [
              -122.35165800024474,
              47.4523990001876
            ],
            [
              -122.35272199990155,
              47.45239299986487
            ],
            [
              -122.35405400024526,
              47.45239100016212
            ],
            [
              -122.35503300041157,
              47.452383000135434
            ],
            [
              -122.35529700000224,
              47.45237299979669
            ],
            [
              -122.35545299963783,
              47.45236700007847
            ],
            [
              -122.35789899986706,
              47.4523460001481
            ],
            [
              -122.35844899968797,
              47.45234200013148
            ],
            [
              -122.35845200006105,
              47.4520700001107
            ],
            [
              -122.3584649995815,
              47.4516660002436
            ],
            [
              -122.35849899991668,
              47.45063499974857
            ],
            [
              -122.35865799992536,
              47.45063299997897
            ],
            [
              -122.35907300002707,
              47.45062799994716
            ],
            [
              -122.35979399955217,
              47.45062299991488
            ],
            [
              -122.36003999959948,
              47.450613999734074
            ],
            [
              -122.36019899960814,
              47.45059299971123
            ],
            [
              -122.36031400013418,
              47.450567000249826
            ],
            [
              -122.36048099964043,
              47.45050800025618
            ],
            [
              -122.3605069995797,
              47.45050099983039
            ],
            [
              -122.36055199978557,
              47.45048800007856
            ],
            [
              -122.36066899996142,
              47.45047799998689
            ],
            [
              -122.36105999977366,
              47.450495999786035
            ],
            [
              -122.36118000032259,
              47.450486000303364
            ],
            [
              -122.3612589999653,
              47.45046500022937
            ],
            [
              -122.36136699992034,
              47.45042399994507
            ],
            [
              -122.36148400009621,
              47.45035600017352
            ],
            [
              -122.36171400024998,
              47.45019500000653
            ],
            [
              -122.36181100033434,
              47.450136000202995
            ],
            [
              -122.3619150000914,
              47.450084000208065
            ],
            [
              -122.3620489999857,
              47.45004400013022
            ],
            [
              -122.36222600043604,
              47.450023999776185
            ],
            [
              -122.36245999988945,
              47.450023999776185
            ],
            [
              -122.36240299998805,
              47.44984299999238
            ],
            [
              -122.3623079995535,
              47.44964900023398
            ],
            [
              -122.36216600016158,
              47.44964900023398
            ],
            [
              -122.36213299965132,
              47.449613999953975
            ],
            [
              -122.36133599995819,
              47.44874099980575
            ],
            [
              -122.3591910000278,
              47.44874199972658
            ],
            [
              -122.35664799971421,
              47.44874400017553
            ],
            [
              -122.3565840001401,
              47.44831899994995
            ],
            [
              -122.35649499955332,
              47.44832600005867
            ],
            [
              -122.35629100023715,
              47.448343000058465
            ],
            [
              -122.35607600015199,
              47.448360000052766
            ],
            [
              -122.35593999970955,
              47.448371999795285
            ],
            [
              -122.35567799976874,
              47.44848099971053
            ],
            [
              -122.35558700043045,
              47.44850900005358
            ],
            [
              -122.35557400001166,
              47.44874699993765
            ],
            [
              -122.3555709996386,
              47.44883400025439
            ],
            [
              -122.35545199981291,
              47.448829999970656
            ],
            [
              -122.35549100017096,
              47.447969000008655
            ],
            [
              -122.35549299982081,
              47.44787499991577
            ],
            [
              -122.35551600028533,
              47.44709200008551
            ],
            [
              -122.3555470002475,
              47.44623700003685
            ],
            [
              -122.35557300018674,
              47.44555500016065
            ],
            [
              -122.35558499988231,
              47.44512199976736
            ],
            [
              -122.35571999960153,
              47.4451239997465
            ],
            [
              -122.3559020000747,
              47.44510899990109
            ],
            [
              -122.35619300032786,
              47.445120999777764
            ],
            [
              -122.35620800039646,
              47.44511399985004
            ],
            [
              -122.35745399962813,
              47.44515100006503
            ],
            [
              -122.35934599983854,
              47.445162999932116
            ],
            [
              -122.36154400037067,
              47.44516099995445
            ],
            [
              -122.36201200017581,
              47.44516499990969
            ],
            [
              -122.36233600004091,
              47.445166999887206
            ],
            [
              -122.36265999990599,
              47.44516999985332
            ],
            [
              -122.3627519999675,
              47.445166999887206
            ],
            [
              -122.36284499985392,
              47.44516799987593
            ],
            [
              -122.36296299985472,
              47.445168999864634
            ],
            [
              -122.36340200024586,
              47.445172999819256
            ],
            [
              -122.36344400007864,
              47.44517399980787
            ],
            [
              -122.3635899996685,
              47.445174999796464
            ],
            [
              -122.3641729999997,
              47.445180999727604
            ],
            [
              -122.36438999973467,
              47.445184000300465
            ],
            [
              -122.36451399958322,
              47.44518500028886
            ],
            [
              -122.3647219999957,
              47.445187000265605
            ],
            [
              -122.36577300013201,
              47.445198000136386
            ],
            [
              -122.36745600010502,
              47.44523399969731
            ],
            [
              -122.37536999965462,
              47.445253000063154
            ]
          ]
        ]
      },
      "properties": {
        "AREALAND": "6437429",
        "AREAWATER": "2153762",
        "BASENAME": "Normandy Park",
        "CBSAPCI": "N",
        "CENTLAT": "+47.4320835",
        "CENTLON": "-122.3454268",
        "FUNCSTAT": "A",
        "GEOID": "5349415",
        "INTPTLAT": "+47.4329749",
        "INTPTLON": "-122.3446892",
        "LSADC": "25",
        "MTFCC": "G4110",
        "NAME": "Normandy Park city",
        "NECTAPCI": "N",
        "OBJECTID": 19765,
        "OID": "27890836057938",
        "PLACE": "49415",
        "PLACECC": "C1",
        "PLACENS": "02411268",
        "STATE": "53",
        "DISP_CLR": 4,
        "slug": "normandy_park",
        "jurisdiction_key": "normandy_park_city",
        "county_fips": [
          "53033"
        ]
      }
    }
  ]
}
