{"type":"FeatureCollection","features":[{"type":"Feature","geometry":{"type":"Polygon","coordinates":[[[-122.0027689995564,45.63370800019052],[-122.00277100010453,45.633521999921356],[-122.00275500021101,45.62954400028603],[-122.00274199979219,45.6289500002455],[-122.0027269997236,45.626327000063334],[-122.00272599989869,45.626177999749146],[-122.00272599989869,45.62614499971034],[-122.00220399966686,45.626122999883066],[-122.00202799993977,45.626081999982055],[-122.0011919998886,45.62611799983548],[-122.00018900033116,45.626162000113524],[-121.99867600023745,45.62646300018987],[-121.99530500026859,45.62766499982285],[-121.99420700027656,45.62779100004789],[-121.99409500012358,45.6277930002586],[-121.99398200014568,45.62769499990212],[-121.99275199990922,45.62859100010385],[-121.98890700028741,45.629522999982655],[-121.98758300033961,45.629870999687185],[-121.98654399989883,45.630312999843284],[-121.9864710001039,45.6303439998215],[-121.98477700026025,45.63168499991275],[-121.9845289996648,45.63188199972601],[-121.98439800014356,45.632287000065446],[-121.98229199967294,45.63325999975135],[-121.9822110003804,45.63329500001276],[-121.98203200028026,45.63337399989434],[-121.98172900033155,45.63350799987612],[-121.98171799956258,45.63302599995453],[-121.98172699978342,45.630108000285325],[-121.98171799956258,45.62955499984349],[-121.97882100014495,45.62955499984349],[-121.96958799977209,45.63413899969785],[-121.96484000015195,45.63687599979479],[-121.96433600036181,45.63705899978979],[-121.96383400022145,45.63739899971095],[-121.96341499992182,45.63766100000148],[-121.96462199969375,45.63976699985131],[-121.96454100040121,45.639842999731414],[-121.96411500042885,45.64023499995501],[-121.96375700022858,45.64057500007493],[-121.9634989995874,45.64082299985862],[-121.96313700008749,45.64116900000703],[-121.96281400004727,45.6414780000287],[-121.96205599981391,45.642212000061186],[-121.96203200042277,45.642236000177135],[-121.96170099998668,45.642565999786676],[-121.96158200016097,45.6426719998654],[-121.96148799955134,45.64275600016455],[-121.96132900044098,45.64291100001212],[-121.96115700001356,45.64307899976779],[-121.96107300034794,45.643153999720376],[-121.9608299997754,45.64337500029473],[-121.96062399991106,45.64360600011382],[-121.96041399984878,45.64386399974004],[-121.96023499974864,45.64410899996731],[-121.9600620003946,45.644371000283364],[-121.9598520003323,45.64463600004453],[-121.95973900035439,45.644738999938106],[-121.95965300014068,45.64480400027951],[-121.95954900038359,45.644859999827204],[-121.95940500044355,45.64493899973318],[-121.95929800031344,45.64497299980947],[-121.95925700030557,45.64498700013042],[-121.95920000040415,45.64500999988749],[-121.95938399962884,45.64525099969594],[-121.95916199987101,45.64534099990574],[-121.95879600017311,45.645487000147874],[-121.95777799964875,45.645895000106144],[-121.95770099965586,45.645926000257035],[-121.95733800033098,45.64607800016107],[-121.9572959995999,45.646095000170156],[-121.95717299957623,45.64614499976058],[-121.95713199956836,45.646163000154814],[-121.95607299993445,45.64660299976005],[-121.95556300029651,45.64681599990597],[-121.95393600039998,45.6475080000293],[-121.95340999997019,45.64772300000128],[-121.95289600013432,45.64792600031275],[-121.95230699995533,45.648169999988866],[-121.95187599996011,45.6483489999376],[-121.95187599996011,45.648067999867486],[-121.95187900033316,45.64780000014106],[-121.95150000021648,45.64783000011793],[-121.9512900001542,45.64784399972485],[-121.9509949997031,45.647855999833716],[-121.95070000015032,45.64786299994834],[-121.95040499969922,45.647863999695545],[-121.95012500021507,45.64785899970355],[-121.94984599965747,45.64784799997076],[-121.94976799983966,45.64784399972485],[-121.94956799982313,45.64783299998915],[-121.94928999998879,45.647812000259364],[-121.94901299997935,45.647785000146605],[-121.94873699979483,45.64775399976855],[-121.94878399965049,45.64747499998975],[-121.94846900000623,45.647431000116114],[-121.94815500018687,45.64738000003377],[-121.94784399984223,45.64732399986524],[-121.94753500004575,45.64726100007975],[-121.94722899972399,45.64719199978482],[-121.94692499995038,45.64711700021426],[-121.94577300043004,45.64683199992549],[-121.94290399970316,45.64612199984149],[-121.94276300013618,45.64638599971014],[-121.94220999994222,45.64625099997557],[-121.94169899958105,45.64612699998853],[-121.94145799955662,45.64607500019586],[-121.94121499988239,45.64603000007069],[-121.94096999965997,45.64599200025775],[-121.94072199996288,45.64596100014338],[-121.94072500033593,45.64607999971913],[-121.94072600016085,45.646104000062046],[-121.94061300018295,45.64609099979906],[-121.94049199980913,45.64607599997497],[-121.94023300024134,45.64604599968669],[-121.93997200012542,45.64601899997872],[-121.93971100000951,45.64599699978837],[-121.93944900006868,45.645978000187974],[-121.93887400013345,45.64591299995274],[-121.93799399970133,45.64570000014125],[-121.93698799977084,45.645794000022285],[-121.93590900004543,45.646070000044176],[-121.93591200041845,45.64613500009723],[-121.93595099987822,45.64686000026268],[-121.93575699970944,45.64688899972248],[-121.93556599991376,45.64692500002706],[-121.93537699976785,45.64696700014387],[-121.93519099999503,45.64701400029706],[-121.93500799969691,45.64706799999677],[-121.9358150003341,45.64716200009423],[-121.93596199974887,45.647180000161704],[-121.93597000014479,45.64734800030317],[-121.93552200043113,45.64729799990256],[-121.93441600004323,45.64717299996173],[-121.93423699994307,45.64716200009423],[-121.93405799984292,45.6471560002798],[-121.93387600026803,45.64715400013214],[-121.93367000040374,45.647157999799326],[-121.93346199999127,45.64716900029562],[-121.93325600012693,45.64718500021431],[-121.93305000026261,45.64720900008379],[-121.93300300040694,45.647041999915274],[-121.9328090002382,45.64706700023542],[-121.93261300041961,45.64709699997689],[-121.93242400027371,45.647130000239095],[-121.9317609995766,45.6472539998899],[-121.93174999970593,45.64723200018458],[-121.93163400025333,45.64699199986948],[-121.93066599995764,45.64717500010866],[-121.93042599975816,45.64722099970071],[-121.92966099985208,45.64737099971889],[-121.9294659998584,45.64740800009704],[-121.9285860003246,45.647579000067466],[-121.92841700027022,45.64760900016274],[-121.92814799975838,45.64766299991687],[-121.92511999992117,45.64867400004171],[-121.92310700023528,45.649665000181386],[-121.92109899967394,45.65103800024596],[-121.92035700023241,45.6512129998153],[-121.92024799955415,45.651296000180565],[-121.9175689996964,45.652042999816764],[-121.9158790000507,45.652832000279105],[-121.91561700010989,45.65283699982718],[-121.91506300009101,45.65276800012183],[-121.91497900042542,45.65275799975706],[-121.91457900039237,45.65279200011088],[-121.91420699994836,45.65282399987096],[-121.91396599992393,45.65301599993142],[-121.91395500005329,45.65348199995036],[-121.91394500000756,45.653811000230505],[-121.91394099980958,45.65403900017447],[-121.91393199958877,45.6543999998095],[-121.9139159996952,45.65507300013957],[-121.91495900033395,45.65506000007448],[-121.91632699976437,45.65503800029564],[-121.91632400028962,45.6545879997259],[-121.91632000009167,45.65410199987141],[-121.9164129999781,45.65411599979441],[-121.91642700022179,45.65411399989534],[-121.91653400035193,45.654127999815344],[-121.91674799971383,45.65415699990766],[-121.91689099982898,45.654177000135775],[-121.91703499976902,45.654194000198494],[-121.91717899970908,45.654211000256055],[-121.9174680003124,45.65424299983326],[-121.91754199993224,45.65425100003864],[-121.91761700027533,45.654256999721014],[-121.91766800032893,45.654259000242895],[-121.91773500027607,45.654261000136835],[-121.91777299991091,45.654261000136835],[-121.91781700029183,45.654261000136835],[-121.91786699962223,45.654259000242895],[-121.91792400042198,45.654254000193895],[-121.91795399966088,45.65425100003864],[-121.91798600034625,45.65424799988329],[-121.91801999978311,45.65424299983326],[-121.91806599981388,45.65423399999323],[-121.91811199984463,45.65422399989027],[-121.91814199998186,45.6542160003089],[-121.91818100033991,45.65420499994084],[-121.91823300021845,45.65418799988146],[-121.91826199963245,45.65417799977023],[-121.91829400031781,45.65416500012534],[-121.91833100012775,45.65414999995172],[-121.91837200013565,45.65413200024034],[-121.91841899999127,45.654110999732595],[-121.9184680003951,45.654087000308785],[-121.9185169999006,45.654061999982346],[-121.91854299983984,45.65404600014429],[-121.91857100032723,45.65402799977161],[-121.91860499976413,45.65400100014364],[-121.91868400030516,45.653931999988615],[-121.91869799965053,45.65390799986018],[-121.91870900041951,45.653879000266855],[-121.91871899956693,45.65385100029884],[-121.91873799983351,45.65379299978228],[-121.91874899970416,45.653746000294],[-121.91883900011587,45.653916999752596],[-121.9188900001695,45.65404800004583],[-121.91905400020103,45.654334000297055],[-121.91912299979799,45.65450600010047],[-121.91915600030828,45.65457399992085],[-121.91958999977822,45.65456000011233],[-121.92018700035311,45.65455300020677],[-121.92034600036179,45.654514000268286],[-121.92060900012748,45.65447799981803],[-121.92069600016613,45.6544799997041],[-121.92085299962666,45.65448700024671],[-121.92094100038851,45.65453899976508],[-121.92101900020633,45.65460599991855],[-121.92102599987902,45.65467299999189],[-121.92103099990189,45.65471499995014],[-121.92097300017556,45.65480600027487],[-121.92155099958556,45.6548069998981],[-121.92154999976066,45.65467800000353],[-121.92154999976066,45.654568999899915],[-121.92303699991508,45.654570999782784],[-121.92665800012922,45.65457899994132],[-121.92666200032717,45.652425000279386],[-121.9266649998019,45.6513280001675],[-121.9266649998019,45.65116499972949],[-121.9277479997253,45.65118600008608],[-121.92939999973616,45.65121899982313],[-121.93007900032681,45.65123299983888],[-121.93041900008544,45.65123800015765],[-121.9304240001083,45.65156899979564],[-121.93041800026052,45.65177000000035],[-121.93639500029225,45.65175800010211],[-121.93639699994203,45.65161300018642],[-121.93639799976695,45.65154200023803],[-121.93640399961474,45.65120699980683],[-121.93640500033796,45.65112100024261],[-121.93641200001066,45.650611000157475],[-121.93641299983558,45.65056999996007],[-121.93639799976695,45.649674000127675],[-121.93690699957999,45.64966700023937],[-121.93691499997588,45.65059000021325],[-121.93710900014466,45.65059800031257],[-121.9378210003473,45.65059600028782],[-121.93782800001998,45.64997599985875],[-121.9380759997171,45.64997399981185],[-121.9397379997737,45.649956000014285],[-121.9397500003676,45.65043899969475],[-121.9397660002611,45.65105399968746],[-121.94031100005914,45.65115699971116],[-121.94062599970343,45.651216000133246],[-121.94390799998385,45.651256000171166],[-121.94435999989545,45.6512600001734],[-121.94477499999715,45.6512660001762],[-121.94483100007365,45.651266999862656],[-121.94567200014768,45.651276000179436],[-121.94593400008851,45.65127899986611],[-121.9465459998337,45.65129200018091],[-121.950742999808,45.65137099980716],[-121.95092100008326,45.651374000116654],[-121.95196399982368,45.65135099983282],[-121.9520790003497,45.65135099983282],[-121.95529999963244,45.651392999770685],[-121.95549299997627,45.65139600007899],[-121.95558400021288,45.65139699976313],[-121.95561900037299,45.65149799979146],[-121.95566000038086,45.6515740000844],[-121.95589200018446,45.651896999707844],[-121.95597599985007,45.652044999789794],[-121.95601799968286,45.65216899986281],[-121.95604000032247,45.652303999777004],[-121.95604600017026,45.652425000279386],[-121.95604699999515,45.65244000028715],[-121.95603699994942,45.652646999732575],[-121.95601000018523,45.652911000244806],[-121.95599900031458,45.65305799987651],[-121.95599500011662,45.65310699987728],[-121.95599099991865,45.65316699978145],[-121.95599099991865,45.65325499990133],[-121.95599199974357,45.653305000007705],[-121.9559929995685,45.653371999753816],[-121.9560079996371,45.65345300013644],[-121.95601799968286,45.653506999907805],[-121.95604199997229,45.65357299976696],[-121.9560789997822,45.65366999980887],[-121.95615099975224,45.65376099994795],[-121.95622600009533,45.653834999772585],[-121.95633300022541,45.65394099987718],[-121.95639900034767,45.65398299975649],[-121.95655900018122,45.654086000044785],[-121.956601000014,45.65411000009694],[-121.95667100033425,45.654148999688836],[-121.9567320004336,45.65418299982607],[-121.95675199962676,45.654194999832654],[-121.95691200035864,45.654290999792714],[-121.95697299955972,45.65432799999502],[-121.95681799974899,45.6544750003027],[-121.95677500009131,45.65451800003783],[-121.95670300012128,45.65460900005477],[-121.95622000024753,45.655155999807555],[-121.9554569999913,45.65601699998497],[-121.95523199986039,45.656337000311936],[-121.95537800034855,45.65638499973233],[-121.95798000021342,45.656219000149115],[-121.95795299955093,45.65629599991109],[-121.95765299997527,45.65647800029747],[-121.95760600011958,45.65660000016325],[-121.95735699969927,45.65667599981143],[-121.95681199990123,45.65666600014454],[-121.95626600027828,45.65686100023408],[-121.95629499969228,45.657002999740044],[-121.9562050001789,45.65710699970687],[-121.95591099955273,45.65719399970585],[-121.95573700037376,45.65754599978684],[-121.95796799961953,45.65740399977428],[-121.95812499997838,45.657397000224215],[-121.95920899972667,45.65732400028954],[-121.95956600010204,45.657077000303744],[-121.95967700043013,45.65699999973207],[-121.96001700018873,45.6567650002845],[-121.96104400003564,45.656020000045615],[-121.96120899989208,45.65601099986326],[-121.9628990004361,45.65591100004252],[-121.96361400011344,45.655871000189805],[-121.96363400020492,45.65218900017299],[-121.96363699967965,45.65205300030918],[-121.96650600040653,45.651838000003195],[-121.96800600008142,45.651727000039116],[-121.96967200033599,45.651605000232095],[-121.97126700044547,45.65148300015937],[-121.97286199965659,45.65136299981827],[-121.97434600033628,45.651252999855366],[-121.97471799988196,45.651230000149795],[-121.97514499967923,45.651192999784534],[-121.97484799957829,45.650532999786755],[-121.97474399982123,45.650298999906596],[-121.97685600013965,45.649374999812814],[-121.97881500029716,45.648516999712896],[-121.9817469998749,45.64720100012842],[-121.98174600005,45.64685899986961],[-121.98174299967695,45.64609899991295],[-121.9822680002818,45.64588000022957],[-121.98268800040638,45.645709000096595],[-121.98331199984712,45.64545499996391],[-121.98550199998336,45.64456500004424],[-121.98686299974106,45.64401199969531],[-121.98690499957385,45.64408599984033],[-121.9869980003586,45.64408800009747],[-121.9883790002078,45.64408500002569],[-121.9899349999592,45.64408400021109],[-121.99190900018534,45.644082999768436],[-121.99196400043692,45.64408500002569],[-121.99197600013251,45.643152000057924],[-121.99198899965299,45.642569999781436],[-121.99199200002603,45.64200799991673],[-121.99199899969872,45.64173100012313],[-121.99201999961512,45.639257000022006],[-121.99201999961512,45.63887999973558],[-121.99358299993752,45.63821600006857],[-121.99569799973065,45.63731799997976],[-121.99693899983777,45.636792000101465],[-121.99855599968856,45.63610699983908],[-121.99866600019173,45.6360609999148],[-122.0001499999731,45.635269000103065],[-122.00025899975303,45.635210999816586],[-122.0004050002412,45.635141999754936],[-122.0011790003681,45.63478099974057],[-122.00119400043674,45.634774999856404],[-122.00140899962356,45.63461300022855],[-122.0027689995564,45.63370800019052]]]},"properties":{"AREALAND":"6540614","AREAWATER":"653446","BASENAME":"North Bonneville","CBSAPCI":"N","CENTLAT":"+45.6424267","CENTLON":"-121.9692477","FUNCSTAT":"A","GEOID":"5349555","INTPTLAT":"+45.6413928","INTPTLON":"-121.9727478","LSADC":"25","MTFCC":"G4110","NAME":"North Bonneville city","NECTAPCI":"N","OBJECTID":19571,"OID":"27890254087402","PLACE":"49555","PLACECC":"C1","PLACENS":"02411271","STATE":"53","DISP_CLR":5,"slug":"north_bonneville","jurisdiction_key":"north_bonneville_city","county_fips":["53059"]}}]}
