{
  "type": "FeatureCollection",
  "features": [
    {
      "type": "Feature",
      "geometry": {
        "type": "Polygon",
        "coordinates": [
          [
            [
              -124.18468499979267,
              46.927448000036414
            ],
            [
              -124.18422700003329,
              46.9247130000974
            ],
            [
              -124.18177800032929,
              46.92216500020006
            ],
            [
              -124.17939400002433,
              46.92201999990392
            ],
            [
              -124.17668900022731,
              46.921856000183496
            ],
            [
              -124.17450300028908,
              46.92208299970423
            ],
            [
              -124.17409599968497,
              46.92212499973446
            ],
            [
              -124.17196699964813,
              46.92234800029294
            ],
            [
              -124.16723999994439,
              46.92285299973051
            ],
            [
              -124.16114900010989,
              46.92348099984646
            ],
            [
              -124.14903400038801,
              46.92657300030232
            ],
            [
              -124.12907999966298,
              46.9385769997043
            ],
            [
              -124.12628500035258,
              46.939482999815766
            ],
            [
              -124.1258789995734,
              46.93975500024329
            ],
            [
              -124.12535300004194,
              46.9402469997163
            ],
            [
              -124.12132000009915,
              46.93867799991811
            ],
            [
              -124.11293299982322,
              46.936295999821645
            ],
            [
              -124.11073799966414,
              46.935435999700346
            ],
            [
              -124.10915000012571,
              46.93506999998237
            ],
            [
              -124.10862600024404,
              46.93494899996786
            ],
            [
              -124.10697599988302,
              46.93509400023156
            ],
            [
              -124.10568799992019,
              46.93576000024921
            ],
            [
              -124.10488299983119,
              46.93641600005286
            ],
            [
              -124.10418499987225,
              46.93742099986602
            ],
            [
              -124.10376899994566,
              46.93898399991919
            ],
            [
              -124.10365799961757,
              46.94046400004663
            ],
            [
              -124.1035599997083,
              46.941128000077185
            ],
            [
              -124.10352799992121,
              46.94213499978068
            ],
            [
              -124.10315700020045,
              46.94288400028548
            ],
            [
              -124.10333100027773,
              46.94342000030207
            ],
            [
              -124.10329699994254,
              46.94352699984935
            ],
            [
              -124.10326199978246,
              46.94408799973588
            ],
            [
              -124.10337599958528,
              46.94440199980869
            ],
            [
              -124.10395999974135,
              46.94527900008057
            ],
            [
              -124.10428199995664,
              46.945773000182506
            ],
            [
              -124.10442800044481,
              46.94628199987523
            ],
            [
              -124.10504000019002,
              46.94663900000693
            ],
            [
              -124.10621400034996,
              46.947193000094025
            ],
            [
              -124.10714999996027,
              46.947392000295274
            ],
            [
              -124.10783600022364,
              46.947518999836674
            ],
            [
              -124.10887099956811,
              46.94776399982448
            ],
            [
              -124.10998000032909,
              46.94799399993141
            ],
            [
              -124.1106509996255,
              46.947992000137376
            ],
            [
              -124.11119799997167,
              46.94799299972776
            ],
            [
              -124.11286300040132,
              46.947893999713074
            ],
            [
              -124.11327099993201,
              46.94771800005244
            ],
            [
              -124.1274209999794,
              46.950600999986925
            ],
            [
              -124.1274839997286,
              46.95062500001996
            ],
            [
              -124.12773999982164,
              46.95072399988913
            ],
            [
              -124.12843600013072,
              46.95128400024817
            ],
            [
              -124.12849200020722,
              46.95131999983425
            ],
            [
              -124.12823899958892,
              46.95269600020248
            ],
            [
              -124.12813700037998,
              46.9563139999153
            ],
            [
              -124.12801799965601,
              46.9596339997228
            ],
            [
              -124.12824100013705,
              46.963701000105374
            ],
            [
              -124.12873900007942,
              46.96521500009961
            ],
            [
              -124.12912800024188,
              46.965635000295
            ],
            [
              -124.13023999957925,
              46.96683800001514
            ],
            [
              -124.13136400040882,
              46.969570000102756
            ],
            [
              -124.1318149995972,
              46.97242099986462
            ],
            [
              -124.13167099965716,
              46.974009000054
            ],
            [
              -124.13165399993875,
              46.97420000028816
            ],
            [
              -124.13136500023373,
              46.974535000216186
            ],
            [
              -124.12996400029304,
              46.97471200026216
            ],
            [
              -124.12955699968896,
              46.97506999983871
            ],
            [
              -124.13010499986002,
              46.97577599986254
            ],
            [
              -124.130405000334,
              46.976151999995416
            ],
            [
              -124.13145100044747,
              46.97746400002943
            ],
            [
              -124.13247200044657,
              46.979102000146575
            ],
            [
              -124.13345699956234,
              46.98176100013272
            ],
            [
              -124.13344200039204,
              46.98347499981837
            ],
            [
              -124.13289599987078,
              46.98533600016152
            ],
            [
              -124.13326199956867,
              46.98628200027627
            ],
            [
              -124.13327199961441,
              46.98849499970947
            ],
            [
              -124.13323099960654,
              46.989797999874966
            ],
            [
              -124.13219899973676,
              46.990785000148904
            ],
            [
              -124.13111300033864,
              46.99214099980333
            ],
            [
              -124.13040299978586,
              46.9939349997277
            ],
            [
              -124.13022700005874,
              46.99662100020168
            ],
            [
              -124.1306310002898,
              46.999808999844106
            ],
            [
              -124.13059299975666,
              47.00141499997189
            ],
            [
              -124.1307440002677,
              47.00155400016625
            ],
            [
              -124.13087999981184,
              47.00171299991865
            ],
            [
              -124.13105700026215,
              47.00187799988963
            ],
            [
              -124.13120100020221,
              47.00208099992336
            ],
            [
              -124.13140899971636,
              47.00224500018104
            ],
            [
              -124.13164100041824,
              47.00248700012728
            ],
            [
              -124.1318499997573,
              47.00271700023483
            ],
            [
              -124.13217000032276,
              47.00298100012855
            ],
            [
              -124.13269900022726,
              47.00352900014299
            ],
            [
              -124.13281200020519,
              47.003683999818115
            ],
            [
              -124.13289099984792,
              47.003792999699705
            ],
            [
              -124.13328300038339,
              47.00427000021304
            ],
            [
              -124.13350799961596,
              47.00452299998062
            ],
            [
              -124.13376399970898,
              47.00475900026722
            ],
            [
              -124.13445300034539,
              47.005466000030346
            ],
            [
              -124.13462900007248,
              47.00563699970633
            ],
            [
              -124.13497300002909,
              47.00587299997214
            ],
            [
              -124.13539800017652,
              47.005983000020116
            ],
            [
              -124.13578300014099,
              47.00603799995916
            ],
            [
              -124.13624799957307,
              47.00615800001943
            ],
            [
              -124.13656899996344,
              47.006351000015485
            ],
            [
              -124.13729000038688,
              47.006949000190566
            ],
            [
              -124.13779400017705,
              47.00743699990655
            ],
            [
              -124.14023799985816,
              47.009675999730796
            ],
            [
              -124.1404939999512,
              47.0100269997288
            ],
            [
              -124.14065499960967,
              47.01042199975848
            ],
            [
              -124.14138299970583,
              47.011968999750444
            ],
            [
              -124.14186300010483,
              47.01262200001484
            ],
            [
              -124.1419519997933,
              47.01274300020194
            ],
            [
              -124.14209999993129,
              47.01294400016996
            ],
            [
              -124.14734300001908,
              47.0129520000464
            ],
            [
              -124.14912399990139,
              47.012953999862184
            ],
            [
              -124.14919199967345,
              47.01295500007631
            ],
            [
              -124.15025899970328,
              47.01296299995109
            ],
            [
              -124.15692299982327,
              47.01301500002664
            ],
            [
              -124.15862699971265,
              47.01302200029207
            ],
            [
              -124.15856899998634,
              47.01661899982386
            ],
            [
              -124.15861300036727,
              47.01727799976293
            ],
            [
              -124.1586309999106,
              47.01727799976293
            ],
            [
              -124.16110999975182,
              47.017346999718384
            ],
            [
              -124.16134599975335,
              47.01735400002842
            ],
            [
              -124.16198900035901,
              47.01737199994648
            ],
            [
              -124.16260600012708,
              47.01737499972812
            ],
            [
              -124.16611099999028,
              47.017393000251566
            ],
            [
              -124.16848299970133,
              47.01739999994311
            ],
            [
              -124.16915200024627,
              47.017426000276814
            ],
            [
              -124.17063299965459,
              47.017482000198754
            ],
            [
              -124.17283700003448,
              47.01754300009063
            ],
            [
              -124.17298299962437,
              47.01714000019709
            ],
            [
              -124.17304399972373,
              47.016953000211856
            ],
            [
              -124.17282199996588,
              47.016284000257286
            ],
            [
              -124.17262199994934,
              47.01560799995776
            ],
            [
              -124.1723519996126,
              47.014867999940684
            ],
            [
              -124.17225899972618,
              47.013685000099024
            ],
            [
              -124.17247100033661,
              47.01213200004831
            ],
            [
              -124.17244700004714,
              47.01004799985975
            ],
            [
              -124.17280000022458,
              47.0079879998493
            ],
            [
              -124.17280000022458,
              47.00599200005857
            ],
            [
              -124.17305899979235,
              47.002934000256865
            ],
            [
              -124.17304799992168,
              47.00149400020603
            ],
            [
              -124.1728350003847,
              46.99980700014881
            ],
            [
              -124.17301899960937,
              46.996293000192374
            ],
            [
              -124.1728450004304,
              46.994029999900334
            ],
            [
              -124.1728450004304,
              46.99397599981001
            ],
            [
              -124.17282500033893,
              46.99159100001573
            ],
            [
              -124.17276400023955,
              46.98949800018602
            ],
            [
              -124.17269300009444,
              46.98560500009345
            ],
            [
              -124.17275699966855,
              46.98360200013413
            ],
            [
              -124.17291800022535,
              46.98098700000902
            ],
            [
              -124.17320799975525,
              46.9783010001387
            ],
            [
              -124.17387999977493,
              46.97541699980496
            ],
            [
              -124.1747030003056,
              46.973647999718764
            ],
            [
              -124.17548599975501,
              46.97207299970637
            ],
            [
              -124.17629599986692,
              46.970951000221056
            ],
            [
              -124.17727699968307,
              46.96836099974739
            ],
            [
              -124.17736600026984,
              46.96634300014828
            ],
            [
              -124.17725400011686,
              46.964951999892264
            ],
            [
              -124.17715000035977,
              46.963206000024414
            ],
            [
              -124.17683200034243,
              46.96199200019111
            ],
            [
              -124.17670299957271,
              46.96149700023764
            ],
            [
              -124.17635299976834,
              46.959739999983015
            ],
            [
              -124.17607800030703,
              46.95830799989341
            ],
            [
              -124.17670400029593,
              46.9569580000643
            ],
            [
              -124.17727599985813,
              46.95597799985322
            ],
            [
              -124.17792899961123,
              46.95502300006222
            ],
            [
              -124.1783780000481,
              46.95374400026448
            ],
            [
              -124.17848900037619,
              46.95237299985686
            ],
            [
              -124.17830000023028,
              46.95128800020333
            ],
            [
              -124.17859599960798,
              46.949482000142325
            ],
            [
              -124.179216999574,
              46.94665499998804
            ],
            [
              -124.17925799958189,
              46.94523400026806
            ],
            [
              -124.17938900000146,
              46.94405600007429
            ],
            [
              -124.17886900031779,
              46.94257999987747
            ],
            [
              -124.17871399960877,
              46.942405999920275
            ],
            [
              -124.17881099969316,
              46.94164699993324
            ],
            [
              -124.17888199983824,
              46.941095000153716
            ],
            [
              -124.17870699993607,
              46.93720400008346
            ],
            [
              -124.17914600032721,
              46.930977999905494
            ],
            [
              -124.18419699989605,
              46.92965700011757
            ],
            [
              -124.18468499979267,
              46.927448000036414
            ]
          ]
        ]
      },
      "properties": {
        "AREALAND": "22058871",
        "AREAWATER": "13620825",
        "BASENAME": "Ocean Shores",
        "CBSAPCI": "N",
        "CENTLAT": "+46.9659005",
        "CENTLON": "-124.1520894",
        "FUNCSTAT": "A",
        "GEOID": "5350570",
        "INTPTLAT": "+46.9677296",
        "INTPTLON": "-124.1510721",
        "LSADC": "25",
        "MTFCC": "G4110",
        "NAME": "Ocean Shores city",
        "NECTAPCI": "N",
        "OBJECTID": 27977,
        "OID": "27890479425105",
        "PLACE": "50570",
        "PLACECC": "C1",
        "PLACENS": "02411300",
        "STATE": "53",
        "DISP_CLR": 2,
        "slug": "ocean_shores",
        "jurisdiction_key": "ocean_shores_city",
        "county_fips": [
          "53027"
        ]
      }
    }
  ]
}
