{
  "type": "FeatureCollection",
  "features": [
    {
      "type": "Feature",
      "geometry": {
        "type": "MultiPolygon",
        "coordinates": [
          [
            [
              [
                -119.60432799971548,
                48.34811900019627
              ],
              [
                -119.6043570000278,
                48.34803600018721
              ],
              [
                -119.6043160000199,
                48.34792300012297
              ],
              [
                -119.60426400014137,
                48.347838999775526
              ],
              [
                -119.60421300008777,
                48.34773700010566
              ],
              [
                -119.60413400044504,
                48.34765900018526
              ],
              [
                -119.60394799977388,
                48.347596999933735
              ],
              [
                -119.6038769996288,
                48.34756100025381
              ],
              [
                -119.6037529997802,
                48.347547999931955
              ],
              [
                -119.60366300026683,
                48.34754699990708
              ],
              [
                -119.60349400021245,
                48.34752099984993
              ],
              [
                -119.60340600034888,
                48.347484000090176
              ],
              [
                -119.60335299974712,
                48.34742400027747
              ],
              [
                -119.60325400001292,
                48.34731500016832
              ],
              [
                -119.60311699974558,
                48.347239000261034
              ],
              [
                -119.60300700014074,
                48.347170999902225
              ],
              [
                -119.60292699977478,
                48.34712999975621
              ],
              [
                -119.60268699957525,
                48.34699900002962
              ],
              [
                -119.60260899975746,
                48.34690400013577
              ],
              [
                -119.60257000029772,
                48.3468499998721
              ],
              [
                -119.60254299963522,
                48.34672899983635
              ],
              [
                -119.60254500018335,
                48.346635000079054
              ],
              [
                -119.60256699992468,
                48.34657399981987
              ],
              [
                -119.60256899957452,
                48.34647300005237
              ],
              [
                -119.60254099998541,
                48.34637899982291
              ],
              [
                -119.60249199958159,
                48.346330999892935
              ],
              [
                -119.60247400003824,
                48.34620999981906
              ],
              [
                -119.60250800037346,
                48.34609599983207
              ],
              [
                -119.60257000029772,
                48.34602899979405
              ],
              [
                -119.60262200017625,
                48.3459559999286
              ],
              [
                -119.60253400031272,
                48.34589900027998
              ],
              [
                -119.60225999977801,
                48.34571999986906
              ],
              [
                -119.60205399991368,
                48.345980000075826
              ],
              [
                -119.60180299984353,
                48.346306999911
              ],
              [
                -119.60155299959825,
                48.346634000036225
              ],
              [
                -119.60159699997921,
                48.34675400025708
              ],
              [
                -119.60159699997921,
                48.34718499975526
              ],
              [
                -119.60148900002415,
                48.34763300018525
              ],
              [
                -119.60122000041065,
                48.34795600009367
              ],
              [
                -119.60063999955419,
                48.348193999973105
              ],
              [
                -119.60023600022144,
                48.34851699990803
              ],
              [
                -119.59972400003538,
                48.34877800017506
              ],
              [
                -119.599406999843,
                48.34901499980168
              ],
              [
                -119.59935599978935,
                48.34914099975141
              ],
              [
                -119.59919900032885,
                48.34922899971157
              ],
              [
                -119.59908700017586,
                48.34928799979652
              ],
              [
                -119.59871499973187,
                48.34952300006411
              ],
              [
                -119.59841699980602,
                48.34942600012312
              ],
              [
                -119.59817199958364,
                48.349432000050975
              ],
              [
                -119.59818900020038,
                48.34938699997785
              ],
              [
                -119.59814800019251,
                48.34939199992159
              ],
              [
                -119.59801000010026,
                48.349406999749924
              ],
              [
                -119.59757599973199,
                48.34988399974873
              ],
              [
                -119.59712800001833,
                48.35088100014934
              ],
              [
                -119.59691200010826,
                48.351125999782404
              ],
              [
                -119.59672799998522,
                48.35121499984962
              ],
              [
                -119.59646299967136,
                48.351345000131325
              ],
              [
                -119.59615600042302,
                48.35149500022792
              ],
              [
                -119.59556899989387,
                48.35182299984001
              ],
              [
                -119.59366400016302,
                48.353319000051805
              ],
              [
                -119.59354299978916,
                48.35341499983624
              ],
              [
                -119.59349699975846,
                48.35351799998832
              ],
              [
                -119.59320800005344,
                48.35368300001831
              ],
              [
                -119.59316700004557,
                48.35370000018279
              ],
              [
                -119.59267999997384,
                48.353314999808106
              ],
              [
                -119.59264599963866,
                48.35328899970897
              ],
              [
                -119.59143399984383,
                48.353266999844315
              ],
              [
                -119.5901290001626,
                48.353242000230765
              ],
              [
                -119.59002600023044,
                48.35323999980749
              ],
              [
                -119.58958000016659,
                48.353232999817706
              ],
              [
                -119.5895309997628,
                48.353231999904345
              ],
              [
                -119.5909250000308,
                48.3523810002768
              ],
              [
                -119.59093300042674,
                48.35184600026866
              ],
              [
                -119.59011699956874,
                48.35124099981309
              ],
              [
                -119.58970900003804,
                48.35095000029187
              ],
              [
                -119.58942399963269,
                48.350741000256555
              ],
              [
                -119.58867999964302,
                48.35130199985902
              ],
              [
                -119.5881440000658,
                48.35170699998552
              ],
              [
                -119.58679300035384,
                48.35272500012464
              ],
              [
                -119.58620499999977,
                48.353168000037286
              ],
              [
                -119.58586400041624,
                48.35316299986706
              ],
              [
                -119.58568600014102,
                48.35316199995237
              ],
              [
                -119.58505799960398,
                48.35315100029228
              ],
              [
                -119.58363900011992,
                48.35312500010946
              ],
              [
                -119.58335200006475,
                48.35311900001943
              ],
              [
                -119.58212100000334,
                48.35309700008138
              ],
              [
                -119.58212100000334,
                48.35571699976879
              ],
              [
                -119.58211299960745,
                48.35605599989139
              ],
              [
                -119.58211400033065,
                48.35609299999362
              ],
              [
                -119.58212000017845,
                48.35620499999413
              ],
              [
                -119.58212199982826,
                48.35624299984244
              ],
              [
                -119.58180200016113,
                48.356468999831314
              ],
              [
                -119.58133299963275,
                48.3568029999126
              ],
              [
                -119.58128699960201,
                48.35683600010205
              ],
              [
                -119.5808430000863,
                48.35714999985832
              ],
              [
                -119.58058000032057,
                48.35733799980511
              ],
              [
                -119.58052400024408,
                48.3573780002631
              ],
              [
                -119.58046399996961,
                48.35742100018317
              ],
              [
                -119.57869800015592,
                48.35869999975724
              ],
              [
                -119.5779759999076,
                48.35922399988338
              ],
              [
                -119.57674800021925,
                48.36009899988377
              ],
              [
                -119.57699500009146,
                48.36023099973268
              ],
              [
                -119.57591800001586,
                48.36152199977982
              ],
              [
                -119.57588399968064,
                48.36156400003348
              ],
              [
                -119.57587700000796,
                48.36157300016859
              ],
              [
                -119.57589799992435,
                48.36158700024299
              ],
              [
                -119.576393000392,
                48.36193300009143
              ],
              [
                -119.57638199962302,
                48.36194200016135
              ],
              [
                -119.57630999965302,
                48.362004000268236
              ],
              [
                -119.57610200013887,
                48.36219400027985
              ],
              [
                -119.57601000007736,
                48.362279999712825
              ],
              [
                -119.57546699992915,
                48.36190099996257
              ],
              [
                -119.57503500010901,
                48.36225300027433
              ],
              [
                -119.57486100003173,
                48.36212400010671
              ],
              [
                -119.57482599987162,
                48.36214499998968
              ],
              [
                -119.57447799971709,
                48.36190099996257
              ],
              [
                -119.57434200017298,
                48.361803999710276
              ],
              [
                -119.57327599996803,
                48.36249800013738
              ],
              [
                -119.5733889999459,
                48.36258000013774
              ],
              [
                -119.57355600035051,
                48.36269700003341
              ],
              [
                -119.57376100038991,
                48.36284099999523
              ],
              [
                -119.57434999967056,
                48.363255000154325
              ],
              [
                -119.57448699993793,
                48.363350000004466
              ],
              [
                -119.57458300019739,
                48.36341699994931
              ],
              [
                -119.57450100018163,
                48.3634950002195
              ],
              [
                -119.57407400038436,
                48.363864000016235
              ],
              [
                -119.5736330003434,
                48.36424599976995
              ],
              [
                -119.57302300024804,
                48.36477600005478
              ],
              [
                -119.5727040004058,
                48.36498600009475
              ],
              [
                -119.5727520000864,
                48.36502199999762
              ],
              [
                -119.57113799971036,
                48.36634000004276
              ],
              [
                -119.57084599963231,
                48.366576999747025
              ],
              [
                -119.57134199992484,
                48.36683999990061
              ],
              [
                -119.57154000029156,
                48.366952999790044
              ],
              [
                -119.57162200030733,
                48.366997000223144
              ],
              [
                -119.57079399975375,
                48.3676909997202
              ],
              [
                -119.57383099981182,
                48.36765900022482
              ],
              [
                -119.57392899972108,
                48.367701999821826
              ],
              [
                -119.57399499984335,
                48.367733000258234
              ],
              [
                -119.57455999973287,
                48.3679730001106
              ],
              [
                -119.57385299955313,
                48.368556000188555
              ],
              [
                -119.57306000005794,
                48.36920900023767
              ],
              [
                -119.57253500035141,
                48.36964199995405
              ],
              [
                -119.57200999974654,
                48.37007399998652
              ],
              [
                -119.5717250002395,
                48.370308999867284
              ],
              [
                -119.5716139999114,
                48.37041499980138
              ],
              [
                -119.57123700034289,
                48.370778999955895
              ],
              [
                -119.5707820000582,
                48.371014999728054
              ],
              [
                -119.56957500028626,
                48.37165599988308
              ],
              [
                -119.56938500031546,
                48.37210399998606
              ],
              [
                -119.56952500005755,
                48.37255299985879
              ],
              [
                -119.56932400021608,
                48.372892000129866
              ],
              [
                -119.56913400024528,
                48.37306999984914
              ],
              [
                -119.56847899994408,
                48.37368399985144
              ],
              [
                -119.56802600020757,
                48.37410900009815
              ],
              [
                -119.56717799956252,
                48.374904000238566
              ],
              [
                -119.5647470003002,
                48.37569200001241
              ],
              [
                -119.56391899974662,
                48.37591199984631
              ],
              [
                -119.56289500027277,
                48.376183000002946
              ],
              [
                -119.56348699992648,
                48.37647000017917
              ],
              [
                -119.56409000034915,
                48.37677400015238
              ],
              [
                -119.56483599998863,
                48.37713800019749
              ],
              [
                -119.5640379995723,
                48.37784200019184
              ],
              [
                -119.56394200021117,
                48.377798000179055
              ],
              [
                -119.56371299988228,
                48.37769100007067
              ],
              [
                -119.56367699989725,
                48.377674000155466
              ],
              [
                -119.56314700016785,
                48.37742799986904
              ],
              [
                -119.56302099977115,
                48.37739199978565
              ],
              [
                -119.5629599996718,
                48.37737499977055
              ],
              [
                -119.56277300007406,
                48.377362999931975
              ],
              [
                -119.56245099985877,
                48.37745300014405
              ],
              [
                -119.56223199957564,
                48.3775390000654
              ],
              [
                -119.56201599966558,
                48.37762599987275
              ],
              [
                -119.56244900020893,
                48.37783500000253
              ],
              [
                -119.56120899992673,
                48.3789290000137
              ],
              [
                -119.56161300015776,
                48.379126000144424
              ],
              [
                -119.56186800042589,
                48.379251000210665
              ],
              [
                -119.56153600016486,
                48.37953999978525
              ],
              [
                -119.5611160000403,
                48.37990399974328
              ],
              [
                -119.56087300036606,
                48.3797850000204
              ],
              [
                -119.56066400012867,
                48.37968299986608
              ],
              [
                -119.56046499993707,
                48.37958500007517
              ],
              [
                -119.56021700023994,
                48.37980399980433
              ],
              [
                -119.56035600015711,
                48.37987200016607
              ],
              [
                -119.56062899996859,
                48.380003000097965
              ],
              [
                -119.56086699961998,
                48.380120999925644
              ],
              [
                -119.56029500005775,
                48.38062399982939
              ],
              [
                -119.56018399972966,
                48.38056400026091
              ],
              [
                -119.55993600003256,
                48.380757000152144
              ],
              [
                -119.55867499983394,
                48.38183299975124
              ],
              [
                -119.55842200011392,
                48.38204900011894
              ],
              [
                -119.55791499995073,
                48.38247900002272
              ],
              [
                -119.55612300019779,
                48.38400999995939
              ],
              [
                -119.55529499964422,
                48.38472200010771
              ],
              [
                -119.55496599975625,
                48.3845499999285
              ],
              [
                -119.55462299962457,
                48.3843709998775
              ],
              [
                -119.5545399997839,
                48.38432700013851
              ],
              [
                -119.55429100026186,
                48.384197999803256
              ],
              [
                -119.55420900024609,
                48.38415499981769
              ],
              [
                -119.55407000032892,
                48.38420299991022
              ],
              [
                -119.55251500040244,
                48.383416999856365
              ],
              [
                -119.55213799993557,
                48.38325499984405
              ],
              [
                -119.55169400041989,
                48.383385000101036
              ],
              [
                -119.55133399967144,
                48.383878000288725
              ],
              [
                -119.55067099987262,
                48.38462700015341
              ],
              [
                -119.54978499959275,
                48.385628000232295
              ],
              [
                -119.54955199996425,
                48.38590099971147
              ],
              [
                -119.54824899993284,
                48.387435999873155
              ],
              [
                -119.54799500038793,
                48.387750999929075
              ],
              [
                -119.54787300018921,
                48.388065999824974
              ],
              [
                -119.54778899962531,
                48.388235999810945
              ],
              [
                -119.54776799970891,
                48.38842100009786
              ],
              [
                -119.54770300030988,
                48.389043000138976
              ],
              [
                -119.54758899960873,
                48.3901520000364
              ],
              [
                -119.54745899991242,
                48.390903999939106
              ],
              [
                -119.5473529996072,
                48.39152100006957
              ],
              [
                -119.54727999981228,
                48.39195599982505
              ],
              [
                -119.54717199985726,
                48.39211800017822
              ],
              [
                -119.54713199967426,
                48.39222400004184
              ],
              [
                -119.54712800037463,
                48.39223599995619
              ],
              [
                -119.54769599973888,
                48.39221799978532
              ],
              [
                -119.54820499955191,
                48.392203000035735
              ],
              [
                -119.54830500000935,
                48.392203999780556
              ],
              [
                -119.55430799998031,
                48.39208000025216
              ],
              [
                -119.55499400024365,
                48.392066000209425
              ],
              [
                -119.55702799984593,
                48.392024999806566
              ],
              [
                -119.55786800009507,
                48.39200700015753
              ],
              [
                -119.5583789995579,
                48.39199700028351
              ],
              [
                -119.55800399963921,
                48.39142700003966
              ],
              [
                -119.55817100004377,
                48.391155000142675
              ],
              [
                -119.55790200043026,
                48.390979999729765
              ],
              [
                -119.55644200004002,
                48.39003100023891
              ],
              [
                -119.55644600023797,
                48.3898719997718
              ],
              [
                -119.55779699994996,
                48.38949499975153
              ],
              [
                -119.55794099989,
                48.38921100023678
              ],
              [
                -119.55804800002014,
                48.38899900026319
              ],
              [
                -119.55809099967782,
                48.38896300001112
              ],
              [
                -119.55836699986234,
                48.38872799972847
              ],
              [
                -119.55852300039628,
                48.38859599976646
              ],
              [
                -119.55865300009262,
                48.388484999818075
              ],
              [
                -119.5599669999947,
                48.38826800009569
              ],
              [
                -119.55795599995862,
                48.388278999927955
              ],
              [
                -119.55779199992709,
                48.388397000256624
              ],
              [
                -119.55711300023475,
                48.38886299997271
              ],
              [
                -119.55558400024753,
                48.38991399990972
              ],
              [
                -119.55486100017424,
                48.38949999993461
              ],
              [
                -119.55488100026575,
                48.38872799972847
              ],
              [
                -119.55546000039897,
                48.38828800011431
              ],
              [
                -119.55399699963569,
                48.38829699970256
              ],
              [
                -119.55421099989593,
                48.38815099988892
              ],
              [
                -119.55430200013252,
                48.38808800017097
              ],
              [
                -119.55433599956939,
                48.38806299974996
              ],
              [
                -119.55444199987461,
                48.387991000282284
              ],
              [
                -119.5544770000347,
                48.38796700023823
              ],
              [
                -119.55503500025155,
                48.38757899984478
              ],
              [
                -119.5551399998335,
                48.38750700028893
              ],
              [
                -119.5554479998051,
                48.387297000057984
              ],
              [
                -119.55672099969928,
                48.386427999955245
              ],
              [
                -119.55686299998949,
                48.38633199974567
              ],
              [
                -119.55729499980963,
                48.38606300025071
              ],
              [
                -119.55755900029857,
                48.385897000236646
              ],
              [
                -119.55835500016678,
                48.385401000282435
              ],
              [
                -119.55861999958233,
                48.385235999780654
              ],
              [
                -119.5589760001328,
                48.385013000013345
              ],
              [
                -119.55962999971081,
                48.38460599999518
              ],
              [
                -119.56000999965238,
                48.38436300009052
              ],
              [
                -119.56004300016265,
                48.384341999823306
              ],
              [
                -119.5602010003464,
                48.38424200025037
              ],
              [
                -119.56039799998992,
                48.38411699991125
              ],
              [
                -119.56052400038661,
                48.38403599989029
              ],
              [
                -119.56082300013733,
                48.38382999988974
              ],
              [
                -119.56091900039682,
                48.383763999863795
              ],
              [
                -119.56100700026035,
                48.38370399982017
              ],
              [
                -119.56195000044166,
                48.383023999752346
              ],
              [
                -119.56242300026966,
                48.38268999978053
              ],
              [
                -119.56245500005672,
                48.38266800008416
              ],
              [
                -119.56298300013631,
                48.38232500011673
              ],
              [
                -119.56320499989417,
                48.38217899987631
              ],
              [
                -119.56339999988784,
                48.38205299989613
              ],
              [
                -119.56382800040835,
                48.381683000083584
              ],
              [
                -119.56403000007468,
                48.38150999982251
              ],
              [
                -119.56430600025922,
                48.381271999850995
              ],
              [
                -119.56435200028996,
                48.38122799981965
              ],
              [
                -119.56477499988928,
                48.38083300018054
              ],
              [
                -119.56499699964712,
                48.38062299985705
              ],
              [
                -119.56398300021904,
                48.38013800021708
              ],
              [
                -119.56447799978837,
                48.37970400026552
              ],
              [
                -119.5654030004263,
                48.37888699976003
              ],
              [
                -119.56561799961314,
                48.37882399991123
              ],
              [
                -119.56569399978112,
                48.378750999894194
              ],
              [
                -119.56613900002004,
                48.37832100012155
              ],
              [
                -119.5669109995988,
                48.37868699986669
              ],
              [
                -119.56695400015481,
                48.37870600006039
              ],
              [
                -119.56697900026919,
                48.37867999979356
              ],
              [
                -119.56753499993788,
                48.37812099979458
              ],
              [
                -119.56763500039531,
                48.37801999990968
              ],
              [
                -119.5675640002502,
                48.37798699972072
              ],
              [
                -119.56585899963757,
                48.3771800001041
              ],
              [
                -119.56576900012419,
                48.37713900023828
              ],
              [
                -119.56590100036865,
                48.37701899997566
              ],
              [
                -119.5661280001494,
                48.376812000170524
              ],
              [
                -119.56629800002871,
                48.376883999938784
              ],
              [
                -119.56719400035435,
                48.37730800028763
              ],
              [
                -119.5671709998898,
                48.37732999991382
              ],
              [
                -119.56795699971225,
                48.377707999980245
              ],
              [
                -119.56805799999462,
                48.37761600015618
              ],
              [
                -119.56815099988103,
                48.37753199983442
              ],
              [
                -119.56818299966808,
                48.37750400009411
              ],
              [
                -119.56831699956238,
                48.37738200002317
              ],
              [
                -119.56835099989758,
                48.37735200012721
              ],
              [
                -119.56904200018379,
                48.37736099985917
              ],
              [
                -119.57120800003054,
                48.377362999931975
              ],
              [
                -119.57117399969538,
                48.38097800013979
              ],
              [
                -119.57125599971113,
                48.381125000207646
              ],
              [
                -119.57126300028213,
                48.38108999971858
              ],
              [
                -119.57128599984836,
                48.380984999896924
              ],
              [
                -119.57129400024428,
                48.38095099987419
              ],
              [
                -119.57131900035863,
                48.38087599998936
              ],
              [
                -119.57141200024506,
                48.38070100002717
              ],
              [
                -119.57150699978128,
                48.380573000021656
              ],
              [
                -119.57161200026157,
                48.380460999902006
              ],
              [
                -119.57170500014803,
                48.38038599989183
              ],
              [
                -119.57193799977651,
                48.380203000190924
              ],
              [
                -119.57265699965181,
                48.37958200009683
              ],
              [
                -119.57313000037816,
                48.37920800022252
              ],
              [
                -119.5733529999609,
                48.37903899991721
              ],
              [
                -119.57339800016678,
                48.37900599979213
              ],
              [
                -119.57351199996958,
                48.37889499981103
              ],
              [
                -119.57356499967301,
                48.3788219998958
              ],
              [
                -119.57370799978817,
                48.378585999911344
              ],
              [
                -119.57374700014623,
                48.37850500003866
              ],
              [
                -119.5737599996667,
                48.3784680001055
              ],
              [
                -119.57378300013123,
                48.37840299970628
              ],
              [
                -119.57385900029921,
                48.378043999870926
              ],
              [
                -119.57392299987332,
                48.377559000123455
              ],
              [
                -119.57392500042145,
                48.377548999797085
              ],
              [
                -119.57394600033784,
                48.37745300014405
              ],
              [
                -119.57402800035362,
                48.377240000080995
              ],
              [
                -119.57414700017931,
                48.37700700005317
              ],
              [
                -119.57439400005148,
                48.37662000029074
              ],
              [
                -119.5745970004411,
                48.376354999814225
              ],
              [
                -119.57481900019894,
                48.376097000177715
              ],
              [
                -119.57527699995833,
                48.37558500025139
              ],
              [
                -119.57550600028719,
                48.375311999741875
              ],
              [
                -119.57610200013887,
                48.37460500029337
              ],
              [
                -119.57612600042832,
                48.37457499995444
              ],
              [
                -119.57619400020037,
                48.37449599985265
              ],
              [
                -119.57620000004817,
                48.37448600011803
              ],
              [
                -119.57629299993457,
                48.374365000070796
              ],
              [
                -119.57633399994246,
                48.37431100026762
              ],
              [
                -119.57638800036915,
                48.3742389998442
              ],
              [
                -119.57642799965379,
                48.37417699971293
              ],
              [
                -119.57647100020979,
                48.37411199980227
              ],
              [
                -119.57662000017272,
                48.37386000017197
              ],
              [
                -119.5766750004243,
                48.3737509999265
              ],
              [
                -119.57669200014276,
                48.373717999954
              ],
              [
                -119.57682600003706,
                48.37376099980547
              ],
              [
                -119.57699599991636,
                48.37375900018786
              ],
              [
                -119.57740900036823,
                48.373769000065266
              ],
              [
                -119.57781900044705,
                48.37375699997347
              ],
              [
                -119.57856099988861,
                48.37374899971181
              ],
              [
                -119.57889899999739,
                48.37376400012678
              ],
              [
                -119.57930200040353,
                48.37375800008068
              ],
              [
                -119.57971999997996,
                48.37376400012678
              ],
              [
                -119.58151099990798,
                48.373789999920696
              ],
              [
                -119.584115000321,
                48.37377799983386
              ],
              [
                -119.58710700017318,
                48.37377100027918
              ],
              [
                -119.58714599963294,
                48.37015100002879
              ],
              [
                -119.58759699971964,
                48.37014599973508
              ],
              [
                -119.58759099987186,
                48.36954800009419
              ],
              [
                -119.58715200037902,
                48.36955200025682
              ],
              [
                -119.58715499985375,
                48.369240999952645
              ],
              [
                -119.58733899997677,
                48.369242000148546
              ],
              [
                -119.58734399999965,
                48.368913000279605
              ],
              [
                -119.58715900005173,
                48.36891200007724
              ],
              [
                -119.58717499994526,
                48.36726800008584
              ],
              [
                -119.58718400016608,
                48.36653300014465
              ],
              [
                -119.58727100020471,
                48.36653300014465
              ],
              [
                -119.5881280001723,
                48.36652800009251
              ],
              [
                -119.58812399997433,
                48.3666560001991
              ],
              [
                -119.58812200032452,
                48.366731000144725
              ],
              [
                -119.58812099960127,
                48.36677000014442
              ],
              [
                -119.58811800012654,
                48.36686500000339
              ],
              [
                -119.5888820002077,
                48.366856000206525
              ],
              [
                -119.58888499968243,
                48.36674199985689
              ],
              [
                -119.58888499968243,
                48.36673199979311
              ],
              [
                -119.5888899997053,
                48.366523000039834
              ],
              [
                -119.58896500004836,
                48.366523000039834
              ],
              [
                -119.58972199955852,
                48.366519000236096
              ],
              [
                -119.58991300025254,
                48.366517999986705
              ],
              [
                -119.59273400040051,
                48.36650200017142
              ],
              [
                -119.59359499966773,
                48.366493999963474
              ],
              [
                -119.59354199996427,
                48.366395000195794
              ],
              [
                -119.59449099999337,
                48.36607499977504
              ],
              [
                -119.59522699958711,
                48.36582500028535
              ],
              [
                -119.59631899973132,
                48.3654579997187
              ],
              [
                -119.59633200015011,
                48.36648100029432
              ],
              [
                -119.59733499970756,
                48.366473999736556
              ],
              [
                -119.59741400024859,
                48.36637400027456
              ],
              [
                -119.59747100014998,
                48.36629100016023
              ],
              [
                -119.59749500043944,
                48.366256000215266
              ],
              [
                -119.5981900000253,
                48.366449000038656
              ],
              [
                -119.59875300026502,
                48.366149999979434
              ],
              [
                -119.59974800032484,
                48.36562299987298
              ],
              [
                -119.59989599956452,
                48.3654579997187
              ],
              [
                -119.59815300021538,
                48.36496500018943
              ],
              [
                -119.59822799966014,
                48.36479500006844
              ],
              [
                -119.59832300009468,
                48.36458099988186
              ],
              [
                -119.59833700033839,
                48.36454999991414
              ],
              [
                -119.59630500038595,
                48.364528999829
              ],
              [
                -119.59630299983779,
                48.364390999821595
              ],
              [
                -119.59638400002866,
                48.364278000216096
              ],
              [
                -119.59644900032596,
                48.364086999922094
              ],
              [
                -119.59650100020451,
                48.36381599984455
              ],
              [
                -119.59652899979362,
                48.363437999896064
              ],
              [
                -119.59654600041036,
                48.36321100006943
              ],
              [
                -119.59655300008305,
                48.362828999715525
              ],
              [
                -119.59620699957834,
                48.36283000003736
              ],
              [
                -119.59620699957834,
                48.362819999802326
              ],
              [
                -119.59616499974554,
                48.36282100012434
              ],
              [
                -119.59616200027078,
                48.36265100000957
              ],
              [
                -119.59615800007286,
                48.362357999933614
              ],
              [
                -119.59499499978351,
                48.361798000045496
              ],
              [
                -119.59496399982137,
                48.36118499973078
              ],
              [
                -119.5949229998135,
                48.36038099993259
              ],
              [
                -119.59490799974488,
                48.359197999815144
              ],
              [
                -119.59583500003265,
                48.35918899985726
              ],
              [
                -119.59768600023516,
                48.359170999936815
              ],
              [
                -119.5976629997706,
                48.357436000035676
              ],
              [
                -119.59666500023606,
                48.35744600013389
              ],
              [
                -119.59644500012801,
                48.356339000086976
              ],
              [
                -119.59639099970136,
                48.356342000240936
              ],
              [
                -119.59632399975419,
                48.35599500016427
              ],
              [
                -119.5963940000744,
                48.35599299984909
              ],
              [
                -119.59647400044034,
                48.35598200020321
              ],
              [
                -119.59655700028102,
                48.355963999746585
              ],
              [
                -119.59695899996392,
                48.355864999807416
              ],
              [
                -119.59727000030853,
                48.355777999828696
              ],
              [
                -119.59753100042447,
                48.35571400017498
              ],
              [
                -119.59768899970987,
                48.35568199972097
              ],
              [
                -119.59786799981003,
                48.35565600023275
              ],
              [
                -119.59789100027457,
                48.35565200017252
              ],
              [
                -119.59790499961996,
                48.35564999984387
              ],
              [
                -119.59796200041967,
                48.35564599978318
              ],
              [
                -119.5979859998108,
                48.35564499991721
              ],
              [
                -119.598092000116,
                48.35563800025784
              ],
              [
                -119.59829799998033,
                48.355635999928595
              ],
              [
                -119.59923600013877,
                48.35562799980474
              ],
              [
                -119.59940199982012,
                48.355626999938416
              ],
              [
                -119.59954900013321,
                48.35562500020568
              ],
              [
                -119.60016300042652,
                48.355614999750024
              ],
              [
                -119.60037799961339,
                48.35561100028353
              ],
              [
                -119.60069599963069,
                48.35557899976488
              ],
              [
                -119.60092499995955,
                48.355533999747706
              ],
              [
                -119.60103799993746,
                48.35550300024331
              ],
              [
                -119.60136099997763,
                48.35538699981246
              ],
              [
                -119.60147700032859,
                48.35533700026572
              ],
              [
                -119.601646000383,
                48.355254999947775
              ],
              [
                -119.60188099966133,
                48.355115000133644
              ],
              [
                -119.60196600005013,
                48.35505600022894
              ],
              [
                -119.60211699966287,
                48.35492999998113
              ],
              [
                -119.60217199991446,
                48.354869999980984
              ],
              [
                -119.6022799998695,
                48.354703999731825
              ],
              [
                -119.60120600016697,
                48.354348000222
              ],
              [
                -119.60157199986483,
                48.35422399980194
              ],
              [
                -119.601646000383,
                48.35419099971148
              ],
              [
                -119.60179399962269,
                48.35412799975085
              ],
              [
                -119.60190300030094,
                48.354080999852656
              ],
              [
                -119.60193900028597,
                48.35406100012416
              ],
              [
                -119.60219100018104,
                48.35392899980888
              ],
              [
                -119.60236199988526,
                48.35383000009421
              ],
              [
                -119.60250099980243,
                48.35375000014206
              ],
              [
                -119.60253099993967,
                48.353732000090744
              ],
              [
                -119.60262499965098,
                48.35367799989862
              ],
              [
                -119.60265599961312,
                48.3536609997268
              ],
              [
                -119.6027290003064,
                48.35361300008895
              ],
              [
                -119.60278200000982,
                48.35357900029322
              ],
              [
                -119.60244200025122,
                48.35348799976266
              ],
              [
                -119.602371999931,
                48.353467999801396
              ],
              [
                -119.60135400030495,
                48.353190999858874
              ],
              [
                -119.6007790003697,
                48.3530419998962
              ],
              [
                -119.60073900018672,
                48.353026999943935
              ],
              [
                -119.60087800010389,
                48.3527739999244
              ],
              [
                -119.60100899962514,
                48.35253300016275
              ],
              [
                -119.60132400016771,
                48.35195399970293
              ],
              [
                -119.6001550000306,
                48.351639000215656
              ],
              [
                -119.6002670001836,
                48.35151399982259
              ],
              [
                -119.60037000011577,
                48.35142700017514
              ],
              [
                -119.60045100030662,
                48.351360999931835
              ],
              [
                -119.60057500015519,
                48.35128799994302
              ],
              [
                -119.60065700017095,
                48.35122899978568
              ],
              [
                -119.60068599958495,
                48.351216999755444
              ],
              [
                -119.60077400034683,
                48.35117899974053
              ],
              [
                -119.60107800012042,
                48.350984000050836
              ],
              [
                -119.60124100032702,
                48.35089900001381
              ],
              [
                -119.60135400030495,
                48.350825999960136
              ],
              [
                -119.60148800019925,
                48.35073299996111
              ],
              [
                -119.60166599957616,
                48.35061100022495
              ],
              [
                -119.60176400038377,
                48.35054700005083
              ],
              [
                -119.60183700017869,
                48.3504880002295
              ],
              [
                -119.60191800036957,
                48.35043500014968
              ],
              [
                -119.60206300013452,
                48.3503220000319
              ],
              [
                -119.60214599997519,
                48.35020800028789
              ],
              [
                -119.60217299973938,
                48.35014100028268
              ],
              [
                -119.6022320001889,
                48.35000799998465
              ],
              [
                -119.60232400025042,
                48.349928000001796
              ],
              [
                -119.60239600022045,
                48.34988199979058
              ],
              [
                -119.60245800014472,
                48.34983500015488
              ],
              [
                -119.60259100021412,
                48.349760999789524
              ],
              [
                -119.6027169997125,
                48.349720999918375
              ],
              [
                -119.60286099965256,
                48.34972199990064
              ],
              [
                -119.60298899969906,
                48.34972699981151
              ],
              [
                -119.60312900033948,
                48.349682999981894
              ],
              [
                -119.60317399964698,
                48.3496229997731
              ],
              [
                -119.60322100040098,
                48.34955900014913
              ],
              [
                -119.60330500006657,
                48.34942900008711
              ],
              [
                -119.6033779998615,
                48.34935900028378
              ],
              [
                -119.60345200037966,
                48.34928799979652
              ],
              [
                -119.60352500017459,
                48.34920599989268
              ],
              [
                -119.60358899974867,
                48.34914099975141
              ],
              [
                -119.603654000046,
                48.349064000183986
              ],
              [
                -119.6036819996351,
                48.34899299988274
              ],
              [
                -119.60366800028973,
                48.34886800016308
              ],
              [
                -119.60366999993954,
                48.348791000183155
              ],
              [
                -119.60371599997028,
                48.34870800007453
              ],
              [
                -119.60378000044271,
                48.3486489999151
              ],
              [
                -119.60382800012329,
                48.34858600026646
              ],
              [
                -119.60396299984251,
                48.34846600018012
              ],
              [
                -119.6040619995767,
                48.34842599988952
              ],
              [
                -119.60414500031568,
                48.348367000000636
              ],
              [
                -119.60424499987482,
                48.34826700021507
              ],
              [
                -119.60429199973048,
                48.3481899999241
              ],
              [
                -119.60432799971548,
                48.34811900019627
              ]
            ]
          ],
          [
            [
              [
                -119.57378300013123,
                48.35946399984107
              ],
              [
                -119.57378200030634,
                48.3591659997588
              ],
              [
                -119.57256600031353,
                48.35934800007234
              ],
              [
                -119.5694809996766,
                48.359808000216
              ],
              [
                -119.56564299972747,
                48.36038300007554
              ],
              [
                -119.56564500027564,
                48.36108700014646
              ],
              [
                -119.56564600010056,
                48.361489000238315
              ],
              [
                -119.56564600010056,
                48.361628999846225
              ],
              [
                -119.565550999666,
                48.36165699996035
              ],
              [
                -119.56512999971652,
                48.361783000283594
              ],
              [
                -119.56473600042955,
                48.36185899998678
              ],
              [
                -119.56407000025767,
                48.361975000006204
              ],
              [
                -119.56293700010556,
                48.36213700029112
              ],
              [
                -119.56241300022393,
                48.36213800002967
              ],
              [
                -119.56021899988977,
                48.362142000177464
              ],
              [
                -119.56021700023994,
                48.36165600021236
              ],
              [
                -119.56103999987232,
                48.36165299977447
              ],
              [
                -119.56103700039759,
                48.36104500009634
              ],
              [
                -119.55939200005942,
                48.361050000089925
              ],
              [
                -119.5593900004096,
                48.360441999780136
              ],
              [
                -119.55478300035645,
                48.360457999708494
              ],
              [
                -119.55479599987694,
                48.36407600023335
              ],
              [
                -119.56022800011061,
                48.36405699995148
              ],
              [
                -119.56022800011061,
                48.36401000026033
              ],
              [
                -119.56295200017418,
                48.36400499996049
              ],
              [
                -119.56455300013143,
                48.364002999959766
              ],
              [
                -119.56870800027293,
                48.36399600025509
              ],
              [
                -119.5697450001656,
                48.36399200025284
              ],
              [
                -119.57063300009528,
                48.363990999953835
              ],
              [
                -119.57098000042492,
                48.36379700006254
              ],
              [
                -119.57103700032634,
                48.36376499991099
              ],
              [
                -119.57117399969538,
                48.36368900006741
              ],
              [
                -119.57119299996197,
                48.36367900000103
              ],
              [
                -119.57108599983182,
                48.36368100001444
              ],
              [
                -119.57108699965671,
                48.36319699984452
              ],
              [
                -119.57108199963385,
                48.362830999762316
              ],
              [
                -119.57107699961098,
                48.36173299985157
              ],
              [
                -119.57107900015913,
                48.36141700018787
              ],
              [
                -119.57125499988624,
                48.361379000020676
              ],
              [
                -119.57135600016855,
                48.361369999851284
              ],
              [
                -119.57155399963696,
                48.36130600005984
              ],
              [
                -119.5717600003996,
                48.36124599980926
              ],
              [
                -119.57207199967081,
                48.36116699991872
              ],
              [
                -119.57227900025838,
                48.36111599972029
              ],
              [
                -119.57238200019054,
                48.36109099977996
              ],
              [
                -119.57248199974964,
                48.361067000183766
              ],
              [
                -119.57257999965893,
                48.3610409998624
              ],
              [
                -119.57267400026859,
                48.36101200024588
              ],
              [
                -119.57276399978194,
                48.360980999896576
              ],
              [
                -119.57284900017076,
                48.36094700024269
              ],
              [
                -119.57293000036161,
                48.36091399973185
              ],
              [
                -119.57300099960841,
                48.36088200015656
              ],
              [
                -119.5728580003916,
                48.360723999720776
              ],
              [
                -119.57283300027724,
                48.36069600028752
              ],
              [
                -119.57253600017633,
                48.360370000040376
              ],
              [
                -119.57242800022127,
                48.36025199979922
              ],
              [
                -119.57242700039637,
                48.359918000244846
              ],
              [
                -119.57242800022127,
                48.35980500026616
              ],
              [
                -119.57237399979462,
                48.359736999962756
              ],
              [
                -119.57229699980172,
                48.359622999794674
              ],
              [
                -119.57225699961874,
                48.359563999738405
              ],
              [
                -119.5732249999144,
                48.35946600002002
              ],
              [
                -119.57378300013123,
                48.35946399984107
              ]
            ]
          ],
          [
            [
              [
                -119.57079399975375,
                48.3676909997202
              ],
              [
                -119.5706480001639,
                48.36770100019243
              ],
              [
                -119.57023499971203,
                48.36772400001795
              ],
              [
                -119.57019700007717,
                48.367701999821826
              ],
              [
                -119.569725999899,
                48.367448000232734
              ],
              [
                -119.56861000036365,
                48.36684400027597
              ],
              [
                -119.5679580004355,
                48.36713700020898
              ],
              [
                -119.56783600023674,
                48.36719200009807
              ],
              [
                -119.5677969998787,
                48.36720899993246
              ],
              [
                -119.56761600012872,
                48.36729400021268
              ],
              [
                -119.5675669997249,
                48.36731700022201
              ],
              [
                -119.56731900002781,
                48.367437000076194
              ],
              [
                -119.56716099984406,
                48.36751399992819
              ],
              [
                -119.56712999988193,
                48.36748700028013
              ],
              [
                -119.5670789998283,
                48.36744399990477
              ],
              [
                -119.56701799972892,
                48.367415999987855
              ],
              [
                -119.56699099996476,
                48.36740700028836
              ],
              [
                -119.56695499997973,
                48.36739499989086
              ],
              [
                -119.5669240000176,
                48.367388000055534
              ],
              [
                -119.56688899985751,
                48.367381000219204
              ],
              [
                -119.56673900006966,
                48.36737399978515
              ],
              [
                -119.56671599960514,
                48.36737399978515
              ],
              [
                -119.56664700000816,
                48.36737699988604
              ],
              [
                -119.56649899987018,
                48.36738300008728
              ],
              [
                -119.56631300009731,
                48.367401000089934
              ],
              [
                -119.56617199963202,
                48.367415999987855
              ],
              [
                -119.56577599979688,
                48.36744399990477
              ],
              [
                -119.56542799964235,
                48.36745399982876
              ],
              [
                -119.56539000000751,
                48.36745199996351
              ],
              [
                -119.56531200018972,
                48.367437000076194
              ],
              [
                -119.56526399961082,
                48.36742900001515
              ],
              [
                -119.56520199968655,
                48.367409999790496
              ],
              [
                -119.56509600027962,
                48.36736199997668
              ],
              [
                -119.56499900019524,
                48.367324000067086
              ],
              [
                -119.56496900005803,
                48.367312000246834
              ],
              [
                -119.56487899964634,
                48.36727900027888
              ],
              [
                -119.56485000023234,
                48.36726800008584
              ],
              [
                -119.56415300009832,
                48.36766799987979
              ],
              [
                -119.56206400024445,
                48.36886999991477
              ],
              [
                -119.56170699986912,
                48.36907699978343
              ],
              [
                -119.56136799993537,
                48.36927099985369
              ],
              [
                -119.56098799999377,
                48.36948800000404
              ],
              [
                -119.56024700037716,
                48.369913000064344
              ],
              [
                -119.56024700037716,
                48.37016900024665
              ],
              [
                -119.56024900002699,
                48.37072300019331
              ],
              [
                -119.5602499998519,
                48.37110799970452
              ],
              [
                -119.5602499998519,
                48.37116999999225
              ],
              [
                -119.56025099967682,
                48.37134600005132
              ],
              [
                -119.56300599970255,
                48.37137099973234
              ],
              [
                -119.56453300003994,
                48.372248000205055
              ],
              [
                -119.56458900011643,
                48.37227999980062
              ],
              [
                -119.56491600035459,
                48.37245399993472
              ],
              [
                -119.56502699978435,
                48.372507999917154
              ],
              [
                -119.56534200032694,
                48.372209999764124
              ],
              [
                -119.56540799955086,
                48.37214999982677
              ],
              [
                -119.56558199962814,
                48.372026999913224
              ],
              [
                -119.56581199978191,
                48.371833999745895
              ],
              [
                -119.56700100001049,
                48.3708310001918
              ],
              [
                -119.57028099974279,
                48.368115999857935
              ],
              [
                -119.5704079999644,
                48.36801100013273
              ],
              [
                -119.57079399975375,
                48.3676909997202
              ]
            ],
            [
              [
                -119.56651099956572,
                48.368294000159295
              ],
              [
                -119.56638699971717,
                48.36839400002887
              ],
              [
                -119.56622400040887,
                48.368527000076284
              ],
              [
                -119.56598800040732,
                48.36852500025312
              ],
              [
                -119.56570499965177,
                48.36825399991781
              ],
              [
                -119.56585600016284,
                48.368176999991064
              ],
              [
                -119.56597599981342,
                48.368117000075934
              ],
              [
                -119.56608700014151,
                48.36806000015078
              ],
              [
                -119.56651099956572,
                48.368294000159295
              ]
            ]
          ],
          [
            [
              [
                -119.59525300042469,
                48.373752000033825
              ],
              [
                -119.59517399988366,
                48.37102999975499
              ],
              [
                -119.59422800022764,
                48.37104000016834
              ],
              [
                -119.59404699957933,
                48.37104000016834
              ],
              [
                -119.59400999976941,
                48.37104000016834
              ],
              [
                -119.59399300005099,
                48.37020999975767
              ],
              [
                -119.59398999967794,
                48.37006699992265
              ],
              [
                -119.5924599998658,
                48.370085999752746
              ],
              [
                -119.59246200041396,
                48.37020099995515
              ],
              [
                -119.5925219997901,
                48.37302099987785
              ],
              [
                -119.5925379996836,
                48.37375800008068
              ],
              [
                -119.59276399963943,
                48.37375400024844
              ],
              [
                -119.59525300042469,
                48.373752000033825
              ]
            ]
          ],
          [
            [
              [
                -119.5978939997493,
                48.385988000142504
              ],
              [
                -119.59774300013656,
                48.38583999993085
              ],
              [
                -119.59766500031876,
                48.38577999994817
              ],
              [
                -119.59755999983844,
                48.385699000187486
              ],
              [
                -119.59747000032509,
                48.38564099978615
              ],
              [
                -119.5974369998148,
                48.385619000172106
              ],
              [
                -119.59730700011845,
                48.38554499988186
              ],
              [
                -119.59714499973676,
                48.385472999834775
              ],
              [
                -119.59707500031487,
                48.38544200005654
              ],
              [
                -119.59696399998678,
                48.38538499983776
              ],
              [
                -119.59683599994028,
                48.385319999918536
              ],
              [
                -119.5966059997865,
                48.385178000044874
              ],
              [
                -119.59596899992695,
                48.38478499981632
              ],
              [
                -119.59571299983394,
                48.3845940000713
              ],
              [
                -119.59558999981027,
                48.38447200028699
              ],
              [
                -119.59548500022828,
                48.38436900008003
              ],
              [
                -119.5953320000674,
                48.384152000108735
              ],
              [
                -119.5953100003261,
                48.38412100012251
              ],
              [
                -119.59523199960998,
                48.38396200028146
              ],
              [
                -119.59521400006663,
                48.38387699978371
              ],
              [
                -119.59506799957846,
                48.38316399982458
              ],
              [
                -119.59498499973778,
                48.38300799975366
              ],
              [
                -119.59492600018653,
                48.382895000290944
              ],
              [
                -119.59481099966052,
                48.38276499997574
              ],
              [
                -119.59470299970546,
                48.382641000118355
              ],
              [
                -119.5944580003814,
                48.38245100002024
              ],
              [
                -119.59432699996184,
                48.382335000101534
              ],
              [
                -119.59346599979632,
                48.381569000112144
              ],
              [
                -119.5928680002948,
                48.38118299978889
              ],
              [
                -119.5928049996473,
                48.38112900005745
              ],
              [
                -119.59264499981374,
                48.38099200024978
              ],
              [
                -119.59237799985006,
                48.380988999757726
              ],
              [
                -119.59238500042106,
                48.38123200025796
              ],
              [
                -119.59239499956848,
                48.381544000068565
              ],
              [
                -119.59239899976646,
                48.38170800005889
              ],
              [
                -119.59242700025385,
                48.38253699985104
              ],
              [
                -119.5939510002182,
                48.384606999889265
              ],
              [
                -119.59339399982629,
                48.38461299985001
              ],
              [
                -119.59344300023008,
                48.38463900006954
              ],
              [
                -119.59349000008575,
                48.38468499992053
              ],
              [
                -119.59351400037517,
                48.38465699993836
              ],
              [
                -119.59355899968273,
                48.38467700018286
              ],
              [
                -119.59376299989721,
                48.384768999774586
              ],
              [
                -119.59557599956655,
                48.385606999890484
              ],
              [
                -119.59636499976209,
                48.38597100001509
              ],
              [
                -119.59737400006561,
                48.385983000210885
              ],
              [
                -119.59744400038582,
                48.385966000081865
              ],
              [
                -119.59746299975406,
                48.38598400007792
              ],
              [
                -119.5978939997493,
                48.385988000142504
              ]
            ]
          ],
          [
            [
              [
                -119.60842900032866,
                48.35719200013523
              ],
              [
                -119.60841099988697,
                48.35572300014978
              ],
              [
                -119.60839900019141,
                48.35411800019529
              ],
              [
                -119.60661400011118,
                48.35410000027398
              ],
              [
                -119.60662800035486,
                48.35553900028216
              ],
              [
                -119.60626000010883,
                48.35553600008092
              ],
              [
                -119.60471199985506,
                48.3567900001577
              ],
              [
                -119.60447800040163,
                48.356979000078944
              ],
              [
                -119.60462700036453,
                48.35719799974557
              ],
              [
                -119.60584800038018,
                48.357196000074495
              ],
              [
                -119.60842900032866,
                48.35719200013523
              ]
            ]
          ]
        ]
      },
      "properties": {
        "AREALAND": "5217966",
        "AREAWATER": "283047",
        "BASENAME": "Okanogan",
        "CBSAPCI": "N",
        "CENTLAT": "+48.3673330",
        "CENTLON": "-119.5781349",
        "FUNCSTAT": "A",
        "GEOID": "5350920",
        "INTPTLAT": "+48.3672735",
        "INTPTLON": "-119.5787678",
        "LSADC": "25",
        "MTFCC": "G4110",
        "NAME": "Okanogan city",
        "NECTAPCI": "N",
        "OBJECTID": 18016,
        "OID": "27890480662915",
        "PLACE": "50920",
        "PLACECC": "C1",
        "PLACENS": "02411309",
        "STATE": "53",
        "DISP_CLR": 2,
        "slug": "okanogan",
        "jurisdiction_key": "okanogan_city",
        "county_fips": [
          "53047"
        ]
      }
    }
  ]
}
