{
  "type": "FeatureCollection",
  "features": [
    {
      "type": "Feature",
      "geometry": {
        "type": "Polygon",
        "coordinates": [
          [
            [
              -118.70109999998702,
              47.32780699970415
            ],
            [
              -118.70141399980638,
              47.32729399998318
            ],
            [
              -118.7003040001188,
              47.327334999957706
            ],
            [
              -118.69946100039495,
              47.32730500012801
            ],
            [
              -118.6994670002427,
              47.32726199993641
            ],
            [
              -118.69890700037607,
              47.32724499980851
            ],
            [
              -118.69722900042595,
              47.327194000000915
            ],
            [
              -118.69675200039997,
              47.32717900004813
            ],
            [
              -118.69667000038419,
              47.327176999851176
            ],
            [
              -118.69658900019334,
              47.32717399985997
            ],
            [
              -118.69634800016892,
              47.32715800010708
            ],
            [
              -118.69626799980298,
              47.3271649998854
            ],
            [
              -118.69564900038509,
              47.32714600013704
            ],
            [
              -118.69379300015974,
              47.327089000242026
            ],
            [
              -118.69317499966844,
              47.327069999857386
            ],
            [
              -118.69301200036014,
              47.32706699986016
            ],
            [
              -118.69026900002996,
              47.32697099985793
            ],
            [
              -118.68975299964592,
              47.326964999852
            ],
            [
              -118.68808399991661,
              47.3269060001633
            ],
            [
              -118.68751499982916,
              47.32688599991331
            ],
            [
              -118.68541000008176,
              47.326812000079364
            ],
            [
              -118.67993699984021,
              47.32661899977781
            ],
            [
              -118.68000299996245,
              47.32965899972504
            ],
            [
              -118.68001600038124,
              47.33027999975526
            ],
            [
              -118.68003200027476,
              47.33099499990301
            ],
            [
              -118.68003599957443,
              47.331159000295685
            ],
            [
              -118.67726899985313,
              47.3310570002747
            ],
            [
              -118.67728200027192,
              47.33089300017414
            ],
            [
              -118.67731300023405,
              47.33050900014431
            ],
            [
              -118.67638500012137,
              47.33047500014668
            ],
            [
              -118.67539699973425,
              47.33043799971247
            ],
            [
              -118.67526299983994,
              47.33043600024775
            ],
            [
              -118.67526700003786,
              47.3304660001257
            ],
            [
              -118.67527899973345,
              47.33055400019711
            ],
            [
              -118.67530600039595,
              47.330738999876
            ],
            [
              -118.6753239999393,
              47.33081699980639
            ],
            [
              -118.6753449998557,
              47.33090400017825
            ],
            [
              -118.67538199966559,
              47.33100500016432
            ],
            [
              -118.67540199975709,
              47.331058999715914
            ],
            [
              -118.67547399972712,
              47.331199999705426
            ],
            [
              -118.67553300017667,
              47.33129300017908
            ],
            [
              -118.67559199972789,
              47.33138500016567
            ],
            [
              -118.67565700002521,
              47.33146899985466
            ],
            [
              -118.67585399966873,
              47.3317220002634
            ],
            [
              -118.67586399971447,
              47.33173399980266
            ],
            [
              -118.6758960003998,
              47.33178900014215
            ],
            [
              -118.67590399989744,
              47.33181600013292
            ],
            [
              -118.67590399989744,
              47.33185799995573
            ],
            [
              -118.67590499972233,
              47.33187099977817
            ],
            [
              -118.6758880000039,
              47.331921000236214
            ],
            [
              -118.67584899964584,
              47.331967999710365
            ],
            [
              -118.6758229997066,
              47.33200100026184
            ],
            [
              -118.67620099999836,
              47.33216000024971
            ],
            [
              -118.6763299998698,
              47.33221500014555
            ],
            [
              -118.67677099991074,
              47.33239600009585
            ],
            [
              -118.67699100001879,
              47.33247699970444
            ],
            [
              -118.67721299977661,
              47.33254900013171
            ],
            [
              -118.67735699971668,
              47.332586999996295
            ],
            [
              -118.67752800031921,
              47.332632999795784
            ],
            [
              -118.67765899984043,
              47.332665000241505
            ],
            [
              -118.67770499987122,
              47.33267500018654
            ],
            [
              -118.67768800015278,
              47.33288299983193
            ],
            [
              -118.67706600036185,
              47.33290500022656
            ],
            [
              -118.67667100035166,
              47.33291999977082
            ],
            [
              -118.6762529998769,
              47.332934999919715
            ],
            [
              -118.67593999988244,
              47.332946000107334
            ],
            [
              -118.67468100023196,
              47.332990999910116
            ],
            [
              -118.67416999987078,
              47.3330139999433
            ],
            [
              -118.67392899984638,
              47.33302500011447
            ],
            [
              -118.6739299996713,
              47.33304800013289
            ],
            [
              -118.6738590004245,
              47.33305099979046
            ],
            [
              -118.67366500025572,
              47.333059999979696
            ],
            [
              -118.67339400009408,
              47.33307199982378
            ],
            [
              -118.67300300028181,
              47.33309000019363
            ],
            [
              -118.67232100021644,
              47.33312100007204
            ],
            [
              -118.6720719997961,
              47.333157000163354
            ],
            [
              -118.6720519997046,
              47.33316700001523
            ],
            [
              -118.6719809995595,
              47.33317000027482
            ],
            [
              -118.67199099960523,
              47.333603999912306
            ],
            [
              -118.67199399997831,
              47.33369000028399
            ],
            [
              -118.67200999987182,
              47.33415999992596
            ],
            [
              -118.67460699971379,
              47.334136999783034
            ],
            [
              -118.67561299964429,
              47.334134999849574
            ],
            [
              -118.67886300013768,
              47.33412799977734
            ],
            [
              -118.67908400007059,
              47.33412799977734
            ],
            [
              -118.67948300027878,
              47.33412700011483
            ],
            [
              -118.68007800030551,
              47.33412599984349
            ],
            [
              -118.68006700043485,
              47.33435100014339
            ],
            [
              -118.68005900003892,
              47.33453099981481
            ],
            [
              -118.68005300019117,
              47.3346559997499
            ],
            [
              -118.680026000427,
              47.33523400028763
            ],
            [
              -118.67995399955863,
              47.33675900025387
            ],
            [
              -118.67992599996956,
              47.33737499976025
            ],
            [
              -118.6799229995965,
              47.33742499987728
            ],
            [
              -118.68432899980822,
              47.337594999799165
            ],
            [
              -118.68431399973959,
              47.337786999969516
            ],
            [
              -118.68431200008976,
              47.33780499994968
            ],
            [
              -118.68429500037134,
              47.33802900020422
            ],
            [
              -118.6842509999904,
              47.3385770002234
            ],
            [
              -118.68515800018668,
              47.3386100002974
            ],
            [
              -118.68591300004701,
              47.33863800003039
            ],
            [
              -118.68624299975988,
              47.33864999982443
            ],
            [
              -118.68671099956502,
              47.33866800011917
            ],
            [
              -118.68764700007364,
              47.33870199971221
            ],
            [
              -118.6876379998528,
              47.33883800030032
            ],
            [
              -118.68763200000501,
              47.338945999765876
            ],
            [
              -118.68761399956335,
              47.33927299979354
            ],
            [
              -118.6876090004388,
              47.33938199975858
            ],
            [
              -118.68760600006577,
              47.33942899989744
            ],
            [
              -118.68759799966982,
              47.339572999958875
            ],
            [
              -118.68759600002001,
              47.33962100009498
            ],
            [
              -118.68759199982206,
              47.33969199974705
            ],
            [
              -118.68786800000657,
              47.33969900029916
            ],
            [
              -118.68795300039537,
              47.33970200018763
            ],
            [
              -118.68846499968315,
              47.33971700023627
            ],
            [
              -118.68844899978961,
              47.33965299995857
            ],
            [
              -118.68844499959167,
              47.33963300027437
            ],
            [
              -118.68843700009404,
              47.33957800019065
            ],
            [
              -118.68843200007117,
              47.33954600028165
            ],
            [
              -118.68842500039848,
              47.339498000077356
            ],
            [
              -118.68842299985036,
              47.33945299973205
            ],
            [
              -118.68842200002545,
              47.33942199991829
            ],
            [
              -118.68841799982746,
              47.33934399991359
            ],
            [
              -118.68842100020053,
              47.33927200022848
            ],
            [
              -118.68842600022339,
              47.339192000260205
            ],
            [
              -118.68846300003332,
              47.338897000052626
            ],
            [
              -118.6884759995538,
              47.33882599994025
            ],
            [
              -118.68849499982038,
              47.33873400013274
            ],
            [
              -118.69005099957177,
              47.33879100024413
            ],
            [
              -118.690124000265,
              47.337864000247514
            ],
            [
              -118.6902869995733,
              47.33784300029349
            ],
            [
              -118.69034900039591,
              47.33782299992371
            ],
            [
              -118.69044999977994,
              47.3378249997175
            ],
            [
              -118.69109599986031,
              47.33785299986678
            ],
            [
              -118.7010299996668,
              47.3382160002624
            ],
            [
              -118.7011479996676,
              47.33456299971923
            ],
            [
              -118.70098199998624,
              47.333142999758685
            ],
            [
              -118.70095900042003,
              47.33294899977064
            ],
            [
              -118.70094000015345,
              47.33278700005056
            ],
            [
              -118.70085700031278,
              47.332069999798435
            ],
            [
              -118.7008449997189,
              47.331964000287876
            ],
            [
              -118.70075600003044,
              47.33119699994276
            ],
            [
              -118.70069499993106,
              47.33067600001203
            ],
            [
              -118.70067300018977,
              47.33048299982577
            ],
            [
              -118.70065399992319,
              47.330368000136545
            ],
            [
              -118.7005690004327,
              47.32960299985462
            ],
            [
              -118.70046700032545,
              47.32873099977844
            ],
            [
              -118.70043899983801,
              47.32849200007806
            ],
            [
              -118.70036500021817,
              47.327858999918774
            ],
            [
              -118.70106499982691,
              47.32786400004209
            ],
            [
              -118.70109999998702,
              47.32780699970415
            ]
          ]
        ]
      },
      "properties": {
        "AREALAND": "2103900",
        "AREAWATER": "0",
        "BASENAME": "Odessa",
        "CBSAPCI": "N",
        "CENTLAT": "+47.3325992",
        "CENTLON": "-118.6894446",
        "FUNCSTAT": "A",
        "GEOID": "5350745",
        "INTPTLAT": "+47.3325992",
        "INTPTLON": "-118.6894446",
        "LSADC": "43",
        "MTFCC": "G4110",
        "NAME": "Odessa town",
        "NECTAPCI": "N",
        "OBJECTID": 9377,
        "OID": "27890480264306",
        "PLACE": "50745",
        "PLACECC": "C1",
        "PLACENS": "02413073",
        "STATE": "53",
        "DISP_CLR": 5,
        "slug": "odessa",
        "jurisdiction_key": "odessa_city",
        "county_fips": [
          "53043"
        ]
      }
    }
  ]
}
