{"type":"FeatureCollection","features":[{"type":"Feature","geometry":{"type":"Polygon","coordinates":[[[-117.79418499992218,48.914113999760936],[-117.79414999976207,48.9126700000529],[-117.79414399991428,48.91240100011837],[-117.7941389998914,48.91212699992957],[-117.79347899956733,48.91206700004965],[-117.79310000034896,48.91203700008268],[-117.79257200026937,48.91202999985163],[-117.79220400002335,48.912023999737166],[-117.79096899976399,48.912005999979755],[-117.79059300002037,48.912002000098425],[-117.7908290000219,48.91165399974775],[-117.79101499979473,48.91120799989053],[-117.79111100005422,48.91097600017507],[-117.79095000039572,48.91099999995127],[-117.78912500013251,48.91121400010296],[-117.78912500013251,48.91100900001201],[-117.7886899999393,48.911002999774915],[-117.7886899999393,48.91084199973663],[-117.78893799963642,48.91084100018583],[-117.78893500016171,48.91066300011917],[-117.78893199978866,48.91051199987395],[-117.78863300003792,48.910510999726135],[-117.78863399986282,48.91042600007769],[-117.78865700032738,48.90880500003722],[-117.78865899997716,48.90867000008633],[-117.7873729996642,48.90866299997398],[-117.7871059997005,48.90866100019471],[-117.78697400035433,48.90866000000985],[-117.78695099988983,48.90866100019471],[-117.78676299956884,48.908658999824965],[-117.78663100022267,48.90866599993788],[-117.78656099990249,48.90866899990164],[-117.78655800042775,48.90865800023051],[-117.78641699996243,48.90868300012374],[-117.78628399989304,48.908689000049],[-117.78616099986941,48.90868600008644],[-117.78603100017305,48.90866299997398],[-117.78570999978268,48.9086540000811],[-117.78549399987261,48.908658999824965],[-117.7854699995832,48.90866100019471],[-117.78507899977093,48.90869600015771],[-117.7850550003798,48.908700999897384],[-117.78472899996656,48.90877199992548],[-117.78464100010301,48.908800999899626],[-117.78445699998,48.908865000291954],[-117.78426399963614,48.90895000023424],[-117.78403600003051,48.909110000289076],[-117.78399900022062,48.909136000131504],[-117.78392300005261,48.90919099970821],[-117.78387100017407,48.90922899982049],[-117.7837389999296,48.90938999974258],[-117.78372300003606,48.91054299972302],[-117.78371899983811,48.91080499981224],[-117.78371600036336,48.9109399998987],[-117.78366600013467,48.91094100003796],[-117.78363500017254,48.9109399998987],[-117.78320400017729,48.91093700007133],[-117.78222900020896,48.911559999722435],[-117.78210000033752,48.911643000143336],[-117.78044999997648,48.91271199970565],[-117.78010199982194,48.9129360000124],[-117.7781629997559,48.91424099976749],[-117.77350399982421,48.91427200025468],[-117.7671879998588,48.91431399974136],[-117.76720399975234,48.916097000116885],[-117.76721700017113,48.91761199980735],[-117.76724200028549,48.920477999956965],[-117.76725499980594,48.921950000143426],[-117.76906800037361,48.9219490002246],[-117.7691450003665,48.921950000143426],[-117.76925999999422,48.9219490002246],[-117.76952299975999,48.9219490002246],[-117.7698270004319,48.92194799971547],[-117.76990900044767,48.92194799971547],[-117.77001099965659,48.92188400014496],[-117.77002400007541,48.92187600019287],[-117.77005800041057,48.921855000091206],[-117.77008500017479,48.92184100001854],[-117.77044300037505,48.92181100001823],[-117.7708979997614,48.92177300003131],[-117.77142300036625,48.92177000026413],[-117.77191499956255,48.92181199993982],[-117.7723709996721,48.92184399978146],[-117.77249100022104,48.92186300004666],[-117.77265199987953,48.921887999825366],[-117.77328000041655,48.921721999832606],[-117.77392399994878,48.92139500020287],[-117.77456699965612,48.92110199980269],[-117.77556199971595,48.92079500026916],[-117.77637600002582,48.92051100001069],[-117.77714799960457,48.92024099984296],[-117.77871799959968,48.919826999859936],[-117.78023800026436,48.91949299985364],[-117.78161699956544,48.91919500023196],[-117.78297800022149,48.918805000002244],[-117.78410999965035,48.91837000012679],[-117.7854510002149,48.91781799996081],[-117.78625200010599,48.91752299981353],[-117.78689700036148,48.91726500017566],[-117.78823899985261,48.91684000008838],[-117.78935399956303,48.916427999720426],[-117.79018899978931,48.916018000161955],[-117.79091699988547,48.91551700007263],[-117.79397900005785,48.914202999924875],[-117.79418499992218,48.914113999760936]]]},"properties":{"AREALAND":"1467531","AREAWATER":"0","BASENAME":"Northport","CBSAPCI":"N","CENTLAT":"+48.9157920","CENTLON":"-117.7796961","FUNCSTAT":"A","GEOID":"5350045","INTPTLAT":"+48.9157920","INTPTLON":"-117.7796961","LSADC":"43","MTFCC":"G4110","NAME":"Northport town","NECTAPCI":"N","OBJECTID":7453,"OID":"27890481818968","PLACE":"50045","PLACECC":"C1","PLACENS":"02413056","STATE":"53","DISP_CLR":5,"slug":"northport","jurisdiction_key":"northport_city","county_fips":["53065"]}}]}
