{"type":"FeatureCollection","features":[{"type":"Feature","geometry":{"type":"Polygon","coordinates":[[[-117.25735600012935,47.13786600008169],[-117.25733400038803,47.13519900003124],[-117.25726200041802,47.12663999976585],[-117.25725300019718,47.1255670002644],[-117.25725599967191,47.12537599978588],[-117.25722999973264,47.12319399973343],[-117.2572330001057,47.12313900012146],[-117.25436199972901,47.12312299979021],[-117.24837399982667,47.12310700006541],[-117.24766199962403,47.12311000001417],[-117.2356359995906,47.12311899985948],[-117.23560600035171,47.12311899985948],[-117.23560600035171,47.123145999997426],[-117.2356070001766,47.1234279997364],[-117.23560899982644,47.12366999971206],[-117.23560600035171,47.12474899990648],[-117.23561100037458,47.124894000095814],[-117.2356139998493,47.12509000019997],[-117.2356120001995,47.12545799971693],[-117.23561899987217,47.125777999938094],[-117.23561800004725,47.12717899972287],[-117.23562100042034,47.1279620001311],[-117.23562200024523,47.12803299972769],[-117.23562200024523,47.128161000207214],[-117.23562300007015,47.128548000050884],[-117.2356270002681,47.1294259998791],[-117.23562600044318,47.129471999722504],[-117.2354790001301,47.12947599978673],[-117.23427900003085,47.12947300019695],[-117.2342820004039,47.12985499977059],[-117.23428700042676,47.13042900024928],[-117.23485599961595,47.13044200007019],[-117.23485099959308,47.13004500020396],[-117.23563999978857,47.130062000138864],[-117.23563999978857,47.13014400018012],[-117.23563999978857,47.130199999733094],[-117.23564399998655,47.13025800014655],[-117.23565499985719,47.130403999832545],[-117.23565999988006,47.130470000002774],[-117.23567999997155,47.13086000028125],[-117.23567900014663,47.13087900024058],[-117.23566699955276,47.13121599980641],[-117.23569900023811,47.13166599986141],[-117.23570599991085,47.13188900004768],[-117.23566300025313,47.13218000003004],[-117.23563499976571,47.132490000248495],[-117.23563700031384,47.133033000000346],[-117.23565099965923,47.13704899976656],[-117.23565300020739,47.137172000120806],[-117.23565099965923,47.137648000286084],[-117.23565300020739,47.13777200018413],[-117.23752399960306,47.137780000285915],[-117.23831100014874,47.13777800026055],[-117.23918099963679,47.137780000285915],[-117.24320600008194,47.13780399997288],[-117.24478199992483,47.13780899972808],[-117.24587300024413,47.13781299977634],[-117.2478490001201,47.137830000283564],[-117.24835100026043,47.13783900008263],[-117.25073999968997,47.13783799976556],[-117.25197699959914,47.13784199981163],[-117.25735600012935,47.13786600008169]]]},"properties":{"AREALAND":"2694196","AREAWATER":"0","BASENAME":"Oakesdale","CBSAPCI":"N","CENTLAT":"+47.1304696","CENTLON":"-117.2464399","FUNCSTAT":"A","GEOID":"5350325","INTPTLAT":"+47.1304696","INTPTLON":"-117.2464399","LSADC":"43","MTFCC":"G4110","NAME":"Oakesdale town","NECTAPCI":"N","OBJECTID":11120,"OID":"27890256943253","PLACE":"50325","PLACECC":"C1","PLACENS":"02413067","STATE":"53","DISP_CLR":4,"slug":"oakesdale","jurisdiction_key":"oakesdale_city","county_fips":["53075"]}}]}
