{
  "type": "FeatureCollection",
  "features": [
    {
      "type": "Feature",
      "geometry": {
        "type": "MultiPolygon",
        "coordinates": [
          [
            [
              [
                -119.44804700008078,
                48.940072000154814
              ],
              [
                -119.44818099997507,
                48.939904000124486
              ],
              [
                -119.44770999979688,
                48.93954900011816
              ],
              [
                -119.44762699995621,
                48.93963300021139
              ],
              [
                -119.44755300033637,
                48.93956199979063
              ],
              [
                -119.44660000010933,
                48.938190000249854
              ],
              [
                -119.44429399962216,
                48.93637500023396
              ],
              [
                -119.44238300004355,
                48.9345550002146
              ],
              [
                -119.44239899993704,
                48.93454399975176
              ],
              [
                -119.44245099981558,
                48.934511000118995
              ],
              [
                -119.44246800043234,
                48.93450000023655
              ],
              [
                -119.44243499992204,
                48.93442299981134
              ],
              [
                -119.4424020003101,
                48.934345999857506
              ],
              [
                -119.44232799979193,
                48.934219999891496
              ],
              [
                -119.4420499999576,
                48.93374199981706
              ],
              [
                -119.44185499996392,
                48.9334080002192
              ],
              [
                -119.44169799960507,
                48.933138000140744
              ],
              [
                -119.44141499974786,
                48.932520000208996
              ],
              [
                -119.44137700011302,
                48.932435999948545
              ],
              [
                -119.4412409996706,
                48.930496000051875
              ],
              [
                -119.44119399981493,
                48.929818999831475
              ],
              [
                -119.44136399969423,
                48.928996999853865
              ],
              [
                -119.44142899999157,
                48.92868699992384
              ],
              [
                -119.44142499979361,
                48.926720000193185
              ],
              [
                -119.44140100040246,
                48.92480299990131
              ],
              [
                -119.44141300009802,
                48.92451700026969
              ],
              [
                -119.44144599971,
                48.92442900005353
              ],
              [
                -119.4415090003575,
                48.92397000014151
              ],
              [
                -119.44140399987721,
                48.92381800009851
              ],
              [
                -119.441409999725,
                48.92375700021134
              ],
              [
                -119.43890499994453,
                48.92382300009561
              ],
              [
                -119.43895699982306,
                48.92472699972975
              ],
              [
                -119.43886999978442,
                48.92494900015492
              ],
              [
                -119.43787200024984,
                48.92497400015959
              ],
              [
                -119.43775900027194,
                48.92497400015959
              ],
              [
                -119.43775699972382,
                48.92481599987248
              ],
              [
                -119.43744299990445,
                48.92482399994383
              ],
              [
                -119.4365030000962,
                48.92484900001109
              ],
              [
                -119.43619000010175,
                48.924857999937814
              ],
              [
                -119.43611999978155,
                48.92490800002572
              ],
              [
                -119.43495700039055,
                48.92493700007739
              ],
              [
                -119.43498699962944,
                48.92545800004977
              ],
              [
                -119.43579500009156,
                48.92543700027385
              ],
              [
                -119.43614999991877,
                48.92542799986124
              ],
              [
                -119.436396999791,
                48.92542200017553
              ],
              [
                -119.43641100003468,
                48.92580500001551
              ],
              [
                -119.43641100003468,
                48.925816999884454
              ],
              [
                -119.43631399995031,
                48.92581999999878
              ],
              [
                -119.43602000022244,
                48.925827999909345
              ],
              [
                -119.43520500008768,
                48.925853000064166
              ],
              [
                -119.43513800014051,
                48.92586000012887
              ],
              [
                -119.43504600007901,
                48.925871999984594
              ],
              [
                -119.43501900031482,
                48.92589499984757
              ],
              [
                -119.43499199965233,
                48.9260580000355
              ],
              [
                -119.43502400033769,
                48.926095999713134
              ],
              [
                -119.43504199988104,
                48.92620400016125
              ],
              [
                -119.43504400042917,
                48.92625300024929
              ],
              [
                -119.43507399966809,
                48.926830000114435
              ],
              [
                -119.43507700004115,
                48.92687699994786
              ],
              [
                -119.43508299988893,
                48.92696199993617
              ],
              [
                -119.43486799980376,
                48.92696599980012
              ],
              [
                -119.43390999955385,
                48.926993000201385
              ],
              [
                -119.43395399993477,
                48.927759999797594
              ],
              [
                -119.43080200024902,
                48.92784200006076
              ],
              [
                -119.43040300004085,
                48.92784800004592
              ],
              [
                -119.4303789997514,
                48.92856200021671
              ],
              [
                -119.43037000042891,
                48.92883699974954
              ],
              [
                -119.43036600023093,
                48.928967999799234
              ],
              [
                -119.43036000038315,
                48.92905700005593
              ],
              [
                -119.43035100016232,
                48.929180999930196
              ],
              [
                -119.43044300022383,
                48.92925600004265
              ],
              [
                -119.43056600024747,
                48.92936499991867
              ],
              [
                -119.43055200000376,
                48.92939800000205
              ],
              [
                -119.43053699993516,
                48.92943000029458
              ],
              [
                -119.43047900020883,
                48.92976899993935
              ],
              [
                -119.4304549999194,
                48.92997099990421
              ],
              [
                -119.43042499978218,
                48.93023300020143
              ],
              [
                -119.43037299990361,
                48.93096699998865
              ],
              [
                -119.42844899990618,
                48.930957999982596
              ],
              [
                -119.42844399988331,
                48.9312239999349
              ],
              [
                -119.42807099961442,
                48.931219000088646
              ],
              [
                -119.42782000044258,
                48.93155700025377
              ],
              [
                -119.4277390002517,
                48.93162299986187
              ],
              [
                -119.42751400012082,
                48.93154799976394
              ],
              [
                -119.42743999960267,
                48.931523000099745
              ],
              [
                -119.42731800030224,
                48.9314840001028
              ],
              [
                -119.42665399978019,
                48.93224699973104
              ],
              [
                -119.42621899958702,
                48.93210100015981
              ],
              [
                -119.42553499987181,
                48.93292400007725
              ],
              [
                -119.42545500040417,
                48.93301899972781
              ],
              [
                -119.42559799962098,
                48.93307000019244
              ],
              [
                -119.42552700037419,
                48.933144999774335
              ],
              [
                -119.42529100037267,
                48.933076000139536
              ],
              [
                -119.42516400015106,
                48.933039000159226
              ],
              [
                -119.42494599969282,
                48.932961000142775
              ],
              [
                -119.42429399976467,
                48.93272899994862
              ],
              [
                -119.42407700002968,
                48.93265199974258
              ],
              [
                -119.42359099978289,
                48.9324820001087
              ],
              [
                -119.42366500030104,
                48.93239100004598
              ],
              [
                -119.42427000037357,
                48.93162499990228
              ],
              [
                -119.42437400013063,
                48.9314829997847
              ],
              [
                -119.42426899965032,
                48.93144599980414
              ],
              [
                -119.4234229995534,
                48.931161999917386
              ],
              [
                -119.42371999965434,
                48.930794999855145
              ],
              [
                -119.42327600013863,
                48.930302000224444
              ],
              [
                -119.42328700000928,
                48.92990400012331
              ],
              [
                -119.4240979999461,
                48.929916000187596
              ],
              [
                -119.42411700021269,
                48.929694000007316
              ],
              [
                -119.4242030004264,
                48.928953999950004
              ],
              [
                -119.42421099992399,
                48.928886000204834
              ],
              [
                -119.42424699990902,
                48.92877800024567
              ],
              [
                -119.42429999961246,
                48.928716999925065
              ],
              [
                -119.42438500000128,
                48.928675999938584
              ],
              [
                -119.4241909998325,
                48.92864399975302
              ],
              [
                -119.4242030004264,
                48.928229999782126
              ],
              [
                -119.42352600038387,
                48.928171999945484
              ],
              [
                -119.42356499984362,
                48.92677899976791
              ],
              [
                -119.42334899993358,
                48.92678000018025
              ],
              [
                -119.4233930003145,
                48.924809000251635
              ],
              [
                -119.42306799972619,
                48.92491500022294
              ],
              [
                -119.42281900020414,
                48.92533500022471
              ],
              [
                -119.42105199966723,
                48.9263000000356
              ],
              [
                -119.42171000034148,
                48.927228999742944
              ],
              [
                -119.42056600031874,
                48.92721800002667
              ],
              [
                -119.42032799976904,
                48.92722100005684
              ],
              [
                -119.42042099965546,
                48.927767000185185
              ],
              [
                -119.42043900009713,
                48.92787100017915
              ],
              [
                -119.42091600012311,
                48.928521999890236
              ],
              [
                -119.42144900022556,
                48.929101000236926
              ],
              [
                -119.4216550000899,
                48.929676999889
              ],
              [
                -119.42165199971684,
                48.9297789999218
              ],
              [
                -119.42164199967111,
                48.930322999725
              ],
              [
                -119.42147000014197,
                48.93084699997172
              ],
              [
                -119.42135700016406,
                48.93093099995484
              ],
              [
                -119.42113600023113,
                48.93107200013571
              ],
              [
                -119.42075499956631,
                48.93099699980024
              ],
              [
                -119.42026300037003,
                48.931135999734806
              ],
              [
                -119.4202049997454,
                48.93127299981813
              ],
              [
                -119.42016000043787,
                48.931377999911824
              ],
              [
                -119.42010600001119,
                48.93150600001404
              ],
              [
                -119.41997700013978,
                48.93181600014659
              ],
              [
                -119.41975299983376,
                48.932178000035385
              ],
              [
                -119.4196209995893,
                48.932393999765345
              ],
              [
                -119.41958100030465,
                48.93245899973886
              ],
              [
                -119.4195720000838,
                48.932888999974075
              ],
              [
                -119.41980800008537,
                48.933490000058896
              ],
              [
                -119.41963499983301,
                48.9335189998476
              ],
              [
                -119.41943099961847,
                48.93353700011497
              ],
              [
                -119.41922800012722,
                48.93353100022328
              ],
              [
                -119.41898499955465,
                48.93353399987414
              ],
              [
                -119.4188399997897,
                48.93353599983801
              ],
              [
                -119.41885300020849,
                48.933642000168305
              ],
              [
                -119.41892699982833,
                48.934431999782866
              ],
              [
                -119.41886400007914,
                48.93468999985027
              ],
              [
                -119.41878000041356,
                48.934905000264806
              ],
              [
                -119.41898600027788,
                48.9353030000378
              ],
              [
                -119.41897600023212,
                48.93566800013017
              ],
              [
                -119.41892199980549,
                48.93620299984835
              ],
              [
                -119.41887900014778,
                48.93663500013092
              ],
              [
                -119.41892400035363,
                48.93760299988764
              ],
              [
                -119.41892699982833,
                48.93785299974586
              ],
              [
                -119.4190080000192,
                48.93790500018223
              ],
              [
                -119.41906200044586,
                48.93795299981064
              ],
              [
                -119.41917299987564,
                48.938021000188726
              ],
              [
                -119.41924499984567,
                48.93804900010922
              ],
              [
                -119.41973799976518,
                48.9381709997059
              ],
              [
                -119.41982700035193,
                48.938196000171686
              ],
              [
                -119.42025999999699,
                48.938322000133574
              ],
              [
                -119.42036299992913,
                48.938342999801236
              ],
              [
                -119.42032000027143,
                48.939686000127246
              ],
              [
                -119.42027800043864,
                48.94145899989336
              ],
              [
                -119.42138300010335,
                48.941456000128646
              ],
              [
                -119.42173600028075,
                48.94145500001036
              ],
              [
                -119.42194899981776,
                48.94145399989204
              ],
              [
                -119.42228500027676,
                48.94145299977371
              ],
              [
                -119.42239800025465,
                48.94145299977371
              ],
              [
                -119.42245299960793,
                48.941344999857165
              ],
              [
                -119.42248500029328,
                48.941080000262744
              ],
              [
                -119.42251000040767,
                48.94088500013016
              ],
              [
                -119.4226750002641,
                48.94053100015746
              ],
              [
                -119.42274600040922,
                48.94024999986504
              ],
              [
                -119.42274600040922,
                48.93996499975833
              ],
              [
                -119.42274600040922,
                48.939927000014535
              ],
              [
                -119.42286100003693,
                48.939598000091394
              ],
              [
                -119.42294999972539,
                48.939341000178004
              ],
              [
                -119.42295800012128,
                48.93931900017904
              ],
              [
                -119.42304199978688,
                48.93911099987049
              ],
              [
                -119.42313499967332,
                48.93870299981143
              ],
              [
                -119.4232190002372,
                48.9385940002594
              ],
              [
                -119.42322699973482,
                48.938586000033915
              ],
              [
                -119.4233459995605,
                48.93848400029156
              ],
              [
                -119.42345400041387,
                48.93844400024317
              ],
              [
                -119.42343599997218,
                48.938434999814795
              ],
              [
                -119.42338400009366,
                48.9384330000472
              ],
              [
                -119.42336700037524,
                48.938431000279536
              ],
              [
                -119.42333700023799,
                48.938430000100624
              ],
              [
                -119.42331899979634,
                48.93842400020692
              ],
              [
                -119.42301599984764,
                48.938394000137606
              ],
              [
                -119.42244099991235,
                48.938349000294764
              ],
              [
                -119.42213999961346,
                48.938336999897125
              ],
              [
                -119.42173000043296,
                48.9383380000779
              ],
              [
                -119.42246900039977,
                48.93745299984375
              ],
              [
                -119.42346299973637,
                48.936970000180445
              ],
              [
                -119.42362099992009,
                48.936948999935154
              ],
              [
                -119.42384100002813,
                48.936920999987734
              ],
              [
                -119.42435300021423,
                48.93685400009189
              ],
              [
                -119.42500400031746,
                48.93705500009965
              ],
              [
                -119.42536099979453,
                48.937508000108856
              ],
              [
                -119.42536099979453,
                48.93805300026517
              ],
              [
                -119.42528799999958,
                48.93846899998214
              ],
              [
                -119.42562699993331,
                48.93866000000575
              ],
              [
                -119.42625799994508,
                48.93901600001139
              ],
              [
                -119.426703000184,
                48.93901899992275
              ],
              [
                -119.42685999964452,
                48.939020000089855
              ],
              [
                -119.42709300017135,
                48.93902300000098
              ],
              [
                -119.42702600022419,
                48.93914699990647
              ],
              [
                -119.4270060001327,
                48.93918899971899
              ],
              [
                -119.42695500007908,
                48.93929400027573
              ],
              [
                -119.42681100013904,
                48.93959599978032
              ],
              [
                -119.42680199991823,
                48.939610999751096
              ],
              [
                -119.42674599984169,
                48.939714999856996
              ],
              [
                -119.42664200008463,
                48.93994000017858
              ],
              [
                -119.42661399959724,
                48.94000400021065
              ],
              [
                -119.42630899999871,
                48.94060699987656
              ],
              [
                -119.4261969998457,
                48.94082899991495
              ],
              [
                -119.4261320004467,
                48.94095599984905
              ],
              [
                -119.42593900010284,
                48.94133800019327
              ],
              [
                -119.42587499963044,
                48.94146600013033
              ],
              [
                -119.42530499971804,
                48.94146299977599
              ],
              [
                -119.42359800035388,
                48.94145399989204
              ],
              [
                -119.42302900026642,
                48.94145100012703
              ],
              [
                -119.42294499970252,
                48.94145100012703
              ],
              [
                -119.4229020000448,
                48.94145100012703
              ],
              [
                -119.42252399975301,
                48.941452000245405
              ],
              [
                -119.42239800025465,
                48.94145299977371
              ],
              [
                -119.42236999976724,
                48.94150899987882
              ],
              [
                -119.42217999979647,
                48.9416299997544
              ],
              [
                -119.42199300019871,
                48.94174200009459
              ],
              [
                -119.42177100044083,
                48.94193099976684
              ],
              [
                -119.42171199999133,
                48.941981999977244
              ],
              [
                -119.4216619997626,
                48.9420199999266
              ],
              [
                -119.42166099993769,
                48.94220300028673
              ],
              [
                -119.42164599986906,
                48.94329799991262
              ],
              [
                -119.4229930002814,
                48.94329300009554
              ],
              [
                -119.4243249997268,
                48.94328800027801
              ],
              [
                -119.42498099985296,
                48.9432850000332
              ],
              [
                -119.42484199993577,
                48.94356799991059
              ],
              [
                -119.42441799961323,
                48.94448799994843
              ],
              [
                -119.42408200005258,
                48.94509900008235
              ],
              [
                -119.42385699992167,
                48.945679999995285
              ],
              [
                -119.42363599998875,
                48.946114999749575
              ],
              [
                -119.42333499968986,
                48.94665000018132
              ],
              [
                -119.42301900022066,
                48.94729299985504
              ],
              [
                -119.42259599972304,
                48.948059000286726
              ],
              [
                -119.42229699997232,
                48.94869199977115
              ],
              [
                -119.42234200017816,
                48.9487069999579
              ],
              [
                -119.42235899989659,
                48.94884300022613
              ],
              [
                -119.42236499974437,
                48.949186000050084
              ],
              [
                -119.42234499965289,
                48.949696000000614
              ],
              [
                -119.42234700020103,
                48.95067200018289
              ],
              [
                -119.42234600037614,
                48.950716000191086
              ],
              [
                -119.42233799998019,
                48.95110399970955
              ],
              [
                -119.42234800002592,
                48.95121500010231
              ],
              [
                -119.42236100044471,
                48.95126399983038
              ],
              [
                -119.42237899998806,
                48.95232200018447
              ],
              [
                -119.42904399993294,
                48.952156999808324
              ],
              [
                -119.43375999976602,
                48.952039999715
              ],
              [
                -119.43626000042197,
                48.952068999935136
              ],
              [
                -119.4362910003841,
                48.950941999809196
              ],
              [
                -119.43636900020189,
                48.95094299973738
              ],
              [
                -119.43644899966951,
                48.9509450001836
              ],
              [
                -119.43614999991877,
                48.95067899971755
              ],
              [
                -119.43519900023989,
                48.94986300015628
              ],
              [
                -119.4352219998061,
                48.94986300015628
              ],
              [
                -119.43561699981632,
                48.949867999905024
              ],
              [
                -119.4356240003873,
                48.94962099991839
              ],
              [
                -119.43556999996065,
                48.949617000099636
              ],
              [
                -119.43557599980844,
                48.94941300006799
              ],
              [
                -119.43631899997318,
                48.94942099973795
              ],
              [
                -119.43635999998108,
                48.94960999982608
              ],
              [
                -119.4363900001183,
                48.94974599999279
              ],
              [
                -119.4371440001537,
                48.949750999753306
              ],
              [
                -119.43761899963154,
                48.94975999991082
              ],
              [
                -119.43758099999671,
                48.949728000260954
              ],
              [
                -119.43745899979797,
                48.94962600028137
              ],
              [
                -119.43734199962212,
                48.94952799991947
              ],
              [
                -119.43709999977277,
                48.94931699979922
              ],
              [
                -119.4369809999471,
                48.949214000196505
              ],
              [
                -119.43692700041872,
                48.949167000152514
              ],
              [
                -119.43679099997627,
                48.9490480001946
              ],
              [
                -119.43676699968684,
                48.949029000244444
              ],
              [
                -119.43671200033357,
                48.94898599989584
              ],
              [
                -119.43662500029494,
                48.94890300017456
              ],
              [
                -119.43636699965376,
                48.94865400018244
              ],
              [
                -119.43628200016326,
                48.94857099990895
              ],
              [
                -119.43626299989667,
                48.94855199977715
              ],
              [
                -119.43620599999528,
                48.94849699988273
              ],
              [
                -119.43618699972869,
                48.94847900029028
              ],
              [
                -119.43638099989747,
                48.94846300005713
              ],
              [
                -119.43642699992822,
                48.94846100010136
              ],
              [
                -119.43714900017657,
                48.94843899999273
              ],
              [
                -119.43730599963709,
                48.948435000079236
              ],
              [
                -119.43739000020099,
                48.9484340001008
              ],
              [
                -119.43778799968594,
                48.94842800022982
              ],
              [
                -119.4379269996031,
                48.948427000251236
              ],
              [
                -119.43854799956914,
                48.94842600027264
              ],
              [
                -119.43898299976232,
                48.94843000018686
              ],
              [
                -119.43917000025839,
                48.94843300012234
              ],
              [
                -119.43938199997051,
                48.948423999725414
              ],
              [
                -119.43938699999335,
                48.94844699981886
              ],
              [
                -119.43940299988688,
                48.94851899996574
              ],
              [
                -119.43940899973467,
                48.948542999991666
              ],
              [
                -119.4403529997409,
                48.94855700024723
              ],
              [
                -119.44158200015244,
                48.94857199988464
              ],
              [
                -119.44167699968868,
                48.948573999835915
              ],
              [
                -119.4417980000625,
                48.94857499981154
              ],
              [
                -119.44198999968312,
                48.94857699976275
              ],
              [
                -119.4426700000987,
                48.94858500015666
              ],
              [
                -119.44537800026876,
                48.94861899989913
              ],
              [
                -119.4453749998957,
                48.94844399988421
              ],
              [
                -119.44537900009368,
                48.94563699971055
              ],
              [
                -119.44538099974349,
                48.94477400023942
              ],
              [
                -119.44540099983497,
                48.943977999867634
              ],
              [
                -119.44540400020806,
                48.943881999762354
              ],
              [
                -119.44540699968276,
                48.94378199977595
              ],
              [
                -119.44540800040598,
                48.94370199987854
              ],
              [
                -119.44541500007868,
                48.943466999807036
              ],
              [
                -119.44545000023876,
                48.9421309998769
              ],
              [
                -119.44452499960086,
                48.94108999974975
              ],
              [
                -119.44442800041477,
                48.94097999997222
              ],
              [
                -119.44353499956387,
                48.93997600020675
              ],
              [
                -119.44330000028553,
                48.939711999987466
              ],
              [
                -119.4443539998966,
                48.940064000166224
              ],
              [
                -119.44501099984763,
                48.94013600001763
              ],
              [
                -119.44589399975449,
                48.93987700021437
              ],
              [
                -119.44621799961959,
                48.939979000060404
              ],
              [
                -119.44672300013296,
                48.94022700012384
              ],
              [
                -119.4470699995643,
                48.940396999936034
              ],
              [
                -119.44723100012108,
                48.940485999881034
              ],
              [
                -119.44755599981107,
                48.940666000153215
              ],
              [
                -119.44804700008078,
                48.940072000154814
              ]
            ],
            [
              [
                -119.43433100040164,
                48.94628400013411
              ],
              [
                -119.43404799964613,
                48.94623400021259
              ],
              [
                -119.43290899964624,
                48.94603600007869
              ],
              [
                -119.43292899973773,
                48.945323000281356
              ],
              [
                -119.43293100028585,
                48.945264000200034
              ],
              [
                -119.43305900033239,
                48.94527500007048
              ],
              [
                -119.43404299962324,
                48.945364000166755
              ],
              [
                -119.43404799964613,
                48.94539799974403
              ],
              [
                -119.43406400043796,
                48.94548900028587
              ],
              [
                -119.43410899974549,
                48.94566099994265
              ],
              [
                -119.43414800010355,
                48.94579000003367
              ],
              [
                -119.43420800037799,
                48.94598799996369
              ],
              [
                -119.43427399960193,
                48.94614699994661
              ],
              [
                -119.43433100040164,
                48.94628400013411
              ]
            ]
          ],
          [
            [
              [
                -119.41498500012214,
                48.96461900000644
              ],
              [
                -119.41496800040373,
                48.964483999936725
              ],
              [
                -119.41495800035797,
                48.96440499986185
              ],
              [
                -119.4149249998477,
                48.96432899982102
              ],
              [
                -119.41484399965685,
                48.96413199979676
              ],
              [
                -119.41476800038718,
                48.96389499988292
              ],
              [
                -119.41472499983115,
                48.963500000079314
              ],
              [
                -119.41471599961031,
                48.963218000280804
              ],
              [
                -119.41476099981617,
                48.96280300013054
              ],
              [
                -119.41478000008274,
                48.96221000028711
              ],
              [
                -119.41478199973258,
                48.962141000135794
              ],
              [
                -119.41474800029569,
                48.96200999985087
              ],
              [
                -119.41461900042428,
                48.96171500008792
              ],
              [
                -119.41455900014981,
                48.96146000026628
              ],
              [
                -119.41446799991321,
                48.96109999985975
              ],
              [
                -119.41443799977598,
                48.96110899973942
              ],
              [
                -119.41416900016246,
                48.95990399996549
              ],
              [
                -119.41383100005368,
                48.95963300013176
              ],
              [
                -119.41379400024373,
                48.95961600018238
              ],
              [
                -119.41321699976034,
                48.95935900013707
              ],
              [
                -119.41303299963732,
                48.957796999838976
              ],
              [
                -119.41292899988026,
                48.956879999817446
              ],
              [
                -119.41280199965865,
                48.95639099990065
              ],
              [
                -119.41266899958924,
                48.95588199979058
              ],
              [
                -119.41211200009565,
                48.955349000105706
              ],
              [
                -119.41210200004991,
                48.95533999977657
              ],
              [
                -119.41186000020058,
                48.9543099999529
              ],
              [
                -119.41174600039776,
                48.95392200000174
              ],
              [
                -119.41018499972517,
                48.9530529999775
              ],
              [
                -119.41020399999175,
                48.9523510002407
              ],
              [
                -119.40802800009922,
                48.952360999829
              ],
              [
                -119.40803599959685,
                48.955886000286824
              ],
              [
                -119.40804399999277,
                48.95960999988657
              ],
              [
                -119.40800299998487,
                48.962055000181145
              ],
              [
                -119.4079829998934,
                48.963133000097784
              ],
              [
                -119.40794899955822,
                48.96508499997724
              ],
              [
                -119.41336599972324,
                48.965149999840975
              ],
              [
                -119.4133490000048,
                48.96693699994787
              ],
              [
                -119.41473300022707,
                48.96694799975816
              ],
              [
                -119.41485200005278,
                48.96694899995522
              ],
              [
                -119.41486499957324,
                48.966542000059775
              ],
              [
                -119.41488999968759,
                48.966452999996434
              ],
              [
                -119.41497000005354,
                48.96591000021777
              ],
              [
                -119.41494999996205,
                48.96563899999207
              ],
              [
                -119.41487999964185,
                48.96533800026748
              ],
              [
                -119.41493999991633,
                48.965063999767246
              ],
              [
                -119.41495900018289,
                48.96495600023264
              ],
              [
                -119.41498500012214,
                48.96461900000644
              ]
            ]
          ],
          [
            [
              [
                -119.4435079997997,
                48.96634600014073
              ],
              [
                -119.4433749997303,
                48.96611099997147
              ],
              [
                -119.44335200016408,
                48.966070000031735
              ],
              [
                -119.44316899986599,
                48.96574399974287
              ],
              [
                -119.44310500029188,
                48.965768999959884
              ],
              [
                -119.44256399979348,
                48.965167000263186
              ],
              [
                -119.44313000040623,
                48.964966999890116
              ],
              [
                -119.44349899957886,
                48.964835999951184
              ],
              [
                -119.44344199967746,
                48.9648229997854
              ],
              [
                -119.44330399958518,
                48.96477800018341
              ],
              [
                -119.44300599965935,
                48.9646519997844
              ],
              [
                -119.44291899962074,
                48.964615999864705
              ],
              [
                -119.4427670001831,
                48.964567999931305
              ],
              [
                -119.4425720001894,
                48.96454000014543
              ],
              [
                -119.4424580003866,
                48.964542000046386
              ],
              [
                -119.4423539997312,
                48.964562999886475
              ],
              [
                -119.4422409997533,
                48.96461099982464
              ],
              [
                -119.44221700036216,
                48.96462700018695
              ],
              [
                -119.44221399998911,
                48.96413499996761
              ],
              [
                -119.44186500000966,
                48.964131000132944
              ],
              [
                -119.4415029996114,
                48.96429000009655
              ],
              [
                -119.44145199955778,
                48.96430499972195
              ],
              [
                -119.44137299991507,
                48.96432800016116
              ],
              [
                -119.44124599969346,
                48.96434900009132
              ],
              [
                -119.44105800027081,
                48.96429000009655
              ],
              [
                -119.44099700017144,
                48.96426499972784
              ],
              [
                -119.44095299979051,
                48.96424699992643
              ],
              [
                -119.44068199962884,
                48.964064000200494
              ],
              [
                -119.44053100001612,
                48.96402200009126
              ],
              [
                -119.44023700028823,
                48.96401100022534
              ],
              [
                -119.43997899964705,
                48.96408799982573
              ],
              [
                -119.43980399974488,
                48.964189999726045
              ],
              [
                -119.43972000007929,
                48.96430099990092
              ],
              [
                -119.43966200035298,
                48.964418999794674
              ],
              [
                -119.43967400004856,
                48.964535000097754
              ],
              [
                -119.43978000035375,
                48.96464999988786
              ],
              [
                -119.44002600040103,
                48.96479800027367
              ],
              [
                -119.44012000011237,
                48.96491300004701
              ],
              [
                -119.44014100002877,
                48.964975000014796
              ],
              [
                -119.4401650003182,
                48.96532599987245
              ],
              [
                -119.44022300004454,
                48.96555800011751
              ],
              [
                -119.44031799958078,
                48.96570999987588
              ],
              [
                -119.44045700039626,
                48.9658139998471
              ],
              [
                -119.44094899959252,
                48.96598399977534
              ],
              [
                -119.4410859998599,
                48.966054999757695
              ],
              [
                -119.44118499959409,
                48.96596499978785
              ],
              [
                -119.44101700026292,
                48.96584200009717
              ],
              [
                -119.4415660002589,
                48.96573500010993
              ],
              [
                -119.4418750000554,
                48.966369999847245
              ],
              [
                -119.44211600007984,
                48.96646299970667
              ],
              [
                -119.44209699981326,
                48.96656200003227
              ],
              [
                -119.4419110000404,
                48.9666380002084
              ],
              [
                -119.44186199963661,
                48.966702000204826
              ],
              [
                -119.4420499999576,
                48.96675200025545
              ],
              [
                -119.44216799995837,
                48.96676300010655
              ],
              [
                -119.4435079997997,
                48.96634600014073
              ]
            ]
          ]
        ]
      },
      "properties": {
        "AREALAND": "4375838",
        "AREAWATER": "404901",
        "BASENAME": "Oroville",
        "CBSAPCI": "N",
        "CENTLAT": "+48.9419593",
        "CENTLON": "-119.4304095",
        "FUNCSTAT": "A",
        "GEOID": "5351970",
        "INTPTLAT": "+48.9469508",
        "INTPTLON": "-119.4299690",
        "LSADC": "25",
        "MTFCC": "G4110",
        "NAME": "Oroville city",
        "NECTAPCI": "N",
        "OBJECTID": 15912,
        "OID": "27890480662917",
        "PLACE": "51970",
        "PLACECC": "C1",
        "PLACENS": "02411338",
        "STATE": "53",
        "DISP_CLR": 3,
        "slug": "oroville",
        "jurisdiction_key": "oroville_city",
        "county_fips": [
          "53047"
        ]
      }
    }
  ]
}
