{"type":"FeatureCollection","features":[{"type":"Feature","geometry":{"type":"Polygon","coordinates":[[[-122.23479200034396,47.10950000025348],[-122.234788000146,47.10869199996094],[-122.234788000146,47.108618999720036],[-122.23469100006163,47.10857000002986],[-122.23395600029279,47.10819499985903],[-122.2338089999797,47.10812000024151],[-122.2334020002739,47.10792999975925],[-122.23318499964063,47.1078049997157],[-122.23302099960908,47.10768899999961],[-122.2329500003623,47.10764000006467],[-122.23266499995695,47.10743899970988],[-122.23246099974244,47.10734200022528],[-122.23225800025116,47.10724499995253],[-122.23221499969516,47.10715399997717],[-122.23219399977876,47.107122999761934],[-122.23215899961865,47.1070730002445],[-122.23191299957135,47.10690299994428],[-122.23158799988136,47.10675300001978],[-122.23127700043504,47.10663000024316],[-122.23106099962665,47.10655100030138],[-122.23084499971658,47.10649099974098],[-122.23062799998162,47.10638500013455],[-122.23039700000295,47.1062789997056],[-122.23014500010785,47.10617700027031],[-122.2301130003208,47.10616400002253],[-122.22985600040286,47.106049999783096],[-122.22960000030982,47.10598999988082],[-122.22938400039975,47.10590199990178],[-122.2292460003075,47.105869000177904],[-122.22914199965209,47.105845000143496],[-122.22903600024519,47.10581999979041],[-122.22891300022155,47.10578999971812],[-122.22880500026652,47.1057549999181],[-122.22865200010564,47.10573400014937],[-122.2285299999069,47.10571800008705],[-122.22840900043141,47.10570099970986],[-122.22807299997241,47.105653000090186],[-122.22801299969795,47.105643999736294],[-122.22795199959859,47.10563499999233],[-122.22789100039753,47.10562600024689],[-122.22782899957494,47.10561699988844],[-122.22776800037389,47.10560800013992],[-122.22765100019804,47.10559000002689],[-122.22760599999219,47.10559000002689],[-122.22750899990781,47.10558199997467],[-122.22744600015862,47.10557100020669],[-122.22741299964834,47.10556500016549],[-122.22717900019492,47.10554300000873],[-122.22694300019337,47.10553000021758],[-122.22676200044341,47.1055069997326],[-122.22661500013032,47.105493000230084],[-122.22653300011453,47.105481999832264],[-122.22647500038823,47.10547300006091],[-122.2263680002581,47.105464000288045],[-122.22625899957985,47.105458999938],[-122.2261499997999,47.105458999938],[-122.2259940001643,47.10547900011243],[-122.22593300006494,47.10548399984919],[-122.22583599998056,47.105493000230084],[-122.2256789996217,47.10550299970045],[-122.22550999956731,47.105508000046356],[-122.2253410004112,47.105504999716544],[-122.22517400000665,47.1054950002466],[-122.22502800041678,47.105481999832264],[-122.22487299970778,47.105458999938],[-122.22485000014154,47.10545400019895],[-122.22482800040022,47.10544699982973],[-122.22480699958551,47.10543800005246],[-122.22478700039235,47.10542900027367],[-122.22476800012578,47.10541799986262],[-122.22475100040735,47.10540599974511],[-122.2247349996155,47.10539400023634],[-122.22472000044519,47.105380000092644],[-122.22470700002643,47.105365000240354],[-122.22469600015577,47.10534999977239],[-122.22468699993493,47.10533400020609],[-122.22466799966834,47.10531199995386],[-122.22464599992705,47.10529000030396],[-122.22462500001066,47.10527200008341],[-122.22459800024647,47.105251999831204],[-122.22456899993415,47.10523400020921],[-122.22453799997201,47.105217999996604],[-122.22438399998622,47.10512199984293],[-122.22421599975674,47.10501399992172],[-122.22416600042634,47.104971000078876],[-122.22411100017476,47.104930000239094],[-122.22405199972519,47.10489299983462],[-122.22398800015108,47.10485899977071],[-122.22392200002886,47.104828999768294],[-122.22385000005886,47.104802000118475],[-122.22376899986799,47.104776999887044],[-122.22369600007303,47.10476399990877],[-122.22362400010303,47.10474800016635],[-122.22355399978282,47.104727000000324],[-122.2234879996606,47.10470199973367],[-122.2234240000865,47.10467400030154],[-122.22336399981204,47.10464200014633],[-122.22330799973554,47.10460700020301],[-122.223255999857,47.10456800013417],[-122.22320700035152,47.10452400021036],[-122.22311000026713,47.10442300019217],[-122.22301900003055,47.10432199998232],[-122.22282999988464,47.104122000278714],[-122.22272399957944,47.10399699985313],[-122.22262599967014,47.10386800020191],[-122.22258300001243,47.103762000264],[-122.22255000040047,47.10365400002946],[-122.22254700002745,47.103640000039626],[-122.22254200000455,47.10362699978369],[-122.2225360001568,47.10361299978676],[-122.22252799976087,47.10360099987383],[-122.22252000026324,47.10358800021984],[-122.22251100004243,47.10357600030126],[-122.22242999985157,47.10344700024131],[-122.22228099988864,47.10326999993479],[-122.22219300002511,47.103118000062075],[-122.22205400010795,47.102925999956554],[-122.22195399965051,47.10271800002895],[-122.22183900002277,47.10253900022853],[-122.22172699986979,47.102372999780066],[-122.22159899982326,47.102170000185744],[-122.22156000036351,47.102120000296395],[-122.2214409996395,47.10196899996641],[-122.2213250001869,47.10175500010956],[-122.2211739996758,47.10152900023549],[-122.22105099965216,47.1012979998842],[-122.22093000017668,47.101082999990794],[-122.22086800025238,47.10088400013773],[-122.22084899998583,47.10064900025991],[-122.2207920000844,47.10043700019574],[-122.22077399964274,47.10021800006512],[-122.22073199980996,47.10012899991378],[-122.22068900015223,47.10003800000367],[-122.22063700027371,47.09987000009031],[-122.22063100042593,47.099797999790496],[-122.22058600022008,47.09962599986909],[-122.22057500034941,47.09958800024524],[-122.22051699972481,47.09943799988829],[-122.22041799999059,47.09924200007319],[-122.2203209999062,47.09909199996447],[-122.22024599956315,47.098993000297185],[-122.22020999957813,47.09889699992519],[-122.22019500040784,47.098864999966544],[-122.22019500040784,47.09878399985152],[-122.22019299985968,47.09839499969622],[-122.22019200003479,47.09813500015844],[-122.22017600014125,47.09811200014761],[-122.22015699987467,47.098089999968394],[-122.2201359999583,47.098069000233664],[-122.22011300039206,47.09805000017529],[-122.2200959997753,47.09802200030217],[-122.22007599968383,47.09799500025777],[-122.22005399994251,47.0979690000435],[-122.22002899982816,47.097945000116646],[-122.22000100023908,47.09792100017902],[-122.21998699999537,47.09788699994309],[-122.21997799977453,47.097851999839435],[-122.21997299975166,47.09781699971273],[-122.21997199992677,47.0977820001746],[-122.21997600012472,47.09774600015388],[-122.21997799977453,47.09771899996947],[-122.21997600012472,47.09769199977138],[-122.21997199992677,47.097666000020695],[-122.21996500025405,47.09763899979573],[-122.21995500020832,47.09761300001916],[-122.21994199978953,47.09758800008088],[-122.21992400024618,47.09755400024385],[-122.21990900017755,47.09751899992126],[-122.21989900013183,47.09748299972278],[-122.21989199956082,47.097446000257776],[-122.21988999991098,47.09740900015552],[-122.21989199956082,47.09737200002759],[-122.21989199956082,47.097292999800565],[-122.21989900013183,47.097214000067915],[-122.21991300037553,47.09713500021801],[-122.21992400024618,47.09710400028359],[-122.21993099991887,47.09707199985892],[-122.21993500011682,47.097040000026574],[-122.21993400029191,47.09700800017499],[-122.21993099991887,47.09697700016663],[-122.21992300042126,47.09694500027719],[-122.21992199969804,47.096916999823],[-122.21992500007107,47.09688899996569],[-122.21993099991887,47.096861000093654],[-122.21994099996463,47.09683300020685],[-122.2199540003834,47.096806000171036],[-122.21999000036843,47.09675500026991],[-122.22000700008685,47.096700000237846],[-122.22001499958445,47.09666499996547],[-122.22001899978243,47.09664400028024],[-122.22002700017835,47.09658800026374],[-122.22003399985104,47.09652899996426],[-122.22003499967593,47.09646899972737],[-122.22002999965308,47.09640999990754],[-122.22001899978243,47.096351999896626],[-122.22001399975956,47.09633899969568],[-122.21999799986602,47.09631399977081],[-122.21998799982029,47.09630200004731],[-122.21997600012472,47.0962910001965],[-122.21996299970593,47.09628100021894],[-122.21994900036056,47.09627100023949],[-122.21994199978953,47.09626200013411],[-122.21993400029191,47.0962530000272],[-122.21992500007107,47.096244999794955],[-122.21991599985026,47.09623700017308],[-122.21990599980452,47.096228999938454],[-122.21989499993387,47.09622300006746],[-122.21988300023828,47.09621599970752],[-122.21987099964441,47.09621099971195],[-122.21984899990309,47.09618800009311],[-122.2198289998116,47.09616399997511],[-122.21981100026828,47.09613800008985],[-122.21979600019968,47.09611200019193],[-122.21971400018388,47.09602600015679],[-122.21962499959712,47.09594199974664],[-122.21954400030458,47.09586199996084],[-122.2194730001595,47.09577799990351],[-122.21941000041028,47.095691000053925],[-122.21938600012083,47.09564999979435],[-122.21935599998362,47.09561000000293],[-122.2193219996484,47.09557199995917],[-122.21928499983851,47.09553600027895],[-122.21924300000572,47.095501999743234],[-122.21899799978333,47.0952519997061],[-122.21895199975256,47.09517899999245],[-122.21889999987403,47.09510899987148],[-122.21879199991899,47.09498400030024],[-122.2186809995909,47.09485999972622],[-122.21855300044271,47.094728000238035],[-122.21843100024397,47.09459399999668],[-122.21824899977076,47.09441999995598],[-122.21805700015015,47.09425000022469],[-122.2179819998071,47.094188999951406],[-122.21791300021012,47.09412499986027],[-122.21784999956262,47.094057000023135],[-122.21779400038443,47.09398700026199],[-122.21767100036078,47.093868999949585],[-122.2175399999412,47.09375500029092],[-122.21744899970462,47.093659000260324],[-122.21723100014472,47.09340700027402],[-122.21713200041053,47.09330400009647],[-122.21702699993021,47.093203000198],[-122.21685700005091,47.093044000163495],[-122.21655099972915,47.092782000301916],[-122.21635999993345,47.092619999789285],[-122.21624799978044,47.09250499995687],[-122.21614099965035,47.09238700003019],[-122.2157790001504,47.092030999994144],[-122.21569100028685,47.091938999742176],[-122.21560199970008,47.09184100018978],[-122.21551700020957,47.09174099992387],[-122.21542000012519,47.09163800019376],[-122.21534700033027,47.09155800005812],[-122.21521799956052,47.091405999775134],[-122.21487299977902,47.09102799987029],[-122.2148209999005,47.09096500023697],[-122.21475999980112,47.0908789998405],[-122.21470700009768,47.09079099995957],[-122.21466299971675,47.09070099997271],[-122.21460199961737,47.090601999994924],[-122.21453600039345,47.090506999769076],[-122.2144989996852,47.090458999906005],[-122.21446500024834,47.09041399995688],[-122.21430500041477,47.09022799984528],[-122.21426299968364,47.09017899974065],[-122.21414700023102,47.09003099977502],[-122.2141029998501,47.08997800012537],[-122.21405299962139,47.089926999801136],[-122.21399900009301,47.0898780000312],[-122.21394100036669,47.08983300020277],[-122.21380999994713,47.08974999980788],[-122.21373999962694,47.08970899986725],[-122.21331200000475,47.08930599999399],[-122.21325799957806,47.08924800019685],[-122.21322099976817,47.08927699979749],[-122.21287299961362,47.08956699982882],[-122.21276899985655,47.089668999894734],[-122.2125830000837,47.08964599989689],[-122.21226800043941,47.089609999880395],[-122.21227500011213,47.089581999850765],[-122.21228400033297,47.08955499980819],[-122.21231199992205,47.08948800025516],[-122.21234000040944,47.089436000069234],[-122.21238200024224,47.08937399978126],[-122.21242200042522,47.08932500011417],[-122.21247799960341,47.08926799973329],[-122.21254100025091,47.08921399992783],[-122.21259599960418,47.08917400019516],[-122.21269199986364,47.08910300012175],[-122.21271000030532,47.089088999975466],[-122.21273600024458,47.089088999975466],[-122.21282800030609,47.08902199983624],[-122.21301599972875,47.08888599988777],[-122.21321300027056,47.088743000084655],[-122.2133499996396,47.08864700019387],[-122.21332600024847,47.08861200013336],[-122.21384900030519,47.08831600025683],[-122.21426699988162,47.0880789998993],[-122.21447899959374,47.08795599979363],[-122.21447399957087,47.08791499969527],[-122.21442900026331,47.087696000052645],[-122.21437499983668,47.087283999840324],[-122.21434800007246,47.085363999745184],[-122.21433700020181,47.08472000027575],[-122.21433399982878,47.08452300001901],[-122.21432799998098,47.08418799973529],[-122.21431000043765,47.083093999828016],[-122.21430799988951,47.08293000018014],[-122.21430299986665,47.082601999981485],[-122.21429600019393,47.08234299993631],[-122.21428899962294,47.08211200015633],[-122.21428899962294,47.08189100022112],[-122.21432200013322,47.08175599995356],[-122.21434700024757,47.08171799981202],[-122.21426500023179,47.08157700003195],[-122.2143139997373,47.08004999989428],[-122.21432499960794,47.079559000265775],[-122.21432799998098,47.07940200025961],[-122.2143299996308,47.079291999777055],[-122.21435599957009,47.07810799980381],[-122.21436800016394,47.07770599986686],[-122.21439999995101,47.0766479998431],[-122.21443799958584,47.07650799973947],[-122.21446900044631,47.07645199996209],[-122.21450700008113,47.07640600016651],[-122.21452799999756,47.07637999981229],[-122.21459099974672,47.076315000094766],[-122.21467000028775,47.07624500026329],[-122.21475599960314,47.076184000169086],[-122.21490200009134,47.07610000027612],[-122.21499800035082,47.076054000176626],[-122.21520699968987,47.075984000002244],[-122.21537499991938,47.07595499989434],[-122.21588700010544,47.07592300022106],[-122.21596699957306,47.07590400021477],[-122.21603799971818,47.07588099977952],[-122.21612099955885,47.075842000082766],[-122.21621299962035,47.075777999969475],[-122.21632099957537,47.07568399987402],[-122.21636199958327,47.07563600011279],[-122.21638900024577,47.075588999960566],[-122.21641699983485,47.075493000223666],[-122.21642299968264,47.07536599996194],[-122.21640000011642,47.07526700023683],[-122.2163630003065,47.07520899983657],[-122.2162019997497,47.075051999860484],[-122.21614400002338,47.074986000083115],[-122.2160750004264,47.074935999752405],[-122.21593700033415,47.07478300008872],[-122.21581799961015,47.074633999890054],[-122.21572300007391,47.07448899980176],[-122.21560599989805,47.074480999971065],[-122.21394999968922,47.07446099977723],[-122.20864100037751,47.07447500009723],[-122.20803999960467,47.07451000026934],[-122.20772999998327,47.07451499985504],[-122.20758699986816,47.07453699998435],[-122.20720000025383,47.07453300007278],[-122.20655699964821,47.07455199995611],[-122.20524199992124,47.074576000024436],[-122.20462099995522,47.07459299993885],[-122.20417499989138,47.07461199980079],[-122.20029599993435,47.074563000014265],[-122.20016500041311,47.07456100005944],[-122.20000300003142,47.07456100005944],[-122.19877799981779,47.074557000149674],[-122.19833199975398,47.08170499970906],[-122.1983689995639,47.08428200012069],[-122.19838799983049,47.08554900025043],[-122.19840299989909,47.0868189997647],[-122.19840500044722,47.0870219997787],[-122.19638000016747,47.08863199990861],[-122.19362599996663,47.090823999855544],[-122.19290100024355,47.09137300023982],[-122.19195999971207,47.09209200029296],[-122.19136600040855,47.09255199986517],[-122.19087199976583,47.092936000203984],[-122.19063099974139,47.09312200003207],[-122.19053700003006,47.09319500011914],[-122.19040300013577,47.093543000298254],[-122.19034500040945,47.09374299999077],[-122.19040099958764,47.09396999980808],[-122.19038399986918,47.09416699998607],[-122.19031299972407,47.09430000016602],[-122.19026900024147,47.094454999869235],[-122.19026199967044,47.09463599975263],[-122.19030699987628,47.094849000189065],[-122.1903989999378,47.095065000080304],[-122.19048500015154,47.095249000021404],[-122.19051100009078,47.09542899976074],[-122.19057999968778,47.09566099977757],[-122.19059399993147,47.09572800012683],[-122.19062099969565,47.09588299995446],[-122.1907429998944,47.096093999925834],[-122.19082499991016,47.09624899991123],[-122.19090100007811,47.0964049999302],[-122.19092299981943,47.09645100019352],[-122.1909400004362,47.09648500012328],[-122.19096200017749,47.09652999983511],[-122.19098599956862,47.09657900021193],[-122.19124900023267,47.0971149999665],[-122.19145799957174,47.09753999987295],[-122.19156399987693,47.097588999931894],[-122.19169299974838,47.09764800027991],[-122.19172899973339,47.09765899985045],[-122.19177399993923,47.097674999888774],[-122.19179700040377,47.09768299990617],[-122.1918280003659,47.09769700023942],[-122.19186500017582,47.09771400011503],[-122.19188500026732,47.09772500028344],[-122.1919050003588,47.09773700029775],[-122.1919410003438,47.09775900001128],[-122.19198099962846,47.097786000175354],[-122.19203099985718,47.097814000172576],[-122.19217399997231,47.09788699994309],[-122.19233399980588,47.097966999744244],[-122.1923709996158,47.09798400014514],[-122.1925740000054,47.0980749998966],[-122.1926379995795,47.09810100005916],[-122.1927000004021,47.0981299997315],[-122.19275999977823,47.09816100029166],[-122.19281599985473,47.09819499974109],[-122.19286799973327,47.09823199990867],[-122.1930390003358,47.0983559999688],[-122.19306299972693,47.09836099976296],[-122.19308199999351,47.09837099996143],[-122.19309899971194,47.0983819999941],[-122.19313600042018,47.09840199976975],[-122.19325299969773,47.09848999991629],[-122.19327500033735,47.09850499987116],[-122.19335099960703,47.09856099970612],[-122.1934900004225,47.09866199983834],[-122.19361400027108,47.09875300026565],[-122.19368399969295,47.0988030002595],[-122.19370700015749,47.09881899995412],[-122.19376999990668,47.0988560002996],[-122.19388200005967,47.09892199986035],[-122.193911000372,47.09894299987023],[-122.19399599986251,47.09900700028604],[-122.19413200030493,47.099104000282225],[-122.19423699988691,47.09916799989299],[-122.19436599975835,47.09924299989314],[-122.19450200020077,47.09931000001591],[-122.19456999997286,47.09934199970706],[-122.1946429997678,47.099373000173095],[-122.19481600002014,47.09944199976464],[-122.19497599985374,47.099510000063454],[-122.19504000032613,47.09953799976556],[-122.19513800023543,47.09958299995478],[-122.1952079996573,47.099616999719245],[-122.19523399959657,47.09962999973136],[-122.19529600041918,47.09966000021757],[-122.19551599962888,47.099784999819406],[-122.19598900035523,47.10005300013397],[-122.19601899959413,47.10005699996416],[-122.19603399966273,47.100059000184906],[-122.19605399975423,47.10006699984405],[-122.1960749996706,47.10007500011356],[-122.19609499976211,47.10008299977035],[-122.1961149998536,47.10009199984142],[-122.19613199957203,47.10010300013005],[-122.19614800036388,47.100115000219944],[-122.19616300043248,47.10012699969567],[-122.19702100022496,47.100606999743114],[-122.19710700043868,47.100656000037056],[-122.1973040000822,47.10076800001543],[-122.19776600003954,47.101034000089854],[-122.19796299968303,47.1011489998485],[-122.19801700010972,47.10118100026888],[-122.19807499983601,47.101204999960075],[-122.19816199987467,47.101241000088045],[-122.19829999996692,47.10130699974989],[-122.19847800024215,47.10140899995574],[-122.19855500023505,47.10145699973324],[-122.19868800030444,47.10156699969701],[-122.19889099979572,47.101774999841176],[-122.1994590000583,47.10235600016904],[-122.1997910003193,47.10248600018577],[-122.19999999965836,47.102567999929576],[-122.20021899994148,47.10261599988506],[-122.20023800020806,47.10262000013419],[-122.20031699985078,47.10266800004278],[-122.20036000040679,47.10268800004289],[-122.20041599958498,47.10273300001562],[-122.20048900027824,47.10279099980212],[-122.20066199963227,47.10292800006946],[-122.20072899957941,47.102972999839366],[-122.2008469995802,47.1030479999828],[-122.20106000001554,47.103163000282805],[-122.20110199984833,47.1031839998429],[-122.20118800006206,47.1032260001611],[-122.20136899981202,47.10330599988938],[-122.20150899955411,47.10335399979089],[-122.20153899969132,47.103367999855934],[-122.20157399985142,47.10338400001312],[-122.20169199985222,47.10345500000292],[-122.20174499955564,47.10349400027568],[-122.20179200030965,47.10353700008858],[-122.20180599965502,47.10355600002333],[-122.20182599974652,47.10358499978185],[-122.20186400027966,47.10361600022317],[-122.20192600020395,47.10366700027875],[-122.20200300019683,47.10372100010453],[-122.20222900015266,47.10381199983414],[-122.2025220000556,47.10393099985734],[-122.20314100037177,47.104170000055994],[-122.20391200012564,47.10452400021036],[-122.20403299960115,47.104434999919825],[-122.20408700002781,47.10439500000184],[-122.20418199956409,47.10433399973273],[-122.20480400025332,47.10385599973498],[-122.20710399999437,47.10218699985616],[-122.2072449995614,47.102084000151294],[-122.20735400023963,47.102005000189266],[-122.20743000040761,47.10195000007675],[-122.20770700041706,47.10211899991903],[-122.20744600030115,47.1022040001326],[-122.20771099971668,47.10236600022866],[-122.20752999996672,47.10249900010884],[-122.2066260001435,47.103161999925035],[-122.20698299962055,47.10333199994333],[-122.20800000032003,47.10381399991382],[-122.20763200007397,47.10434299969665],[-122.20673599974835,47.104206000013384],[-122.2067390001214,47.104284000041396],[-122.20673300027359,47.1048349998924],[-122.20673099972547,47.10505100024209],[-122.20672900007567,47.105218999704334],[-122.20672599970261,47.105504999716544],[-122.20672400005277,47.10567399989091],[-122.20672200040296,47.105887999891756],[-122.2067170003801,47.1064769998858],[-122.20671200035721,47.10687499983559],[-122.20671099963398,47.10731100011953],[-122.20683200000784,47.10731300006769],[-122.20884899989167,47.10733300015701],[-122.20894699980093,47.10733500010434],[-122.20915199984037,47.10732900026203],[-122.2093639995525,47.107324000087175],[-122.20943700024573,47.1073260000349],[-122.20943499969758,47.10707100028727],[-122.20943999972044,47.10681999986301],[-122.20944200026858,47.10673599997314],[-122.20943899989555,47.106688000063876],[-122.20954600002567,47.10675800024828],[-122.20978000037742,47.106849000289195],[-122.20992099994437,47.106893999801756],[-122.21027199957366,47.10700000022884],[-122.21053000021485,47.10710700011711],[-122.21076600021641,47.10724600023357],[-122.21102499978417,47.10738399970863],[-122.21116700007441,47.10747699984425],[-122.21137899978648,47.107600000109315],[-122.21149699978729,47.10767800005559],[-122.21163800025258,47.107739000161224],[-122.21198899988187,47.10784399985864],[-122.2126249999165,47.10818299975612],[-122.21281300023747,47.10827500006826],[-122.2130969999196,47.1084759997118],[-122.21321900011836,47.108571000286],[-122.21317599956232,47.10865799987796],[-122.21316700023979,47.10867800007323],[-122.2130559999117,47.108907999944925],[-122.21310600014043,47.108931999821124],[-122.2131460003234,47.10894500000428],[-122.21326799962382,47.10903799985807],[-122.21338099960174,47.10911300001629],[-122.21340700043932,47.10912900028091],[-122.21343000000553,47.10914499992932],[-122.2134910001049,47.10919100019097],[-122.21365400031152,47.10925100015352],[-122.21391899972708,47.10942399978909],[-122.21399999991793,47.109464000207936],[-122.21412200011666,47.10954300010616],[-122.21420400013243,47.10962399974844],[-122.21426500023179,47.109688999787444],[-122.21450100023334,47.109513000297916],[-122.21471299994546,47.10972500029215],[-122.21538300031527,47.11043600022756],[-122.21573399994456,47.11083599973712],[-122.21578800037122,47.110907000181136],[-122.21678300043108,47.1122959999161],[-122.21760500023854,47.1133939997867],[-122.2178210001486,47.11368100005163],[-122.21802799983783,47.11393599992149],[-122.21813900016595,47.114073000238825],[-122.21820299974,47.11423900027123],[-122.21827899990801,47.11439299986038],[-122.21837699981731,47.11452600025843],[-122.21842000037334,47.11461699985665],[-122.21846300003102,47.11472899980683],[-122.21853699965085,47.114841000132685],[-122.21861899966665,47.11494199994596],[-122.21865300000182,47.115016000208044],[-122.21876000013197,47.11517600017508],[-122.21881899968318,47.11528800017142],[-122.21885200019348,47.115351999888865],[-122.21889400002627,47.11540999998656],[-122.21894300043003,47.11548999974356],[-122.21900899965398,47.1155750000031],[-122.21905800005777,47.11563399998118],[-122.21914799957115,47.11573400000181],[-122.219228999762,47.11581899987164],[-122.2192859996634,47.11587700007166],[-122.21936699985427,47.11594600028],[-122.21947499980928,47.116104999781456],[-122.21953199971071,47.11617400030547],[-122.21962100029748,47.11624800007692],[-122.2196940000924,47.116338999787025],[-122.21972900025251,47.11642899984429],[-122.21980299987236,47.11651999985613],[-122.21986800016968,47.11659399975779],[-122.21994099996463,47.11667900008776],[-122.21998399962231,47.116764000282],[-122.22002499963021,47.116838999945095],[-122.22011400021698,47.116902000142765],[-122.22018199998902,47.11698300019999],[-122.22021600032423,47.11704199983954],[-122.22033299960177,47.11715699986075],[-122.22042100036364,47.11726199992881],[-122.2205250001207,47.11739599997092],[-122.22056799977841,47.11747200005465],[-122.22062899987779,47.117550000204695],[-122.22080600032811,47.11773099982241],[-122.22089300036676,47.11780700003897],[-122.2210399997815,47.117951000119426],[-122.22112199979729,47.11807500009719],[-122.22124800019397,47.1182380002594],[-122.22138299991319,47.11845899975307],[-122.22154399957167,47.11863099995469],[-122.22166300029568,47.11879400024749],[-122.22172500021995,47.11894800010286],[-122.22184200039582,47.11905300030441],[-122.22197299991707,47.11916800025829],[-122.22206199960553,47.119273000025686],[-122.2222979996071,47.11954100003535],[-122.22237600032321,47.119638999952706],[-122.22244599974508,47.119726999836956],[-122.22254600020253,47.11984599973375],[-122.22261999982238,47.11991799981432],[-122.22275899973953,47.120037999935846],[-122.2228399999304,47.12011399991357],[-122.22291400044855,47.12017699990129],[-122.22299399991617,47.1202530002917],[-122.22311100009205,47.1203389997018],[-122.22328699981914,47.12047299994134],[-122.22336800000998,47.12054999993998],[-122.22344900020086,47.12062100026072],[-122.22351399959986,47.1206590001524],[-122.22360200036174,47.12073099974401],[-122.22371899963925,47.120826999862985],[-122.2237630000202,47.120860000093096],[-122.22382900014244,47.120918000299746],[-122.22388699986877,47.12095099986213],[-122.2239310002497,47.12099400024298],[-122.22399700037192,47.12103699997777],[-122.22407000016688,47.1210939999707],[-122.22411399964949,47.121137000235926],[-122.22435700022206,47.12127599977519],[-122.22459200039869,47.121385999738024],[-122.22473700016364,47.12145400012367],[-122.22488899960128,47.121532999950155],[-122.224902999845,47.121539000025045],[-122.22492200011158,47.12156199969455],[-122.22493200015731,47.12157299982535],[-122.22494999970066,47.12158699998848],[-122.22497900001298,47.12161100025956],[-122.22500699960207,47.12162499980142],[-122.2251410003947,47.1214309997962],[-122.2252130003647,47.12133000007432],[-122.22570600028419,47.120622999708786],[-122.22602799960116,47.12014199978149],[-122.22683500023834,47.12013300004386],[-122.22683500023834,47.12005500001266],[-122.22710399985183,47.120057000093276],[-122.22918500020812,47.12000000021192],[-122.22990200043363,47.11999900017052],[-122.23006800011497,47.11999900017052],[-122.23039799982784,47.11999900017052],[-122.22961100018047,47.11861899975969],[-122.22916599994157,47.11783999969704],[-122.22902000035168,47.11762700015447],[-122.22877699977911,47.11729399983268],[-122.22854199960247,47.11698699998078],[-122.22834300030917,47.11677299997817],[-122.22764299980211,47.11604199986282],[-122.22638199960349,47.11469200010045],[-122.22546199988675,47.11370599976928],[-122.22732899998275,47.11369899987397],[-122.2274500003566,47.11377000016658],[-122.22748299996853,47.11376200012117],[-122.22753099964913,47.1137569999393],[-122.23021200005502,47.11375000005069],[-122.23126900003912,47.11376200012117],[-122.23170599988212,47.11373200024565],[-122.2320570004097,47.11370900024813],[-122.2344569997099,47.1137219998758],[-122.23466099992439,47.11372300003517],[-122.23479099962074,47.11370900024813],[-122.23479099962074,47.113671000283595],[-122.23478499977298,47.11223299976752],[-122.23479200034396,47.10950000025348]]]},"properties":{"AREALAND":"7006868","AREAWATER":"144173","BASENAME":"Orting","CBSAPCI":"N","CENTLAT":"+47.0965303","CENTLON":"-122.2110935","FUNCSTAT":"A","GEOID":"5352005","INTPTLAT":"+47.0969361","INTPTLON":"-122.2116872","LSADC":"25","MTFCC":"G4110","NAME":"Orting city","NECTAPCI":"N","OBJECTID":20569,"OID":"278901445839837","PLACE":"52005","PLACECC":"C1","PLACENS":"02411339","STATE":"53","DISP_CLR":4,"slug":"orting","jurisdiction_key":"orting_city","county_fips":["53053"]}}]}
