{"type":"FeatureCollection","features":[{"type":"Feature","geometry":{"type":"Polygon","coordinates":[[[-123.30419299968085,46.56540299987303],[-123.30421600014537,46.5653130002914],[-123.30418299963512,46.5653130002914],[-123.30414800037332,46.56475399974505],[-123.30411800023609,46.56428599975561],[-123.30408600044906,46.563777000305535],[-123.30405299993876,46.563264999910366],[-123.30405200011384,46.5632519998314],[-123.30401899960357,46.5627259998672],[-123.3037380002945,46.56272699983556],[-123.30174700034993,46.56268100003621],[-123.30140000002028,46.56266899978673],[-123.29394699970481,46.56241300021478],[-123.29374099984048,46.56241000029222],[-123.29381000033578,46.56432900023057],[-123.29385899984128,46.56553199977471],[-123.29385600036655,46.565587000103925],[-123.29381600018357,46.565718999925416],[-123.29380199993986,46.565796999893514],[-123.29380000029005,46.565901999792274],[-123.29381700000849,46.56605400007967],[-123.293832999902,46.56608399975289],[-123.29385600036655,46.56611099969167],[-123.29388200030581,46.56613200018371],[-123.29388099958257,46.566177000240216],[-123.29374699968828,46.566180999859164],[-123.29372400012207,46.56618199976384],[-123.29376400030502,46.56702400004931],[-123.2937629995818,46.56706899998346],[-123.29380699996273,46.56795400015962],[-123.29382500040438,46.568318999770575],[-123.29386999971192,46.56923600003064],[-123.29389200035155,46.56984899996578],[-123.29344000043992,46.56984299970785],[-123.29283799984218,46.56984999980285],[-123.29299199982796,46.57297699981068],[-123.29299699985083,46.57308100023661],[-123.29285299991079,46.5730780002865],[-123.29186399969875,46.57309399981268],[-123.29171499973582,46.57308900030864],[-123.29162000019957,46.57308900030864],[-123.29067799984318,46.57309200025813],[-123.29062500013973,46.57309200025813],[-123.29062699978957,46.57315000027856],[-123.29064299968307,46.57345000024569],[-123.29064500023124,46.57348300007897],[-123.29051399981165,46.573483999849095],[-123.29045100006246,46.573483999849095],[-123.29041599990238,46.573483999849095],[-123.29034399993235,46.573483999849095],[-123.28981699967767,46.57348800016428],[-123.28977300019504,46.57348800016428],[-123.28978300024077,46.57364399987605],[-123.2899029998914,46.57562999997389],[-123.29297299956137,46.57558800016122],[-123.29347999972457,46.575581000189246],[-123.294269999745,46.5755700000551],[-123.29438799974577,46.57834899995852],[-123.29447700033256,46.57890599998879],[-123.29454099990664,46.579311999758914],[-123.29458399956438,46.579902000025285],[-123.2946139997016,46.580305999840846],[-123.29464600038698,46.58074499997813],[-123.2964359995918,46.58074899975772],[-123.29765499995759,46.58075199990093],[-123.29969500030597,46.58075600029741],[-123.30005699980589,46.580756999933406],[-123.30007600007248,46.58073699980068],[-123.30009299979089,46.58071999980559],[-123.30013899982168,46.58065199977183],[-123.3002309998832,46.58054199997247],[-123.30029600018051,46.58049099978774],[-123.30038499986897,46.5804330002094],[-123.30049500037214,46.58032600013256],[-123.3006130003729,46.58015099979986],[-123.30074499971907,46.58002599992207],[-123.30098599974352,46.579770999796445],[-123.30103500014731,46.57972200004898],[-123.30118599976005,46.57959299993506],[-123.30126000027822,46.5795119998359],[-123.30134700031682,46.57940699973308],[-123.30144299967799,46.579318000204175],[-123.30155499983097,46.57921999984622],[-123.30168100022769,46.579123000212185],[-123.3017039997939,46.57909400000782],[-123.30175999987038,46.579047000218544],[-123.30184400043429,46.578937000250285],[-123.30199699969685,46.57877099989818],[-123.30207000039012,46.57867699971892],[-123.3020979999792,46.578619000052555],[-123.30214300018504,46.57852799987606],[-123.30214700038299,46.57849699999816],[-123.30216800029942,46.578441999792794],[-123.30223100004858,46.578302999822185],[-123.30233999982853,46.57803300000704],[-123.30241000014875,46.57767500001771],[-123.30252399995155,46.577503999792405],[-123.30261299964,46.577460999882],[-123.30274900008243,46.57727200005813],[-123.30279299956507,46.57724900015544],[-123.30297099984028,46.57716000017182],[-123.30301000019834,46.57708599992155],[-123.30304899965812,46.577027999788314],[-123.30311200030562,46.576880000061436],[-123.30323399960602,46.57664800012735],[-123.30329100040574,46.57650200002727],[-123.30333400006344,46.57641399976861],[-123.30336500002561,46.57633400019543],[-123.30341600007921,46.57607899999642],[-123.3034229997519,46.575942000210354],[-123.30344000036867,46.57590299981585],[-123.30347299998061,46.57578000009787],[-123.30351099961545,46.57559599986341],[-123.30351599963834,46.575517999783656],[-123.30353400007999,46.57530700022482],[-123.30354400012575,46.5750730002544],[-123.30356000001926,46.57492899972323],[-123.30356500004213,46.57478599979078],[-123.30357900028584,46.57469200011346],[-123.30358099993565,46.57449799990946],[-123.30359500017936,46.574312999892854],[-123.30354900014862,46.573903000077024],[-123.30352200038443,46.573736999751965],[-123.3034999997448,46.57366999999022],[-123.30336000000274,46.57346799982041],[-123.30336699967542,46.573402999887016],[-123.30335900017782,46.5733640001366],[-123.30336099982763,46.573291000037514],[-123.30338299956895,46.57320099995777],[-123.30339500016282,46.572981000163246],[-123.30339500016282,46.57275800012602],[-123.30338199974403,46.572669999966976],[-123.30332099964465,46.57250299978487],[-123.30333400006344,46.57236100003903],[-123.30334499993411,46.57231300018004],[-123.30348200020148,46.57192299975079],[-123.30348399985128,46.571801999870964],[-123.30348899987415,46.571628000239144],[-123.30348999969907,46.57153700006388],[-123.30350599959259,46.57151199996861],[-123.30350999979056,46.57148999989995],[-123.3035199998363,46.57143199995692],[-123.30358099993565,46.57122099993895],[-123.30358099993565,46.571171000063195],[-123.30359600000428,46.571085000045464],[-123.30358900033157,46.570941000040875],[-123.30358900033157,46.57079000029866],[-123.3035969998292,46.5707640000389],[-123.30362100011862,46.57063200014289],[-123.30364500040808,46.5705690001635],[-123.3036489997077,46.57047000022445],[-123.30365899975347,46.570418999829755],[-123.30367399982208,46.57035700004823],[-123.30367999966987,46.57023599976248],[-123.3036760003702,46.570154999889866],[-123.30369200026374,46.57008000012876],[-123.30369999976136,46.57005299969529],[-123.30368899989071,46.57003100026998],[-123.30369599956339,46.56991600012504],[-123.30371200035522,46.569739999704986],[-123.30371800020303,46.56965799986864],[-123.3037170003781,46.56938800023942],[-123.3037309997235,46.5693349997518],[-123.3037449999672,46.56918799987623],[-123.30377000008156,46.56906200019519],[-123.30378099995221,46.568959999797855],[-123.30385499957204,46.56868099982001],[-123.30386999964067,46.56860500001339],[-123.30389099955707,46.56844900001177],[-123.30388899990724,46.56839400011404],[-123.30387700021167,46.56821100000789],[-123.30386999964067,46.56812100014428],[-123.30387700021167,46.568050000139664],[-123.30386799999083,46.56800399991311],[-123.30385499957204,46.567974000066535],[-123.30383399965567,46.567944000203404],[-123.30381600011229,46.56787100022003],[-123.30381500028737,46.567833000071396],[-123.30382699998296,46.56777900004191],[-123.30384700007446,46.56773400007915],[-123.30388300005946,46.56769400008098],[-123.30397400029605,46.567543999824984],[-123.30400500025819,46.567437000253534],[-123.30400199988513,46.567365999971216],[-123.30399900041041,46.56730000025172],[-123.30397900031892,46.56716299990384],[-123.30397400029605,46.56712700026897],[-123.3039729995728,46.567025999827614],[-123.30396199970218,46.566977000297825],[-123.3039640002503,46.56693699974142],[-123.30395699967931,46.566888000131286],[-123.30394499998373,46.566750999978076],[-123.30395099983151,46.566680000033024],[-123.30394300033392,46.56661400009642],[-123.30394800035678,46.56647699986881],[-123.30394800035678,46.56646300004245],[-123.30396099987726,46.566438000078854],[-123.30401100010597,46.56630600015417],[-123.30403000037255,46.56620300022839],[-123.30404500044116,46.56614199985639],[-123.30407700022822,46.56607799969608],[-123.30408999974868,46.56602299986464],[-123.30409200029685,46.565965000251566],[-123.30410800019034,46.565858999946535],[-123.30410099961935,46.56579199971679],[-123.30408700027395,46.56568399986365],[-123.30409999979443,46.56558500027261],[-123.30409700031969,46.56551400003668],[-123.30411700041118,46.56547199980115],[-123.30419299968085,46.56540299987303]]]},"properties":{"AREALAND":"1531944","AREAWATER":"19502","BASENAME":"Pe Ell","CBSAPCI":"N","CENTLAT":"+46.5712730","CENTLON":"-123.2982290","FUNCSTAT":"A","GEOID":"5353930","INTPTLAT":"+46.5713140","INTPTLON":"-123.2983105","LSADC":"43","MTFCC":"G4110","NAME":"Pe Ell town","NECTAPCI":"N","OBJECTID":7379,"OID":"27890932748907","PLACE":"53930","PLACECC":"C1","PLACENS":"02413122","STATE":"53","DISP_CLR":1,"slug":"pe_ell","jurisdiction_key":"pe_ell_city","county_fips":["53041"]}}]}
