{"type":"FeatureCollection","features":[{"type":"Feature","geometry":{"type":"MultiPolygon","coordinates":[[[[-119.26629499999686,46.27465999977167],[-119.26585399995591,46.273987999723786],[-119.26583300003948,46.2739670000358],[-119.26515599999699,46.27328599976058],[-119.26439199991583,46.27259500008661],[-119.26397199979127,46.27227899992058],[-119.26361799978893,46.272012999743986],[-119.2626219999042,46.2711860002465],[-119.2618479997773,46.270638000061446],[-119.26157099976783,46.270397999832475],[-119.26116900008493,46.27004599995531],[-119.26075399998325,46.26980299970027],[-119.25998099968128,46.269354000020805],[-119.25897700029891,46.269033000278654],[-119.25805599985891,46.26866400023726],[-119.25680100040641,46.26829500019574],[-119.2551119996873,46.26797500026058],[-119.25361899968509,46.26772999991111],[-119.25212700040612,46.26745700011254],[-119.25172800019796,46.26740899997327],[-119.25154300025002,46.267382999957945],[-119.25105700000323,46.2672719998492],[-119.25071600041967,46.26719100013153],[-119.25023400037082,46.26708599976734],[-119.24958599974232,46.26698099982303],[-119.24899400008863,46.26684200023211],[-119.24839300021408,46.266693000203176],[-119.24779399998938,46.26650499974725],[-119.2472039999855,46.26638800013557],[-119.24501999969705,46.26765699992982],[-119.24480600033513,46.26778099979783],[-119.24479700011429,46.26806200008825],[-119.2447839996955,46.268636999788356],[-119.2448199996805,46.26869700000891],[-119.24485099964267,46.268774000226784],[-119.24487400010719,46.268863000214765],[-119.24488499997786,46.268932999866585],[-119.24489099982564,46.26901100015396],[-119.24487400010719,46.26963100000322],[-119.24484999981775,46.270320000276925],[-119.24484300014505,46.27049399980178],[-119.24482600042661,46.270953999753644],[-119.24482300005356,46.271086000036696],[-119.2438470002603,46.27107699987226],[-119.2437479996278,46.27107600012988],[-119.24334500011997,46.27107199991828],[-119.24187899988195,46.271054999947054],[-119.241882000255,46.27094000022248],[-119.24197099994346,46.267997999978604],[-119.24267899994811,46.26787000015619],[-119.24274300042053,46.267773000135335],[-119.24286700026907,46.26758600008442],[-119.2427009996894,46.26750500020974],[-119.24271199956006,46.26681800020894],[-119.24222200001363,46.266560999897635],[-119.24182399963037,46.266939000037404],[-119.24166600034494,46.26699900025363],[-119.24077500004218,46.26656399999278],[-119.24128300003028,46.26607699999079],[-119.24138400031265,46.26597199997684],[-119.24165999959882,46.265687000167134],[-119.24335199979267,46.26473900016677],[-119.24319600015704,46.26467099984584],[-119.24309499987473,46.26463099987332],[-119.24296600000332,46.264580000161075],[-119.24274099987241,46.26447300003829],[-119.24250800024389,46.264346999788415],[-119.24205200013431,46.26411299979809],[-119.24030700023704,46.2632000002747],[-119.23955400002652,46.26282799979403],[-119.23888899967957,46.26242300009199],[-119.23859800032476,46.262272999949154],[-119.23823099990364,46.26208399995501],[-119.23685099987935,46.2611429998425],[-119.23678700030524,46.26108100019926],[-119.23632699999767,46.26062800014737],[-119.23584999997172,46.260134999931765],[-119.23498399978331,46.25936300018873],[-119.23431799961145,46.258753999987725],[-119.23372099993486,46.25830599984093],[-119.23287300018814,46.257580999913266],[-119.23244399984276,46.25735800015649],[-119.2318980002198,46.256886999761825],[-119.23181500037911,46.25679900020883],[-119.23138799968352,46.25635600029296],[-119.23086600035002,46.255878999870575],[-119.23042899960872,46.2555229998269],[-119.22994499991003,46.25508499971142],[-119.22942000020349,46.25454799992265],[-119.22919199969955,46.25435200029879],[-119.22884100007026,46.25401700016609],[-119.22831600036372,46.25346799971796],[-119.22784900038347,46.252997000075474],[-119.22729199999156,46.252613999692144],[-119.22635600038126,46.25188600001532],[-119.22590399957133,46.25151299969894],[-119.2253579999484,46.251141000057736],[-119.22484199956433,46.25071399974052],[-119.22457100030103,46.250467000285546],[-119.22425400010862,46.250243000051896],[-119.22389699973324,46.24987900028359],[-119.22379799999902,46.249780999981006],[-119.22261399979331,46.24887699981006],[-119.22066899987948,46.247392999776174],[-119.2178539995793,46.24524999999532],[-119.21723699981123,46.24480099989006],[-119.21643000007238,46.244206000269685],[-119.21616499975849,46.24401099995588],[-119.21482300026734,46.242840000034555],[-119.2146929996727,46.2427270000419],[-119.21422200039282,46.242317000269715],[-119.21360399990155,46.24181399980062],[-119.21280499966028,46.24116500010656],[-119.21247199957436,46.240891000077276],[-119.21203999975423,46.24053500029006],[-119.21199600027158,46.24049900006432],[-119.21169699962253,46.24019400029312],[-119.21147400003979,46.239857999735435],[-119.21044800001782,46.23893399970813],[-119.20885499955817,46.23785700003357],[-119.20850899995177,46.23762799997946],[-119.20835099976803,46.23752399989705],[-119.20828399982086,46.23749199973644],[-119.20809100037535,46.23739999994744],[-119.20777599983275,46.237251000063246],[-119.20703000019327,46.23681700027189],[-119.20606000024779,46.23643699987527],[-119.20502099980702,46.235939999992794],[-119.20454399978104,46.23576199986031],[-119.20451500036704,46.23575099995888],[-119.2042940004341,46.2356689998896],[-119.20413700007528,46.23560999995339],[-119.20336299994838,46.235341000251346],[-119.20228000002498,46.235052999725426],[-119.20178299990752,46.23492800000418],[-119.20127900011735,46.23481900024351],[-119.20014599996527,46.234566000089984],[-119.19937600003635,46.23439399983288],[-119.19883500043626,46.23427100005904],[-119.19673200033868,46.23398199971271],[-119.19515700032072,46.23378399969779],[-119.19384199969542,46.23368200001384],[-119.19301599968999,46.233594999694965],[-119.19159700020595,46.23342699997458],[-119.19144999989285,46.233410999944795],[-119.19081100038349,46.23331500028953],[-119.18979899970691,46.23315899994783],[-119.18894500011238,46.23304599990136],[-119.18812900015268,46.23293799994749],[-119.18713200044303,46.232804999965396],[-119.18584500030515,46.23248799992319],[-119.18477999992513,46.23218400019366],[-119.18364199975015,46.23184600000558],[-119.18238800012256,46.23139800003772],[-119.18121700033561,46.23101200029241],[-119.18066999998943,46.23083299985623],[-119.18048800041456,46.23077399969214],[-119.1798289999154,46.23056100015194],[-119.17813400024683,46.23003800017239],[-119.1764930001066,46.229611000268655],[-119.17637500010584,46.22957999972134],[-119.17633300027303,46.22956600019007],[-119.17486799985993,46.229053000166914],[-119.17329700003992,46.22856399969717],[-119.17189100007634,46.22822399978314],[-119.16966400013021,46.227747000183115],[-119.16800399972342,46.22741099984873],[-119.16667300010293,46.22729099971918],[-119.16547999967638,46.22712800020017],[-119.16501299969613,46.22706500008867],[-119.16448299996672,46.22702799980204],[-119.16291399979653,46.22691799996154],[-119.16242300042515,46.226876999868544],[-119.16136999974071,46.22679099987719],[-119.15980099957049,46.226706000302514],[-119.15937499959817,46.22668300004405],[-119.15904999990815,46.22668799969575],[-119.15793000017486,46.226706000302514],[-119.15644300002043,46.22667300011781],[-119.15496599991174,46.226738999845956],[-119.15311100040958,46.22688200012404],[-119.1518590004318,46.226883000050826],[-119.15162699972991,46.226883000050826],[-119.14901700036744,46.22688399997754],[-119.14859200022002,46.22688399997754],[-119.14830599998973,46.22687100030713],[-119.14547700034416,46.22674099970466],[-119.1438189995872,46.22662399976926],[-119.14298199971111,46.226560999700745],[-119.1415659997018,46.22645399997113],[-119.13936600041816,46.22624500019971],[-119.13874499955382,46.22617400017951],[-119.13785900017226,46.22607299996637],[-119.13654899956983,46.22592399978022],[-119.1360039997718,46.2258610001513],[-119.13589900018982,46.22584900018418],[-119.13543200020958,46.225794999988956],[-119.13532400025454,46.22578399995422],[-119.13523899986572,46.22577699970494],[-119.13506999981132,46.22575500024748],[-119.13490699960472,46.22573600000269],[-119.13469200041787,46.22571399990731],[-119.1334630000063,46.22559900016918],[-119.13279000016176,46.22553600016723],[-119.13085100009572,46.22525300017435],[-119.12908799975675,46.22495899976541],[-119.1277749996796,46.22475099986102],[-119.12676299990135,46.224612000119045],[-119.12624099966952,46.224553000104294],[-119.1260359996301,46.22454599969805],[-119.12574899957492,46.22447499996638],[-119.12425599957274,46.22421200023033],[-119.1229519997164,46.223972999996576],[-119.12152499983644,46.22362199976685],[-119.11982000012213,46.22330100016847],[-119.11792899973668,46.22281400004401],[-119.11767699984158,46.22274699994531],[-119.11621499980153,46.22238799988843],[-119.11496299982372,46.222055999751234],[-119.11323700019304,46.22156400027384],[-119.11213400017814,46.22117799973989],[-119.11044199998433,46.220599000066],[-119.10929499958851,46.22019099976193],[-119.1077659996013,46.21959499985856],[-119.10711100019842,46.2193999997203],[-119.10650000027813,46.2192199998864],[-119.10578800007549,46.21897100021048],[-119.10513899962208,46.218743999816496],[-119.10450199976253,46.218487999911005],[-119.10371699976498,46.21818900014192],[-119.10263700021466,46.217691000255044],[-119.10242200012952,46.217592000166235],[-119.10119600009098,46.21712200028535],[-119.1000989999239,46.216494000040356],[-119.09910300003916,46.21597199980069],[-119.09854300017253,46.21558199982682],[-119.09827700003375,46.215397999986806],[-119.09796800023724,46.21520600028013],[-119.09758099972464,46.21496400019224],[-119.09729799986741,46.214792000046494],[-119.09673899982566,46.214473000099225],[-119.09665299961193,46.21442400005033],[-119.09655999972554,46.214357000280586],[-119.09380499969981,46.21307200004047],[-119.0915509999895,46.21200599979252],[-119.09109999990277,46.21179099975662],[-119.0908139996725,46.2116710002958],[-119.09070499989255,46.211625000225794],[-119.09060899963313,46.21158500010656],[-119.0895240000599,46.21112699986623],[-119.08929800010408,46.21104500030777],[-119.08900000017825,46.21093899977225],[-119.08573200014153,46.20979300006274],[-119.08500700041843,46.209602000273115],[-119.0838009995731,46.209286000139095],[-119.08177000034388,46.20862199980433],[-119.08050400012239,46.20825600002684],[-119.07937000014536,46.207874999935356],[-119.0778369999602,46.207297000150206],[-119.07670700018114,46.20689900027947],[-119.07625699991935,46.20673999983115],[-119.07555700031061,46.20646000021406],[-119.07481800034383,46.2061630002194],[-119.0735449995513,46.20575300020699],[-119.07204599970133,46.20507699990655],[-119.0706630002023,46.20448399985603],[-119.06928800020088,46.20393999974204],[-119.06770999980985,46.20328500016574],[-119.06518300028806,46.20217299969407],[-119.06388600010445,46.20170199990071],[-119.06268400035536,46.201210000228166],[-119.06146499998955,46.20076800012444],[-119.06020700016397,46.200396000277706],[-119.05852900021387,46.19994300022731],[-119.05604899964942,46.19922199985889],[-119.05469200008967,46.198772999967204],[-119.05438300029317,46.19867099989582],[-119.05288199989504,46.19817300022987],[-119.04991799963193,46.197155999915886],[-119.04988300037016,46.19713800019203],[-119.04970099989696,46.19707099985539],[-119.04832000004772,46.19651100012032],[-119.04724100032233,46.19600199974945],[-119.04564500038795,46.19528699980485],[-119.04407299984472,46.19438399971771],[-119.04332300000726,46.193819999711],[-119.04288100014138,46.19348499999124],[-119.04162300031582,46.19273800012332],[-119.04149799974405,46.19266700030677],[-119.04126599994045,46.19320100030377],[-119.04074999955638,46.194368000123646],[-119.04008299955963,46.19588100012581],[-119.03991799970319,46.196256000281984],[-119.03934699996589,46.19663600026724],[-119.03909800044384,46.196803000179024],[-119.03884800019858,46.19696899973356],[-119.03813500017107,46.197444000292],[-119.03742200014354,46.19792000030756],[-119.03738100013567,46.19794600029673],[-119.03725800011203,46.19802800013424],[-119.03721799992906,46.19805599973226],[-119.03614800042445,46.19990899970499],[-119.03577299960742,46.20056099976338],[-119.0343280001841,46.20306599998919],[-119.0342179996809,46.20325599976669],[-119.03379500008164,46.20402800015312],[-119.03355999990497,46.2044559998034],[-119.03332599955327,46.20488399984944],[-119.03298900016766,46.20549799974],[-119.03287399964162,46.205709000157285],[-119.03242199973002,46.20653399988747],[-119.03219199957627,46.20695499974523],[-119.03196099959759,46.207376000106464],[-119.03191600029004,46.207458999827935],[-119.03130100017181,46.20812499983824],[-119.03032700002836,46.20917800006202],[-119.0276680002621,46.21205599970913],[-119.02536799962272,46.21454300018206],[-119.0240350003524,46.21598599969089],[-119.02387499962053,46.216158999948505],[-119.02377699971123,46.21626300011414],[-119.02371499978693,46.216332000282684],[-119.02367600032721,46.21637400028877],[-119.02360299963395,46.216453999737915],[-119.02355800032642,46.21650199972441],[-119.02351899996837,46.21654499971555],[-119.023493999854,46.216571999707234],[-119.02345299984613,46.2166159997573],[-119.02428399987443,46.21711899997163],[-119.02455699968591,46.21730800014524],[-119.02629900010844,46.21851300003208],[-119.02685999980004,46.218901000178086],[-119.02673299957839,46.21900299998245],[-119.02659100018651,46.21916399987302],[-119.02657100009502,46.21920700026574],[-119.02655900039946,46.21925200013481],[-119.0265569998513,46.219296999967014],[-119.02656500024722,46.21934199976227],[-119.02658100014078,46.21938600007899],[-119.02660700008002,46.21942800023536],[-119.0266410004152,46.21946600011237],[-119.0266820004231,46.21950099977955],[-119.02673099992857,46.219531999803586],[-119.02678500035526,46.21955700007083],[-119.02684300008158,46.219575999968],[-119.02738100020692,46.21973900015681],[-119.02760299996477,46.21985000014186],[-119.0286390000325,46.22055900026774],[-119.0286880004363,46.22059800002476],[-119.02873000026909,46.220639999875566],[-119.02876399970596,46.22068699989249],[-119.02878899982034,46.22073499990795],[-119.02880600043707,46.22078599999491],[-119.02880800008688,46.22080300001333],[-119.02892500026276,46.2208819998107],[-119.02920499974691,46.22107600024689],[-119.02942800022798,46.2212300000666],[-119.0305479999613,46.22200500022244],[-119.0344889998426,46.22473099992427],[-119.03435099975032,46.23353200017078],[-119.03419099991675,46.240764999690704],[-119.0348899997006,46.240767000280925],[-119.04066900026386,46.24079800010098],[-119.04168299969196,46.24080299970957],[-119.04248699995607,46.24080700026592],[-119.04427000038652,46.24081599980807],[-119.04451800008364,46.24081500013513],[-119.04470600040462,46.24081700010227],[-119.04472899997083,46.240949999927096],[-119.04476699960568,46.24107000001555],[-119.04482100003234,46.241187000221906],[-119.04487100026105,46.241280000160145],[-119.04486399969005,46.241402000093956],[-119.04485100016956,46.24162599977538],[-119.04468899978787,46.24169900024502],[-119.04466500039672,46.24280000028916],[-119.04462600003868,46.24304599984554],[-119.04455700044169,46.24581999999734],[-119.04468100029025,46.24579799987609],[-119.04647399986813,46.24547700012488],[-119.04761700006597,46.245939999995116],[-119.04837100010137,46.246245999702076],[-119.04846999983556,46.24628300007881],[-119.04863800006507,46.24635199979129],[-119.04881399979216,46.2465390002052],[-119.04891000005162,46.246645999916154],[-119.04943999978101,46.24721200023329],[-119.04949099983466,46.247261999771986],[-119.04975199995057,46.24754099990243],[-119.04975000030075,46.2476230002454],[-119.04974199990484,46.247872999958744],[-119.04973500023215,46.248126999797684],[-119.05184699965223,46.24813600000273],[-119.05220599967743,46.24813700016347],[-119.05235600036357,46.24813899986369],[-119.05366799971752,46.24814699990623],[-119.0548519999232,46.248149999766596],[-119.05493899996185,46.24815099992707],[-119.05493800013694,46.24822099993394],[-119.05492800009121,46.24906599997953],[-119.05491800004548,46.24995699972736],[-119.05485399957304,46.25529400021568],[-119.05477800030339,46.25545899998572],[-119.05412100035237,46.27034900002912],[-119.05521599997128,46.270333999966496],[-119.0631930001684,46.270231000170845],[-119.07532600033194,46.27007499985248],[-119.07445699977048,46.27760599978734],[-119.07402199957728,46.28137099991575],[-119.08403999994773,46.28140299993254],[-119.08445099985144,46.28140400010738],[-119.08440700036883,46.28181800014492],[-119.08433399967556,46.28249099993603],[-119.08428000014722,46.283045999948556],[-119.0842430003373,46.2833769997114],[-119.08414600025291,46.28422999972581],[-119.08412799981123,46.28438700022445],[-119.08506699979459,46.28442099996073],[-119.08505699974886,46.284505000022286],[-119.08588399957921,46.284507000258635],[-119.08583699972351,46.285158000069316],[-119.09170099977732,46.285170000101914],[-119.0928480001731,46.28517199969321],[-119.09299999961075,46.28517199969321],[-119.09310599991596,46.28517199969321],[-119.09339899981893,46.28517299979925],[-119.09355799982761,46.28581099978209],[-119.09336299983393,46.29265900005988],[-119.0933450002906,46.29329100000507],[-119.09327400014546,46.29578200024704],[-119.09315000029692,46.300100999908295],[-119.09364499986621,46.30010199974174],[-119.09410199980073,46.30010199974174],[-119.10041899959106,46.3000899998773],[-119.10120199993877,46.300303000028244],[-119.10191599979122,46.300564000280964],[-119.10257399956716,46.300893999875285],[-119.10296000025484,46.30114900028698],[-119.10339899974767,46.301531999822664],[-119.10374400042748,46.301907000137675],[-119.10412799966872,46.30243999980322],[-119.10473299974122,46.30373300006193],[-119.10467199964184,46.30747099987643],[-119.11319199998717,46.307474999912806],[-119.11300000036658,46.30671199977985],[-119.1137019996251,46.30619400030663],[-119.11414100001626,46.305814000302895],[-119.11464200033167,46.30537899973866],[-119.11327599965276,46.300060999728544],[-119.11281899971827,46.300060999728544],[-119.1034060003187,46.30008400025439],[-119.10416200000391,46.29270000002902],[-119.10430699976887,46.29130200002025],[-119.10445900010485,46.2898090002432],[-119.10467699966473,46.287681999754405],[-119.10473600011426,46.28711199971344],[-119.10479700021364,46.286518999942835],[-119.10492100006219,46.285304999977214],[-119.1050399998879,46.285306000080816],[-119.10698200032698,46.285331000181685],[-119.10911899986142,46.285354000065794],[-119.10914800017375,46.285352999963074],[-119.10914399997577,46.28534200007346],[-119.10886199994346,46.28469499980451],[-119.1085599998197,46.284041999825824],[-119.10824299962728,46.28339300006755],[-119.10796700034108,46.282852000062086],[-119.10757800017863,46.28212700005057],[-119.10721699960528,46.2814890000014],[-119.1068419996866,46.28085500009154],[-119.10641700043746,46.28017499993286],[-119.10628199981993,46.279956999956234],[-119.10615200012357,46.27977599986342],[-119.10603999997059,46.27964899981524],[-119.10591399957387,46.27952800010657],[-119.10577600037995,46.279414999957794],[-119.10562700041704,46.2793080002339],[-119.10542999987524,46.279177999696415],[-119.10526099982083,46.27907400016186],[-119.10510699983503,46.27896399973497],[-119.10496500044312,46.27884700002059],[-119.10483400002359,46.278723999956036],[-119.10471699984768,46.27859399989556],[-119.10461399991554,46.278458000017984],[-119.10454500031857,46.27835100028792],[-119.10427199960878,46.27789099971247],[-119.10483900004643,46.27786200022572],[-119.10501700032165,46.27786400008375],[-119.10510000016234,46.277864999702345],[-119.10636600038383,46.27788399990201],[-119.10696999973311,46.2778939998084],[-119.1089070001493,46.277929999704575],[-119.1104760003195,46.277960000013934],[-119.11295900035869,46.27800000019392],[-119.1161579999001,46.278058000247725],[-119.12620899988246,46.27805500016082],[-119.12664200042583,46.27805399992485],[-119.13368800013721,46.27806199994947],[-119.13683599962502,46.278065000036],[-119.1371369999239,46.278065000036],[-119.1370950000911,46.28060900000959],[-119.13706400012896,46.282456000087926],[-119.13701499972514,46.28541600019107],[-119.1399870003842,46.285421000077946],[-119.14228299992729,46.28542499986297],[-119.14642800002306,46.285431999951655],[-119.14755199995433,46.28543500025545],[-119.1489300003288,46.28543599973587],[-119.15209799990808,46.28774499978704],[-119.14784999988017,46.290616999764026],[-119.14732799964834,46.29019000023554],[-119.14720999964757,46.29277000026883],[-119.14932699998883,46.29282800020466],[-119.16827300023526,46.292723999890804],[-119.16820700011303,46.29411699988911],[-119.16794199979914,46.29970199973983],[-119.1679259999056,46.30012600008338],[-119.17413700028906,46.300133000155206],[-119.17498800040883,46.299969000011096],[-119.17564500035985,46.2997939999059],[-119.17606200011141,46.29964699978255],[-119.17646100031955,46.29947500004488],[-119.1768370000632,46.29928100000271],[-119.17718799969249,46.29906599989516],[-119.17766300006863,46.2987070002096],[-119.1780689999495,46.298309000300016],[-119.17857699993762,46.29754999978913],[-119.17851199964028,46.300077000176344],[-119.17851099981537,46.300137999939935],[-119.19215700007261,46.30015299991209],[-119.19412499955266,46.300155000197705],[-119.19431399969854,46.300192000192844],[-119.19480900016617,46.30040100001458],[-119.19498499989326,46.30057699986629],[-119.19504099996976,46.300653999972646],[-119.19548899968343,46.301210000097505],[-119.19601099991523,46.3017340002486],[-119.20024700024763,46.30559800005246],[-119.20995900029628,46.30560399969172],[-119.20995900029628,46.30555199990058],[-119.21284599966815,46.30553900025534],[-119.21515800000313,46.30398100008367],[-119.21697800024347,46.30397899993783],[-119.2164469997908,46.3048979999809],[-119.2143549995639,46.306163999945],[-119.213736000146,46.306377999765594],[-119.21367400022173,46.306405000234506],[-119.21361800014526,46.306436999899596],[-119.21356799991652,46.30647399999324],[-119.2135250002588,46.30651500016844],[-119.2134890002738,46.306559999795674],[-119.21346300033453,46.30660700005631],[-119.21329400028013,46.3069930002478],[-119.21881699985208,46.30699800002663],[-119.22033900016662,46.30701200027373],[-119.22046800003804,46.30701400030875],[-119.22044899977146,46.30809700015513],[-119.22043500042606,46.308837999951535],[-119.22043200005302,46.309029000006475],[-119.23247300015505,46.30898100029251],[-119.23284300005089,46.30898000000072],[-119.23255599999574,46.308482000087906],[-119.23250999996498,46.30836599980651],[-119.23250199956905,46.30823900026502],[-119.23252900023155,46.30797700029949],[-119.24150700033628,46.30798199998848],[-119.24152499987963,46.30497899981415],[-119.24154499997111,46.30018699979237],[-119.24157500010833,46.29954600015725],[-119.24163200000974,46.29834999976315],[-119.24176400025424,46.29562899979328],[-119.24185100029287,46.29384100010546],[-119.24189300012563,46.29298800015868],[-119.2366869998478,46.292956000081126],[-119.23676700021376,46.29144300025123],[-119.23705000007097,46.285648999774146],[-119.2391489999706,46.28564700020026],[-119.2421369996248,46.28564500000549],[-119.24225399980068,46.28566799975772],[-119.24262299987163,46.28573899976872],[-119.24281100019259,46.285775000097665],[-119.24286499972094,46.28575399996037],[-119.24296199980532,46.285724000193774],[-119.24306200026274,46.285700999844245],[-119.2431650001949,46.2856829999688],[-119.24326999977691,46.285672000145496],[-119.24337600008211,46.28566799975772],[-119.24347099961838,46.285668999854686],[-119.24361700010655,46.28567499981534],[-119.24480399978701,46.28572699986077],[-119.24546199956295,46.28562399981836],[-119.24602499980264,46.28562999978394],[-119.24842699965097,46.285654000260564],[-119.25005100007273,46.28567100004858],[-119.25024400041659,46.27954699972958],[-119.25089600034474,46.274693999956106],[-119.25409900008412,46.27469599992976],[-119.25971000041791,46.274703000147504],[-119.26096300022063,46.27470500012083],[-119.26250700027646,46.274709000067276],[-119.26552400024299,46.27467800016412],[-119.26629499999686,46.27465999977167]],[[-119.18492800006314,46.25921900012151],[-119.184892999903,46.259783999932715],[-119.18070199977649,46.25974899986626],[-119.18068800043109,46.259706000179854],[-119.18067599983722,46.25966499973976],[-119.18057399972997,46.25931900024279],[-119.18048199966847,46.2590059998204],[-119.18022899994848,46.25839200013355],[-119.18040999969844,46.25841800006551],[-119.18102900001465,46.25820699971256],[-119.18168900033872,46.25857300004881],[-119.18307699986063,46.25870099984102],[-119.18448299982421,46.25860900021466],[-119.18460800039598,46.258559999810615],[-119.18481799955994,46.25856900016695],[-119.18491999966722,46.25864399976663],[-119.18492800006314,46.25921900012151]],[[-119.23845600003455,46.269705999995246],[-119.23838599971432,46.27090699993836],[-119.23837999986657,46.27101699977319],[-119.23832899981292,46.27101600002968],[-119.23492600005699,46.270977999828766],[-119.23431299958858,46.270970999756194],[-119.23363899991911,46.270964000303685],[-119.2331090001897,46.27095700022932],[-119.23247099960692,46.2709500001541],[-119.23265700027807,46.27083800007043],[-119.23570900040471,46.269082999795266],[-119.2357429998416,46.26967600013493],[-119.23845600003455,46.269705999995246]],[[-119.16874299969022,46.27791999980476],[-119.16874100004038,46.27801899972587],[-119.16868400013901,46.27882599971112],[-119.16861499964371,46.279802000208505],[-119.16859100025258,46.28163100020944],[-119.16602299982458,46.281682000198686],[-119.16339300037065,46.281715999751285],[-119.16081999991978,46.28175100007208],[-119.15820800000918,46.281774000217524],[-119.15815000028287,46.281775999932776],[-119.15815100010776,46.281683999917306],[-119.1581529997576,46.28158499978885],[-119.15815899960539,46.28129200027941],[-119.15816299980334,46.28090399981446],[-119.15816500035147,46.28061399971434],[-119.15816500035147,46.28051900027906],[-119.15816399962826,46.28042400005823],[-119.1581660001764,46.28014100004485],[-119.15817000037434,46.27995099999019],[-119.15817200002418,46.279859000014525],[-119.15817299984909,46.27976500009575],[-119.15817299984909,46.279672000222206],[-119.15817200002418,46.27939200006376],[-119.15816899965111,46.27912399983137],[-119.15816799982622,46.27903599996034],[-119.15816899965111,46.27894999976638],[-119.15816500035147,46.27869899994446],[-119.15816299980334,46.27846900004803],[-119.15816299980334,46.27840200022592],[-119.15816199997842,46.27834300030548],[-119.15816399962826,46.27813700020096],[-119.15823200029861,46.27806699988663],[-119.16338599979964,46.27798599997902],[-119.1639039998335,46.277998999956935],[-119.16451999977663,46.277990000306865],[-119.16497199968826,46.277994000013535],[-119.16543000034598,46.27798599997902],[-119.16588899993027,46.2779779999433],[-119.16619100005408,46.27797499985201],[-119.16648599960685,46.27796999990645],[-119.16663100027014,46.277966000198],[-119.16677500021018,46.277963999722786],[-119.16721799990096,46.27795500006702],[-119.16762600032996,46.27794299969578],[-119.1680220001651,46.277937000130045],[-119.16826300018953,46.27793299979833],[-119.16874299969022,46.27791999980476]],[[-119.23147499972217,46.29292499994938],[-119.23112599974272,46.30018100018014],[-119.22844699988497,46.30017999972749],[-119.228189999967,46.30017999972749],[-119.22596499967071,46.300178000063426],[-119.22598700031034,46.29923800029698],[-119.22598499976219,46.29918699989501],[-119.22597399989152,46.29912700016443],[-119.22595299997514,46.299069000072755],[-119.22592299983792,46.299013000246966],[-119.22562900011003,46.29853699972575],[-119.22559899997282,46.29848099997653],[-119.22557800005642,46.298421999957114],[-119.22556700018576,46.29836299987413],[-119.22556499963763,46.29830299986134],[-119.22557499968336,46.29823299986668],[-119.22593600025671,46.29669099989722],[-119.22594499957923,46.29663099991427],[-119.22594499957923,46.29657099986563],[-119.22593500043179,46.296510999751206],[-119.22591600016523,46.29645299999189],[-119.22588799967781,46.29639600007227],[-119.22585099986789,46.29634199979968],[-119.22580599966204,46.296290999803695],[-119.2257520001337,46.29624300009268],[-119.22569100003432,46.296199999863234],[-119.22319399975146,46.29460600011148],[-119.22307699957558,46.29452399989273],[-119.22298799988712,46.29445200015959],[-119.22290599987136,46.29437500002129],[-119.2228320002515,46.29429499995634],[-119.22161200006079,46.292866000150724],[-119.23147499972217,46.29292499994938]],[[-119.19187800041335,46.29273700009599],[-119.18937299973454,46.29271800008153],[-119.1864460001797,46.29270699980876],[-119.18144800031428,46.292686999815054],[-119.18162900006426,46.29008699989457],[-119.1816809999428,46.28898099987072],[-119.17910300036739,46.288966999978726],[-119.1789979998871,46.28895900030488],[-119.17915500024593,46.28538099972843],[-119.17916100009371,46.28524600004047],[-119.17938799987442,46.2852470001451],[-119.1805400002931,46.285254999740296],[-119.181927999815,46.28526299995509],[-119.1891929998095,46.28530999987423],[-119.18974099998057,46.286825999875944],[-119.18986300017932,46.28716300018741],[-119.19053699984879,46.28902799970366],[-119.19095000030069,46.29016999994345],[-119.19187800041335,46.29273700009599]],[[-119.19596400005958,46.24612999992064],[-119.19594800016604,46.246730000106155],[-119.19591899985373,46.24782799994534],[-119.19588600024179,46.24786000028996],[-119.19588399969362,46.247906999985794],[-119.19583199981511,46.24884100008847],[-119.19582900034035,46.24898600022065],[-119.19579599983008,46.24992100009345],[-119.19570299994366,46.25259700020836],[-119.19564000019447,46.254403000208136],[-119.1955780002702,46.25619600018534],[-119.19032099993872,46.25617899994846],[-119.1867559998011,46.256166999778124],[-119.18506399960725,46.256161999706364],[-119.18498900016249,46.256161999706364],[-119.18374600040552,46.25615800026975],[-119.18369299980375,46.25755900016143],[-119.1836819999331,46.257806999958675],[-119.18313799996001,46.25780599997427],[-119.18310899964766,46.25780599997427],[-119.18299300019505,46.25780499998986],[-119.18305799959406,46.25615500022625],[-119.18322199962559,46.25615600024075],[-119.18360499994023,46.256157000255236],[-119.18374600040552,46.25615800026975],[-119.18377300016971,46.255413999984725],[-119.18378999988816,46.25495900024702],[-119.18381099980455,46.25435799996177],[-119.18326299963347,46.25435599986716],[-119.18248600003186,46.254352999725064],[-119.18169500018651,46.25435000020396],[-119.1816879996155,46.25455300014158],[-119.18167599991993,46.25487500023619],[-119.18166199967621,46.25525200017236],[-119.18115000038847,46.255251000141314],[-119.17989300038782,46.25524599998604],[-119.17991500012911,46.25451499970858],[-119.17723700009628,46.25451799984181],[-119.17723999957103,46.254430000214],[-119.17724100029423,46.25434199982383],[-119.17592800021711,46.25434199982383],[-119.17591399997337,46.25475299982866],[-119.1759070003007,46.2549400001745],[-119.17589899990477,46.25516399985893],[-119.17517900020454,46.25516399985893],[-119.17516499996084,46.25557699996479],[-119.1751609997629,46.25569999980423],[-119.1751480002424,46.25607000016797],[-119.17514700041748,46.25614900013878],[-119.17455599969038,46.256147000109436],[-119.17460199972115,46.254361000103586],[-119.17460300044438,46.254339000302174],[-119.17449799996409,46.254339000302174],[-119.17301400018269,46.25434099977625],[-119.17287500026552,46.25434099977625],[-119.17198800016072,46.25434099977625],[-119.17176800005271,46.25434099977625],[-119.17106000004802,46.25434099977625],[-119.1709300003517,46.25434099977625],[-119.16950400029664,46.25433700020683],[-119.16943599962627,46.25433700020683],[-119.16943800017441,46.25436799981264],[-119.16944800022014,46.254559999826135],[-119.16945300024301,46.254658000285644],[-119.16946099974064,46.25480800014275],[-119.1694590000908,46.254845999751524],[-119.16945700044099,46.25487999980419],[-119.16944900004506,46.25504800030297],[-119.16944499984709,46.25514799995621],[-119.1694440000222,46.25516699995666],[-119.16944300019728,46.25517799969241],[-119.16944099964914,46.255232000169975],[-119.16944099964914,46.25525600029614],[-119.1694309996034,46.255440000086445],[-119.16939899981635,46.2561279998274],[-119.16939799999143,46.256147000109436],[-119.16932699984635,46.25614800012414],[-119.16930500010503,46.25614800012414],[-119.1692060003708,46.25614800012414],[-119.16592999993817,46.256146000094766],[-119.16601399960376,46.254295000051734],[-119.16605399978674,46.25251900017076],[-119.16609499979461,46.251296000111346],[-119.16616099991687,46.25125400011199],[-119.1661779996353,46.250703999844525],[-119.16618299965816,46.25054400001867],[-119.16618400038138,46.25052300004571],[-119.16634400021493,46.25052300004571],[-119.16717600006815,46.25052599977612],[-119.1681910002195,46.250531999857614],[-119.1681929998693,46.250347999751206],[-119.1694950000758,46.250347000251985],[-119.16949300042602,46.25041900017939],[-119.16948500003006,46.25067799998226],[-119.1721139996591,46.25067799998226],[-119.17469899980553,46.25069100022554],[-119.18000200016775,46.25070600007237],[-119.18006699956678,46.24891300012918],[-119.18013400041224,46.24710300002477],[-119.1850109999038,46.24714200018122],[-119.18538499999762,46.24714500009655],[-119.18532399989824,46.2488599997892],[-119.18532100042351,46.24895100009531],[-119.18708200021432,46.24896400012675],[-119.18794800040273,46.24897099990346],[-119.18794900022765,46.24886700020036],[-119.1880949998175,46.24480599975514],[-119.19072199979672,46.24482099996881],[-119.19070300042846,46.245356999735556],[-119.19075100010903,46.245356999735556],[-119.19081999970601,46.245356999735556],[-119.19088699965317,46.245357999946954],[-119.19090699974466,46.245357999946954],[-119.19114199992127,46.24535900015834],[-119.19289400038959,46.24536999999751],[-119.1928809999708,46.245726000095324],[-119.19331600016396,46.2457279998834],[-119.19330899959296,46.24591999970312],[-119.19330000027045,46.24619400008745],[-119.19434399983575,46.2461980002507],[-119.19448100010312,46.24617699985632],[-119.19459900010389,46.246159000044344],[-119.19466799970087,46.24616600017897],[-119.1948250000597,46.246166999754415],[-119.19489899967955,46.24617099991963],[-119.19498099969532,46.24617399988806],[-119.19506899955886,46.246178000052765],[-119.19516099962038,46.24618100002081],[-119.19525500023002,46.246182999792296],[-119.19535099959116,46.246182999792296],[-119.1955420002852,46.24618200021719],[-119.19563099997366,46.24617999982441],[-119.19570899979145,46.246176000281054],[-119.19577800028675,46.24616999972305],[-119.19596400005958,46.24612999992064]],[[-119.16435699957,46.245277999750094],[-119.16431700028537,46.246166999754415],[-119.16429299999592,46.24779699974894],[-119.16299400016248,46.24779399986927],[-119.16301599990378,46.24707000030081],[-119.15906699962659,46.247060999920805],[-119.15901300009824,46.248876000284035],[-119.15895899967155,46.25069500006085],[-119.16158300017604,46.25069600017492],[-119.16152700009954,46.25251599992822],[-119.16151399968075,46.253094000151926],[-119.16147699987083,46.254302999817554],[-119.16106400031727,46.254302999817554],[-119.16080099965322,46.25430399986584],[-119.16016499961857,46.254305999962334],[-119.16016399979367,46.254339000302174],[-119.1601589997708,46.254500999705904],[-119.16015200009812,46.25471800027774],[-119.16014799990015,46.25487000004662],[-119.16013899967933,46.25514799995621],[-119.16013500037967,46.25528700000362],[-119.16013299983155,46.25534799995791],[-119.1601239996107,46.255668000306834],[-119.16011399956496,46.256141000021096],[-119.1588089998837,46.256141000021096],[-119.15866999996656,46.256141000021096],[-119.15694699981057,46.256105000098295],[-119.15377400020839,46.256056999957444],[-119.1536469999868,46.25606000000632],[-119.15362000022262,46.25603900028199],[-119.15360500015402,46.25603900028199],[-119.15175300012659,46.25603800026535],[-119.15078599965585,46.25603800026535],[-119.14934899973015,46.256036000232015],[-119.14908900033747,46.256037000248696],[-119.14835899969319,46.25603000013148],[-119.14817799994321,46.25607899969078],[-119.1428689997332,46.25604199971071],[-119.14296300034285,46.25398000003703],[-119.14278099986967,46.25392400007969],[-119.14273800021195,46.25354999989643],[-119.14270300005185,46.25323900022165],[-119.1426500003484,46.25276699977847],[-119.14287200010625,46.25242100023708],[-119.14303299976474,46.25242199969849],[-119.14311499978051,46.250609000120676],[-119.14315599978838,46.24970200015478],[-119.14315999998632,46.24961800016751],[-119.14319900034438,46.24878899982776],[-119.14323899962905,46.24788600024563],[-119.14327899981205,46.24702500024985],[-119.1433130001472,46.24627899992175],[-119.14332200036804,46.24606500010193],[-119.14413699960453,46.24606900027459],[-119.1441359997796,46.246081999746565],[-119.14484299995935,46.24608599991798],[-119.14536500019118,46.246087999692975],[-119.14594799962403,46.246090000089104],[-119.14646900003093,46.246091000287144],[-119.14698899971464,46.24609300006196],[-119.14751000012154,46.24609600003465],[-119.14845699960247,46.246100999781646],[-119.1485770001514,46.24609900000718],[-119.14861399996133,46.24518899999199],[-119.14864999994633,46.244281999863354],[-119.14868599993133,46.24337900001833],[-119.14880300010721,46.24337799977084],[-119.14999499981053,46.243382999765615],[-119.15006699978055,46.24165999994666],[-119.15006799960547,46.24156899997092],[-119.15039200036888,46.241570000251386],[-119.1509239997481,46.24157200019101],[-119.15399500014135,46.24158399982712],[-119.15530599967038,46.24158899998534],[-119.15547200025001,46.2415900002655],[-119.15661700009768,46.24159400014315],[-119.15666899997623,46.239770999888094],[-119.15668300021991,46.239316000231725],[-119.15668499986977,46.23927900012655],[-119.15663600036426,46.23885800016185],[-119.1566949999155,46.23792099991042],[-119.1580399997797,46.23792599978117],[-119.15931199984898,46.237959000034984],[-119.15922099961237,46.241603999836066],[-119.15917100028197,46.24342099983503],[-119.16158999984873,46.243412000098886],[-119.16174300000961,46.24344300028826],[-119.1618130003298,46.24344300028826],[-119.16176200027616,46.24524299974377],[-119.16435699957,46.245277999750094]]],[[[-119.15917100028197,46.24342099983503],[-119.15883300017316,46.243415999843776],[-119.15655500017341,46.24340000024136],[-119.1565819999376,46.242532000062575],[-119.1542239995719,46.24252399982243],[-119.15396699965393,46.242523000180604],[-119.15391599960033,46.244235999778546],[-119.1539840002707,46.24424600023246],[-119.15651400016552,46.24463599973884],[-119.15853699989717,46.244949000175836],[-119.15854100009511,46.24482400001106],[-119.15878299994446,46.24482599983201],[-119.15913199992389,46.24483199991581],[-119.15917100028197,46.24342099983503]]],[[[-119.15853299969919,46.24508499995206],[-119.156490999701,46.24477499971469],[-119.15391099957745,46.24437399991729],[-119.15389700023206,46.244858000064205],[-119.15650599976962,46.244864999743626],[-119.15650199957165,46.24500499997835],[-119.15649800027201,46.245217999991844],[-119.15853100004936,46.24523300009287],[-119.15853199987428,46.245127999920776],[-119.15853299969919,46.24508499995206]]]]},"properties":{"AREALAND":"100914224","AREAWATER":"9178258","BASENAME":"Pasco","CBSAPCI":"N","CENTLAT":"+46.2556290","CENTLON":"-119.1367562","FUNCSTAT":"A","GEOID":"5353545","INTPTLAT":"+46.2661126","INTPTLON":"-119.1214259","LSADC":"25","MTFCC":"G4110","NAME":"Pasco city","NECTAPCI":"N","OBJECTID":32442,"OID":"27890246554182","PLACE":"53545","PLACECC":"C1","PLACENS":"02411381","STATE":"53","DISP_CLR":3,"slug":"pasco","jurisdiction_key":"pasco_city","county_fips":["53021"]}}]}
