{"type":"FeatureCollection","features":[{"type":"Feature","geometry":{"type":"MultiPolygon","coordinates":[[[[-122.67585599956024,47.76635900025259],[-122.67583100034419,47.76591400007117],[-122.67578100011548,47.76554900007231],[-122.67577699991753,47.76453000015886],[-122.67580600022984,47.762948999745454],[-122.67580399968169,47.76276599994169],[-122.67331899999272,47.762733000175835],[-122.673192999596,47.762730000251004],[-122.67322399955813,47.75988000013226],[-122.67322600010627,47.759697999831786],[-122.67322699993119,47.75962100023304],[-122.67322799975611,47.75956299999728],[-122.67267299991235,47.75919700007938],[-122.67169999959381,47.758531999916016],[-122.67132999969795,47.75824800023841],[-122.67075700031081,47.75785999983177],[-122.67045900038501,47.757621999871986],[-122.67026100001829,47.75745800029635],[-122.67010899968233,47.75733200019024],[-122.66973999961135,47.75706799987],[-122.66938099958617,47.756823999984135],[-122.66894100026842,47.75653500017611],[-122.66842400005949,47.75622300009027],[-122.66810400039233,47.75602999974705],[-122.66726800034117,47.755557999962654],[-122.66802700039943,47.755532000042024],[-122.66799999973694,47.75415400015324],[-122.66799899991204,47.75409300004353],[-122.66787400023856,47.754086000264024],[-122.66661999971265,47.75402299978998],[-122.66662100043588,47.75395999984362],[-122.66664200035228,47.75286100018536],[-122.66630800044142,47.75285800029525],[-122.66535500021438,47.75285300007526],[-122.66533299957477,47.7528680001297],[-122.66445200021604,47.753447999924084],[-122.6642299995599,47.75343400019056],[-122.66393500000711,47.753415999837344],[-122.66347499969957,47.753396999927546],[-122.66333699960731,47.753449000077474],[-122.66300500024462,47.7535760000743],[-122.66266799996073,47.75371599987805],[-122.6624779999899,47.7537990000368],[-122.66211499976677,47.75402200025158],[-122.66198000004755,47.75383200003405],[-122.66184799980307,47.75365799970303],[-122.66176900016038,47.75366000000172],[-122.66171999975656,47.75366100015104],[-122.66154700040249,47.75366699983858],[-122.66123699988279,47.75367800027049],[-122.66001400021733,47.753721000015055],[-122.66004299963133,47.75198100003029],[-122.66004400035455,47.751929000225346],[-122.66004299963133,47.75188099989465],[-122.66002599991288,47.75090800008027],[-122.66002300043817,47.75072099998221],[-122.65999999997362,47.74960800001284],[-122.65997300020946,47.74819600011367],[-122.6589909996701,47.74818999979537],[-122.65871200001084,47.748187999890455],[-122.65812299983185,47.74818499973095],[-122.65812000035712,47.74797599986959],[-122.65814999959603,47.74797500021504],[-122.65814700012132,47.74789899983632],[-122.65813100022777,47.74782400021206],[-122.65812700002982,47.74775399998205],[-122.65810799976326,47.74768199973359],[-122.65811600015917,47.74756800029413],[-122.65811500033426,47.747486000129676],[-122.65811699998409,47.74736300024477],[-122.65812100018204,47.74728500024081],[-122.65812299983185,47.74722099971658],[-122.65812500038001,47.74716399982524],[-122.65812299983185,47.74702300023913],[-122.65811299978611,47.74695399981411],[-122.65810000026563,47.74690899996034],[-122.65807699980111,47.746858000199865],[-122.65785599986818,47.74692799982278],[-122.65781599968521,47.7469420000985],[-122.65691199986195,47.746245999780385],[-122.65751699993446,47.74588599979655],[-122.65993800004935,47.74585500019154],[-122.65988799982064,47.74295499973364],[-122.65988600017081,47.74283900010012],[-122.65987299975203,47.7420200000662],[-122.65991700013295,47.7420200000662],[-122.65991200011008,47.74197200026195],[-122.6600390003317,47.74197500017552],[-122.66042199974801,47.74196799997424],[-122.66119000002715,47.74195900023183],[-122.6612439995555,47.74195799985767],[-122.66143000022664,47.74195299979863],[-122.66171700028183,47.7419460001985],[-122.66214099970604,47.741946999968846],[-122.66256900022651,47.74193300016188],[-122.66304799990232,47.74192699972569],[-122.663835000448,47.74193699984823],[-122.66400000030444,47.74193999976381],[-122.6643640003525,47.741904000161476],[-122.66516400041867,47.741897999721935],[-122.6651169996647,47.73740800006445],[-122.66642100041932,47.73740700020695],[-122.66642399989406,47.73555200008581],[-122.66511099981693,47.735553999872046],[-122.66510900016709,47.73509499979186],[-122.66510900016709,47.735061999997406],[-122.66390099967192,47.73505799978293],[-122.66389900002211,47.73445500003017],[-122.66277799956558,47.73444999985472],[-122.66245200005066,47.73444899994042],[-122.66190800007752,47.73533800016063],[-122.66186200004678,47.7354039999829],[-122.66180299959721,47.73549299971147],[-122.66159400025818,47.73580199995736],[-122.66150100037176,47.73594099995876],[-122.6612510001265,47.73594099995876],[-122.66000900019446,47.73594199984442],[-122.66001000001938,47.73628800021193],[-122.6610279996454,47.736285999849756],[-122.66126899966984,47.73628499997071],[-122.66124199990566,47.73632400007271],[-122.66100199970616,47.736325999829305],[-122.66043000014393,47.73633199970278],[-122.66043199979376,47.73657700008721],[-122.66084199987257,47.736573999862635],[-122.66107299985127,47.736572999989114],[-122.6609769995918,47.736714999961464],[-122.66083900039786,47.736920000259516],[-122.66076800025273,47.73702400020528],[-122.66069299990967,47.73713600005401],[-122.66047799982452,47.73713500019128],[-122.66019999999016,47.73713500019128],[-122.65918499983884,47.73713299986161],[-122.65918900003679,47.73740700020695],[-122.65877300011022,47.73740300017257],[-122.65752199995731,47.73739100006766],[-122.65747699975148,47.73739000020983],[-122.6561610001996,47.73736900017021],[-122.65366599956654,47.737328999783614],[-122.65343100028822,47.734568999791314],[-122.65355199976372,47.73306800026638],[-122.65359399959652,47.732549999939984],[-122.65378799976527,47.73014699993289],[-122.65303100025514,47.728945000031786],[-122.65150899994063,47.72653000026975],[-122.65111800012836,47.72616299999752],[-122.64828199991179,47.72350100000116],[-122.6459749995997,47.72133699981517],[-122.64434500022847,47.71989899980815],[-122.64232199959851,47.71812899980863],[-122.64102600013813,47.716947999795785],[-122.6405959999678,47.71654300018599],[-122.64055400013501,47.71657499997424],[-122.6394469999222,47.71738400014137],[-122.63890799997192,47.71777899993688],[-122.63447599982099,47.7210229999027],[-122.6341250001917,47.72135499977975],[-122.63399700014517,47.72145300021637],[-122.633822000243,47.721831999898534],[-122.63335000023989,47.72273499989996],[-122.63337700000407,47.72273499989996],[-122.63337399963102,47.723686999867645],[-122.6333729998061,47.724115999834446],[-122.63201799989618,47.72366900010455],[-122.63126499968565,47.72342100025067],[-122.62936199960464,47.72273300022577],[-122.62930800007628,47.722715000133],[-122.62710200004653,47.72196500000566],[-122.62568900041028,47.72145799982673],[-122.62534399973048,47.72130600009665],[-122.62507500011694,47.72118700006999],[-122.62422800019512,47.72081399977412],[-122.62264099958328,47.719961999885],[-122.62234500020558,47.719786000160454],[-122.62226200036488,47.7198600000965],[-122.62217799980101,47.719919000051846],[-122.62210500000606,47.71998500007639],[-122.62204200025687,47.72004900024005],[-122.62199200002816,47.72004900024005],[-122.61736099968559,47.72006800023575],[-122.61735599966272,47.72096200024676],[-122.61731200018008,47.72458300022475],[-122.61723400036229,47.724583999724196],[-122.61723400036229,47.72460799979111],[-122.6167360004199,47.72460799979111],[-122.61465300041381,47.72460799979111],[-122.61218399972005,47.72460799979111],[-122.61203399993222,47.72460799979111],[-122.61193799967275,47.72461299970299],[-122.611935000198,47.72520800028802],[-122.61193199982495,47.726107000085875],[-122.61196500033525,47.726143999807654],[-122.6122089998344,47.726336999791975],[-122.61238999958435,47.72640899995366],[-122.61195299974135,47.726412000159655],[-122.61195500028951,47.7267189997815],[-122.61195899958913,47.727476000082795],[-122.61196100013727,47.72769499990771],[-122.611963999612,47.728199999741086],[-122.6119760002059,47.73000100017737],[-122.6119760002059,47.73160900029158],[-122.61197500038098,47.73170099976149],[-122.6119760002059,47.731810000289094],[-122.6119760002059,47.73361799986482],[-122.61197700003079,47.73407200006493],[-122.61197700003079,47.734525000019076],[-122.61197700003079,47.73483599978135],[-122.61197700003079,47.73501800003762],[-122.61197700003079,47.735100999807145],[-122.61197700003079,47.735430000292716],[-122.61197700003079,47.73546399974875],[-122.61193199982495,47.73546399974875],[-122.61195899958913,47.7371890000009],[-122.6121100001002,47.73730400028154],[-122.61198700007657,47.73747199996704],[-122.61196000031235,47.737749999744686],[-122.61196899963488,47.7383079999647],[-122.61199499957416,47.73991499991209],[-122.61200899981785,47.74082099993221],[-122.61468500020086,47.74083200005891],[-122.61470500029236,47.74230799977451],[-122.614708999592,47.74262600028223],[-122.61448600000925,47.74262600028223],[-122.61343700042106,47.742627000039505],[-122.61203899995509,47.74262600028223],[-122.61203999978001,47.74270199990315],[-122.61204300015304,47.74293600023318],[-122.6120590000466,47.743901999940775],[-122.61206499989436,47.74426300008273],[-122.61208099978788,47.74441800024728],[-122.61210099987939,47.74461399992698],[-122.61212599999372,47.74484699980042],[-122.61219999961355,47.745539999787745],[-122.61221399985726,47.74568099976696],[-122.61225800023819,47.74612200029524],[-122.61243099959225,47.74786300012682],[-122.6131529998406,47.74786500004419],[-122.61517499974732,47.747873999973564],[-122.61588299975197,47.747877000151036],[-122.61584900031511,47.74791000027949],[-122.61746100014301,47.74791600002603],[-122.6174629997928,47.748021000008926],[-122.62082500043918,47.74804599980103],[-122.62799099980117,47.74810100002627],[-122.62803400035718,47.74810200028242],[-122.62804500022784,47.749093000052085],[-122.62805400044869,47.74991499999989],[-122.62805699992339,47.7501920001614],[-122.62806000029644,47.75050700019542],[-122.62806299977119,47.7508250001423],[-122.62989999972997,47.75077299978626],[-122.63877699955236,47.75078400022598],[-122.63876800022986,47.75174900026699],[-122.63963500024316,47.7517439999405],[-122.64139600003396,47.75175200022109],[-122.64143899969169,47.75176699998885],[-122.64211900010723,47.75176899975625],[-122.64209300016796,47.7529549998768],[-122.64206200020584,47.754469999893516],[-122.64411300042488,47.7527779997384],[-122.64399299987595,47.75881599985511],[-122.64667500010677,47.75880299980457],[-122.6466919998252,47.75792600008959],[-122.64845299961601,47.7579149999518],[-122.64883000008288,47.75791299981667],[-122.64883500010575,47.7579370002251],[-122.64892999964196,47.75835399996765],[-122.64936400001027,47.758349999731124],[-122.6493530001396,47.75878899970006],[-122.64918999993299,47.758789999750746],[-122.64902799955127,47.75879099980146],[-122.64936499983519,47.76028000023417],[-122.64943299960721,47.760577999920386],[-122.64946000026971,47.76069599990391],[-122.64948100018611,47.76083499986358],[-122.64951499962298,47.761058000117806],[-122.64828799975957,47.76106800018806],[-122.64828899958447,47.76101799981761],[-122.64706900029206,47.7610189998255],[-122.64705800042141,47.76151200016182],[-122.64393799962437,47.76150700016965],[-122.64386400000451,47.765095000238254],[-122.64922500009307,47.76515400027318],[-122.64921300039751,47.765438000292654],[-122.64918999993299,47.76605599970953],[-122.64946899959224,47.76606099986834],[-122.65016400007643,47.76607499982735],[-122.65044299973569,47.76607999998429],[-122.65047799989577,47.765996000181794],[-122.65056900013235,47.76578999974672],[-122.65060900031536,47.76569900005099],[-122.65069399980584,47.7655240002351],[-122.65083699992097,47.765251999804505],[-122.6510150001962,47.76494700019404],[-122.65114499989255,47.764742999703955],[-122.65128200015988,47.764540000165496],[-122.65145399968904,47.764299000134045],[-122.65166399975129,47.76397999985107],[-122.65205899976151,47.76337899989209],[-122.65264999959031,47.76247899988679],[-122.65282799986556,47.762207999822785],[-122.65345700022748,47.762200999927224],[-122.65361200003818,47.762198999956865],[-122.65378899959019,47.7621979999717],[-122.65398199993405,47.762196999986465],[-122.65458399963349,47.7621840001769],[-122.65456100006728,47.763422000073575],[-122.65447800022658,47.76345799988919],[-122.65446700035592,47.765677999959266],[-122.65446900000576,47.76602099979216],[-122.65447800022658,47.76615100022918],[-122.65471300040326,47.766152000138355],[-122.655965000381,47.76617399994752],[-122.65597999955129,47.76617399994752],[-122.65663099965455,47.766185000150514],[-122.6573870002381,47.766198000167876],[-122.65878999982863,47.7662219997733],[-122.65881099974503,47.766223000284974],[-122.65982800044449,47.76623999992297],[-122.66020699966286,47.76623999992297],[-122.66023199977721,47.76623999992297],[-122.66165399963431,47.76623999992297],[-122.66305799994805,47.76623999992297],[-122.66307499966649,47.76623999992297],[-122.66514299960396,47.76623900001544],[-122.66515699984765,47.76623900001544],[-122.66644900000843,47.76623900001544],[-122.6664890001914,47.76623900001544],[-122.66758200016054,47.76623900001544],[-122.66782200036005,47.7662380001079],[-122.66915800000339,47.7662380001079],[-122.67036300012553,47.7662380001079],[-122.67048500032425,47.7662380001079],[-122.67068899964045,47.76624300024921],[-122.67192100042506,47.766273999786165],[-122.67316199963386,47.766306999720875],[-122.67337699971901,47.76631000004325],[-122.67467100042792,47.766343999860695],[-122.67585599956024,47.76635900025259]]],[[[-122.61212699981863,47.71724899993776],[-122.61209800040463,47.715567999898944],[-122.60938100001374,47.71557199979728],[-122.60932499993723,47.7191609997095],[-122.61198100022877,47.719169999766315],[-122.61202300006157,47.71737799989801],[-122.61212699981863,47.71724899993776]]],[[[-122.61592899978274,47.751595999963904],[-122.61589299979771,47.749305999984166],[-122.61588199992705,47.74857999971725],[-122.61565699979617,47.74857799982731],[-122.61514999963298,47.748575000294274],[-122.61404599979319,47.74965100010045],[-122.61346699965996,47.75021599990319],[-122.61298899980908,47.75069200004572],[-122.61276500040141,47.750855999807165],[-122.61251799963087,47.7510759999571],[-122.6128359996482,47.751292999800654],[-122.61314199996994,47.75151199972461],[-122.61325800032091,47.75159499977489],[-122.61592899978274,47.751595999963904]]],[[[-122.64274400027122,47.771489999893646],[-122.64274099989817,47.77144599993312],[-122.64272900020262,47.77140299974359],[-122.64272599982954,47.771055000103],[-122.64191400006783,47.771055000103],[-122.64193699963405,47.771388000202684],[-122.641948000403,47.771554999959314],[-122.6419669997713,47.77161699992771],[-122.6419829996648,47.77164100005141],[-122.64202399967267,47.77167400020342],[-122.6420730000765,47.77170299991724],[-122.64212800032807,47.77172600019925],[-122.64218699987931,47.77174400025533],[-122.64224999962848,47.77175499988407],[-122.64231400010091,47.77176000009872],[-122.64237900039825,47.77175700009073],[-122.64244299997236,47.77174800006571],[-122.64250400007171,47.77173300002056],[-122.64256000014821,47.771711000147754],[-122.64261100020182,47.771684000044104],[-122.64265499968445,47.77165199970193],[-122.64269099966948,47.771614999715624],[-122.64271800033195,47.77157500028829],[-122.6427359998753,47.771533000011196],[-122.64274400027122,47.771489999893646]]],[[[-122.64296400037924,47.77010599982547],[-122.64296699985398,47.76969399990314],[-122.64264200016397,47.76969399990314],[-122.64263899979093,47.770104999992256],[-122.64296400037924,47.77010599982547]]],[[[-122.6509869997088,47.77672599984727],[-122.65097099981527,47.7757430001383],[-122.65096999999035,47.77571700004235],[-122.65094400005108,47.77511000023744],[-122.65093900002822,47.77498199993885],[-122.65072499976796,47.77499199974715],[-122.64916700036677,47.77496199971281],[-122.64915700032101,47.774387000036356],[-122.64913600040461,47.77315500015856],[-122.6464819997629,47.77317199994579],[-122.646516999923,47.77662400016371],[-122.64651899957285,47.7767199998004],[-122.64733399970761,47.7767199998004],[-122.6507890002404,47.77672500014134],[-122.6509869997088,47.77672599984727]]]]},"properties":{"AREALAND":"12355809","AREAWATER":"1639316","BASENAME":"Poulsbo","CBSAPCI":"N","CENTLAT":"+47.7415901","CENTLON":"-122.6405395","FUNCSTAT":"A","GEOID":"5355995","INTPTLAT":"+47.7410784","INTPTLON":"-122.6421511","LSADC":"25","MTFCC":"G4110","NAME":"Poulsbo city","NECTAPCI":"N","OBJECTID":24338,"OID":"27890908308917","PLACE":"55995","PLACECC":"C1","PLACENS":"02411479","STATE":"53","DISP_CLR":3,"slug":"poulsbo","jurisdiction_key":"poulsbo_city","county_fips":["53035"]}}]}
