{"type":"FeatureCollection","features":[{"type":"Feature","geometry":{"type":"Polygon","coordinates":[[[-122.81631400011862,48.10734900027691],[-122.8163419997077,48.10007199998654],[-122.81624499962332,48.100070999914315],[-122.81608300013991,48.10007199998654],[-122.81531700040894,48.100065000080406],[-122.8142019998002,48.100058000173306],[-122.81365000032947,48.100056000028246],[-122.81349100032081,48.10005399988315],[-122.81281000008033,48.10005000019263],[-122.80554799956057,48.100059999718354],[-122.80090799989547,48.10007899989173],[-122.80006699982144,48.100077999819646],[-122.79957399990192,48.10007699974753],[-122.79883199956208,48.10007600027529],[-122.79836899977981,48.10007500020314],[-122.79665499984469,48.10006400000804],[-122.7961069996736,48.10006099979079],[-122.79601299996224,48.09981700013375],[-122.79556600007352,48.098653000297205],[-122.79498399956725,48.098658000196195],[-122.79428700033154,48.09826900012394],[-122.794015000345,48.098116999787976],[-122.7931309997149,48.097621999822195],[-122.79305500044524,48.09755199978178],[-122.79176300028449,48.09830499977458],[-122.7905039997357,48.099039000186735],[-122.78896499970276,48.10001500003747],[-122.78891000034946,48.1000139999641],[-122.78887000016651,48.1000139999641],[-122.78873000042442,48.10001299989074],[-122.7878430003196,48.100009000197026],[-122.7877799996721,48.100009000197026],[-122.78776100030385,48.10002199995042],[-122.78770400040243,48.100059000245786],[-122.78714199998765,48.10042699980458],[-122.78059099984559,48.10286999994699],[-122.77812200005015,48.10380000028486],[-122.77370999999064,48.10558699988306],[-122.77070700026782,48.10681299985968],[-122.76741300029181,48.108209999941884],[-122.76606900025253,48.108776000280294],[-122.75924299975088,48.11107600018301],[-122.75486099982864,48.11253499982336],[-122.75278799986827,48.11381199986615],[-122.75211199965068,48.11423299997439],[-122.74957799955789,48.11579799986332],[-122.74848399976386,48.11681499978131],[-122.7485930004421,48.118334999753486],[-122.74890899991128,48.11856399978107],[-122.74965399972587,48.118607999703535],[-122.7514170000648,48.119951000210335],[-122.75241600032261,48.120966000146936],[-122.75592799985849,48.124530000158764],[-122.7562860000588,48.12489400004846],[-122.7564769998545,48.12510300012568],[-122.75669799978743,48.12532499990172],[-122.7585909998227,48.12663599974221],[-122.75913999981871,48.12721099988716],[-122.76014300027447,48.12815800019357],[-122.76124200009137,48.129309000241754],[-122.76145299997856,48.12987400012086],[-122.7616870003303,48.13050099996219],[-122.76187099955499,48.13128700023552],[-122.761954000294,48.131638000055425],[-122.76192199960863,48.1331690000082],[-122.76156500013155,48.134738999782314],[-122.76113699961107,48.135774000209956],[-122.76088700026413,48.13659499995199],[-122.75999500013646,48.13805899994978],[-122.75785299968084,48.14020000024178],[-122.75553299984827,48.141698999908876],[-122.7537129996079,48.142734000297665],[-122.75328499998577,48.143305000100945],[-122.75332000014585,48.14391200021839],[-122.7538299997838,48.14446100014162],[-122.75503300025609,48.14455499997205],[-122.75706799968327,48.14426900011884],[-122.7591740001539,48.14391200021839],[-122.76120799975618,48.143305000100945],[-122.76377799983398,48.1430199997124],[-122.76520600043717,48.14291299977838],[-122.76652600018701,48.14337699982256],[-122.7679539998919,48.14376900019817],[-122.77038099985458,48.14373399984748],[-122.77291499994737,48.14348399998817],[-122.7746640000426,48.143448000215024],[-122.77586099976882,48.1433820001658],[-122.77585099972306,48.143493000227224],[-122.77729400039487,48.14346500027757],[-122.7777119999713,48.14343199997476],[-122.77838399999096,48.14338500025163],[-122.77943099992932,48.14330699976156],[-122.78107399971937,48.14286499974114],[-122.7820760003502,48.14275800008347],[-122.78288899993684,48.14298699972292],[-122.78384200016389,48.14313300022403],[-122.78484499972133,48.143054999950515],[-122.78636000036317,48.14267500002732],[-122.7878430003196,48.142557999727515],[-122.78862699959392,48.14248399976396],[-122.78870600013498,48.14247099996184],[-122.79097400008898,48.14211599985135],[-122.7925590001527,48.14185600012095],[-122.79279799962899,48.14181700022765],[-122.79430400004999,48.14123200007075],[-122.7961629997501,48.14072699993809],[-122.79763400001099,48.14034700016537],[-122.79901800023325,48.13996799987294],[-122.80070799987892,48.139584000265984],[-122.80183900038122,48.139444999800126],[-122.8033609997974,48.13923900026769],[-122.80453900015534,48.13915799973917],[-122.80657899960543,48.13879600007063],[-122.8082239999436,48.13838299984037],[-122.81036800004905,48.13790200011473],[-122.81201300038722,48.13748899988647],[-122.81409800004312,48.137155000249145],[-122.81578900041205,48.13698200019488],[-122.81620299979053,48.13694200024145],[-122.81623200010284,48.136936999870386],[-122.81623999960043,48.13648399996207],[-122.81624100032367,48.13642700023045],[-122.81623999960043,48.13575899995309],[-122.8162360003008,48.13500700012289],[-122.81619000027005,48.13476399970548],[-122.8161719998284,48.1342580000899],[-122.81618299969905,48.134130000292664],[-122.8161790003994,48.13365699983809],[-122.81615799958469,48.13272500015833],[-122.816150999912,48.1325579998046],[-122.81613400019359,48.13217399993224],[-122.81614199969115,48.13195299983426],[-122.81612300032292,48.131451999804],[-122.81612099977478,48.13109899977575],[-122.81612999999561,48.13083699986234],[-122.81612900017069,48.1307270000907],[-122.81614400023929,48.13024399981992],[-122.81611300027716,48.128808999711545],[-122.81610599970612,48.128757999936724],[-122.8160660004215,48.12865000014053],[-122.81603999958392,48.128610999808544],[-122.81601100016991,48.12857900026733],[-122.81601500036786,48.128516000044364],[-122.81579699990967,48.128516000044364],[-122.815862000207,48.12629999993849],[-122.81588399994833,48.12557300029415],[-122.81590200038995,48.124953999953945],[-122.81596900033712,48.12369300019997],[-122.81603200008631,48.12352800028805],[-122.81603899975899,48.12299899990064],[-122.81601700001771,48.12278099998658],[-122.81610300023142,48.12114499996333],[-122.81604200013204,48.120227000208466],[-122.81604499960679,48.12012800000165],[-122.81610400005634,48.11821700003998],[-122.81620399961545,48.11477000015955],[-122.81623100027792,48.11229800003957],[-122.81623899977554,48.11155600002581],[-122.81628200033157,48.10762400026633],[-122.81631400011862,48.107360000112806],[-122.81631400011862,48.10734900027691]]]},"properties":{"AREALAND":"17980762","AREAWATER":"1065251","BASENAME":"Port Townsend","CBSAPCI":"Y","CENTLAT":"+48.1218508","CENTLON":"-122.7868487","FUNCSTAT":"A","GEOID":"5355855","INTPTLAT":"+48.1217622","INTPTLON":"-122.7878764","LSADC":"25","MTFCC":"G4110","NAME":"Port Townsend city","NECTAPCI":"N","OBJECTID":27251,"OID":"27890479856717","PLACE":"55855","PLACECC":"C1","PLACENS":"02411468","STATE":"53","DISP_CLR":2,"slug":"port_townsend","jurisdiction_key":"port_townsend_city","county_fips":["53031"]}}]}
