{"type":"FeatureCollection","features":[{"type":"Feature","geometry":{"type":"MultiPolygon","coordinates":[[[[-122.33788700031403,47.206146999918914],[-122.33788800013895,47.206105999951816],[-122.33788099956794,47.204348999955464],[-122.33788099956794,47.20433700018685],[-122.3378780000932,47.20363099986581],[-122.33737500012793,47.20363200016507],[-122.33654400009966,47.20363600014141],[-122.33654699957437,47.203405999791215],[-122.33654499992456,47.203321000165715],[-122.33652900003104,47.20268500002444],[-122.33652599965798,47.20258800030011],[-122.3357590001021,47.20258800030011],[-122.33575999992699,47.202517000188074],[-122.33576400012497,47.20203299980697],[-122.33576999997277,47.201498000301854],[-122.33577499999564,47.20095099974991],[-122.33578000001847,47.20046699973046],[-122.33578500004137,47.20004800026026],[-122.33578500004137,47.20003199988132],[-122.33578500004137,47.199973999916786],[-122.33578500004137,47.19991300000145],[-122.33578500004137,47.199877999878254],[-122.33578500004137,47.199836000188256],[-122.33572399994199,47.19982499976987],[-122.33550300000906,47.19978500017124],[-122.3313090004078,47.19902600001214],[-122.32859100019198,47.19855600017097],[-122.32682000035545,47.198255000058445],[-122.32670499982939,47.19823100020311],[-122.32670300017958,47.19810999974971],[-122.32670200035466,47.19794599987012],[-122.32670099963144,47.19744699977252],[-122.32670099963144,47.19722499975717],[-122.32669399995874,47.19636100027569],[-122.32668899993587,47.196299000041755],[-122.32630800016936,47.19627700017764],[-122.32631499984204,47.19566100027884],[-122.32597000006055,47.195559999946],[-122.32580400037922,47.19551200022809],[-122.32700000028049,47.194796999747794],[-122.32712800032701,47.19471499994004],[-122.32714199967239,47.194706000005496],[-122.32752099978909,47.19512100014574],[-122.32753699968261,47.1951340000168],[-122.32774300044522,47.195294999893434],[-122.32776199981349,47.19531000002385],[-122.32786499974566,47.19539100028877],[-122.32788599966206,47.195396999964366],[-122.32822899979374,47.195497999997045],[-122.32832599987812,47.195525999845145],[-122.3285710001005,47.19563200005186],[-122.32876299972112,47.19571500011198],[-122.32912400029446,47.195689999879576],[-122.32930400021952,47.195677999983545],[-122.32935500027314,47.19567400001761],[-122.32956299978729,47.19565999982925],[-122.32961499966581,47.195655999861955],[-122.32969099983382,47.19562800008246],[-122.32993100003334,47.19554000006886],[-122.33087800041257,47.19519099993039],[-122.33105999998745,47.19520100024091],[-122.33114500037627,47.19520299993655],[-122.33122099964594,47.195215999787514],[-122.33134600021774,47.195237000244404],[-122.33151699992193,47.19526600007685],[-122.33159399991483,47.19527899991239],[-122.33192199997791,47.19547999978165],[-122.33217300004806,47.19563399973125],[-122.3321899997665,47.19562599979241],[-122.3324800001947,47.19531499986292],[-122.33311299985631,47.19469300002959],[-122.33317399995568,47.1946360001915],[-122.33444799967477,47.19339299978437],[-122.335363000267,47.19250000006644],[-122.33587899975272,47.1919969997892],[-122.3361599999601,47.1917219999035],[-122.33593700037733,47.19146500017625],[-122.33598800043093,47.19146500017625],[-122.33631999979364,47.191459999974434],[-122.33637800041828,47.1914590000561],[-122.33644199999239,47.19145700021937],[-122.33643699996952,47.19137699997409],[-122.33640400035758,47.18789199994683],[-122.33639599996165,47.187483000011525],[-122.33640099998449,47.18745400019945],[-122.33637500004525,47.18655199996649],[-122.33638799956573,47.186246000057764],[-122.33635599977868,47.18573900023486],[-122.33634599973294,47.18429300018641],[-122.33634499990802,47.183184999731715],[-122.3363430002582,47.1825140000315],[-122.33623299975503,47.18248600003441],[-122.33257300008114,47.182510999770884],[-122.33259300017264,47.18248700012175],[-122.33301499994701,47.182138000233394],[-122.33340300028453,47.18194399997161],[-122.3334939996228,47.18171400022832],[-122.3332440002759,47.1814239997954],[-122.33328799975848,47.181305999814334],[-122.33316300008502,47.18095399975109],[-122.33316899993281,47.180812000150794],[-122.3331339997727,47.18073500009695],[-122.3331050003587,47.18067400004635],[-122.3315210001199,47.18064299993376],[-122.33097299994881,47.180641000300085],[-122.32983999979672,47.180625000175205],[-122.32920200011226,47.18063000017656],[-122.3274870003522,47.18062799993183],[-122.32733599984117,47.18062799993183],[-122.32739299974257,47.18049499997384],[-122.32744299997125,47.180323999712684],[-122.32746200023784,47.180204000078966],[-122.32746899991055,47.18008300004135],[-122.32746399988768,47.17977200000662],[-122.32741200000913,47.17957400029979],[-122.32727100044214,47.1792790002613],[-122.32702000037197,47.17885399985968],[-122.32640500025374,47.17784199984893],[-122.32597500008342,47.17714100025971],[-122.32587799999904,47.17699099992603],[-122.32583100014338,47.176906999700655],[-122.32579199978532,47.17683799980866],[-122.32571800016548,47.17668199988159],[-122.32565600024121,47.17652399970751],[-122.3256060000125,47.1763639998792],[-122.32556800037764,47.17620299997364],[-122.32554300026331,47.17603999977303],[-122.32551300012607,47.17555899974441],[-122.32550999975301,47.175317999817],[-122.32550899992809,47.175241999957606],[-122.32561199986026,47.17524399979462],[-122.32564100017258,47.175243000181446],[-122.3272909996353,47.1752469998553],[-122.32792400019521,47.175248000078994],[-122.3282339998166,47.175248000078994],[-122.32823499964152,47.17550699999197],[-122.32823299999171,47.175905000112145],[-122.32823200016679,47.176172000303666],[-122.33100300008604,47.17616900029528],[-122.33096299990306,47.17534700015244],[-122.33094600018462,47.17348700007438],[-122.33094199998668,47.173110999856725],[-122.33093399959078,47.17219800014945],[-122.33090799965149,47.169882000121646],[-122.3290000004459,47.169873000251236],[-122.32834599996961,47.169869999887],[-122.328226000319,47.169869999887],[-122.32821200007531,47.16847500023783],[-122.3282050004026,47.1677400001716],[-122.32817400044047,47.16565600023162],[-122.32817199989233,47.16515100005087],[-122.3281490003261,47.163844999849445],[-122.32811599981584,47.162107000273096],[-122.32812300038684,47.159005000012804],[-122.32812199966362,47.158389999963774],[-122.32777699988213,47.15840199973785],[-122.32753599985769,47.15840500013907],[-122.32576300037132,47.158467000044915],[-122.32265099997021,47.15856800010114],[-122.31869500002033,47.15869800022955],[-122.31517900028649,47.15881100013923],[-122.31518199976121,47.15856499970913],[-122.31518599995918,47.158325000173356],[-122.31518400030937,47.15806199979609],[-122.31483000030703,47.158057000113104],[-122.3148350003299,47.157845000293044],[-122.31484700002547,47.15681899998198],[-122.31484500037563,47.156231000122006],[-122.31486899976676,47.15489100007984],[-122.31282500011872,47.154882000113055],[-122.31193399981598,47.15487600013431],[-122.31077100042499,47.15487100015154],[-122.31007299956774,47.154872000148124],[-122.30936100026344,47.15486400017482],[-122.30791199974387,47.15485600020035],[-122.30790500007114,47.154807999717235],[-122.30790400024625,47.1539940001686],[-122.3066949999262,47.154004000298755],[-122.30669699957599,47.15367699995494],[-122.30599699996725,47.15366999982094],[-122.30599699996725,47.15352599991474],[-122.30545399981905,47.15351999978292],[-122.30545600036719,47.152930000005455],[-122.30535099988688,47.15292899997232],[-122.30423100015356,47.15292199973984],[-122.30408200019063,47.152920999706545],[-122.30404100018279,47.15292199973984],[-122.30398000008341,47.152920999706545],[-122.3039869997561,47.151451000068356],[-122.303987999581,47.151185999747696],[-122.3019360004354,47.15117699976432],[-122.3012839996089,47.15117400017681],[-122.30046299962635,47.15116799977942],[-122.2988259996841,47.15113099975764],[-122.2985789998119,47.15112700010046],[-122.29847599987973,47.151163000058695],[-122.29780200021025,47.15116099992585],[-122.29665399998954,47.15117500024298],[-122.29653799963862,47.15117699976432],[-122.295391999966,47.15116600025774],[-122.29475500010648,47.15116899984569],[-122.29453599982337,47.15116999991194],[-122.29424600029344,47.15117200004443],[-122.2942270000269,47.149323000019926],[-122.29299299959243,47.14931300023083],[-122.29294900010983,47.14747399982084],[-122.29091299995942,47.14745800008952],[-122.28699800001742,47.14742099992883],[-122.28697499955287,47.14742999993726],[-122.28566999987163,47.14742099992883],[-122.28500899972263,47.147402999907385],[-122.28435900034262,47.14739899996965],[-122.2838799997685,47.147392000230674],[-122.28377099998858,47.14738999995597],[-122.2836699997062,47.147388999818595],[-122.2836699997062,47.14742499986485],[-122.2836699997062,47.14747799975288],[-122.2836699997062,47.147681000033934],[-122.28367300007925,47.15101399973383],[-122.28367300007925,47.15109300025331],[-122.28362200002564,47.15109300025331],[-122.2823449999335,47.15108699984676],[-122.28165600019543,47.151075000253535],[-122.2807120001892,47.15105500011089],[-122.27953100035653,47.151043999968124],[-122.27698399984494,47.15104600010532],[-122.27683900007999,47.15104000030439],[-122.2763469999854,47.15100899999857],[-122.27584800021813,47.15094499980269],[-122.27572199982144,47.150932000106685],[-122.27573600006512,47.15105700024766],[-122.27574199991291,47.15190099993724],[-122.27574600011089,47.152676000146855],[-122.27574699993578,47.1528230000182],[-122.27507099971818,47.15280600002896],[-122.27442800001084,47.15279100010576],[-122.27378500030353,47.152775000142334],[-122.27206200014756,47.15273199979671],[-122.27203100018541,47.15273199979671],[-122.27173200043464,47.15272500014918],[-122.27042900040324,47.15271999996398],[-122.27030899985435,47.15271999996398],[-122.26931700016758,47.152716999852665],[-122.26912100034897,47.15271599981552],[-122.26911200012813,47.152164000263106],[-122.26910600028035,47.15180200014639],[-122.26648299960081,47.15180300020074],[-122.26648099995097,47.1514850002974],[-122.26648099995097,47.1513509999873],[-122.26648099995097,47.151284000010996],[-122.26648000012605,47.150897000063374],[-122.26645599983661,47.150901999809165],[-122.2659670001151,47.15089599999198],[-122.26424099958605,47.15087499971018],[-122.26405700036135,47.15088000006897],[-122.26382800003249,47.15088800003105],[-122.26381899981165,47.14976500005969],[-122.26381899981165,47.14969199996372],[-122.26381899981165,47.14956799976345],[-122.26381899981165,47.1495419996946],[-122.26381899981165,47.149397000111364],[-122.26381999963657,47.149253999726234],[-122.26381999963657,47.149216000101795],[-122.26381999963657,47.14917500013887],[-122.26381999963657,47.14913599974249],[-122.26381999963657,47.14910400005379],[-122.26381899981165,47.149085999991335],[-122.26376699993311,47.149076000157656],[-122.26352199971073,47.14907700026329],[-122.26120299970309,47.14909200001284],[-122.2611829996116,47.15315999979693],[-122.26117699976382,47.154415999748444],[-122.26117699976382,47.154498000108866],[-122.26101500028042,47.15449900011252],[-122.26079699982225,47.15450100011969],[-122.25792999964351,47.15450100011969],[-122.25791999959775,47.15453200022122],[-122.25789500038174,47.154604999778066],[-122.25787199991719,47.15467399984438],[-122.25741400015778,47.15606399981371],[-122.25716200026271,47.156834999949574],[-122.25629000022651,47.159439000263404],[-122.25610299973046,47.160103000305014],[-122.25538999970293,47.160085000302914],[-122.25334500022998,47.16006999999109],[-122.25276199989881,47.16007400019685],[-122.25214400030582,47.16006499988622],[-122.25170400008976,47.16005799998294],[-122.25105100033672,47.16005000017961],[-122.25021600011044,47.16005100007873],[-122.24990200029109,47.16003999996559],[-122.24928999964759,47.16002999974974],[-122.24920900035502,47.16002899985021],[-122.24921100000488,47.1603840002595],[-122.24921199982977,47.1605459997579],[-122.24921199982977,47.16075400025215],[-122.24921299965469,47.160853999741846],[-122.24921299965469,47.160957999793254],[-122.24921400037792,47.16117699977613],[-122.24921500020282,47.16140199993119],[-122.24921600002774,47.16158700006425],[-122.24921699985266,47.161845000158],[-122.24909499965392,47.16184400029263],[-122.2478979999277,47.16183399980553],[-122.24668799978271,47.16182499979308],[-122.24660099974408,47.16182300006158],[-122.24656399993415,47.16182399992734],[-122.24650399965972,47.16182300006158],[-122.2464459999334,47.16182300006158],[-122.24521800024506,47.161813000181276],[-122.24505099984049,47.16180999997251],[-122.24475399973954,47.161804000165276],[-122.24433799981294,47.16179600001404],[-122.24401999979563,47.16178899972802],[-122.24281499967351,47.16176499987468],[-122.24029099962645,47.16171499978914],[-122.23994400019514,47.161713000053496],[-122.23780900031052,47.16167000022165],[-122.23743699986652,47.1616679998735],[-122.23729299992648,47.162194000275015],[-122.23682699977115,47.163897000026964],[-122.23715300018439,47.16476999978728],[-122.2371670004281,47.16479700015562],[-122.23635399994315,47.1654290001747],[-122.23628000032329,47.165427999766074],[-122.23628199997312,47.165797000262835],[-122.23628299979804,47.16615799992352],[-122.23628500034619,47.16651799979637],[-122.23628600017109,47.16687699990171],[-122.2362879998209,47.16723000021849],[-122.23629000036904,47.16760300005093],[-122.23629100019396,47.16796500001323],[-122.23629299984377,47.16832900004869],[-122.23629399966869,47.16868199987665],[-122.23629600021683,47.169043999813816],[-122.23629399966869,47.16917699975135],[-122.23629100019396,47.16939699977554],[-122.23628899964582,47.16954399980297],[-122.23622900026966,47.17339700008276],[-122.23607000026102,47.17339500017619],[-122.2358290002366,47.17339399991756],[-122.23480999988732,47.17339000010414],[-122.23522199961596,47.17485300000269],[-122.23583900028234,47.17703799971793],[-122.23592700014588,47.17703799971793],[-122.23595800010801,47.17703299998892],[-122.23612100031465,47.17703299998892],[-122.23619099973652,47.17703299998892],[-122.2399349999743,47.17704000009792],[-122.23993599979924,47.17713700011789],[-122.23993699962415,47.1772710001247],[-122.23994599984496,47.17795700029422],[-122.24000600011941,47.180532999821395],[-122.24069499985748,47.180522000286075],[-122.24103499961612,47.18052100016168],[-122.24113300042373,47.180523999924226],[-122.241263999945,47.18053399994556],[-122.24151099981718,47.18056399999821],[-122.24195000020835,47.180650000177415],[-122.24202200017835,47.180671999803316],[-122.24214699985183,47.180710000134766],[-122.24231599990624,47.18077200026365],[-122.24240700014282,47.1808110000319],[-122.2425739996491,47.180882999998445],[-122.2428080000008,47.1810040000445],[-122.24310400027684,47.181187000069684],[-122.2433829999361,47.18133899975784],[-122.24360700024206,47.18142800022483],[-122.24373100009063,47.18146999983083],[-122.2439980000543,47.181537000209296],[-122.24538899994927,47.18176399980598],[-122.24624699974176,47.181910999793594],[-122.2468130003545,47.18205499969831],[-122.24754899994828,47.18228499979601],[-122.24802400032442,47.182433000261085],[-122.25012400004894,47.183062999695515],[-122.25026399979103,47.183117000136484],[-122.25039500021059,47.183182000119565],[-122.25050200034073,47.18325999974998],[-122.25058900037934,47.183332000058556],[-122.25066499964903,47.18341900009762],[-122.25071800025077,47.18349499985364],[-122.25076500010643,47.18358300030282],[-122.25079299969553,47.18367500025574],[-122.2508189996348,47.18381399994848],[-122.2508329998785,47.18392999972972],[-122.25085100032018,47.184015999951264],[-122.25088700030518,47.18413099984526],[-122.25092099974205,47.184207999858025],[-122.25102600022237,47.184351000195896],[-122.25108800014664,47.184405999988485],[-122.25117500018526,47.18447399976426],[-122.25096900032092,47.18457900001909],[-122.25090700039665,47.18462300027926],[-122.2508329998785,47.184701000234554],[-122.25081299978702,47.18475100005169],[-122.25080799976415,47.184797000257035],[-122.25079400041875,47.18484699998375],[-122.25078099999999,47.18494799994745],[-122.25078000017507,47.18500599985183],[-122.25027999968455,47.18491699988839],[-122.24797900011858,47.18450700018069],[-122.24774700031497,47.18447200027489],[-122.24738499991673,47.184434000194],[-122.24727899961152,47.1844330001433],[-122.24732800001532,47.185751999962065],[-122.247382000442,47.18714199999835],[-122.24742099990173,47.18812800028318],[-122.25073699961904,47.188102000157855],[-122.25084999959694,47.18810600008403],[-122.25085200014507,47.18826799989368],[-122.25086399984062,47.190000000254216],[-122.25086399984062,47.190052999798404],[-122.25092499994,47.19004600018415],[-122.25183399978614,47.19003600012316],[-122.2541629998395,47.19000799982023],[-122.25702900019334,47.189973999824936],[-122.25712499955448,47.19034400003853],[-122.25726299964674,47.19040599990448],[-122.25715700023984,47.19048399990866],[-122.25601800023995,47.191459999974434],[-122.25158699991391,47.195306000030186],[-122.25100500030595,47.19583800020505],[-122.2505230002571,47.19626199971012],[-122.25047600040143,47.19630399978764],[-122.25043799986828,47.19634000026361],[-122.25066600037223,47.19641800009205],[-122.25069399996133,47.19642999982074],[-122.2508739998864,47.196504000223875],[-122.25103799991793,47.19657199976102],[-122.2511359998272,47.19649100007803],[-122.25115599991867,47.19649800006308],[-122.25117299963712,47.19650100014356],[-122.25118600005591,47.196504000223875],[-122.25120299977436,47.19650800012724],[-122.25121799984296,47.19651299985343],[-122.25123600028462,47.19652100026896],[-122.25124999963002,47.19652699981675],[-122.25127300009457,47.196537999698144],[-122.25128599961505,47.19654300003191],[-122.25129800020892,47.196547999754806],[-122.25132400014819,47.196556000165],[-122.25135000008744,47.19656300014143],[-122.25137699985163,47.19656799986244],[-122.2514940000275,47.196609999697756],[-122.2516070000054,47.19665600000244],[-122.25171599978535,47.1967049997258],[-122.25175099994546,47.19671699999994],[-122.251762999641,47.19672199970644],[-122.25178299973248,47.19673399997678],[-122.25179399960314,47.19674199974854],[-122.25180500037214,47.19675099994814],[-122.25181399969463,47.196758999717325],[-122.25192099982475,47.196815999716605],[-122.25194599993912,47.196830000210326],[-122.25196900040365,47.196845999723735],[-122.251986999947,47.1968589997826],[-122.25203499962758,47.196887000133344],[-122.25212000001638,47.19693499982823],[-122.25215500017649,47.196954999790044],[-122.25231199963699,47.19704299989859],[-122.25237399956129,47.19707199996484],[-122.25240700007157,47.19709000025056],[-122.25243300001084,47.19710400006159],[-122.25249599976003,47.19714399985028],[-122.25251199965354,47.19715299998169],[-122.25252400024743,47.197159999879354],[-122.25253299956995,47.1971669997761],[-122.25254199979078,47.19717500009301],[-122.2525510000116,47.19718599984004],[-122.25256400043038,47.197204999897174],[-122.25257399957783,47.19721099997807],[-122.25259700004236,47.19722099990785],[-122.2526139997608,47.19722600017726],[-122.25262600035467,47.1972309998358],[-122.25264399989804,47.19723999995246],[-122.25265800014172,47.19724800025832],[-122.25267400003526,47.19726299983671],[-122.25268099970796,47.1972710001391],[-122.25268800027897,47.197278999829905],[-122.25269499995166,47.19728700012988],[-122.25270800037045,47.197299000272444],[-122.25272199971583,47.19730799976717],[-122.2527329995865,47.19731500025478],[-122.25275100002816,47.19732299993895],[-122.25276799974658,47.197329000006505],[-122.25278899966297,47.19734400017238],[-122.2528120001275,47.19735799991644],[-122.25283700024187,47.197370000042895],[-122.25286300018114,47.19738200016665],[-122.25287599970162,47.19738699981049],[-122.25288999994532,47.197392000064255],[-122.25290500001393,47.197395999900685],[-122.25292199973238,47.19740199995998],[-122.2529450001969,47.19741199985377],[-122.25295600006757,47.19741799991126],[-122.25296899958803,47.19742699999619],[-122.25298200000682,47.19743800030136],[-122.25299899972525,47.197454000241834],[-122.25301899981676,47.19746700015174],[-122.25303499971028,47.19747400000798],[-122.2530499997789,47.197477000033324],[-122.25309699963455,47.1974969997908],[-122.25315299971105,47.19752199978225],[-122.25316799977969,47.19752900024168],[-122.25318500039643,47.197533999871666],[-122.25320200011485,47.197539999915314],[-122.25321499963532,47.19754599995833],[-122.25323200025208,47.197554000218055],[-122.25324499977256,47.19756300027992],[-122.25325999984119,47.197573999946556],[-122.253269000062,47.19758200020206],[-122.25330400022212,47.19759400027786],[-122.25331599991767,47.19759999970438],[-122.2533519999027,47.19762099982814],[-122.25337100016925,47.19763299989512],[-122.25339499956038,47.19764499995942],[-122.2534299997205,47.197659000234424],[-122.25344899998707,47.19766600006538],[-122.2534730002765,47.1976720000941],[-122.2534869996219,47.197675000108255],[-122.25350099986561,47.19767800012218],[-122.25352500015502,47.19768199993705],[-122.25356600016292,47.19769199977812],[-122.25363499975991,47.197709999853515],[-122.25366999991999,47.19771899988892],[-122.2536830003388,47.197722999700694],[-122.2537040002552,47.19772899972297],[-122.25373400039241,47.19773999996558],[-122.25376799982928,47.197754000215554],[-122.2538020001645,47.197770000060686],[-122.25383499977642,47.19778200009397],[-122.2538590000659,47.19778800010962],[-122.25387900015737,47.1977919999162],[-122.25390000007377,47.197794000124546],[-122.25396899967075,47.19780600015244],[-122.25403700034111,47.1978219999819],[-122.25406800030325,47.197831999796584],[-122.25410199974013,47.19784200021973],[-122.25416399966441,47.19786499984304],[-122.25422300011397,47.1978919998658],[-122.25428000001534,47.19791299987399],[-122.25434000028983,47.1979320002812],[-122.2544010003892,47.19794700027657],[-122.25446400013838,47.197959000269876],[-122.25450000012339,47.19796399985935],[-122.25452900043571,47.197966999856945],[-122.25459399983474,47.197972000056055],[-122.25467800039864,47.19798300024824],[-122.25477999960756,47.19800100022491],[-122.25484200043014,47.198014999795625],[-122.25491900042304,47.19803599975514],[-122.25495500040806,47.19804900013283],[-122.25500599956337,47.19806799988095],[-122.25504499992142,47.1980810002508],[-122.25508000008153,47.19809300021376],[-122.25511000021875,47.19809999998741],[-122.25515399970138,47.19810899995667],[-122.2554159996422,47.19823100020311],[-122.25569100000182,47.19833300012376],[-122.25602699956248,47.1984639997642],[-122.25648299967203,47.198646000242064],[-122.25707100002613,47.19884400022736],[-122.25747500025716,47.19899200030099],[-122.25768299977128,47.19906199986206],[-122.25790000040459,47.19912600007753],[-122.25793999968924,47.19913799980414],[-122.25813899988087,47.19920100015548],[-122.25818800028469,47.19921899971896],[-122.2583720004077,47.19928799982014],[-122.2584999995559,47.1993329998643],[-122.2586960002728,47.19941199994447],[-122.2589020001371,47.19948399970649],[-122.25896999990918,47.19946400008755],[-122.25899500002356,47.1994560001158],[-122.25912999974275,47.19941400009175],[-122.25914700035952,47.19941100017597],[-122.25926199998723,47.199374999952475],[-122.2594269998437,47.19933899970452],[-122.25954900004241,47.19931399995879],[-122.259632999708,47.199266999745774],[-122.25967200006606,47.19925899974428],[-122.25982600005183,47.199228000108775],[-122.25989100034917,47.19920299970038],[-122.26004399961174,47.199118999828855],[-122.26019000009991,47.199044000245316],[-122.26025500039725,47.199006000220564],[-122.26030999975052,47.19897499982687],[-122.26034999993347,47.19895200007433],[-122.26043699997211,47.19889299976129],[-122.26050800011723,47.19884700017519],[-122.26053400005651,47.19883900011042],[-122.26074400011879,47.1987239997326],[-122.26077599990582,47.19871400008602],[-122.26079000014953,47.19870999973857],[-122.26088999970864,47.19866799973437],[-122.2609979996637,47.19860299979314],[-122.26104700006749,47.19857999987935],[-122.26146700019206,47.19834700021727],[-122.26158199981977,47.198293999800285],[-122.2616050002843,47.19828600026248],[-122.26169300014789,47.19826400000141],[-122.26186600040022,47.198211000111904],[-122.26273800043641,47.19794599987012],[-122.26332500006724,47.197767999851436],[-122.26420399977613,47.19750100022971],[-122.26459499958837,47.197382999973385],[-122.26699300013703,47.1966669998571],[-122.2675539998286,47.196501999966905],[-122.26805199977098,47.19635500009867],[-122.26844299958321,47.19623999983065],[-122.2684619998498,47.19623400025038],[-122.26890799991365,47.19610299998756],[-122.26897900005874,47.196081999873385],[-122.26935800017544,47.195971000178375],[-122.27118699973832,47.195434000288735],[-122.2723199998904,47.19510199995281],[-122.2730789999487,47.19489799970162],[-122.2748049995794,47.1944239998601],[-122.2750370002813,47.19436000007734],[-122.27638700016838,47.19398600029936],[-122.27675700006425,47.1938830000853],[-122.27716200012017,47.19376999970347],[-122.27740700034256,47.193702000238225],[-122.27771000029126,47.193618000204026],[-122.27774700010119,47.19360699971738],[-122.27804099982907,47.193522000263734],[-122.27856899990867,47.19337000005397],[-122.2788390002454,47.19329600016377],[-122.27916700030848,47.19322100028525],[-122.27921599981396,47.19321200009737],[-122.27936499977686,47.19318600002079],[-122.27956599961833,47.193154000002956],[-122.279832999582,47.19312100007881],[-122.27987000029026,47.19311699992014],[-122.2799220001688,47.19311199987398],[-122.27998200044324,47.193106999827336],[-122.28001300040538,47.19310400016541],[-122.28004099999447,47.19310199978023],[-122.280205000026,47.193090999797015],[-122.28042699978386,47.193082000197535],[-122.28055599965529,47.19307999981152],[-122.28063299964819,47.193078999923756],[-122.28070100031854,47.19307999981152],[-122.28075599967183,47.19308099969931],[-122.28077699958823,47.19308099969931],[-122.28079099983194,47.193082000197535],[-122.28083900041081,47.193083000085295],[-122.28106299981849,47.193093000182614],[-122.2811530002302,47.19309900011803],[-122.28124299974355,47.19310599994004],[-122.28133300015521,47.19311400025878],[-122.28135700044469,47.19311600003303],[-122.28142299966859,47.19312299985284],[-122.28160099994382,47.193146000300686],[-122.28174499988387,47.19316499997311],[-122.28178000004398,47.193170000014284],[-122.28191999978607,47.193193999716996],[-122.28200799964961,47.19320999971625],[-122.28209600041149,47.193227000206186],[-122.2821540001378,47.193239000045985],[-122.28218299955181,47.19324499996488],[-122.28222199990984,47.193254000147164],[-122.28226999959044,47.193265000096595],[-122.2824069998578,47.193297999931204],[-122.28269800011091,47.19337599995806],[-122.28293300028757,47.19344999973675],[-122.28291999986878,47.1937209997116],[-122.28291499984589,47.193796999978666],[-122.28290899999811,47.19394000012182],[-122.28290200032544,47.19407499970701],[-122.28290099960219,47.19409400026766],[-122.28306200015898,47.194165999920884],[-122.28316000006826,47.19421400024587],[-122.28335000003908,47.19431400022395],[-122.28349499980403,47.19439799976689],[-122.28363999956899,47.194489000037315],[-122.28379299972987,47.19459599973308],[-122.28392999999721,47.19470100010904],[-122.28399799976928,47.194757000021156],[-122.28405700021884,47.194807999987766],[-122.28417000019674,47.19491100023773],[-122.28423499959574,47.194977000280915],[-122.28429800024324,47.195044000092835],[-122.28440299982523,47.1951599997494],[-122.28453000004681,47.19531300017155],[-122.28479399963749,47.195628999922235],[-122.28505700030153,47.19594600006658],[-122.28522600035592,47.196146999850946],[-122.28572699977303,47.19674300017773],[-122.28579600026833,47.1968240000864],[-122.286055999661,47.197129000238256],[-122.28617100018707,47.19726400025608],[-122.28641200021146,47.19754699976197],[-122.28649300040233,47.19764199994358],[-122.2872800000497,47.1985599999197],[-122.28720899990459,47.198643000282864],[-122.28711299964513,47.19874100028714],[-122.28700800006312,47.19884799995433],[-122.28684900005449,47.199012000097795],[-122.28667099977923,47.1992060002383],[-122.28617399966178,47.19968700026414],[-122.28611900030852,47.199739999900075],[-122.28622600043865,47.19979099996035],[-122.28676799986364,47.20011999976953],[-122.28689699973503,47.20002999975729],[-122.28729400029341,47.19975599975671],[-122.2874199997918,47.199867999838844],[-122.28793100015295,47.20031999986049],[-122.2883789998666,47.200713000183654],[-122.28848199979876,47.20080899993199],[-122.28898800013707,47.20125399990439],[-122.28898700031215,47.2013240001432],[-122.28924300040518,47.20132900002595],[-122.28923300035945,47.201356000116995],[-122.28913499955183,47.20164000010666],[-122.28910100011497,47.201742999912064],[-122.28906099993199,47.20185599979444],[-122.28892299983974,47.202256999886615],[-122.28886500011339,47.20312499980647],[-122.28886500011339,47.20320199972882],[-122.28886699976324,47.20331900016569],[-122.28886799958816,47.2033710001414],[-122.2888690003114,47.203427000058255],[-122.28887299961103,47.20362699988909],[-122.28888199983184,47.20408799979759],[-122.28889000022777,47.204442999880236],[-122.28882599975536,47.2044299998486],[-122.2874060004464,47.20415599999047],[-122.28581800000964,47.20392699974729],[-122.28587300026123,47.205980999960666],[-122.28654299973273,47.20580899976476],[-122.28663300014442,47.20577800029464],[-122.28676399966567,47.205735999782725],[-122.2867860003053,47.20587200012833],[-122.28679700017592,47.20652400015543],[-122.28676700003872,47.207983999908095],[-122.28712000021613,47.20798500012528],[-122.28708400023113,47.209433000104],[-122.28712900043695,47.20948599976754],[-122.28768500010565,47.21015300012534],[-122.28779100041086,47.210279000222634],[-122.28779300006069,47.210296000125645],[-122.28779300006069,47.210318999842194],[-122.28779300006069,47.210345000066944],[-122.28779300006069,47.21036700020021],[-122.28779300006069,47.21041099982912],[-122.28809600000939,47.21050499999583],[-122.28823800029961,47.21057000000072],[-122.28830600007167,47.21060800028582],[-122.28840999982876,47.21065800010565],[-122.28849400039266,47.21070200010338],[-122.28861499986814,47.210763999982795],[-122.28865500005114,47.21077700029276],[-122.28866799957159,47.21078099973034],[-122.2888130002349,47.21082599978968],[-122.2889620001978,47.21086799993262],[-122.29048699998707,47.211299000015366],[-122.29304000034644,47.21200800000132],[-122.29358699979429,47.212179000094885],[-122.2936500004418,47.212195999999096],[-122.29383600021463,47.21225699982597],[-122.2938999997887,47.212270999906366],[-122.2939049998116,47.21246599990119],[-122.29495799959773,47.21274100028683],[-122.29886300039233,47.213834000245974],[-122.3020009998344,47.21468299999697],[-122.30450300014014,47.215398999827684],[-122.30796399962239,47.216389000073356],[-122.30865999993146,47.21658799978995],[-122.30982499987063,47.21692099996023],[-122.31090799979403,47.21720300012361],[-122.31178499985309,47.21745900023251],[-122.31212299996189,47.2176530000304],[-122.3121809996882,47.2176809997791],[-122.31244000015427,47.217806000263636],[-122.31246299972048,47.21781700000418],[-122.31244500017714,47.21786699973905],[-122.31234800009277,47.21814699970139],[-122.31229500038931,47.218298999706754],[-122.31489800007911,47.21892699986244],[-122.31515699964686,47.21864499971583],[-122.3160189996373,47.218928999884085],[-122.3163900002564,47.21905599988388],[-122.31754699979962,47.21946999991862],[-122.31791300039583,47.2196009998355],[-122.32060399994913,47.2205630002915],[-122.32057600036005,47.21983500010181],[-122.32054700004772,47.21908900015114],[-122.32053700000199,47.21836099985679],[-122.32053500035215,47.21821100007789],[-122.32053899965182,47.21780999978129],[-122.32052100010844,47.217170999946845],[-122.3205160000856,47.21628600002791],[-122.3205460002228,47.21360400017928],[-122.32053799982688,47.21242899986027],[-122.32054299984976,47.21174500001244],[-122.32055000042078,47.20985600001939],[-122.3204959999941,47.2077400000494],[-122.32041499980325,47.20771600021275],[-122.32040999978038,47.20750199981612],[-122.32040499975751,47.20725699995034],[-122.32040300010769,47.20716600021764],[-122.32040200028277,47.20713099999718],[-122.32039899990973,47.20701700013037],[-122.3208459997985,47.207134000086725],[-122.32177999975893,47.207380000138976],[-122.32176700023848,47.2070040001193],[-122.32176499969032,47.20693400005184],[-122.32176300004048,47.20687300020537],[-122.32175999966745,47.206766000245324],[-122.32175499964458,47.20663700022888],[-122.32175499964458,47.20661999976334],[-122.32175399981966,47.20655999979992],[-122.32175299999477,47.20650999977851],[-122.32177300008624,47.2064189999848],[-122.32175999966745,47.20603099987041],[-122.32173700010124,47.20570999973979],[-122.32170899961382,47.20567600003994],[-122.32170000029132,47.20555500008774],[-122.3227430000317,47.20552399985888],[-122.32296399996464,47.20551800010781],[-122.32325000019493,47.2055110000922],[-122.32324099997409,47.205327000048236],[-122.32320199961603,47.204483000239186],[-122.32337099967043,47.204487999824174],[-122.32371399980212,47.204494000302056],[-122.32404400041331,47.20450600003519],[-122.32439699969241,47.204513999855784],[-122.32480000009853,47.20452600019471],[-122.32479699972549,47.204481999955924],[-122.32538199970651,47.2045820001129],[-122.32561600005823,47.20462199975674],[-122.32571700034056,47.20463999992229],[-122.32569999972382,47.20406400013948],[-122.32569300005113,47.20378899992556],[-122.32566999958658,47.202965999898524],[-122.32566499956371,47.202788999947174],[-122.32566100026405,47.20264799987367],[-122.32566000043916,47.20263200027883],[-122.32566000043916,47.202582999925674],[-122.32577300041709,47.20259100003626],[-122.32581299970172,47.20259399977224],[-122.3260500004265,47.202609999988866],[-122.3262050002372,47.20260799996207],[-122.32751300029148,47.20259999985406],[-122.32883700023929,47.20259999985406],[-122.32882899984337,47.202710000012765],[-122.32879000038362,47.20414499985747],[-122.32874299962964,47.20618599996242],[-122.33112299973666,47.20614800017073],[-122.33480000002727,47.206136000198775],[-122.33649300004602,47.20613100015878],[-122.336893999904,47.20613100015878],[-122.3373440001658,47.20613800009256],[-122.33758799966498,47.20614199987995],[-122.33772099973436,47.206143999773545],[-122.33788700031403,47.206146999918914]]],[[[-122.28387800011866,47.208665000048434],[-122.28386300005008,47.20841800025442],[-122.28385899985211,47.20835799988374],[-122.28280699989088,47.20834700001183],[-122.28281399956356,47.20857199987803],[-122.2828160001117,47.20867299985203],[-122.28387800011866,47.208665000048434]]]]},"properties":{"AREALAND":"37201996","AREAWATER":"283669","BASENAME":"Puyallup","CBSAPCI":"N","CENTLAT":"+47.1798760","CENTLON":"-122.2906311","FUNCSTAT":"A","GEOID":"5356695","INTPTLAT":"+47.1790463","INTPTLON":"-122.2915230","LSADC":"25","MTFCC":"G4110","NAME":"Puyallup city","NECTAPCI":"N","OBJECTID":30314,"OID":"278901445839838","PLACE":"56695","PLACECC":"C1","PLACENS":"02411504","STATE":"53","DISP_CLR":3,"slug":"puyallup","jurisdiction_key":"puyallup_city","county_fips":["53053"]}}]}
