{"type":"FeatureCollection","features":[{"type":"Feature","geometry":{"type":"MultiPolygon","coordinates":[[[[-119.80976799981818,46.18756200022857],[-119.8097639996202,46.18615400007256],[-119.8097650003434,46.186028000289944],[-119.80810599976155,46.18602600019236],[-119.80675800042262,46.18602500014352],[-119.80501299962701,46.18602400009471],[-119.80229000028666,46.18602199999693],[-119.79940300001644,46.186018999850184],[-119.7973519997974,46.18601699975228],[-119.79071299979178,46.186012000129104],[-119.78950600001986,46.18601100008001],[-119.78950299964683,46.18611900030012],[-119.78942900002696,46.19000300008639],[-119.78941800015632,46.1906059999986],[-119.78940499973753,46.19123900000702],[-119.78939999971466,46.19151900008807],[-119.78864599967923,46.191508999976506],[-119.78709699960052,46.19150400023097],[-119.78155099956406,46.19146499971266],[-119.77763399997222,46.1914369998656],[-119.77730599990917,46.19143599991521],[-119.76906699977123,46.1913780002744],[-119.76099800041094,46.19131899999804],[-119.7583630000358,46.1913020001807],[-119.75834600031735,46.19540999987083],[-119.75831700000505,46.19957800025048],[-119.75828799969274,46.19957800025048],[-119.75828699986782,46.19958899993944],[-119.75686400018581,46.19958800013736],[-119.75652299970395,46.199586999713546],[-119.75652400042719,46.20019999994703],[-119.75652500025208,46.200271999769065],[-119.75637600028921,46.200271999769065],[-119.75508300030353,46.200270999979466],[-119.75471500005747,46.2002700001898],[-119.75387200033363,46.2002689997784],[-119.75323700012389,46.200267999988704],[-119.7530250004118,46.200267999988704],[-119.75285700018232,46.200267999988704],[-119.7527580004481,46.200267000198984],[-119.75263000040158,46.200267000198984],[-119.75246899984477,46.200267000198984],[-119.75216599989608,46.200267000198984],[-119.75197000007749,46.200265999787526],[-119.75177099988589,46.200265999787526],[-119.7516599995578,46.200265999787526],[-119.75157000004441,46.200265999787526],[-119.75140699983781,46.200265999787526],[-119.7512589996998,46.20026499999776],[-119.75117099983625,46.20026499999776],[-119.751068999729,46.20026499999776],[-119.75100599997981,46.20026499999776],[-119.75094599970534,46.20026499999776],[-119.75088499960596,46.2002689997784],[-119.75085100016912,46.2002689997784],[-119.75066500039628,46.20026499999776],[-119.75048299992307,46.20026499999776],[-119.74904400034754,46.20026100021689],[-119.74823800043359,46.20022999988437],[-119.74791700004324,46.20021599970836],[-119.74791000037054,46.20040600001571],[-119.74788899955583,46.201070000183385],[-119.74788100005824,46.20154299995382],[-119.74787500021046,46.201800000272215],[-119.74786900036266,46.20207400023107],[-119.74786400033979,46.202381999701664],[-119.74785900031692,46.20262399989517],[-119.74785299957081,46.20290000020206],[-119.74784800044627,46.203172000175144],[-119.74783599985237,46.20376500008822],[-119.74783400020256,46.20388099989617],[-119.74782400015678,46.20437299989654],[-119.74721300023653,46.20436800007791],[-119.74652100012538,46.20435999986977],[-119.74652000030048,46.20458900008184],[-119.74650199985882,46.20545299979075],[-119.74649299963801,46.205903000111626],[-119.74651000025474,46.20607500011983],[-119.74583900006002,46.206230000038204],[-119.7448039998172,46.20647000009171],[-119.74347800021958,46.20677799978466],[-119.7426920003971,46.206961000239666],[-119.74269800024491,46.20697199969384],[-119.74271699961315,46.20700800015279],[-119.74272400018418,46.2070199998861],[-119.74278000026068,46.20712500023816],[-119.74279500032927,46.2071530001738],[-119.74292099982765,46.20738799975933],[-119.74292500002564,46.20740599985546],[-119.74293000004852,46.20748000011956],[-119.74291800035293,46.207553000005156],[-119.7429080003072,46.20757400026085],[-119.74289900008635,46.20759400023049],[-119.74322399977638,46.207587000148685],[-119.74617299997085,46.2075349999572],[-119.74619300006235,46.2075349999572],[-119.7461980000852,46.2084179999846],[-119.74619300006235,46.20869300014289],[-119.7461550004275,46.20869399977927],[-119.74557899976902,46.208703999871915],[-119.74525699955373,46.20871099981138],[-119.7451400002762,46.20870899991758],[-119.7451400002762,46.20889400004322],[-119.7451400002762,46.20901299972419],[-119.7451400002762,46.20911400023848],[-119.7451400002762,46.20923600018739],[-119.7451400002762,46.209357999865276],[-119.74513500025333,46.20949299995227],[-119.74413099997265,46.20991100004679],[-119.74369999997744,46.210090999934515],[-119.74340399970144,46.21013599981426],[-119.74326499978424,46.210165999920854],[-119.74296699985844,46.210254000304694],[-119.74285100040576,46.21031999987844],[-119.74277199986476,46.210365000192226],[-119.74209599964713,46.21056499996657],[-119.74190300020162,46.21062299987059],[-119.7418300004067,46.21064100014987],[-119.74132099969535,46.21076400003557],[-119.74128499971033,46.21077300015287],[-119.74061600006371,46.210941000206454],[-119.74020099996203,46.21101900030094],[-119.73990300003621,46.2110790001547],[-119.73989999966314,46.21139099970553],[-119.73989899983823,46.211468000196646],[-119.74094400012679,46.211905999822676],[-119.74116500005972,46.21199900027298],[-119.74125899977105,46.21203799989358],[-119.74151400003917,46.21218900023553],[-119.74156000006994,46.21220899976806],[-119.74210400004306,46.21229999994224],[-119.74239100009824,46.212349000021355],[-119.74245100037271,46.21236000026149],[-119.7426849998261,46.212399999816284],[-119.7429519997898,46.212445999858815],[-119.74319299981424,46.21248000008177],[-119.74391099986464,46.21258399975532],[-119.74432199976837,46.21284800005055],[-119.74475699996157,46.21308099977956],[-119.74519800000249,46.21345899992108],[-119.74527099979744,46.21352099993603],[-119.74567900022645,46.213999999767566],[-119.74572000023434,46.214048000034246],[-119.74573399957971,46.214080000188744],[-119.74579399985417,46.21423700021036],[-119.74585099975559,46.214361999811636],[-119.74571400038656,46.21438599979204],[-119.74555500037789,46.21441399975592],[-119.74552500024068,46.21441899990335],[-119.74538799997329,46.214444000012136],[-119.74467699959561,46.21457200021686],[-119.74433199981411,46.21463499974672],[-119.74422999970685,46.21465299995433],[-119.74417500035358,46.214663000205256],[-119.74396699994111,46.21470100027186],[-119.7437059998252,46.2147540000428],[-119.74355100001453,46.214786999932976],[-119.74339399965568,46.214811999874286],[-119.74225300000599,46.21502299994469],[-119.74130300015197,46.215198999925285],[-119.74124899972531,46.215209000076776],[-119.74117900030343,46.21522200002234],[-119.74093900010392,46.214689999879056],[-119.7405159996063,46.213633000226764],[-119.7403209996126,46.21327499980549],[-119.7401840002436,46.213107000053476],[-119.74011399992338,46.21310599987582],[-119.73993999984613,46.21310100023043],[-119.7399320003485,46.21434199981996],[-119.73714800001046,46.214321000287086],[-119.73708899956092,46.2143200001315],[-119.73708400043635,46.21466600003151],[-119.73707000019266,46.21565699977391],[-119.73706599999468,46.215987999941305],[-119.73622599974557,46.216146000224754],[-119.7360180002314,46.21618500000836],[-119.7348549999421,46.21640500021348],[-119.7328699998453,46.21675399974213],[-119.7318210002571,46.216939000119105],[-119.73148800017118,46.217002000041376],[-119.73049200028645,46.21719300020259],[-119.73016099985034,46.217256999935564],[-119.72979599997734,46.217326000098225],[-119.7287010003584,46.217535999735546],[-119.72853700032688,46.21756799972224],[-119.72845799978582,46.21758199982712],[-119.72847500040258,46.214455999985745],[-119.72847500040258,46.21426199978043],[-119.72827200001296,46.21425899993206],[-119.72821400028667,46.21425899993206],[-119.72791299998778,46.2142579997754],[-119.72789600026937,46.21425700024028],[-119.72767899963605,46.21425099992126],[-119.72753999971889,46.21425700024028],[-119.72733300002966,46.214293999810195],[-119.72707899958644,46.214365999809104],[-119.72696499978363,46.21441399975592],[-119.72688100011806,46.214450999841674],[-119.72680800032312,46.2144879999025],[-119.72668500029945,46.214563000100554],[-119.72653899981128,46.214650000127314],[-119.72609699994538,46.21490599989969],[-119.7259499996323,46.214991999861375],[-119.72539999981139,46.21530999976428],[-119.72507500012136,46.215484999933935],[-119.72401999978707,46.21605900008164],[-119.72304800019177,46.21660699997592],[-119.72255000024941,46.21687700023358],[-119.72243700027151,46.216939000119105],[-119.72164300005315,46.21738100002167],[-119.72156400041042,46.21743399969235],[-119.72154199977079,46.217378999821996],[-119.72147700037179,46.217216000086076],[-119.72145599955708,46.217162000101204],[-119.72119299979134,46.21730800014524],[-119.72094500009422,46.21741699987392],[-119.71855800031452,46.21846600001884],[-119.71851800013155,46.21847799973512],[-119.71582300038027,46.219338000127316],[-119.71268099984194,46.22002899972351],[-119.71162700023086,46.22016100015923],[-119.71051900019312,46.220299999983084],[-119.70926700021535,46.220389999757316],[-119.70928300010887,46.220642999996855],[-119.71077500028616,46.220616000142336],[-119.71077500028616,46.22064099991604],[-119.71107999988469,46.22063799979461],[-119.71132199973405,46.220635000294585],[-119.7114899999635,46.22063000009161],[-119.71161999965986,46.22062499988813],[-119.7117350001859,46.22062000030578],[-119.71202700026394,46.2206040002718],[-119.71228800037986,46.2205899996944],[-119.71229599987745,46.22064500007764],[-119.71283599965261,46.220603000230646],[-119.71300600043025,46.22058500010882],[-119.713121000058,46.22057400027316],[-119.71328900028747,46.2205540000578],[-119.71353000031189,46.220522999989285],[-119.71370799968882,46.220499000204946],[-119.71394799988835,46.22046299988715],[-119.71418800008783,46.220424000034235],[-119.71439800015014,46.22038700024376],[-119.71455600033386,46.220358000172176],[-119.71460499983937,46.22036000026335],[-119.7147830001146,46.22036399982391],[-119.71498499978095,46.22036699996028],[-119.71527100001123,46.22036800000568],[-119.71553299995205,46.220365999914854],[-119.71584299957343,46.22035900021775],[-119.71617499983448,46.22034600024522],[-119.71661400022559,46.22032099971569],[-119.7170290003273,46.22028800004344],[-119.71737099973575,46.22025499972982],[-119.71762900037693,46.22022600021007],[-119.71792200027987,46.22018900028616],[-119.71837699966625,46.22012400019152],[-119.71866600026955,46.220076000263454],[-119.71900100000532,46.220016000294386],[-119.71940100003837,46.21993599981928],[-119.71974199962193,46.21986100012256],[-119.72003399969998,46.21979099998179],[-119.72036900033402,46.21970500007726],[-119.72060299978746,46.21964100008984],[-119.72082200007058,46.21957900014743],[-119.72117699989782,46.21947600010837],[-119.72161399974082,46.219349000210585],[-119.72161700011385,46.21968700028258],[-119.72161799993877,46.21976699987744],[-119.72162100031183,46.21995099999489],[-119.72163700020535,46.219945999729624],[-119.72175500020613,46.219910999724554],[-119.72323300013973,46.2194839999795],[-119.72332100000327,46.21945800023856],[-119.72339700017125,46.21943600011349],[-119.72346300029349,46.21955099970937],[-119.72352600004268,46.21966400019105],[-119.72241899982986,46.21998399986973],[-119.72241999965478,46.22047699987543],[-119.72165800012175,46.22102199970736],[-119.7216689999924,46.222916000037195],[-119.72167200036543,46.22300899986582],[-119.72167099964223,46.223075000270164],[-119.72167099964223,46.22310700013631],[-119.72167300019035,46.223279999711124],[-119.72240200011142,46.22334499979847],[-119.72415000038174,46.22351199993774],[-119.72468900033202,46.22350999996141],[-119.7264929997805,46.22371200031061],[-119.72691000043034,46.22370299982782],[-119.72709799985302,46.223699999873745],[-119.72716599962507,46.22369799990425],[-119.72731600031122,46.22373799990158],[-119.72744500018264,46.223767000052376],[-119.72783900036794,46.22374899972485],[-119.72859199968012,46.22367200029434],[-119.72888299993328,46.22364300009337],[-119.72924299978338,46.223608999945455],[-119.72974900012169,46.2235520000706],[-119.73179100011988,46.2230700002894],[-119.73295100003615,46.222715999872015],[-119.73654899978575,46.22161900030291],[-119.7411779995802,46.22000799987918],[-119.74331800038601,46.21922300008532],[-119.74349199956497,46.219142000251644],[-119.74379100021402,46.21900600019319],[-119.74535100016337,46.21843000023276],[-119.74620999978077,46.217941000231114],[-119.74721999990922,46.21733499976176],[-119.74739200033667,46.217256999935564],[-119.74756399986582,46.21717899999858],[-119.74799099966306,46.21698399998215],[-119.74807400040204,46.216946999738326],[-119.74950899977962,46.216194999980296],[-119.75030700019597,46.215956999781206],[-119.75114300024717,46.21609799992707],[-119.75114300024717,46.21591699970918],[-119.75190700032832,46.215776999849176],[-119.75239699987475,46.21559999972402],[-119.75286899987786,46.21531099990183],[-119.75343799996536,46.21513800008062],[-119.75449999997232,46.21481699998548],[-119.75609500008179,46.214306999972415],[-119.75778800010055,46.21367400026495],[-119.75900499991823,46.21311800014178],[-119.75933999965397,46.212948999728944],[-119.75984900036532,46.21281899972694],[-119.7602920000561,46.21277499974264],[-119.76056800024061,46.212718999994195],[-119.76080300041728,46.212566000112815],[-119.7615020002011,46.21237300025984],[-119.76175999994393,46.212314999717364],[-119.76183299973889,46.212301000134566],[-119.76183299973889,46.21245400013256],[-119.76183299973889,46.21252400030241],[-119.76182500024129,46.21284699986814],[-119.76180199977674,46.21443200003593],[-119.76180000012694,46.21488300029189],[-119.76179900030202,46.21509299994803],[-119.76169499964664,46.21512100017299],[-119.76134400001736,46.21521500029112],[-119.76075599966329,46.21537299969071],[-119.76074099959467,46.21537799975082],[-119.7607439999677,46.21553499979117],[-119.76074499979262,46.215623000274725],[-119.76074499979262,46.21588100011669],[-119.76074499979262,46.216089000060805],[-119.76029100023119,46.216347999696815],[-119.75952200012716,46.2166439998273],[-119.75940699960114,46.21668799981968],[-119.75937999983695,46.21669299976006],[-119.75935300007276,46.21669299976006],[-119.75931999956249,46.21668899993209],[-119.75927699990478,46.216671999883026],[-119.75925099996552,46.21665300022415],[-119.75924000009486,46.21663899988241],[-119.75923300042217,46.21662400004512],[-119.75924000009486,46.2166159997573],[-119.75927400043007,46.216589999901466],[-119.75928899960033,46.216566000262745],[-119.7592929997983,46.21654800006059],[-119.75928899960033,46.21651899982611],[-119.75927600007986,46.21649500015635],[-119.75925199979044,46.21647499969831],[-119.7592009997368,46.216453999737915],[-119.7591720003228,46.21644899977577],[-119.75913499961456,46.21645100000932],[-119.75911200004832,46.216454999854626],[-119.75909600015483,46.216459999816216],[-119.75908000026129,46.21646700001033],[-119.75863199964934,46.21666400022374],[-119.75817499971484,46.21686500016743],[-119.75809299969906,46.21689599981495],[-119.75675299985772,46.21768099993396],[-119.75672199989559,46.2177710002718],[-119.75672400044373,46.21783100020785],[-119.75669099993347,46.21800900006749],[-119.75664300025288,46.218111999750654],[-119.75660100042009,46.21817699974096],[-119.75655000036645,46.21824100019168],[-119.7550899999762,46.21879200028744],[-119.75379000031785,46.21911400021234],[-119.7534070000032,46.21914599990094],[-119.75323600029897,46.219210999910295],[-119.75288300012156,46.21926100010419],[-119.75261000031009,46.219359000227854],[-119.75250900002776,46.21939299990009],[-119.75238900037715,46.21943500005111],[-119.75220699990395,46.21949900027865],[-119.75210700034486,46.21953399992479],[-119.75216599989608,46.219613000304946],[-119.75224299988895,46.21968400010906],[-119.7523369996003,46.21974399981937],[-119.75237900033142,46.21976499976468],[-119.75264899976985,46.21987400020993],[-119.75292400012945,46.219978000176475],[-119.75316400032894,46.220061000121945],[-119.75320299978871,46.22007500021274],[-119.75348700036915,46.22016699983248],[-119.75407999984778,46.22034100001592],[-119.75438899964426,46.2204219999454],[-119.75470199963868,46.22049600007575],[-119.75501899983111,46.22056299981381],[-119.75533799967333,46.22062199976586],[-119.75565999988862,46.22067399999762],[-119.75598499957862,46.22071899990747],[-119.75631099999185,46.22075600009571],[-119.75668400026075,46.22077799969189],[-119.75726000002092,46.22081399980311],[-119.75788500018491,46.22081799995214],[-119.75798499974402,46.22081799995214],[-119.7580800001786,46.22081799995214],[-119.75828600004292,46.220821000063694],[-119.75838700032524,46.22082200010088],[-119.75950600023364,46.22082899973891],[-119.76286600033188,46.22085099992737],[-119.7633550000534,46.220854000037136],[-119.76333800033497,46.220739000062736],[-119.76334599983258,46.220458000290044],[-119.76334400018277,46.219842999757475],[-119.76395900030099,46.2198449998674],[-119.76639999960906,46.21984399981247],[-119.76650400026445,46.21984599992235],[-119.76677000040323,46.219842999757475],[-119.76684400002307,46.21976799993377],[-119.7669500003283,46.219686000224776],[-119.76706999997887,46.21961599986084],[-119.76713600010112,46.219585999943924],[-119.76744800027065,46.2194839999795],[-119.76759700023358,46.21945999974101],[-119.76859800014117,46.21930200029138],[-119.76860200033914,46.21904900008814],[-119.76861700040776,46.218294000275435],[-119.76862200043063,46.218041999866344],[-119.76862400008046,46.21787399977983],[-119.76863300030128,46.217371999744145],[-119.76863300030128,46.21734000026481],[-119.76854799991246,46.21734099974376],[-119.76837800003315,46.21734099974376],[-119.76827099990304,46.21734099974376],[-119.76764599973905,46.217342999944826],[-119.76747300038501,46.21734400004535],[-119.76741200028563,46.217342999944826],[-119.76740600043784,46.216854999695904],[-119.76815999957496,46.21685400020811],[-119.76832799980444,46.216854999695904],[-119.76863599977602,46.216854999695904],[-119.76863599977602,46.21677099976581],[-119.76864099979889,46.21624700005364],[-119.76863699960094,46.21546900026836],[-119.76863699960094,46.21527499991206],[-119.76868000015695,46.21503999988265],[-119.76872799983755,46.21490499975481],[-119.76885500005913,46.214555000134034],[-119.7688740003257,46.21450200017103],[-119.76891299978546,46.21439700024575],[-119.76892399965611,46.21436900027319],[-119.76894600029573,46.21431300028531],[-119.76901200041796,46.21414799983356],[-119.76903499998417,46.21409299977996],[-119.76907199979411,46.213996999904886],[-119.76918700032016,46.21371000006101],[-119.7692259997799,46.21361500030645],[-119.76923599982564,46.21358900027299],[-119.7692530004424,46.21354700000167],[-119.76950899963711,46.21362299978828],[-119.76981599978376,46.21362699983956],[-119.7702950003579,46.21344200011532],[-119.77057800021511,46.21306600021361],[-119.77072999965274,46.21289300015792],[-119.77171700021498,46.212460000026276],[-119.77179099983485,46.21230700004501],[-119.77186000033012,46.21226699980085],[-119.77342000027947,46.212272000143756],[-119.77358199976288,46.21216600011147],[-119.77406800000968,46.21185100001031],[-119.77455000005853,46.212221999802146],[-119.77477199981637,46.21241500018577],[-119.77469200034875,46.212458999836855],[-119.77491699958132,46.2128569998263],[-119.77515599995591,46.214072000151866],[-119.77522799992595,46.214453000148005],[-119.77532099981238,46.214453000148005],[-119.77573099989122,46.21445000031007],[-119.77601999959619,46.21445000031007],[-119.7759560000221,46.215009999951974],[-119.77590900016644,46.21544000008565],[-119.77586399996059,46.215437999815265],[-119.77586200031075,46.215461999947024],[-119.77585399991486,46.21555600010301],[-119.77584899989196,46.21562100001101],[-119.7755119996081,46.215605999895644],[-119.77528800020042,46.21559599981644],[-119.77508099961285,46.21558599973542],[-119.77476400031878,46.21557199974324],[-119.77436500011059,46.21555499996997],[-119.77403500039773,46.21553999983657],[-119.77385600029758,46.215532000012374],[-119.77385499957434,46.21586700019972],[-119.77385399974942,46.21605000020898],[-119.7738529999245,46.21626499973287],[-119.77384500042692,46.21806299984098],[-119.77383799985593,46.219407000161176],[-119.77383600020607,46.21986999999216],[-119.77383100018321,46.220849999890724],[-119.77503799995517,46.22085500007371],[-119.77560299984468,46.22085600011023],[-119.77565999974608,46.22085600011023],[-119.77905099980646,46.220863999780335],[-119.7790550000044,46.22072099998548],[-119.77906400022525,46.22046499997448],[-119.77906500005015,46.22039700007202],[-119.77906699969999,46.22028900009033],[-119.7790819997686,46.219322999784175],[-119.77908699979146,46.21897599994298],[-119.77928099996024,46.21897800008448],[-119.78168600018158,46.21899199982987],[-119.78167399958771,46.22017899979853],[-119.78166899956483,46.22062499988813],[-119.78168600018158,46.22062599992889],[-119.78168600018158,46.22066899979819],[-119.7816870000065,46.22071899990747],[-119.78168600018158,46.220865999853075],[-119.78145900040084,46.22086699988939],[-119.78117399999552,46.220869999998264],[-119.78046699981577,46.22085199996397],[-119.7804480004475,46.22085099992737],[-119.7801119999885,46.220849999890724],[-119.78003199962258,46.220849999890724],[-119.77989899955321,46.22086799992572],[-119.77935399975517,46.2208489998541],[-119.77921400001308,46.22085600011023],[-119.77915399973863,46.22086199970753],[-119.77905099980646,46.220863999780335],[-119.77906199967713,46.22095599994261],[-119.77907500009592,46.221114000226414],[-119.7790819997686,46.221187000015114],[-119.77912799979936,46.22118800004562],[-119.78028299969276,46.221194000228145],[-119.78029199991357,46.2212770002],[-119.78031299982997,46.22147099986201],[-119.7803349995713,46.22168299984931],[-119.78032700007368,46.22248500001752],[-119.78014100030086,46.222500000118316],[-119.78013999957761,46.22263800023163],[-119.7801310002551,46.22351199993774],[-119.78085500015328,46.22351499990209],[-119.78084799958228,46.22532899991825],[-119.77912699997444,46.225321000277226],[-119.7790259996921,46.225318999745355],[-119.7789489996992,46.22531999970056],[-119.77643100039825,46.22530900019208],[-119.7764270002003,46.22622099980927],[-119.77895600027021,46.226229999879244],[-119.77901499982143,46.22622300030832],[-119.77901399999654,46.22635700001857],[-119.77901300017162,46.22643899970777],[-119.77900800014875,46.22687200023405],[-119.77899700027808,46.2277449997396],[-119.77905699965423,46.22774600027212],[-119.78062199962648,46.22774999991604],[-119.78068000025108,46.22774999991604],[-119.78068199990092,46.22890499988083],[-119.78068199990092,46.22894599970192],[-119.78108399958381,46.22894999987989],[-119.78165299967131,46.22895499994655],[-119.78165500021944,46.22891400013214],[-119.78166199989215,46.227145000119236],[-119.78428399984847,46.227155999881305],[-119.78427700017579,46.22889000028725],[-119.78427499962766,46.22897199992121],[-119.78738700002876,46.228971000032516],[-119.7894879995782,46.228970000143775],[-119.78948299955533,46.2283600000015],[-119.78947099985974,46.22653099984988],[-119.7894669996618,46.225921999891746],[-119.78947500005772,46.22562100031065],[-119.7894809999055,46.22535699989552],[-119.78959999973118,46.22535899980457],[-119.7921489998926,46.225373999741564],[-119.79214200021991,46.22728400028355],[-119.79213600037212,46.228939999745194],[-119.7921349996489,46.228981000161575],[-119.79551800021166,46.228995999730294],[-119.79652300031724,46.229000999792774],[-119.79702600028249,46.22900300019047],[-119.79761600028637,46.22900499996668],[-119.79764300005053,46.22900499996668],[-119.79764300005053,46.22896400018968],[-119.79764399987545,46.22847000005951],[-119.79843499972077,46.22847299975297],[-119.79843899991874,46.22720600029727],[-119.79844300011672,46.225654999833964],[-119.7984420002918,46.22528599996976],[-119.79844099956858,46.22504899998169],[-119.79844099956858,46.22494600026057],[-119.79885599967027,46.22515500000581],[-119.79942899995571,46.22546199999377],[-119.7996049996828,46.22555599981071],[-119.80000399989096,46.22578300000741],[-119.80016500044776,46.225874000060905],[-119.8003500003957,46.22560200001949],[-119.80043700043433,46.22547400004548],[-119.80067500008569,46.22543100021058],[-119.80105000000444,46.22543200016373],[-119.80113299984512,46.22543200016373],[-119.80243800042467,46.225435999976305],[-119.80260900012888,46.225435999976305],[-119.80261099977871,46.22524000011768],[-119.80262300037258,46.22177499988227],[-119.80076899979704,46.22178100000063],[-119.8000340000282,46.22178400005962],[-119.80000100041624,46.2218860001019],[-119.80000100041624,46.223040999770426],[-119.80000100041624,46.22462199979924],[-119.80000100041624,46.22464800020223],[-119.80000100041624,46.225179000240836],[-119.79898700008984,46.22449100011527],[-119.79774299960964,46.22364600005061],[-119.79640500031647,46.222737999925876],[-119.79630300020919,46.222668999727496],[-119.79659399956402,46.222670999734426],[-119.79731900018542,46.22267699975492],[-119.79733199970592,46.22260100006865],[-119.79734699977453,46.22252400027101],[-119.79741700009473,46.22215199983249],[-119.79745100042993,46.221969000270626],[-119.79748999988965,46.22176100022495],[-119.7979710001136,46.22176500030499],[-119.79800000042592,46.22176500030499],[-119.79982800016387,46.22175100002363],[-119.8000340000282,46.221748999983134],[-119.8000690001883,46.21949900027865],[-119.800075999861,46.21814000030096],[-119.800075999861,46.21808000008099],[-119.800083000432,46.216635000050516],[-119.80009400030265,46.214498000183475],[-119.8000199997845,46.214497000031116],[-119.79989500011104,46.214497000031116],[-119.79988800043834,46.21421399970076],[-119.79986199960074,46.21338299990752],[-119.79984700043045,46.21290600003014],[-119.79979600037684,46.21129000027008],[-119.79979399982871,46.21121600016577],[-119.7956489997329,46.21121300015102],[-119.79492700038286,46.21122399999703],[-119.79456900018259,46.21122899981331],[-119.79276400001083,46.211260000155775],[-119.79204299958738,46.21127200020345],[-119.79200400012765,46.211270999992394],[-119.79188699995177,46.211270999992394],[-119.79184799959374,46.211270999992394],[-119.79134999965136,46.211267999980635],[-119.78985599982423,46.2112619999567],[-119.78935899970676,46.21126099974545],[-119.78935600023203,46.21104100006842],[-119.78935100020917,46.21040199989765],[-119.78935000038423,46.2103829999344],[-119.78935000038423,46.210351000112375],[-119.78934899966103,46.21016400008004],[-119.7893450003614,46.20979199982473],[-119.78934100016342,46.20945000003424],[-119.78804099960675,46.209443000188955],[-119.78801399984256,46.20761999999362],[-119.78521600015912,46.20760900004751],[-119.78418900031222,46.207605999835785],[-119.78415699962689,46.207605000179605],[-119.78415800035009,46.20903299979155],[-119.78044500007445,46.20905999974658],[-119.78034799999008,46.20919899969646],[-119.78018899998143,46.20931900020661],[-119.77990399957605,46.20953799970028],[-119.77971500032851,46.20968200026255],[-119.77955700014476,46.209804000193145],[-119.7795310002055,46.20982299973502],[-119.7794540002126,46.20988200003733],[-119.77942900009822,46.20990199978823],[-119.77936200015108,46.20995199975534],[-119.77927699976226,46.21001799969198],[-119.77917899985297,46.21007999986159],[-119.7790819997686,46.21001200015314],[-119.77904300030886,46.20998699989176],[-119.77894399967632,46.20992200015356],[-119.77838399980968,46.20955899981875],[-119.77804999989884,46.2093429999042],[-119.77747499996356,46.20897300018932],[-119.77778999960785,46.20870099971996],[-119.77844999993192,46.20784900029292],[-119.7789010000186,46.206741000124765],[-119.7790399999358,46.20615900024619],[-119.77904099976072,46.20526599986906],[-119.7789420000265,46.20500399983903],[-119.77848699974184,46.20379900008946],[-119.77836000041854,46.20253999995906],[-119.77874200000997,46.202062999796155],[-119.77912399960138,46.20164899996953],[-119.77923800030253,46.20173399978745],[-119.77947599995392,46.20192399981927],[-119.7796600000769,46.20206999996013],[-119.78213999974302,46.2031320001173],[-119.78217499990313,46.203146999909244],[-119.78219800036766,46.203082000159405],[-119.78235400000328,46.203082999897894],[-119.78251399983685,46.203082999897894],[-119.78250899981397,46.201024999715735],[-119.78250799998908,46.20081600014183],[-119.782512000187,46.20065100017841],[-119.78409300005278,46.2002550002341],[-119.78526800003768,46.19996100027588],[-119.78916100023835,46.199362000260145],[-119.79074200010413,46.19911900018866],[-119.79242500007712,46.198943000287166],[-119.79243199974984,46.19849000007113],[-119.79243400029796,46.19836399996486],[-119.79243299957473,46.198252000249624],[-119.79243299957473,46.198217000097486],[-119.7924529996662,46.197661000197854],[-119.79245600003925,46.19746100007485],[-119.7924519998413,46.19725399969083],[-119.79245600003925,46.19707099985539],[-119.79225600002273,46.1971170002995],[-119.79190100019548,46.19720499982521],[-119.7918950003477,46.197046999770585],[-119.7918760000811,46.196637000123026],[-119.79189699999753,46.19596299993582],[-119.79191200006613,46.19549300026026],[-119.79192899978459,46.19497199991237],[-119.79193600035559,46.194742000143314],[-119.79194100037846,46.194395999721145],[-119.79214600041786,46.194338000094966],[-119.7926269997435,46.194203999974015],[-119.7930359999974,46.194082000220114],[-119.79333300009831,46.19399499994989],[-119.79335499983961,46.19398700009681],[-119.79342299961169,46.19396700014808],[-119.79344600007622,46.19396100009986],[-119.79396400011008,46.19381099992527],[-119.7941339999894,46.19376300000681],[-119.79497300041362,46.19354499971993],[-119.79553300028029,46.19341399989602],[-119.79582199998526,46.19334799990922],[-119.7960620001848,46.19330399987395],[-119.79610700039062,46.19290099974934],[-119.79612699958379,46.19272700030665],[-119.79613499997973,46.19265900026038],[-119.79613499997973,46.19249300012322],[-119.79613699962952,46.19209400002399],[-119.7961409998275,46.192001000075564],[-119.79629399998838,46.19201599979707],[-119.79728800022329,46.192178999698854],[-119.79757500027847,46.19223800029568],[-119.7978249996254,46.19222699975711],[-119.7979979998778,46.192178999698854],[-119.79807900006864,46.19212300009612],[-119.79815000021375,46.192032000075876],[-119.79818799984857,46.19184200003988],[-119.79821600033597,46.19175799978839],[-119.79827700043533,46.191717000181676],[-119.79827700043533,46.19159499988171],[-119.79827800026025,46.1914790002527],[-119.79827900008517,46.19135200028693],[-119.79828199955992,46.19113700025376],[-119.79835899955279,46.19114000012118],[-119.79864300013323,46.19114100007697],[-119.7999570000353,46.191150000299885],[-119.80034700002264,46.191152000211076],[-119.80043700043433,46.191085000038434],[-119.8005050002064,46.19103499968934],[-119.80054500038936,46.19100800020326],[-119.80058600039725,46.190980000123396],[-119.8006259996819,46.19095399994765],[-119.80066599986488,46.190927999759566],[-119.80070799969766,46.190902000181055],[-119.80074500040591,46.19087999981056],[-119.80078399986564,46.19085800005309],[-119.80080200030731,46.19084799982125],[-119.80081999985066,46.19084000013197],[-119.80092899963061,46.19077999993762],[-119.80096999963848,46.19075800014017],[-119.80110000023315,46.19068900018119],[-119.80134200008249,46.19056100028929],[-119.80139599961085,46.190533999948485],[-119.80141099967943,46.19052800014733],[-119.80142999994601,46.19051999978959],[-119.80144599983954,46.190513000019735],[-119.80146099990817,46.19050800018359],[-119.80147599997677,46.19050299972512],[-119.80149600006825,46.19049699992059],[-119.80151100013688,46.19049400001808],[-119.80155299996969,46.190485000309565],[-119.80159999982534,46.190479999849],[-119.80165099987897,46.19048099981679],[-119.80174700013843,46.1904900001478],[-119.80185599991836,46.190501999757736],[-119.80193700010923,46.190509000150875],[-119.8020330003687,46.19051000011809],[-119.80209799976772,46.19050800018359],[-119.80221400011868,46.190500999790366],[-119.80227600004294,46.19049499998562],[-119.80231299985287,46.190489000180214],[-119.80237599960206,46.19047500000986],[-119.80241800033316,46.19046199980404],[-119.80246799966356,46.190436999973684],[-119.80249299977794,46.19042099985242],[-119.80251799989227,46.19040199981892],[-119.80258499983944,46.190348000211635],[-119.80264299956576,46.19030199969818],[-119.80270600021326,46.19025499979622],[-119.80275600044197,46.19022200009246],[-119.80278499985599,46.19020499993582],[-119.80283799955943,46.19017500012209],[-119.8028860001383,46.19015100013494],[-119.80296200030631,46.190122000266065],[-119.80307399956098,46.19008899986058],[-119.80314600042932,46.19007100030945],[-119.80320699963035,46.19005700003263],[-119.80327699995057,46.190043999727976],[-119.80334700027076,46.19003200001806],[-119.80339900014931,46.19002100028163],[-119.80343299958616,46.19001199987383],[-119.80346799974626,46.19000200010991],[-119.80353999971629,46.18997600009336],[-119.80362099990715,46.18994100026692],[-119.80370700012087,46.18989999992662],[-119.80379499998442,46.18985600024033],[-119.80386299975648,46.18982300029698],[-119.80399099980299,46.18976700015934],[-119.80407199999384,46.189735000143926],[-119.80415400000963,46.18970600005555],[-119.80423600002537,46.18967999989899],[-119.80431800004115,46.18965399973012],[-119.80440900027776,46.18962500022091],[-119.80448799992045,46.18959500009061],[-119.80459400022569,46.18955000017546],[-119.80466100017283,46.18952000000422],[-119.80477599980054,46.18946800012472],[-119.80498300038812,46.18937300011018],[-119.80522500023744,46.18927199999315],[-119.80548899982807,46.189202000043316],[-119.80584299983042,46.18912800003493],[-119.80589499970894,46.18911900010275],[-119.80599199979335,46.1891030002197],[-119.80619799965766,46.18904999995189],[-119.80637000008508,46.18898900029612],[-119.80649300010874,46.188940999897554],[-119.80662299980507,46.188890000088875],[-119.80694800039339,46.18876299973778],[-119.80723700009841,46.188670999750684],[-119.8072639998626,46.18866199974367],[-119.80743600029002,46.188618000310115],[-119.80747700029792,46.18860800029258],[-119.8076150003902,46.18855900018046],[-119.8077280003681,46.188517000049565],[-119.80779600014016,46.18847399988229],[-119.80782399972924,46.18844599975533],[-119.80785399986648,46.18841800023595],[-119.807913000316,46.18836199991066],[-119.80803399979152,46.188284999992135],[-119.80819299980018,46.18821099999301],[-119.80837799974813,46.188166000188545],[-119.80863200019132,46.18814599998719],[-119.8088620003451,46.18813899991505],[-119.80904499974488,46.18812199973599],[-119.80929400016524,46.18807199980095],[-119.80976299979528,46.18799000003284],[-119.80975799977242,46.18797399982116],[-119.80975899959734,46.18777699994235],[-119.80976799981818,46.18756200022857]]],[[[-119.7426920003971,46.206961000239666],[-119.7426840000012,46.206931000247636],[-119.74264800001617,46.20683700024936],[-119.74263600032062,46.20681700000409],[-119.74259199993969,46.20674300009021],[-119.74251800031985,46.20665400000295],[-119.74252400016763,46.20649500008882],[-119.74252800036558,46.20616700019231],[-119.74255500012977,46.20399299995001],[-119.74255599995467,46.203900999966926],[-119.74041400039735,46.20390999996532],[-119.74000099994551,46.203909000241914],[-119.74000699979327,46.203094999866856],[-119.74001000016632,46.202975999799804],[-119.73797300019099,46.202973999697214],[-119.73745299960898,46.20297500005941],[-119.73747500024864,46.200679000305065],[-119.73747500024864,46.20014200022903],[-119.73583400010838,46.20028999970985],[-119.73393500022533,46.20046199988271],[-119.72791200016289,46.201007999792004],[-119.72687199989721,46.201101999816515],[-119.72687199989721,46.204919000106614],[-119.72688299976784,46.20789900026382],[-119.73217100006148,46.207810000184516],[-119.73539999974012,46.20773300016019],[-119.73540099956504,46.20761200025912],[-119.73737399996627,46.207482999716525],[-119.7373680001185,46.20780800025791],[-119.73752999960188,46.20779800000209],[-119.739291000291,46.20768499996929],[-119.73946000034542,46.20765999989213],[-119.73949200013247,46.20765499975097],[-119.73959000004174,46.20764500008899],[-119.73962400037695,46.20763600008087],[-119.73981599999755,46.20760799976975],[-119.74023899959687,46.20751199974921],[-119.74207800010382,46.20709799995363],[-119.7426920003971,46.206961000239666]]],[[[-119.77906099985219,46.22253399971005],[-119.77904599978356,46.22242300017902],[-119.77901499982143,46.22233500002737],[-119.77896700014088,46.22225199979042],[-119.77890299966845,46.22217400011235],[-119.77882499985066,46.22210199978522],[-119.77872199991849,46.22201199970965],[-119.7783200002356,46.22181900011375],[-119.77816200005184,46.22178500007921],[-119.77779299998087,46.22175300006405],[-119.77768300037602,46.22175300006405],[-119.77768300037602,46.22179400025493],[-119.77767599980501,46.223500000078666],[-119.77898899988219,46.223504000032],[-119.7790480003317,46.223504000032],[-119.77905599982932,46.222892000055865],[-119.77906099985219,46.22253399971005]]]]},"properties":{"AREALAND":"13451478","AREAWATER":"331379","BASENAME":"Prosser","CBSAPCI":"N","CENTLAT":"+46.2084584","CENTLON":"-119.7683112","FUNCSTAT":"A","GEOID":"5356450","INTPTLAT":"+46.2090216","INTPTLON":"-119.7677529","LSADC":"25","MTFCC":"G4110","NAME":"Prosser city","NECTAPCI":"N","OBJECTID":25476,"OID":"27890228642481","PLACE":"56450","PLACECC":"C1","PLACENS":"02411497","STATE":"53","DISP_CLR":2,"slug":"prosser","jurisdiction_key":"prosser_city","county_fips":["53005"]}}]}
