{"type":"FeatureCollection","features":[{"type":"Feature","geometry":{"type":"MultiPolygon","coordinates":[[[[-118.32107599971054,46.29781100013115],[-118.32110500002285,46.29526000008011],[-118.32075799969323,46.29526100000196],[-118.31992199964206,46.2952660002316],[-118.31978899957265,46.29526500030985],[-118.31971699960263,46.295263999767386],[-118.31970300025726,46.295263999767386],[-118.31939199991263,46.295263999767386],[-118.31925999966815,46.295263999767386],[-118.31905700017687,46.29526299984559],[-118.31951499993627,46.29445499996933],[-118.3197080002801,46.29411999971721],[-118.31976600000644,46.294081000077206],[-118.31977199985421,46.292846000215086],[-118.31977100002932,46.2924380001818],[-118.31934500005697,46.292740999967535],[-118.31580900023162,46.29526199992378],[-118.3156590004438,46.29526199992378],[-118.31491700010396,46.29565799980662],[-118.31449600015448,46.29565799980662],[-118.31172600006015,46.295656999892024],[-118.31171900038744,46.29633700028897],[-118.31083200028263,46.296335999766136],[-118.30860799981124,46.29633499986392],[-118.30859899959042,46.296911000099705],[-118.30844999962751,46.296911000099705],[-118.30725600027435,46.296911000099705],[-118.30549999960809,46.29691000020799],[-118.30415100044425,46.296908999695574],[-118.30414999972102,46.29698599999489],[-118.30414999972102,46.29739100001257],[-118.30414999972102,46.29752600018032],[-118.30414399987323,46.297720000234015],[-118.3041270001548,46.29830299986134],[-118.30412200013194,46.29849800012813],[-118.3041199995838,46.298548999930595],[-118.30411499956094,46.298704999871134],[-118.30411399973602,46.298756999959416],[-118.30411200008619,46.29880800014126],[-118.3041060002384,46.298962000256076],[-118.30410500041351,46.299014000100286],[-118.30409199999472,46.29914999984133],[-118.30407399955304,46.29934799973667],[-118.30407199990323,46.29936600008657],[-118.30406900042848,46.29945699973076],[-118.30406500023051,46.29955700029754],[-118.30406000020767,46.29969399977202],[-118.30451999961686,46.29968599980309],[-118.30589999964117,46.299662999730685],[-118.30636099977363,46.299656000219414],[-118.30640400032964,46.29965399991557],[-118.306534000026,46.2996520002323],[-118.30657800040693,46.2996520002323],[-118.30658799955435,46.299912000027604],[-118.30659299957722,46.30001899984975],[-118.30661400039193,46.30030500030838],[-118.30668899983668,46.300682999807265],[-118.30673999989034,46.30093899977868],[-118.30680099998969,46.30121300015765],[-118.30698699976251,46.302035999692045],[-118.3070289995953,46.30222000009392],[-118.30703799981615,46.30231300016634],[-118.30705000041002,46.302433999817254],[-118.30705399970968,46.302525999736986],[-118.30716599986269,46.30251599998256],[-118.3117169998393,46.3024560001764],[-118.3117169998393,46.30225699993481],[-118.31173100008299,46.30225699993481],[-118.31212699991812,46.30225499972599],[-118.31247199969962,46.30225099992874],[-118.31252299975326,46.30225099992874],[-118.3127029996783,46.30225000013454],[-118.31280499978557,46.30224899971975],[-118.31311199993222,46.30224499992206],[-118.31321499986439,46.30224499992206],[-118.31335700015458,46.3022429997128],[-118.3137849997768,46.30223899991468],[-118.31392799989192,46.302238000120305],[-118.31408500025077,46.302235999910785],[-118.31455899990367,46.30223099969699],[-118.31471700008744,46.30222999990241],[-118.31471600026252,46.30224499992206],[-118.31471600026252,46.30228900016281],[-118.31471600026252,46.30230499995946],[-118.31469699999595,46.303343000127505],[-118.3146879997751,46.30381299999147],[-118.3146669998587,46.305029999785575],[-118.31464799959215,46.30613299984363],[-118.3169690001479,46.30613499991077],[-118.31693499981272,46.3043459997187],[-118.31690100037584,46.302565999977666],[-118.3168899996069,46.3022429997128],[-118.31705500036165,46.30224400012774],[-118.31719000008086,46.30224499992206],[-118.31759699978663,46.302247999925505],[-118.31773300022905,46.30224899971975],[-118.31794400011626,46.30225000013454],[-118.31848399989143,46.30225199972293],[-118.31857699977786,46.30225300013771],[-118.31878799966503,46.30225499972599],[-118.31886899985591,46.30225499972599],[-118.31928599960742,46.30225099992874],[-118.31975500013579,46.30225499972599],[-118.31974500009005,46.29942099970546],[-118.31974099989208,46.29886400017669],[-118.31987700033453,46.29886400017669],[-118.31993099986288,46.29886500003274],[-118.32024600040546,46.298865999888754],[-118.32106700038801,46.29886999993329],[-118.32106999986276,46.298521000069236],[-118.32107599971054,46.29781100013115]]],[[[-118.30406199985748,46.296352999963],[-118.30405000016194,46.29634099989758],[-118.30403500009328,46.29632500022009],[-118.30391899974234,46.29621700010232],[-118.3038529996201,46.29615399988354],[-118.30379599971867,46.29609700027333],[-118.30330000032446,46.29559799993321],[-118.30289000024564,46.29526199992378],[-118.3027200003663,46.29512399998766],[-118.30198499969917,46.29452399989273],[-118.30184400013216,46.29452299995743],[-118.30122700036412,46.294521000086775],[-118.29896699990769,46.294512000047256],[-118.29894699981622,46.29521000024055],[-118.29891300037934,46.298207000200556],[-118.3018600000257,46.296586000194296],[-118.30215399975359,46.296426000200725],[-118.30229500021888,46.29634899973459],[-118.30406199985748,46.296352999963]]]]},"properties":{"AREALAND":"1033699","AREAWATER":"0","BASENAME":"Prescott","CBSAPCI":"N","CENTLAT":"+46.2988340","CENTLON":"-118.3125530","FUNCSTAT":"A","GEOID":"5356240","INTPTLAT":"+46.2988340","INTPTLON":"-118.3125530","LSADC":"25","MTFCC":"G4110","NAME":"Prescott city","NECTAPCI":"N","OBJECTID":4409,"OID":"27890255516767","PLACE":"56240","PLACECC":"C1","PLACENS":"02412506","STATE":"53","DISP_CLR":2,"slug":"prescott","jurisdiction_key":"prescott_city","county_fips":["53071"]}}]}
