{"type":"FeatureCollection","features":[{"type":"Feature","geometry":{"type":"Polygon","coordinates":[[[-118.74850399961363,48.65610300000495],[-118.7485019999638,48.653310999879814],[-118.7485019999638,48.652478999980914],[-118.74794200009717,48.65248399978951],[-118.74777399986768,48.65248599971279],[-118.7471839998638,48.65248399978951],[-118.74605300025982,48.652478999980914],[-118.74611799965885,48.65222999998459],[-118.74617600028348,48.65201500015675],[-118.74556299981505,48.65148399972045],[-118.74517600020079,48.65114800006939],[-118.74512500014714,48.65121399983844],[-118.7449250001306,48.65099699985024],[-118.74475899955094,48.650854999718966],[-118.74460999958804,48.65074500026185],[-118.74449999998318,48.65053800003926],[-118.74444399990668,48.650432999902534],[-118.74438600018036,48.650219000133944],[-118.74437799978443,48.65011999997809],[-118.74436899956359,48.650096999776174],[-118.74432799955572,48.649988999874765],[-118.74432300043117,48.64989599993915],[-118.74432199970794,48.649879999728704],[-118.74432000005811,48.64984099978798],[-118.74431400021032,48.64969499989433],[-118.74431300038543,48.64967400012688],[-118.74431300038543,48.649662999934314],[-118.74431000001238,48.64960800012251],[-118.74430900018746,48.64958500028055],[-118.74430800036257,48.649561999834596],[-118.74430699963932,48.64954700013163],[-118.74430699963932,48.64953599991137],[-118.7443059998144,48.649525999709034],[-118.74430099979153,48.64939599986588],[-118.74428300024819,48.64900099995254],[-118.74427700040043,48.64886999990953],[-118.74412000004158,48.64888100027508],[-118.74364800003849,48.64892499993279],[-118.7432339997617,48.6488980002418],[-118.74291099972152,48.64879400028585],[-118.74264600030594,48.64863000023907],[-118.74256400029017,48.64855799981845],[-118.74251400006146,48.64848699992948],[-118.74247200022866,48.64835000007013],[-118.74247300005358,48.648194000140975],[-118.74247899990138,48.64775899988957],[-118.74257199978777,48.64759299992047],[-118.74261899964344,48.64750800020387],[-118.74270900005513,48.647346000256476],[-118.74279699991868,48.647185999922165],[-118.74280799978935,48.64716499970335],[-118.7430019999581,48.64704699995043],[-118.74316299961656,48.64694499988114],[-118.74335099993755,48.64662699987714],[-118.74344299999905,48.64646399998612],[-118.74375699981842,48.646232999726145],[-118.7438110002451,48.646223000055855],[-118.7444189997923,48.64609199991846],[-118.74475799972602,48.64586700029282],[-118.74474000018267,48.64552100020232],[-118.74454299964087,48.64524700002116],[-118.74451099985382,48.645208000058474],[-118.74451099985382,48.644732000199014],[-118.74492299958244,48.64415999979667],[-118.74478100019057,48.64383099976023],[-118.74449900015826,48.643602999724436],[-118.74433799960146,48.64346900007637],[-118.744284999898,48.64344900023128],[-118.74417299974502,48.64340700023391],[-118.74390199958337,48.64330600006887],[-118.74390400013151,48.64325599998284],[-118.7436580000842,48.643233999763076],[-118.74357199987048,48.643228000079176],[-118.74341299986182,48.64323499990817],[-118.74302100022467,48.6432509998528],[-118.74289700037609,48.643233999763076],[-118.74244999958903,48.64307000003485],[-118.74221699996053,48.64302899987109],[-118.74221399958749,48.64274699975268],[-118.74219100002128,48.64063700004533],[-118.74216199970896,48.637966999820236],[-118.73928200000977,48.63796499991475],[-118.73903000011468,48.63796400025874],[-118.73892299998457,48.63796400025874],[-118.73531699983904,48.63796100010345],[-118.73485499988169,48.63796100010345],[-118.73228800017692,48.637959999853784],[-118.72905399957705,48.63795900019772],[-118.72411000013835,48.637957999948014],[-118.72241000044691,48.63795700029188],[-118.72236400041616,48.63857399983152],[-118.72232199968506,48.63913000000918],[-118.72185999972768,48.64528499984925],[-118.72184200018432,48.645529999912256],[-118.72179399960544,48.646029000243175],[-118.72179000030582,48.64613699972312],[-118.72178799975768,48.646163000211864],[-118.7217760000621,48.64633199979756],[-118.72175900034368,48.6465260002252],[-118.72163600032002,48.64793299972823],[-118.72162499955104,48.6480889998713],[-118.7215149999462,48.64954400007178],[-118.72149099965674,48.649854999983205],[-118.72119000025616,48.653836999797754],[-118.72121600019545,48.653836999797754],[-118.72119899957869,48.6544550002444],[-118.72118900043127,48.65484200024758],[-118.72113800037766,48.65675400007629],[-118.72112499995887,48.657232999993404],[-118.721115999738,48.65754399995065],[-118.72451600001922,48.657474999978824],[-118.72518899986378,48.657461000119255],[-118.72687000018695,48.657427000020164],[-118.72866399958974,48.65733900007609],[-118.72871499964334,48.65733699975192],[-118.72909100028532,48.65731799993184],[-118.72944199991461,48.65730099983695],[-118.72955999991535,48.65729500004645],[-118.72964199993112,48.657290999987886],[-118.73114699962889,48.65735299996956],[-118.7315759999743,48.65735600015819],[-118.7325069995617,48.65736100007649],[-118.73281100023364,48.6573250001787],[-118.73331000000094,48.65731399987515],[-118.73362600036842,48.65737099991166],[-118.73384499975322,48.65737300023454],[-118.73386900004267,48.65737300023454],[-118.73448400016089,48.65737800015116],[-118.73463599959857,48.657379999880355],[-118.73489900026262,48.65738200020282],[-118.73499399979883,48.65738200020282],[-118.73503099960878,48.65738200020282],[-118.73526400013559,48.657379000015744],[-118.735617000313,48.65737700028656],[-118.735834000048,48.657374000099225],[-118.7363200002948,48.657374999963885],[-118.73664199961173,48.657374999963885],[-118.73708299965271,48.657374999963885],[-118.7379820003514,48.65741099982597],[-118.73850799988287,48.657443000209284],[-118.73855899993649,48.65744400007257],[-118.73868699998299,48.65744899998215],[-118.73875300010526,48.65745099970853],[-118.74067399972961,48.657431000067895],[-118.74224899974759,48.657448000118954],[-118.74290099967575,48.657444999935855],[-118.74358500028927,48.657443000209284],[-118.74378799978055,48.65743400025188],[-118.74406499978997,48.65744599979911],[-118.74416199987436,48.657449999845376],[-118.74420600025529,48.65745200016507],[-118.74425999978364,48.65745399989129],[-118.74433699977656,48.65745200016507],[-118.74449800033334,48.657441999752564],[-118.74493699982618,48.657443000209284],[-118.74512400032225,48.657443000209284],[-118.74687699971712,48.657443000209284],[-118.74845299956002,48.657443000209284],[-118.748500000314,48.657443000209284],[-118.74850399961363,48.65610300000495]]]},"properties":{"AREALAND":"3677556","AREAWATER":"1951","BASENAME":"Republic","CBSAPCI":"N","CENTLAT":"+48.6483130","CENTLON":"-118.7333489","FUNCSTAT":"A","GEOID":"5357850","INTPTLAT":"+48.6489090","INTPTLON":"-118.7315354","LSADC":"25","MTFCC":"G4110","NAME":"Republic city","NECTAPCI":"N","OBJECTID":14323,"OID":"27890479220743","PLACE":"57850","PLACECC":"C1","PLACENS":"02410927","STATE":"53","DISP_CLR":3,"slug":"republic","jurisdiction_key":"republic_city","county_fips":["53019"]}}]}
