{"type":"FeatureCollection","features":[{"type":"Feature","geometry":{"type":"Polygon","coordinates":[[[-117.8892640002354,47.67250199996221],[-117.88925099981661,47.671495000129006],[-117.88923599974797,47.670288000117765],[-117.88922499987734,47.66936299979909],[-117.88921900002953,47.66886100010094],[-117.88390499979667,47.668865999916925],[-117.88389999977377,47.66839500002924],[-117.88515000010173,47.66839100014042],[-117.88526399990455,47.66839100014042],[-117.88521899969874,47.66642400013557],[-117.88512099978944,47.666423000125654],[-117.8838789998574,47.66642800017514],[-117.8838789998574,47.66634499989658],[-117.8838789998574,47.666324000257106],[-117.88387800003248,47.666279999717524],[-117.88387800003248,47.666266000143],[-117.88386899981164,47.66537599978115],[-117.88386799998673,47.665288000091486],[-117.88386700016181,47.66522699993771],[-117.88198300034736,47.665243999888574],[-117.87928400039814,47.665269000090916],[-117.87787599988643,47.665281999901026],[-117.87756399971688,47.665284999996345],[-117.87636199996783,47.66529599973943],[-117.87531400020454,47.665305000022485],[-117.87311900004545,47.665324000009996],[-117.87121000011666,47.66534199995991],[-117.868638000389,47.66536500005493],[-117.868638000389,47.66537999990102],[-117.86861699957429,47.66553199999384],[-117.8686230003204,47.665783000121465],[-117.86863900021392,47.66644999978223],[-117.86864900025965,47.66691000027725],[-117.86866199978013,47.667414999959774],[-117.8686659999781,47.667621000106685],[-117.8686810000467,47.66824099985416],[-117.86868600006957,47.66844799973693],[-117.86868900044266,47.668670000119086],[-117.86869899959008,47.66933900030178],[-117.86870299978803,47.66956199986857],[-117.86866500015321,47.66956199986857],[-117.86864199968865,47.66956199986857],[-117.86859700038113,47.67062000016111],[-117.86855899984796,47.67150000029751],[-117.86855200017528,47.6716829997235],[-117.8681100003094,47.67181799998951],[-117.86753899967378,47.67199099987358],[-117.86622700031985,47.672422999849324],[-117.86542999972845,47.6726850001088],[-117.8661329997102,47.67268000005382],[-117.86637100025992,47.6726780002737],[-117.86856499969578,47.67265600026721],[-117.86856899989372,47.672848000065954],[-117.87011100029973,47.67283299994643],[-117.87011299994955,47.6729149997003],[-117.87146399966154,47.672902999862394],[-117.87170499968596,47.672901000090775],[-117.87340000025284,47.672882999723164],[-117.87340199990268,47.672620999852846],[-117.87380000028593,47.67260800005592],[-117.87454299955238,47.67257300021427],[-117.87477500025426,47.672562000190084],[-117.87481200006421,47.67390899987956],[-117.8762559996626,47.673897000270216],[-117.87628499997493,47.676013000221914],[-117.87628599979985,47.67609499981765],[-117.87690000009316,47.676096000247114],[-117.87810500021527,47.67609499981765],[-117.87808199975076,47.67592699997638],[-117.87804900013879,47.67557699977952],[-117.87801399997868,47.67505400021535],[-117.87799800008519,47.67466499994816],[-117.87798999968923,47.67443299988861],[-117.87851500029412,47.674431000175616],[-117.87870799973963,47.67442700014451],[-117.88061699966845,47.67440799984146],[-117.8839850001626,47.67437299999735],[-117.88394699962946,47.67274699990387],[-117.8839490001776,47.67250600014083],[-117.8872880003594,47.67250299985565],[-117.8892640002354,47.67250199996221]]]},"properties":{"AREALAND":"1285413","AREAWATER":"11141","BASENAME":"Reardan","CBSAPCI":"N","CENTLAT":"+47.6697915","CENTLON":"-117.8779305","FUNCSTAT":"A","GEOID":"5357465","INTPTLAT":"+47.6700936","INTPTLON":"-117.8785746","LSADC":"43","MTFCC":"G4110","NAME":"Reardan town","NECTAPCI":"N","OBJECTID":6468,"OID":"27890480264307","PLACE":"57465","PLACECC":"C1","PLACENS":"02412534","STATE":"53","DISP_CLR":4,"slug":"reardan","jurisdiction_key":"reardan_city","county_fips":["53043"]}}]}
