{"type":"FeatureCollection","features":[{"type":"Feature","geometry":{"type":"MultiPolygon","coordinates":[[[[-122.25392400036324,47.478978000030736],[-122.25397899971648,47.4788410002274],[-122.25347699957615,47.47814599980818],[-122.25258899964646,47.4770789998228],[-122.25187599961893,47.47634000026311],[-122.25148800017972,47.476046999737655],[-122.25112999997943,47.47580000003768],[-122.25064299990771,47.47558799979944],[-122.25076500010643,47.47544400012357],[-122.25094500003149,47.47522800017347],[-122.25066700019717,47.47493300006664],[-122.25006499959939,47.47434899998865],[-122.25000000020037,47.474283999709584],[-122.24948399981633,47.47378199976898],[-122.24920199978403,47.47350800003297],[-122.24899300044498,47.473306000265666],[-122.24853200031254,47.47272600000298],[-122.24806699998213,47.47218799984281],[-122.24793399991273,47.472033999715265],[-122.2474950004199,47.47152199980085],[-122.24745299968879,47.47148200024262],[-122.24674700023228,47.47076699989177],[-122.24584099986089,47.46990899998978],[-122.2441520000401,47.46823200014769],[-122.24378999964188,47.46788800012165],[-122.24307699961432,47.46718199984109],[-122.24218100018702,47.46632900007451],[-122.24170599981085,47.465855999868545],[-122.24133300044029,47.4654449999903],[-122.24120899969341,47.46527599997831],[-122.24112099982983,47.465141000106605],[-122.24089900007203,47.464867999873405],[-122.24072800036778,47.46454099992351],[-122.24057900040488,47.46417599996899],[-122.24048999981808,47.46392300012399],[-122.24040799980231,47.463595000123036],[-122.24035599992378,47.46320800018415],[-122.24035599992378,47.46257599983166],[-122.24040899962723,47.461189000147044],[-122.24046399987881,47.459930999854414],[-122.240490999643,47.45833099988946],[-122.24053699967376,47.45766499979301],[-122.24055500011542,47.457061000266954],[-122.24056400033624,47.45644500015659],[-122.24063700013119,47.45439100023419],[-122.24064700017693,47.45384399985775],[-122.24062799991034,47.453240000175555],[-122.24069200038278,47.451229000243266],[-122.24070099970528,47.450674999984415],[-122.24073800041351,47.449636000271546],[-122.2407719998504,47.44824399976807],[-122.2407800002463,47.44643500008883],[-122.24083799997265,47.444644000141295],[-122.2409259998362,47.44274499996924],[-122.24095699979833,47.44195499997959],[-122.24096500019425,47.441545999896306],[-122.24098500028575,47.44119599984794],[-122.23907800000674,47.44117599977484],[-122.23899799964082,47.44118400029108],[-122.23882699993656,47.44118400029108],[-122.23647899961662,47.441177999904006],[-122.23524699973032,47.441174999710235],[-122.23510500033842,47.44117400025319],[-122.23289400028581,47.44116799986501],[-122.22977100001404,47.44115799982408],[-122.22779400031315,47.441152000041654],[-122.22702600003404,47.4411489998464],[-122.22395200016608,47.441136000213426],[-122.22381599972366,47.441135000148066],[-122.2214590000812,47.44112299996967],[-122.21988700043626,47.44112199990405],[-122.21771800021645,47.441164000213384],[-122.2175879996218,47.441165999735475],[-122.21745899975035,47.44116899992975],[-122.21649899985061,47.441165999735475],[-122.21583799970162,47.4411530001067],[-122.21549700011809,47.44114500019332],[-122.21552600043039,47.4410240000645],[-122.21553800012597,47.4409720001747],[-122.21558099978368,47.440769999928214],[-122.21561199974582,47.440626000253516],[-122.21561699976871,47.440603999812836],[-122.21565899960147,47.440421000264514],[-122.21569299993666,47.44039099971012],[-122.21594300018192,47.44017300014967],[-122.21604799976393,47.44008199974822],[-122.21619599990194,47.43995599977377],[-122.21632599959827,47.43984500024067],[-122.2165669996227,47.43963800005885],[-122.21664199996576,47.43957400009023],[-122.21683000028672,47.43916800003291],[-122.21685600022602,47.439112999820075],[-122.21690800010454,47.43899600030296],[-122.21702500028039,47.43873999987561],[-122.21730999978745,47.438406000051444],[-122.21745999957527,47.43822900026565],[-122.21786200015649,47.437758999805325],[-122.21797900033233,47.437619999842106],[-122.21804700010442,47.43754100027639],[-122.21805999962488,47.4375009997742],[-122.21819199986938,47.436989000139334],[-122.21852699960513,47.436990000283515],[-122.21861700001679,47.43663900015668],[-122.21902899974546,47.43502900002505],[-122.21947399998439,47.43332199985605],[-122.22022299999692,47.43039700026662],[-122.22024800011128,47.430298000233535],[-122.22027400005052,47.43020000028742],[-122.21994000013972,47.43018600010659],[-122.21976400041262,47.43018000028838],[-122.21928099964053,47.43022400015466],[-122.21896500017135,47.43024099992739],[-122.21847100042694,47.43025100022011],[-122.21837099996952,47.43024900028327],[-122.21821199996087,47.43024600007401],[-122.21810599965566,47.43024400013698],[-122.21810400000581,47.430071999797725],[-122.21809899998294,47.42992200016655],[-122.2180870002874,47.4291549997341],[-122.21807200021875,47.42824899987026],[-122.21809200031026,47.42747399980561],[-122.21811900007445,47.426458000094925],[-122.2181159997014,47.42623799984762],[-122.21811200040173,47.42598400004839],[-122.218102000356,47.42533200021657],[-122.218094999785,47.42518800022758],[-122.2181280002953,47.42456100005208],[-122.21812400009729,47.42434399971541],[-122.2181220004475,47.42422400023462],[-122.21810800020378,47.423634000277424],[-122.21809399996008,47.4230379997609],[-122.21806700019592,47.42302700011932],[-122.21797500013442,47.42298400011699],[-122.21790399998928,47.42300399981149],[-122.21755500000982,47.42301899988123],[-122.21626200002416,47.42303699995934],[-122.21485000021282,47.42305800004262],[-122.21468899965602,47.423060000252754],[-122.21343000000553,47.42307600010741],[-122.21272899967357,47.42308500013744],[-122.21238700026514,47.4230899997483],[-122.21201700036926,47.4230919999572],[-122.21150799965794,47.42309700017513],[-122.21103099963196,47.423100999984506],[-122.20995299973146,47.42311300001855],[-122.20978399967704,47.42311500022659],[-122.20894000012828,47.4231220000423],[-122.20756599995173,47.42313100006453],[-122.20744100027828,47.42313100006453],[-122.20611200030757,47.42313199986429],[-122.20558699970272,47.42313300027183],[-122.20502699983606,47.4231300002647],[-122.20464699989449,47.42312700025743],[-122.20453499974148,47.42312700025743],[-122.20443500018237,47.42312599984977],[-122.20432200020447,47.4231250000499],[-122.2039649998291,47.42312299984225],[-122.20300999995222,47.42311800023453],[-122.20262099978979,47.42311699982671],[-122.20233499955953,47.42311500022659],[-122.20179999980724,47.42311300001855],[-122.20098999969532,47.42311200021842],[-122.19988400020573,47.42311000001032],[-122.19969099986189,47.42311000001032],[-122.19878000036596,47.42310499979358],[-122.19794400031479,47.42310199978489],[-122.1970589998598,47.42309799997559],[-122.19706399988267,47.42403800028609],[-122.19707700030146,47.42581699972548],[-122.19707599957826,47.4266910001968],[-122.19707700030146,47.42849999997767],[-122.19709099964683,47.430228000030205],[-122.19555800035998,47.430226999757465],[-122.19383600002891,47.43022600009245],[-122.19246600005035,47.43022999996785],[-122.19171000036512,47.4302339998429],[-122.19128900041565,47.43023500011546],[-122.19095100030684,47.43023199990541],[-122.18965599977305,47.430220999943984],[-122.18783399988287,47.43021500012977],[-122.18645800005653,47.4302170000679],[-122.18446000043923,47.430226999757465],[-122.18358699967982,47.43023199990541],[-122.18114200017384,47.43024600007401],[-122.17916700012276,47.43025700003022],[-122.1789789998018,47.430258000302345],[-122.17800399983344,47.43026499977595],[-122.17732400031618,47.43039599999713],[-122.17719999956931,47.43041999977505],[-122.17588900004031,47.43059000026846],[-122.17579199995592,47.43060300007627],[-122.17579299978084,47.43050800028491],[-122.1757969999788,47.43028200014318],[-122.17481399961453,47.43028999988511],[-122.17411499983069,47.430293999755605],[-122.17407800002078,47.431114999863],[-122.17433599976364,47.432369999697514],[-122.17445600031255,47.43295500029073],[-122.17451300021398,47.43323000015074],[-122.17420199986935,47.43323199997431],[-122.17392700040804,47.43323500001338],[-122.1737070003,47.43323500001338],[-122.17369600042936,47.43357999971722],[-122.17369600042936,47.433591000191925],[-122.17369600042936,47.433649000115764],[-122.17369800007918,47.43370800018223],[-122.17369499970616,47.433788000238835],[-122.17368200018565,47.434037000267026],[-122.17343100011547,47.43465500010725],[-122.17318400024328,47.435257000188265],[-122.1727630002938,47.43628999982629],[-122.17216900009197,47.43774200003059],[-122.16996999973493,47.437719000076484],[-122.16861300017516,47.438594999999545],[-122.16855399972559,47.43855199995529],[-122.16827500006634,47.43874800015468],[-122.16807699969964,47.438886000067825],[-122.16792699991178,47.43899099977253],[-122.16779700021546,47.43908200023822],[-122.16760600041974,47.439216000083256],[-122.16741800009878,47.439346999896564],[-122.16730000009801,47.43942900008222],[-122.16719600034094,47.43950199988062],[-122.1670180000657,47.4396270002407],[-122.16942800030992,47.44135099985282],[-122.17005099992578,47.44135800028132],[-122.17020200043682,47.441359999795985],[-122.17020099971361,47.441377000224456],[-122.17019599969075,47.44162800030006],[-122.17018999984295,47.44190199974409],[-122.1701520002081,47.443813000144665],[-122.17014700018527,47.44405600006297],[-122.17012799991868,47.4449849998],[-122.17010600017737,47.44608399978999],[-122.16876999963569,47.44585799971494],[-122.16797899979035,47.445722999798306],[-122.16757999958219,47.44567100030046],[-122.16744700041109,47.44566199987979],[-122.1671379997163,47.4456560000035],[-122.16687699960039,47.44566599979693],[-122.16657399965169,47.445692999837256],[-122.16629800036549,47.445739000054026],[-122.1658620003474,47.4458370002232],[-122.16470300025603,47.44614199991611],[-122.16288499966547,47.446620999863754],[-122.16258500008985,47.446688000251925],[-122.1622930000118,47.44674099991822],[-122.16201199980438,47.44678399995209],[-122.16175099968846,47.44681599981324],[-122.16161599996927,47.446828999865154],[-122.16165000030446,47.447045999836966],[-122.1616479997563,47.447144999952265],[-122.16160799957335,47.44722400028487],[-122.16156999993851,47.44727500012132],[-122.16207100025392,47.44740100018419],[-122.16202600004809,47.447562999734764],[-122.16207499955357,47.44783899973232],[-122.16223399956223,47.44838599999769],[-122.16222600006463,47.448758000278914],[-122.16217699966082,47.44916499974616],[-122.16259900033353,47.44912400027081],[-122.16266200008272,47.44944799980149],[-122.16266399973256,47.449458999996146],[-122.16260699983114,47.449464000139095],[-122.16186600021453,47.44953400026792],[-122.1617790001759,47.449105000088295],[-122.1617730003281,47.448874999955756],[-122.16153099958045,47.44889999972834],[-122.16160500009862,47.44925499971206],[-122.16036900001437,47.44937499983209],[-122.16060300036607,47.450110999802995],[-122.1606109998637,47.45013700009726],[-122.16044799965705,47.450238000254046],[-122.16043099993864,47.45024799978387],[-122.16035700031878,47.4502940002694],[-122.16023699976986,47.45037900007033],[-122.16034200025015,47.45047499971603],[-122.16041900024305,47.45057200028744],[-122.16053300004587,47.450789000003574],[-122.16088000037554,47.451502000229894],[-122.16098800033055,47.45163000022514],[-122.16103099998826,47.45166499977099],[-122.16109600028558,47.451708000031545],[-122.16124100005054,47.45178099980003],[-122.16148700009785,47.451406000028996],[-122.16166500037306,47.451453999847615],[-122.16184100010018,47.45142999994381],[-122.16238199970024,47.45141199985686],[-122.16336099986655,47.45162500028811],[-122.1630770001844,47.45200699993874],[-122.16315300035241,47.452024999821994],[-122.16344399970723,47.452159999965126],[-122.16396099991618,47.451792000114196],[-122.16446200023158,47.451876999923854],[-122.1644479999879,47.452227999833966],[-122.16441700002576,47.453074999764944],[-122.16438900043666,47.45584199976492],[-122.16438799971343,47.45590999973198],[-122.16411999992482,47.45590800016296],[-122.16383700006762,47.455908999947475],[-122.16379500023483,47.456020000207054],[-122.16373300031053,47.45610499986439],[-122.16368300008182,47.456164000260294],[-122.16363399967803,47.456223999761164],[-122.163569000279,47.456294000003396],[-122.16344399970723,47.45642999989529],[-122.16333199955425,47.45656000019554],[-122.16330999981292,47.45657600019164],[-122.16322299977429,47.456643000046306],[-122.1630770001844,47.456717000022294],[-122.16345499957788,47.457257999900364],[-122.16353499994383,47.45735500010849],[-122.16357000010392,47.457387999975694],[-122.1636749996859,47.457452000137664],[-122.16384799993826,47.4575260001899],[-122.163962999566,47.457568000156776],[-122.16414400021428,47.45761500006548],[-122.16432400013935,47.457635999713894],[-122.16432099976629,47.45769800007306],[-122.1643140000936,47.457984999960196],[-122.16430999989562,47.45817699985453],[-122.16430499987275,47.45838300023321],[-122.16429999984989,47.45858800007119],[-122.16429499982702,47.45879400005435],[-122.16428999980415,47.458999999837744],[-122.16428599960618,47.459204999699566],[-122.16427599956045,47.45959300027491],[-122.1642739999106,47.45986500025458],[-122.1642730000857,47.46002799999013],[-122.16427100043589,47.46021900000973],[-122.16426999971267,47.46041700026427],[-122.16426700023791,47.460760999988494],[-122.16426499968978,47.46107500020116],[-122.16426100039016,47.46120899989894],[-122.1642510003444,47.462461000196875],[-122.16424600032151,47.46321700003147],[-122.16425200016931,47.464151000170546],[-122.16424100029867,47.46581000024282],[-122.16424499959831,47.46598199974611],[-122.1641040000313,47.465909999853054],[-122.16336199969147,47.465762000168006],[-122.16310999979638,47.46571100004047],[-122.16291200032798,47.46565800005797],[-122.1627099997633,47.465661000069844],[-122.16213200035328,47.46566800029936],[-122.16183899955203,47.465762999765154],[-122.16144500026505,47.46602000005477],[-122.16125699994406,47.46618399972936],[-122.1609990002012,47.46641100010096],[-122.16081599990311,47.466760999975556],[-122.16033100037953,47.46659000017358],[-122.16018499989136,47.46654899970865],[-122.16028000032588,47.46668100026173],[-122.16025500021155,47.46670799983718],[-122.16012899981484,47.46684899982372],[-122.16006699989056,47.466832999917486],[-122.15958099964375,47.46693400019281],[-122.15892399969273,47.46703700002719],[-122.15888900043095,47.46704199971331],[-122.15889000025587,47.46686000002214],[-122.15890299977632,47.46554700010474],[-122.15890100012652,47.46540699987327],[-122.156753999648,47.463235999974025],[-122.15475799968054,47.463237999871694],[-122.15457299973262,47.46292199991456],[-122.15478399961982,47.462089999945256],[-122.15520200009455,47.46114500005871],[-122.15548800032482,47.46073900007351],[-122.1554289998753,47.46044699972248],[-122.1559589996047,47.4599139999562],[-122.15637100023166,47.45959199995307],[-122.15610400026797,47.459591000238575],[-122.1557610001363,47.45959300027491],[-122.15387399994879,47.459581999770506],[-122.15365300001585,47.45958100005582],[-122.15365899986364,47.45918400007042],[-122.1536699997343,47.45903299988722],[-122.15352099977137,47.45902199987303],[-122.15112399994592,47.459032000162104],[-122.15110100037971,47.45960200013373],[-122.14744400018056,47.45962500023835],[-122.14736499963955,47.45968099997573],[-122.14722499989743,47.45981100013386],[-122.147128999638,47.45991800000421],[-122.14702200040618,47.460058999983275],[-122.1469050002303,47.46026300026573],[-122.14680800014595,47.46043800000826],[-122.14675500044251,47.46057600011289],[-122.14670600003869,47.460741999758746],[-122.1466719997035,47.46101700014448],[-122.14670600003869,47.4614520002246],[-122.14681700036677,47.461782999860965],[-122.14694799988801,47.462018000187314],[-122.14717499966872,47.46228000009832],[-122.14736200016482,47.46245900026964],[-122.14771299979408,47.462715000052604],[-122.14806500014657,47.462928000250464],[-122.14836899992021,47.46306000017942],[-122.14872100027273,47.463162999709766],[-122.14954100043036,47.46336299970136],[-122.14982400028757,47.46342499998759],[-122.15031399983405,47.46353499992369],[-122.15086600020307,47.463667000150465],[-122.15116199958078,47.463777000187456],[-122.1513549999246,47.46386700004651],[-122.15161100001765,47.46400400002204],[-122.15187299995848,47.46415600013121],[-122.15223100015875,47.46436299978478],[-122.15269399994105,47.46463900028164],[-122.15302600020206,47.46485699986543],[-122.15314599985265,47.464916999770544],[-122.15351200044887,47.46507799980494],[-122.15434099992903,47.46541299992552],[-122.15450999998345,47.46549099993545],[-122.1545719999077,47.465518999723926],[-122.15430699959384,47.46557799987999],[-122.15414000008757,47.46562100030202],[-122.15410800030051,47.465512000081816],[-122.15358000022093,47.46553200001102],[-122.15327499972409,47.465544000086325],[-122.15329399999067,47.46560999984436],[-122.15331099970909,47.46567199990958],[-122.1532320000664,47.46560800003694],[-122.1530980001721,47.46558800013664],[-122.15186000043798,47.46565699985153],[-122.15185299986699,47.46624899970319],[-122.15192099963906,47.46627600010778],[-122.15189399987489,47.46634399994078],[-122.15191700033941,47.46647400001961],[-122.15194499992849,47.46652200005154],[-122.15204799986066,47.46655200027696],[-122.15196699966981,47.466623999897934],[-122.1517979996154,47.46638499995833],[-122.15165100020063,47.46628999979484],[-122.15165500039858,47.46588500027198],[-122.15145700003185,47.46592400024484],[-122.15103199988442,47.46587500007183],[-122.1510310000595,47.4660009999039],[-122.15080299955557,47.4660020001038],[-122.15075300022517,47.46583199985763],[-122.1506979999736,47.46576899977678],[-122.15058599982058,47.465732000098996],[-122.15048299988841,47.46572199986975],[-122.1503399997733,47.46551300029102],[-122.15019699965815,47.465428000053194],[-122.1502050000541,47.4653860002922],[-122.15024000021418,47.46533799983021],[-122.15024400041216,47.46527400015821],[-122.15020300040426,47.46521400005332],[-122.15011100034275,47.46517099990565],[-122.1500150000833,47.46516499982577],[-122.14999199961876,47.46516400021726],[-122.14992999969448,47.465159999961074],[-122.14980800039405,47.46520000007969],[-122.14973899989874,47.46525899998655],[-122.14959099976076,47.46531199976409],[-122.14936499980496,47.46530699991342],[-122.1492710000936,47.465279000012025],[-122.14916899998637,47.46524800006044],[-122.14907500027505,47.46523599991752],[-122.1489399996575,47.46526600026965],[-122.14883099987755,47.4653089997323],[-122.14878599967173,47.46535400019151],[-122.1487709996031,47.465403999846856],[-122.14816499970571,47.465406000269354],[-122.1481780001245,47.4646849997175],[-122.14820300023885,47.46347500026313],[-122.14820300023885,47.463440999716575],[-122.1482070004368,47.46325699980665],[-122.1478829996734,47.46325899970353],[-122.14778700031223,47.46326100020765],[-122.14670900041172,47.463266000252915],[-122.14658899986283,47.463470999878474],[-122.14665599980997,47.46360700003324],[-122.14662900004579,47.463729999713955],[-122.14645800034157,47.46373099995707],[-122.14617899978398,47.463617000057546],[-122.14588300040631,47.46363799973797],[-122.1456440000317,47.46375900007569],[-122.14553600007667,47.463737999836276],[-122.14529900025022,47.4634909999769],[-122.14507699959404,47.46337200012948],[-122.14481700020137,47.463343999804714],[-122.14461700018482,47.46337500027186],[-122.14458799987248,47.46327399983852],[-122.14281500038614,47.46328099977863],[-122.14289700040189,47.46053299981544],[-122.1429180003183,47.459805999759986],[-122.14292300034114,47.459640000195556],[-122.13841599984714,47.45957299990822],[-122.13758399999392,47.45956100029194],[-122.13237299969319,47.45948500002663],[-122.13236500019559,47.46009800002698],[-122.13236299964746,47.460351000059816],[-122.1323519997768,47.46134200018133],[-122.13165299999298,47.46141699990455],[-122.12928700012965,47.46141699990455],[-122.12892899992939,47.461492999806424],[-122.12739800029233,47.4618690001979],[-122.1273399996677,47.461880000223786],[-122.12391699982027,47.4622530000705],[-122.12341499967997,47.46219399982643],[-122.12313000017292,47.46216200021194],[-122.12313400037087,47.462024000019056],[-122.12175099997353,47.46186099979115],[-122.12168300020144,47.46186099979115],[-122.12091300027254,47.46186200006977],[-122.12090599970152,47.46204400006065],[-122.12087399991447,47.46311599990195],[-122.12091400009744,47.463242999919196],[-122.12094300040975,47.463242999919196],[-122.12120899965022,47.46324799996618],[-122.12167900000352,47.463270000045895],[-122.12293400035435,47.463329999940385],[-122.12339399976356,47.46335199998578],[-122.12350300044181,47.46335899991546],[-122.12387099978955,47.46338200019848],[-122.12514899970658,47.46346399996366],[-122.12555399976254,47.46349999977577],[-122.12692299991619,47.46362099982381],[-122.1270090001299,47.46362899996272],[-122.12707000022928,47.46363500021792],[-122.12749700002652,47.463687000174325],[-122.12875499985212,47.46384200010113],[-122.13095800040712,47.46418700011947],[-122.1364719997582,47.46508500011209],[-122.1374779996887,47.46524900027466],[-122.13751600022186,47.46525499973765],[-122.13927399963961,47.46554200027643],[-122.14002500020031,47.46566400008158],[-122.14116800039812,47.46584900027133],[-122.14142000029322,47.46588899986569],[-122.14242200002575,47.46604999995945],[-122.1425819998593,47.46607600026779],[-122.14253800037667,47.46623600020066],[-122.14241899965269,47.46659600009081],[-122.1422379999027,47.46698599992215],[-122.14215300041222,47.46718800029802],[-122.14235799955331,47.46722399998886],[-122.14361700010213,47.467438999872826],[-122.14314699974882,47.468783000209726],[-122.14357600009423,47.4688330002469],[-122.14339600016916,47.46947199978843],[-122.1432439998332,47.46998099987024],[-122.14327099959738,47.47004200012193],[-122.1437500001715,47.47027400021338],[-122.14383399983709,47.47031400008377],[-122.14415299967932,47.4704650000488],[-122.14431900025899,47.4704899998805],[-122.14435000022112,47.47049399973105],[-122.14475199990402,47.470552999767975],[-122.1448199996761,47.470552000261925],[-122.14500700017217,47.47055000003532],[-122.14546900012952,47.470547000302446],[-122.14621800014207,47.47047100013094],[-122.1466170003502,47.47038399978373],[-122.14688099994088,47.47032600028184],[-122.14743999998261,47.47011299969853],[-122.14766500011352,47.46999900028037],[-122.1481420001395,47.469805999711],[-122.14815100036031,47.47012499994249],[-122.14815300001015,47.47035899990156],[-122.14815300001015,47.47039800019828],[-122.14843699969227,47.47039899970726],[-122.14861800034056,47.47039899970726],[-122.14970299991374,47.47040400028806],[-122.14993899991532,47.47040499979693],[-122.15170899992695,47.47041300011786],[-122.15187200013357,47.4704140002338],[-122.15196699966981,47.47041499974248],[-122.15221600009014,47.47042199994612],[-122.15234599978649,47.47051699992828],[-122.15293800033851,47.47106799971756],[-122.15319000023361,47.471444000239416],[-122.15332400012791,47.471558000166596],[-122.15356199977927,47.47165600019395],[-122.15355400028166,47.471837000191535],[-122.15354400023593,47.47216499976963],[-122.1535369996649,47.47275300011647],[-122.15352400014444,47.473822000005406],[-122.15352199959631,47.473957000047236],[-122.15387099957576,47.47396399977908],[-122.15416100000397,47.473972000165396],[-122.15431900018771,47.47397699979903],[-122.15443299999053,47.47399099986367],[-122.15485099956696,47.473979999943325],[-122.15616799984208,47.47401799993438],[-122.16086000028403,47.474055999897956],[-122.16120699971535,47.47405900003769],[-122.16150499964118,47.474061000130796],[-122.16150700018932,47.47558899981685],[-122.16150800001424,47.47574399986307],[-122.16150800001424,47.476326000217156],[-122.16194499985724,47.476331000234],[-122.16415400026001,47.47635499970103],[-122.16415300043509,47.47723299973776],[-122.16415199971188,47.477711000052885],[-122.15738899985773,47.47764099979078],[-122.15640399984363,47.477635999898595],[-122.15642099956207,47.47895599984709],[-122.15606599973482,47.47925299972779],[-122.15643200033102,47.479864000047044],[-122.15644800022459,47.481277000012206],[-122.15601100038155,47.48127799992135],[-122.15592099996988,47.48127299976819],[-122.15488400007726,47.481252999757714],[-122.15446999980047,47.48124599978264],[-122.15414799958518,47.48125000002871],[-122.15362600025166,47.481256000093715],[-122.1536060001602,47.481256000093715],[-122.15360100013731,47.47999699987736],[-122.15358900044174,47.47942899994418],[-122.15344899980136,47.47942199972608],[-122.15116800032688,47.479413000224824],[-122.14950299989721,47.479401000280355],[-122.14950200007229,47.479566999977486],[-122.14954100043036,47.48122200012111],[-122.14822400015524,47.481216000052264],[-122.14668400029737,47.48122599976194],[-122.14653500033447,47.48122700027917],[-122.14585499991888,47.48122200012111],[-122.14580300004036,47.4812210002109],[-122.14567499999384,47.481220000300624],[-122.14287300011243,47.481188000126544],[-122.14278199987585,47.48118700021564],[-122.14266499969997,47.481185999697644],[-122.14100400036659,47.481164999742774],[-122.14091099958186,47.481163999831445],[-122.14075400012136,47.48116200000871],[-122.140652999839,47.48116100009735],[-122.14038900024836,47.48115799975593],[-122.14018000001097,47.4811550000215],[-122.14008600029965,47.48115400010997],[-122.13998599984222,47.481153000198425],[-122.13988700010803,47.481152000286905],[-122.13979199967348,47.48114999985659],[-122.13967899969556,47.48114899994496],[-122.13958099978628,47.481148000033365],[-122.13937900011992,47.48114500029832],[-122.13917699955525,47.481142999867785],[-122.13897499988886,47.481140000132456],[-122.1387730002225,47.48113799970173],[-122.13857099965783,47.48113499996615],[-122.13837599966416,47.481133000142314],[-122.13758700036696,47.48114199995603],[-122.13758900001679,47.48096500009885],[-122.13759200038984,47.48059599976536],[-122.13758900001679,47.4800229999646],[-122.13759499986458,47.479556999952045],[-122.13759900006252,47.479305999965376],[-122.13759599968947,47.47923699995484],[-122.13760200043558,47.47885800007615],[-122.13760099971236,47.47791199991423],[-122.13742900018319,47.477914999833864],[-122.13624400015259,47.477910999941024],[-122.13623699958158,47.4774569998019],[-122.13502999980963,47.477446999982035],[-122.1347899996101,47.477442000071385],[-122.1322749997839,47.47741999985174],[-122.13226399991323,47.477023999787136],[-122.13224399982177,47.47625899994553],[-122.13223700014908,47.47597500027441],[-122.13224399982177,47.47588799993118],[-122.13226200026345,47.47580900015773],[-122.13226100043853,47.47561999974123],[-122.13226100043853,47.475441000062894],[-122.13226800011121,47.4751659998439],[-122.1322689999361,47.47513999978186],[-122.13211199957728,47.475136000284905],[-122.13102799982899,47.475132000180515],[-122.12985299984409,47.47511399970694],[-122.12980799963827,47.47511300028763],[-122.12975999995768,47.47511399970694],[-122.12921799963438,47.4751229999445],[-122.12910800002953,47.475123999970805],[-122.12692999958888,47.47511599975984],[-122.12692399974108,47.47491500013204],[-122.1269179998933,47.47466399982845],[-122.12690600019775,47.47424900003979],[-122.1268810000834,47.47375799973399],[-122.12700400010704,47.47375899978628],[-122.1270300000463,47.473048999775976],[-122.12702500002344,47.47291399983034],[-122.12702800039649,47.472689999830166],[-122.12700699958178,47.47227199999816],[-122.12700199955891,47.47194399987343],[-122.12698800021352,47.47194399987343],[-122.12694399983259,47.47194399987343],[-122.12695499970322,47.47103399983166],[-122.12692799993906,47.47103399983166],[-122.12668600008972,47.47103000002226],[-122.12593799990209,47.471021000298116],[-122.1253320000047,47.47101300006978],[-122.12505300034545,47.47100900025874],[-122.12492799977365,47.471003999735494],[-122.12503499990376,47.471439999853985],[-122.12523999994318,47.47225100012369],[-122.12526099985958,47.472303000057686],[-122.1252919998217,47.47240699977136],[-122.12530000021762,47.472533999808135],[-122.1252909999968,47.47263700020548],[-122.1252630004077,47.47276100007993],[-122.1252259996995,47.472866000170896],[-122.12510799969868,47.47309400028798],[-122.12498600039828,47.473403000010364],[-122.12496899978153,47.4734839998728],[-122.12495899973578,47.473640000110755],[-122.12496899978153,47.47367700029384],[-122.12500999978943,47.47374999992226],[-122.12439300002134,47.47374699976487],[-122.12394500030771,47.47374500026703],[-122.12292900033148,47.47374100005675],[-122.1216239997519,47.47372499981973],[-122.12163700017072,47.47432400017105],[-122.12165499971404,47.47504200017963],[-122.12165899991201,47.475197000017836],[-122.12172500003423,47.47543800000201],[-122.12173799955474,47.475614000246956],[-122.12174799960047,47.476989000120845],[-122.12174000010286,47.47771999984562],[-122.12177799973772,47.4788960001825],[-122.12178000028584,47.47901999985903],[-122.12173900027797,47.47968299976904],[-122.12174799960047,47.48107700018752],[-122.12169700044515,47.48123600007678],[-122.12174799960047,47.48169200014867],[-122.12179700000426,47.481803999901665],[-122.12197399955627,47.481838000104695],[-122.12257600015403,47.48185299979444],[-122.12292799960824,47.48186200009189],[-122.12316100013504,47.48186899998493],[-122.1244669996412,47.48185400029974],[-122.12442300015856,47.48145800026266],[-122.12441599958755,47.48095800008535],[-122.12499800009384,47.48096799984413],[-122.12705900035863,47.4809959998871],[-122.12706299965825,47.481414000141775],[-122.12706299965825,47.48144000013489],[-122.12706500020641,47.481614999800506],[-122.12706799968115,47.48189100016303],[-122.12707500025215,47.48233600002111],[-122.12708100009993,47.48274999980316],[-122.12609500026095,47.482746000278404],[-122.12479600042748,47.48272999974792],[-122.12454000033443,47.48273600025095],[-122.12445999996851,47.48273800001377],[-122.12436899973193,47.48273999977648],[-122.12389000005611,47.48273600025095],[-122.12191800037812,47.48271499970146],[-122.12201999958704,47.483614999763205],[-122.12189800028662,47.48360499990117],[-122.12177799973772,47.483600999834415],[-122.12066200020237,47.48354900015306],[-122.12056500011799,47.48354500008203],[-122.1202859995604,47.48353699993908],[-122.12029399995632,47.48401199978943],[-122.1206220000194,47.484022000181035],[-122.12093400018891,47.48403199996364],[-122.12111599976379,47.484037999710914],[-122.12112099978667,47.48413500028515],[-122.12113699968019,47.48448099989827],[-122.12161899972904,47.48449799974329],[-122.1217219996612,47.48450400004442],[-122.12206499979287,47.48452599972606],[-122.12221999960359,47.484536000019816],[-122.12457899979418,47.48457500011529],[-122.1255439997168,47.48459000023774],[-122.1262059996907,47.4846060002017],[-122.12651299983737,47.48461299972907],[-122.12650100014179,47.48412800008698],[-122.12714700022218,47.484149999926146],[-122.12900099989939,47.48417400007129],[-122.12976599980547,47.48418399982497],[-122.12976099978258,47.48401599982489],[-122.12974300023924,47.48343799973871],[-122.12974099969111,47.48337599999038],[-122.12973999986622,47.483310999950454],[-122.12973800021636,47.483235999897865],[-122.13022100009015,47.48324999992389],[-122.13113499995913,47.483267000167324],[-122.13236199982254,47.48328200005613],[-122.13330900020182,47.48329900028921],[-122.13341899980666,47.4833010000306],[-122.13355100005113,47.48330299977187],[-122.13379100025064,47.48330699986131],[-122.13389199963467,47.48330799973186],[-122.1340339999249,47.483309000209495],[-122.13427699959915,47.48331199982093],[-122.13435799979,47.48331300029848],[-122.13452000017169,47.48331500003929],[-122.13476200002103,47.48331699978007],[-122.13482800014327,47.48331800025748],[-122.13500499969528,47.48331999999815],[-122.13524800026782,47.48332199973874],[-122.13562099963843,47.48332599982674],[-122.13573399961633,47.483326999696885],[-122.13584699959424,47.483328000174154],[-122.13615899976377,47.483330999784506],[-122.13645599986471,47.48333499987182],[-122.13664900020854,47.483337000218945],[-122.13669900043725,47.483338000088914],[-122.13696700022587,47.48333999982878],[-122.13720099967925,47.48334300004554],[-122.13759900006252,47.48334700013194],[-122.13758999984171,47.48343400026634],[-122.13762400017687,47.484670999853385],[-122.13695800000502,47.48469700005578],[-122.1352730003822,47.484685999948375],[-122.13522999982617,47.484685999948375],[-122.13520800008487,47.484614000181814],[-122.13521399993266,47.48418399982497],[-122.13456700002736,47.484178000094424],[-122.13455899963144,47.48468100011953],[-122.13424800018515,47.48468000027516],[-122.13238000026419,47.484649000232416],[-122.13238500028709,47.48511599983839],[-122.13029399988507,47.48508000026214],[-122.129781999699,47.48507199974591],[-122.12978300042222,47.48511100005049],[-122.12978900027001,47.48551200022653],[-122.13105499959318,47.4855340000931],[-122.13108300008058,47.487310999779666],[-122.13055699965079,47.487300000219655],[-122.13001299967767,47.48728800025552],[-122.12995199957831,47.487280999870485],[-122.12981900040724,47.48728699985367],[-122.12980299961538,47.48639599969801],[-122.12733600036806,47.4863529998832],[-122.12722500003997,47.48634699979333],[-122.12462400000003,47.48631799975388],[-122.1246359996956,47.48665299986179],[-122.12472299973425,47.488131999950944],[-122.12722199966693,47.48818399995187],[-122.12726100002497,47.48818399995187],[-122.12982299970687,47.4882449997122],[-122.13094699963814,47.48826800003132],[-122.13241700007411,47.48829899975932],[-122.1330639999794,47.48830999971716],[-122.13439299995011,47.488319999897556],[-122.13492799970238,47.48832299982993],[-122.13505800029705,47.48832400021201],[-122.13513600011484,47.4923300001136],[-122.1351600004043,47.493558000104066],[-122.1351960003893,47.495435999749894],[-122.1363439997117,47.495445000147875],[-122.13640300016125,47.49544599978738],[-122.13735600038827,47.49545399993736],[-122.13773299995682,47.49545700006916],[-122.1378290002163,47.495460000200794],[-122.13787799972178,47.49546700010265],[-122.13794300001912,47.4954689999877],[-122.13803400025571,47.4954689999877],[-122.13966799982491,47.49549700019163],[-122.1406179996789,47.49551799987954],[-122.14175500002895,47.495542999930564],[-122.14251699956196,47.49555100006581],[-122.14314799957374,47.49555100006581],[-122.14315299959661,47.49574900014093],[-122.1431869999318,47.49717900009568],[-122.14319199995467,47.49741099993518],[-122.14321200004615,47.49828399973272],[-122.14323700016051,47.499220000297235],[-122.14327499979534,47.50072399971347],[-122.14328200036636,47.50100600004188],[-122.14347800018496,47.501007999716016],[-122.14382899981422,47.50101100013733],[-122.14401999960991,47.50101299981128],[-122.14469500000261,47.50101100013733],[-122.14558399975724,47.5010280000942],[-122.14579600036765,47.501025000280706],[-122.1463550004094,47.501033999720676],[-122.14739999979963,47.501050000137305],[-122.14742099971603,47.50195300015766],[-122.1481709995535,47.50195999980074],[-122.14863500005899,47.501964999805345],[-122.1486440002798,47.502872999783925],[-122.14331199960527,47.50280999980993],[-122.14331900017628,47.503780999835826],[-122.14332199965102,47.5041629997649],[-122.14333000004694,47.505385000010854],[-122.14333099987186,47.50558899973122],[-122.14331800035136,47.5064830002389],[-122.14331900017628,47.50684099983125],[-122.14332199965102,47.507259000119895],[-122.14331800035136,47.50801999995661],[-122.14332699967389,47.508557000301984],[-122.14333000004694,47.50871100016811],[-122.1438210003166,47.50872100010441],[-122.14429999999241,47.50872400008493],[-122.1444120001454,47.50872500007842],[-122.14488900017137,47.50872300009143],[-122.14488800034646,47.508785000258314],[-122.14488099977548,47.509248000118454],[-122.14527499996076,47.509255999985754],[-122.14527400013584,47.509280000187225],[-122.14527300031092,47.50940700028679],[-122.14527199958772,47.5094579998724],[-122.14526900011298,47.50966000019514],[-122.14526900011298,47.5096910000377],[-122.14526800028808,47.509760000091255],[-122.14536700002228,47.509761000064955],[-122.14536700002228,47.50991899992204],[-122.14534100008301,47.51197500014988],[-122.14534500028095,47.512014999823016],[-122.14534399955772,47.512073999952655],[-122.14534399955772,47.51210199979557],[-122.14449400016119,47.51208499978438],[-122.14328099964315,47.51207200009333],[-122.14327800016841,47.51216600007389],[-122.14325300005405,47.51324299995107],[-122.14324600038135,47.51345499990852],[-122.1432439998332,47.513514000239475],[-122.14321700006904,47.51418299972171],[-122.14321299987107,47.514285999763175],[-122.14321000039635,47.514358000108],[-122.14318399955874,47.515059999809644],[-122.14317600006115,47.51527900000117],[-122.14318899958161,47.51645200018752],[-122.14336699985687,47.51653699978881],[-122.14350599977404,47.516604000255406],[-122.14359399963756,47.5166470001748],[-122.14388300024088,47.516761000298345],[-122.14407200038676,47.51682099978493],[-122.14446599967376,47.51690900012121],[-122.14473400036067,47.5169570001873],[-122.14592799971382,47.51705099991139],[-122.14595799985105,47.51705300018768],[-122.14851100021042,47.51722700027159],[-122.14880199956526,47.51725499979189],[-122.14985600007462,47.51735899969931],[-122.15089499961707,47.51747099983578],[-122.15103899955713,47.51749000018191],[-122.15217300043246,47.517649000254096],[-122.1536000003124,47.51787499990154],[-122.15638600030029,47.51829700013249],[-122.15912500043248,47.51872700024639],[-122.15915200019667,47.51840300001947],[-122.15881699956259,47.51838900026417],[-122.15874999961544,47.518387000038814],[-122.15875700018645,47.51825599997573],[-122.15877100043015,47.51800899975896],[-122.15877599955472,47.51792499993367],[-122.15885400027084,47.517927999994725],[-122.15919099965643,47.51793700017695],[-122.15919700040249,47.51786199982475],[-122.15929199993876,47.51671799986572],[-122.15927100002237,47.51653000026938],[-122.15925500012884,47.51644400020369],[-122.15922699964142,47.51628999997367],[-122.15915300002156,47.51609899989178],[-122.15911799986148,47.51603399970215],[-122.15908000022664,47.515965000010155],[-122.1590080002566,47.51585900005156],[-122.15896600042382,47.51580800001238],[-122.15889899957837,47.515726000023854],[-122.15908199987646,47.51569699982707],[-122.15978700040638,47.516131000030235],[-122.15982099984328,47.5161519999588],[-122.16000400014137,47.51626500009461],[-122.16031499958768,47.51645600017898],[-122.16454000004941,47.51648300026505],[-122.16470599973074,47.51648000012133],[-122.16891000027607,47.516512999872525],[-122.16902699955362,47.51651600001431],[-122.16985599993211,47.51651799970429],[-122.16987699984851,47.515168999780954],[-122.1698979997649,47.514400000162375],[-122.1708059997861,47.51355300005161],[-122.1707499997096,47.51354899983885],[-122.17071500044783,47.513547000035736],[-122.17058499985316,47.51354500023249],[-122.17115999978842,47.513014000033635],[-122.17133999971348,47.51284899977579],[-122.17116999983418,47.51218000027607],[-122.17092200013705,47.51218100020371],[-122.17005099992578,47.512170999713135],[-122.1699389997728,47.51216999978534],[-122.1699339997499,47.51194100003967],[-122.1699339997499,47.51192599984129],[-122.16993499957482,47.51189899983744],[-122.16993600029804,47.51187099988622],[-122.16996399988714,47.51102999991382],[-122.1699549996663,47.51021500012531],[-122.1706929998082,47.510221999880315],[-122.17078499986971,47.510221999880315],[-122.17074499968673,47.51007799987797],[-122.17070600022699,47.509936999998516],[-122.17065299962522,47.50974299992817],[-122.17059999992178,47.509546999791986],[-122.17057099960948,47.50944400015766],[-122.17054800004324,47.509357000026284],[-122.17043400024042,47.50896099982397],[-122.17121900023797,47.50897300029693],[-122.17133499969061,47.50897500027434],[-122.1713489999343,47.508913999715034],[-122.17136099962988,47.508864000198415],[-122.17137700042173,47.50865499988298],[-122.17137400004867,47.50844599994885],[-122.17261000013292,47.508452999939784],[-122.17260799958478,47.508619000058154],[-122.17260799958478,47.50881100005203],[-122.17260599993497,47.5090219997219],[-122.17260500011005,47.5091399999698],[-122.17260500011005,47.5092259998702],[-122.17260400028513,47.50935600004484],[-122.17260299956192,47.509513999907604],[-122.17260299956192,47.509755000222334],[-122.1726009999121,47.51003200013106],[-122.1726000000872,47.510096999867216],[-122.1726000000872,47.51014100023099],[-122.17261000013292,47.510231000170734],[-122.17262199982846,47.510270999959545],[-122.1726700004074,47.51033899989466],[-122.17283500026383,47.5109309999619],[-122.17285899965496,47.51101699996144],[-122.17272099956271,47.5110370001669],[-122.17251300004854,47.511064000007465],[-122.17247799988846,47.511068999751686],[-122.17226199997836,47.5110970001308],[-122.17226700000126,47.511116999699006],[-122.17229600031358,47.51122100024335],[-122.17295200043968,47.513571000095105],[-122.17319500011394,47.5135739997984],[-122.17469999981172,47.51359000003327],[-122.17491200042211,47.51359299973543],[-122.17499699991265,47.5135940002429],[-122.17521899967048,47.51359699994483],[-122.17521799984559,47.513780000249625],[-122.17521399964761,47.51440899973629],[-122.17521100017287,47.51471799974354],[-122.17579299978084,47.514725999990524],[-122.17579100013101,47.514981000095226],[-122.17520899962472,47.514983999717934],[-122.17520600015,47.515479000031426],[-122.176340000127,47.515488999891566],[-122.17721600036114,47.515496000156595],[-122.17732400031618,47.51549799988543],[-122.17732400031618,47.515479000031426],[-122.17970199987506,47.51551699973257],[-122.17969699985217,47.51573999988297],[-122.17969699985217,47.515944999862654],[-122.17969500020239,47.51610500022257],[-122.17969000017949,47.51646199986223],[-122.17968900035459,47.51659700013824],[-122.18040300020701,47.51660299980538],[-122.18047299962892,47.51660299980538],[-122.18148399958227,47.51661200021489],[-122.18360599994641,47.51662999981582],[-122.18407799994952,47.51663600008589],[-122.18424899965375,47.5168000001241],[-122.18458000008984,47.517111000279776],[-122.18490499977986,47.517418999715495],[-122.18508999972778,47.5175940002302],[-122.18531900005664,47.51781099991229],[-122.18569800017335,47.5178090002716],[-122.18569800017335,47.51793700017695],[-122.18569599962521,47.51865300022106],[-122.18568300010472,47.52116499992403],[-122.1856820002798,47.521470999720066],[-122.18561799980739,47.52146999996949],[-122.18561699998247,47.521742999725554],[-122.18561699998247,47.52175800015096],[-122.18561600015755,47.5217899998713],[-122.18561600015755,47.522041000053015],[-122.18561500033266,47.52212799978258],[-122.18561299978452,47.522221000212504],[-122.18571200041703,47.522224000027926],[-122.18573199961018,47.52219100022878],[-122.1858000002806,47.52212999986527],[-122.185816999999,47.522113999807935],[-122.18598299968036,47.5220349997944],[-122.1860129998176,47.522027000055154],[-122.18608399996269,47.52201700022772],[-122.18655900033886,47.52201700022772],[-122.187019999573,47.52200800013876],[-122.18741299993339,47.52200699979178],[-122.18741100028357,47.52302099971755],[-122.18788499993649,47.523048999785615],[-122.18800999960996,47.52305299988078],[-122.18811099989229,47.522895000136316],[-122.18814000020463,47.52284900009822],[-122.18825599965724,47.52273299979667],[-122.18829199964227,47.522709000288],[-122.18836000031264,47.522670999729065],[-122.18843999978026,47.52264000027441],[-122.18853900041279,47.522607999859254],[-122.18862599955311,47.52258700008805],[-122.18871099994193,47.522575000301714],[-122.18877700006418,47.52257300023594],[-122.18898899977627,47.52258500002274],[-122.18908599986065,47.52260399973015],[-122.18923099962561,47.52266300008681],[-122.18927400018163,47.52268100003848],[-122.18938600033461,47.52273899997546],[-122.18950900035826,47.52281899986703],[-122.18955600021391,47.522862999876715],[-122.18968199971229,47.523004000210584],[-122.18974600018473,47.523082000258306],[-122.1901029996618,47.5235099999491],[-122.19030500022647,47.5238180000378],[-122.19042900007503,47.52400699991386],[-122.19055000044885,47.52421799975413],[-122.1909980001625,47.5249949997492],[-122.19101499988095,47.5250229999768],[-122.19101300023112,47.52510399970624],[-122.191010999683,47.52520500018222],[-122.191010999683,47.525434000276796],[-122.19100800020826,47.525598999783554],[-122.19100099963725,47.52601199975132],[-122.19099499978947,47.52641299998523],[-122.19098800011676,47.52683100027853],[-122.19098100044407,47.527244000251365],[-122.19097800007103,47.52752400016185],[-122.1909760004212,47.527587999827524],[-122.19097499969797,47.52767399982396],[-122.19096200017749,47.528435999853585],[-122.19094700010889,47.52935200028601],[-122.19093100021536,47.53064599978604],[-122.19092899966722,47.53077200015871],[-122.19092299981943,47.53125700023625],[-122.19105599988885,47.531260999705516],[-122.19118099956229,47.531260999705516],[-122.19239699955507,47.53126300004658],[-122.1933919996149,47.53126599995146],[-122.19341300042962,47.53126499978097],[-122.19347000033102,47.53126599995146],[-122.19357999993586,47.53126499978097],[-122.19358900015673,47.5315340000628],[-122.19360199967718,47.53163700000831],[-122.19363199981443,47.53174099991292],[-122.19367600019535,47.53184400005842],[-122.19373800011962,47.531928000039095],[-122.1937349997466,47.533005000043474],[-122.19298499990914,47.53300299976886],[-122.19238800023257,47.53300399990615],[-122.19237300016394,47.534816000256114],[-122.19251899975379,47.53481799985507],[-122.19285199983973,47.534820000060456],[-122.19304900038154,47.53482200026572],[-122.19310499955972,47.534822999761865],[-122.1931039997348,47.53491500002372],[-122.19310499955972,47.53527999978199],[-122.19243699973805,47.53527900029461],[-122.19243699973805,47.535514000003616],[-122.19243699973805,47.53557100021825],[-122.19243799956297,47.535620999759644],[-122.19243799956297,47.53581899970723],[-122.19243900028619,47.53662899992232],[-122.1924400001111,47.536809999818054],[-122.1924400001111,47.5368510000293],[-122.1924400001111,47.536967000039155],[-122.1924400001111,47.537021999765955],[-122.1924400001111,47.53712399979016],[-122.1924400001111,47.53726499999638],[-122.1924400001111,47.537311000127865],[-122.192440999936,47.53737600003392],[-122.192440999936,47.53748499973284],[-122.192440999936,47.53758600001942],[-122.192440999936,47.53769199974466],[-122.19244199976092,47.53774599987699],[-122.19287899960389,47.53792400003179],[-122.19285000018992,47.53796399993574],[-122.19275099955739,47.538100000108585],[-122.1925740000054,47.53834400023013],[-122.19251399973092,47.538437999839765],[-122.19249899966232,47.53848100005665],[-122.19258800024909,47.538478999990915],[-122.19283099992334,47.538476999925116],[-122.1931570003366,47.538477999958],[-122.19320400019224,47.538477999958],[-122.19329200005579,47.538477999958],[-122.19341500007944,47.538477999958],[-122.19346299976002,47.538477999958],[-122.19372800007388,47.538478999990915],[-122.19377499992954,47.538478999990915],[-122.19401299958095,47.538480000023775],[-122.1940889997489,47.538482000089466],[-122.19426200000126,47.53935700028079],[-122.194672999905,47.539360999738705],[-122.1949039998837,47.53936399978677],[-122.19541299969671,47.53936299977079],[-122.19557099988046,47.53936199975477],[-122.195987999632,47.53936399978677],[-122.19615000001369,47.53936399978677],[-122.1969319996382,47.539365999818756],[-122.19692900016345,47.5393329998881],[-122.19917899967581,47.539335999937784],[-122.20427299980068,47.53934400006945],[-122.20481500012397,47.53832900030266],[-122.20823299994852,47.531921000146916],[-122.20973299962341,47.53042100014389],[-122.21876299960668,47.52398400008408],[-122.21913300040086,47.523720999968596],[-122.22539400011466,47.521367999829366],[-122.22716499995121,47.52070200024921],[-122.23569899964194,47.517769000161266],[-122.22747600029584,47.51362400028857],[-122.21982200013893,47.50980100021203],[-122.21950699959633,47.50604800029936],[-122.21916099998994,47.50140899989641],[-122.21885800004124,47.50128900020443],[-122.21878699989612,47.50125800025461],[-122.21863899975811,47.50111399993438],[-122.21826899986225,47.500753000294885],[-122.2180589998,47.50054799983838],[-122.21824899977076,47.500554000126606],[-122.2188129998354,47.50057299992212],[-122.21900600017925,47.50057900020748],[-122.21900600017925,47.50055500027574],[-122.21900399963108,47.500502999779066],[-122.2190029998062,47.50046900012672],[-122.21923399978488,47.50047400027332],[-122.2191719998606,47.500391999993795],[-122.21906399990557,47.500221999938745],[-122.21901799987481,47.500165000150496],[-122.21891900014062,47.50008400015332],[-122.2188970003993,47.50005599996786],[-122.21886600043716,47.49998599974241],[-122.2188489998204,47.49980299989113],[-122.21885200019348,47.49976000012865],[-122.21885800004124,47.49974900014142],[-122.21887599958458,47.49971500000083],[-122.2190170000499,47.49965499977038],[-122.21908800019499,47.49961199988669],[-122.21918100008142,47.49953100025011],[-122.21923999963266,47.499453999955264],[-122.21929200040951,47.499368999995205],[-122.2193490003109,47.499244999799515],[-122.21949900009874,47.498702000187194],[-122.21954199975644,47.49851699973301],[-122.21955600000015,47.498458000143245],[-122.21957799974145,47.49824600029883],[-122.21974699979586,47.49825100005025],[-122.2200029998889,47.49825599980116],[-122.21999799986602,47.49823699977408],[-122.21998799982029,47.49819800011214],[-122.21995699985813,47.498092000075516],[-122.21990199960655,47.49809900023338],[-122.21988499988812,47.49801699988593],[-122.21993000009397,47.497954999745446],[-122.22000500043703,47.49794500018579],[-122.220002000064,47.49793600021637],[-122.21997399957655,47.49783699984355],[-122.21995500020832,47.497770999895984],[-122.21994500016258,47.49772800029005],[-122.22013900033133,47.49772700008711],[-122.2202930003171,47.49772800029005],[-122.22089900021452,47.49773199988792],[-122.2210459996293,47.49773300009081],[-122.22104499980439,47.49763800015412],[-122.2210459996293,47.49742900005254],[-122.22119600031543,47.49743300028007],[-122.22120100033833,47.49727000001627],[-122.22120399981304,47.4970720002141],[-122.2213250001869,47.49707500025346],[-122.2214459996624,47.497078000292646],[-122.2214819996474,47.49707899990106],[-122.22156799986112,47.49708099972472],[-122.22161899991472,47.49708199994002],[-122.22166599977041,47.49708300015525],[-122.22180300003777,47.49708699980224],[-122.22181499973333,47.496734999962015],[-122.22230299962996,47.49674599997377],[-122.22230600000302,47.49665900003851],[-122.22233600014023,47.49665900003851],[-122.22234399963783,47.496317000235365],[-122.22235500040681,47.49584399985374],[-122.22235899970647,47.495671999762074],[-122.22196500041946,47.49566400025226],[-122.22197100026726,47.49538900027666],[-122.22197299991707,47.49530699994556],[-122.22043100040938,47.49527299996317],[-122.21987499984239,47.495260999999836],[-122.21962200012237,47.495254999713666],[-122.21945999974068,47.49525099992717],[-122.21936400037954,47.49489800026803],[-122.21933199969416,47.49478099982476],[-122.21930499992997,47.49468299983384],[-122.21944800004512,47.49468099991885],[-122.2194680001366,47.494687000270616],[-122.21949200042604,47.494687000270616],[-122.2198689999946,47.494694999929266],[-122.2199669999039,47.49469899975816],[-122.22017500031636,47.49470199993309],[-122.22017500031636,47.494518000216324],[-122.22004600044492,47.49451600029506],[-122.22004600044492,47.494333999854845],[-122.21988599971304,47.49432999999815],[-122.21988700043626,47.49427800001269],[-122.21989400010895,47.493889999943036],[-122.21989199956082,47.49374000019895],[-122.21988999991098,47.49358800006977],[-122.21989199956082,47.493520000284846],[-122.21996000023121,47.49351399979974],[-122.22210000013868,47.49355400018832],[-122.22240800011026,47.4935589997795],[-122.22304699961963,47.49357100013178],[-122.22304900016775,47.49317699977747],[-122.22305400019064,47.49247299994326],[-122.22305599984044,47.49216899980115],[-122.22304999999267,47.49202300002982],[-122.2230380002971,47.491955000039354],[-122.22302300022851,47.49190599985774],[-122.2229529999083,47.49179199976619],[-122.22294100021271,47.49173499993115],[-122.22292799979392,47.491676000004745],[-122.22298100039572,47.491560999700496],[-122.22300499978682,47.491406000185144],[-122.22301300018275,47.49088699974254],[-122.22407199981667,47.49091499996161],[-122.22419700038847,47.490919000078414],[-122.22446600000198,47.49092599997858],[-122.22554800010046,47.49092300019492],[-122.22605799973839,47.490928000036575],[-122.22623099999078,47.49092100013669],[-122.22642500015952,47.49092100013669],[-122.22714800023279,47.49092100013669],[-122.22722100002771,47.49092100013669],[-122.22744199996065,47.49092100013669],[-122.22758699972562,47.4909219998623],[-122.2275859999007,47.49087700005085],[-122.2275859999007,47.490832000200875],[-122.22757300038025,47.48997100029819],[-122.22756800035735,47.48959099980032],[-122.2275669996341,47.48950200003872],[-122.22756499998432,47.48937999972489],[-122.22735999994488,47.48938199984177],[-122.2270009999197,47.489386000075335],[-122.22680599992603,47.489386999830174],[-122.22645100009879,47.48939100006336],[-122.22643500020526,47.489359999765824],[-122.22644699990082,47.488898000290924],[-122.22532499961939,47.48889499978439],[-122.22532399979447,47.48858100004783],[-122.22532399979447,47.48848399979225],[-122.22532299996955,47.48841399992206],[-122.22532299996955,47.48817099980468],[-122.2257690000334,47.488169000248725],[-122.22734800024934,47.48816199998111],[-122.22746100022724,47.48816199998111],[-122.22754999991568,47.48816599970056],[-122.22754999991568,47.48805299976939],[-122.22754999991568,47.48794000020211],[-122.22754999991568,47.487836000272736],[-122.2273409996783,47.487836000272736],[-122.22606699995923,47.487840000017],[-122.22556900001686,47.48783799984142],[-122.22557300021481,47.48719000024354],[-122.22613899992926,47.4871919998368],[-122.22614300012721,47.487017999730874],[-122.22733400000564,47.48701099991691],[-122.22755499993856,47.48701000011684],[-122.22755400011366,47.486934999882024],[-122.2275569995884,47.48657600010765],[-122.2275580003116,47.486362000016776],[-122.2278820001767,47.48636899991723],[-122.22790200026819,47.48636899991723],[-122.22999100012207,47.486409000284475],[-122.23040299985071,47.486409000284475],[-122.23108900011408,47.486411999718946],[-122.23295399966194,47.4864409997065],[-122.23295799985989,47.484653000219375],[-122.23295500038519,47.484398000290085],[-122.23262899997192,47.48414100002066],[-122.23236899968093,47.483950000111456],[-122.2316270002394,47.48336000025888],[-122.23150500004068,47.48325599976047],[-122.23107999989324,47.482919999965326],[-122.23101899979386,47.48287199973244],[-122.23071800039331,47.48265400019704],[-122.23090800036411,47.482671000026244],[-122.23116799975679,47.48270700003921],[-122.23120999958958,47.48259999981028],[-122.23144499976621,47.482096999893315],[-122.23210699974013,47.48067000002354],[-122.23215500031903,47.480566000270954],[-122.23217899971016,47.48050699994035],[-122.23219200012895,47.48047300009015],[-122.23220100034976,47.480450999925374],[-122.23227699961943,47.48047300009015],[-122.23234000026693,47.48048599971403],[-122.2323949996202,47.48049999986583],[-122.23260999970537,47.48054400014512],[-122.2331679999222,47.48066499981251],[-122.23335500041827,47.48070700011356],[-122.2334149997944,47.48065300015396],[-122.23344999995449,47.480621000241634],[-122.23361200033621,47.48049000001797],[-122.23366199966661,47.48044499976847],[-122.23380999980462,47.480315000247714],[-122.23387599992684,47.480346999739275],[-122.23478499977298,47.48069599977778],[-122.23526299962383,47.48083899971368],[-122.23575399989352,47.480960999831076],[-122.23625600003385,47.48105999984251],[-122.23671799999123,47.481127999975314],[-122.23727899968277,47.481184999786706],[-122.23762600001243,47.481204999823014],[-122.23831899994845,47.48121699996262],[-122.23868399982145,47.48120700025123],[-122.24068900000972,47.48106400010274],[-122.24104899985983,47.48106400010274],[-122.24160700007666,47.48108899974919],[-122.24206099963811,47.481139000220686],[-122.24243100043228,47.48119799984154],[-122.24279299993222,47.48127400028452],[-122.24528000016932,47.481969999898666],[-122.24558999979071,47.48205799977942],[-122.24557700027026,47.481092000094556],[-122.24578700033251,47.48109300000722],[-122.24581800029468,47.479933999776016],[-122.24821299957198,47.479933999776016],[-122.24915800030142,47.47993299984129],[-122.24970499974927,47.47993299984129],[-122.25161000037843,47.47945299981764],[-122.25164600036346,47.47944500026577],[-122.25167300012762,47.4794380000498],[-122.25187700034215,47.47938799978086],[-122.25199699999273,47.47935800020378],[-122.25216000019935,47.47931799993154],[-122.25225800010864,47.47929300004952],[-122.25235600001791,47.47926900010298],[-122.25243399983574,47.479247999989006],[-122.25285899998319,47.47930400007192],[-122.25337899966686,47.47937299999447],[-122.25337799984194,47.479395999948515],[-122.25359700012505,47.479461999919145],[-122.25371599995078,47.47949799970257],[-122.25392400036324,47.478978000030736]],[[-122.14862699966307,47.50427899985717],[-122.14861900016545,47.50493699982983],[-122.14861099976953,47.50544899998471],[-122.1481010001316,47.50543300030197],[-122.14810899962922,47.50463100009565],[-122.14811000035245,47.504617999771945],[-122.14764900021999,47.504483999702124],[-122.1472990004156,47.50447799986308],[-122.1472990004156,47.5045050000436],[-122.14729500021768,47.50490899980533],[-122.1472919998446,47.50521599979978],[-122.14728699982173,47.50552199976474],[-122.14728400034701,47.50582799976639],[-122.14728000014904,47.50628299990532],[-122.14728299962378,47.50639099986454],[-122.14704800034545,47.50639399997824],[-122.1469189995757,47.50640200028059],[-122.14670600003869,47.50641500016243],[-122.14656899977133,47.50643599973143],[-122.14633000029505,47.506445000064254],[-122.14631299967829,47.50645799993549],[-122.14629699978477,47.506468000300984],[-122.14628199971615,47.50647700002154],[-122.14626900019569,47.5064830002389],[-122.14625300030215,47.50648999988481],[-122.14623700040863,47.50649600010072],[-122.14622399998983,47.50650000024425],[-122.14621099957104,47.506502999744896],[-122.14619600040075,47.50650699988789],[-122.14617799995906,47.50650999999497],[-122.14616399971538,47.50651200006623],[-122.14614600017204,47.50651300010186],[-122.14613000027849,47.50651400013743],[-122.1461160000348,47.50651400013743],[-122.1459760002927,47.50651400013743],[-122.14597700011764,47.50645599986212],[-122.14597799994256,47.50633300006015],[-122.14594399960734,47.50626599982969],[-122.14594899963024,47.50581699983688],[-122.14595200000326,47.50550800021382],[-122.1459539996531,47.505367000193836],[-122.1459610002241,47.50477499987151],[-122.14596200004902,47.50472099977427],[-122.14596500042205,47.50445199974356],[-122.14596200004902,47.50436499983336],[-122.14648299955762,47.50411899985121],[-122.14657899981707,47.504079000228614],[-122.14668000009942,47.50403899996873],[-122.14676700013806,47.5040110000721],[-122.14689299963644,47.50397999990902],[-122.14712600016324,47.50394199974289],[-122.14727799960089,47.503927999770596],[-122.14739599960168,47.50392600020772],[-122.14766599993844,47.50394299982749],[-122.14776399984771,47.503954000149704],[-122.14783199961977,47.50396599994686],[-122.14800400004722,47.50400300001218],[-122.14811100017737,47.504035000244514],[-122.14825699976723,47.504079000228614],[-122.1484519997609,47.50415900005014],[-122.14854100034763,47.5042130001186],[-122.14862699966307,47.50427899985717]]],[[[-122.23144800013927,47.490040000171945],[-122.231450999614,47.489497000061306],[-122.23039799982784,47.48952199994376],[-122.2301829997427,47.489534999756515],[-122.23025499971273,47.49001700002177],[-122.23025700026086,47.49024300029526],[-122.23044600040674,47.49023200013525],[-122.23144899996419,47.49021699980299],[-122.23144800013927,47.490040000171945]]]]},"properties":{"AREALAND":"60971363","AREAWATER":"4466186","BASENAME":"Renton","CBSAPCI":"Y","CENTLAT":"+47.4783917","CENTLON":"-122.1917768","FUNCSTAT":"A","GEOID":"5357745","INTPTLAT":"+47.4794878","INTPTLON":"-122.1948920","LSADC":"25","MTFCC":"G4110","NAME":"Renton city","NECTAPCI":"N","OBJECTID":30761,"OID":"27890836057942","PLACE":"57745","PLACECC":"C1","PLACENS":"02410926","STATE":"53","DISP_CLR":1,"slug":"renton","jurisdiction_key":"renton_city","county_fips":["53033"]}}]}
