{"type":"FeatureCollection","features":[{"type":"Feature","geometry":{"type":"Polygon","coordinates":[[[-119.5216050000469,48.51545799995448],[-119.52163699983396,48.51302600025618],[-119.51941900010863,48.51301799988247],[-119.5194090000629,48.5129819999705],[-119.5193599996591,48.51281199994134],[-119.51934799996353,48.51278000008909],[-119.51913999955106,48.51218399981714],[-119.51912200000771,48.51213099971015],[-119.51904699966465,48.51199699984358],[-119.51898399991545,48.511884000186946],[-119.51881200038632,48.51157300003618],[-119.51879399994466,48.51154600007846],[-119.51872399962447,48.51143899988416],[-119.51851799976015,48.51112799997767],[-119.51837600036822,48.510913000187415],[-119.51796100026652,48.51039599978636],[-119.51781700032649,48.510262000092496],[-119.5175439996167,48.5100089997487],[-119.51731699983598,48.51007999979863],[-119.51724200039124,48.510100000104835],[-119.51717399972084,48.510119999808076],[-119.51701600043543,48.510128000044226],[-119.5168880003889,48.510115000180576],[-119.51669099984709,48.510041999968685],[-119.51654299970909,48.50993500016918],[-119.51647599976192,48.50977799998767],[-119.51647099973906,48.509752000077455],[-119.51643999977692,48.50955200004737],[-119.51636600015706,48.50946700000386],[-119.51632799962394,48.509424000018555],[-119.51615500026989,48.50930899974019],[-119.51615299972174,48.5086619998043],[-119.51614799969887,48.50744000018556],[-119.51614100002615,48.506507000265294],[-119.51615299972174,48.50589800025546],[-119.5161219997596,48.50381999992048],[-119.51707699963646,48.50380299990493],[-119.51785300031149,48.50381000001706],[-119.51848299960004,48.50379800024942],[-119.52161199971958,48.50378699981509],[-119.5215849999554,48.50016899994027],[-119.52122099990731,48.50017599995904],[-119.5192330003358,48.500178999966785],[-119.51637899967754,48.500200000016086],[-119.51607400007902,48.500202000020295],[-119.51605900001042,48.499703000088076],[-119.5160659996831,48.499552999860384],[-119.51605599963736,48.499090999798824],[-119.51603800009401,48.49784699989793],[-119.51601999965236,48.49655200024254],[-119.51077499991477,48.496579999928535],[-119.50961199962542,48.49657799978138],[-119.50506700039487,48.496588999994415],[-119.50492299955653,48.49643400029027],[-119.50480499955576,48.49630699994907],[-119.50451199965278,48.49593199991604],[-119.50444300005583,48.495747999769655],[-119.50442899981212,48.495579999855124],[-119.50444499970564,48.49532300023397],[-119.50445499975139,48.49528299985608],[-119.50452300042176,48.4950239997115],[-119.50494400037124,48.494271000156274],[-119.50492000008178,48.49403500007469],[-119.50485999980734,48.49383999997561],[-119.50481899979947,48.4937400002139],[-119.50474099998165,48.493604000269116],[-119.50399600016706,48.492833999742956],[-119.50086700004755,48.49287400026702],[-119.50187299997802,48.49400799970274],[-119.50281699998422,48.49512700022395],[-119.50354599990528,48.49599100021307],[-119.50272800029576,48.496000999873225],[-119.50217299955366,48.49600899995705],[-119.50134599972331,48.49599600004339],[-119.50027600021873,48.495994999958285],[-119.50002599997349,48.495994999958285],[-119.49945900043413,48.49601000004184],[-119.49916099961,48.49601700003966],[-119.49826699983248,48.49604000019564],[-119.49796999973157,48.49604899976213],[-119.49754600030735,48.496049999846136],[-119.49627400023807,48.496053000098065],[-119.49604599973414,48.496054000181985],[-119.49585099974047,48.496054000181985],[-119.49498799992512,48.49605699983838],[-119.49589099992345,48.49719400029595],[-119.49723099976478,48.49910500013312],[-119.49776700024029,48.49984299978112],[-119.49791799985304,48.50000599982517],[-119.4984509999555,48.500406000038076],[-119.49899300027883,48.50086700003054],[-119.49921800040971,48.50105899993212],[-119.499492999871,48.501293000093696],[-119.49947000030478,48.501801000180706],[-119.49945900043413,48.50235899972584],[-119.49944600001534,48.50256200003549],[-119.49944199981739,48.502663000206255],[-119.4994150000532,48.50319300019588],[-119.49939300031188,48.503588999921924],[-119.49935200030401,48.504369999902586],[-119.49929399967938,48.50547200020855],[-119.49928600018177,48.50562700025162],[-119.499276000136,48.50580899987375],[-119.49938999993883,48.50577800025246],[-119.49989100025427,48.5056149997238],[-119.50007299982914,48.505555999914414],[-119.50047299986223,48.50555900019893],[-119.5014770001429,48.505576000220685],[-119.50166100026591,48.50557299993717],[-119.50193499990228,48.505574999729376],[-119.50206600032186,48.50581899997795],[-119.50222600015543,48.50612000028574],[-119.50235599985176,48.5060910000314],[-119.5024269999969,48.50607500006867],[-119.50278500019716,48.5060000002132],[-119.5025190000584,48.50558300008789],[-119.50639899984029,48.505619999795265],[-119.50699899988994,48.505624999866285],[-119.5070099997606,48.50542700001125],[-119.50703599969984,48.5049779999149],[-119.50699200021722,48.504509999800014],[-119.50691799969908,48.50411400012747],[-119.50679100037577,48.50388400020795],[-119.50752199994666,48.503878999965174],[-119.51064699986823,48.50385599979452],[-119.51070100029492,48.50747599986893],[-119.50726699967854,48.50752500005815],[-119.50679100037577,48.50753099979872],[-119.50675700004058,48.50829400019803],[-119.50674600016993,48.50847000013613],[-119.50690699982843,48.5088439998348],[-119.50731199988435,48.509456000204835],[-119.50758899989383,48.50973399985712],[-119.50831100014217,48.510558000017916],[-119.50873299991653,48.51112100028118],[-119.50882300032823,48.51137399983379],[-119.50932299992043,48.51237700005267],[-119.50949500034788,48.51264300028865],[-119.5099260003431,48.51338499995563],[-119.51013999970503,48.51382999983014],[-119.51022400026893,48.51432299980398],[-119.51023000011672,48.514664999892304],[-119.51018300026104,48.51489599998722],[-119.50997800022165,48.51581799996767],[-119.50990200005366,48.51601800025811],[-119.50969700001424,48.51652599973121],[-119.50934100036208,48.51708600013058],[-119.50884900026749,48.51777199987456],[-119.5082590002636,48.51832500029504],[-119.50886799963575,48.51833099994692],[-119.50901300029903,48.51833200018634],[-119.51050700012617,48.51834499972694],[-119.51351200039713,48.51834299984358],[-119.51518799979914,48.5183359999538],[-119.5162480001563,48.51833200018634],[-119.5162470003314,48.51816499979547],[-119.51624300013343,48.517507999705614],[-119.51621499964602,48.51478300025012],[-119.51992200007388,48.51476500003174],[-119.52008899958015,48.5153450002807],[-119.52015399987745,48.51557099997124],[-119.52113100039396,48.515586999911115],[-119.52160400022198,48.515586999911115],[-119.5216050000469,48.51545799995448]]]},"properties":{"AREALAND":"2296436","AREAWATER":"134969","BASENAME":"Riverside","CBSAPCI":"N","CENTLAT":"+48.5047401","CENTLON":"-119.5099991","FUNCSTAT":"A","GEOID":"5358795","INTPTLAT":"+48.5130108","INTPTLON":"-119.5156538","LSADC":"43","MTFCC":"G4110","NAME":"Riverside town","NECTAPCI":"N","OBJECTID":10078,"OID":"27890480662919","PLACE":"58795","PLACECC":"C1","PLACENS":"02412556","STATE":"53","DISP_CLR":4,"slug":"riverside","jurisdiction_key":"riverside_city","county_fips":["53047"]}}]}
