{
  "type": "FeatureCollection",
  "features": [
    {
      "type": "Feature",
      "geometry": {
        "type": "Polygon",
        "coordinates": [
          [
            [
              -122.75598099956193,
              45.82431300030547
            ],
            [
              -122.75594299992709,
              45.82424199988342
            ],
            [
              -122.75573600023786,
              45.82387399991273
            ],
            [
              -122.7555219999776,
              45.8234899998266
            ],
            [
              -122.75535700012118,
              45.82319299986547
            ],
            [
              -122.7550919998073,
              45.822716999835585
            ],
            [
              -122.75492500030104,
              45.82238199995756
            ],
            [
              -122.75470299964489,
              45.82194200022276
            ],
            [
              -122.75455100020721,
              45.821692999775415
            ],
            [
              -122.75436899973406,
              45.82139300029163
            ],
            [
              -122.75436399971116,
              45.821383999806336
            ],
            [
              -122.75430000013706,
              45.82128100027028
            ],
            [
              -122.75424099968751,
              45.82112099993838
            ],
            [
              -122.75419200018203,
              45.82098999974295
            ],
            [
              -122.75409699974747,
              45.820735000070016
            ],
            [
              -122.75404200039421,
              45.82058900023967
            ],
            [
              -122.75394799978457,
              45.820428999797265
            ],
            [
              -122.75369800043764,
              45.8200050002202
            ],
            [
              -122.75365599970652,
              45.81989100030584
            ],
            [
              -122.75354699992657,
              45.819594999734896
            ],
            [
              -122.75337100019948,
              45.81929399977625
            ],
            [
              -122.75321600038876,
              45.81902799997264
            ],
            [
              -122.75287499990691,
              45.818626000286955
            ],
            [
              -122.75273400033993,
              45.81845899978853
            ],
            [
              -122.7524720003991,
              45.81815099986112
            ],
            [
              -122.75227999988019,
              45.81792500002181
            ],
            [
              -122.75164600039366,
              45.817256999760794
            ],
            [
              -122.75121700004827,
              45.81680599990514
            ],
            [
              -122.75103299992526,
              45.81661200019999
            ],
            [
              -122.75039299969265,
              45.81593899984666
            ],
            [
              -122.75007300002552,
              45.8156020001236
            ],
            [
              -122.7498460002448,
              45.815364000099294
            ],
            [
              -122.74981199990961,
              45.81532799988605
            ],
            [
              -122.74947700017385,
              45.814975999983396
            ],
            [
              -122.74908999966124,
              45.81464300028109
            ],
            [
              -122.7488329997433,
              45.81442999994066
            ],
            [
              -122.74847500044133,
              45.81413299986084
            ],
            [
              -122.74807600023314,
              45.813821000151805
            ],
            [
              -122.7473749999012,
              45.81331400010546
            ],
            [
              -122.74676700035397,
              45.81299799985966
            ],
            [
              -122.74624699977198,
              45.812639000101534
            ],
            [
              -122.74580999992895,
              45.8123849996893
            ],
            [
              -122.74526000010808,
              45.81212900011322
            ],
            [
              -122.74489400041017,
              45.811930000040775
            ],
            [
              -122.74480599964829,
              45.81189899984278
            ],
            [
              -122.74441499983605,
              45.81166400012355
            ],
            [
              -122.7438690002131,
              45.81136000000426
            ],
            [
              -122.74257600022746,
              45.81054100016957
            ],
            [
              -122.74244200033316,
              45.81045200022357
            ],
            [
              -122.74203200025431,
              45.810198999832394
            ],
            [
              -122.74187599972038,
              45.81010600005314
            ],
            [
              -122.74124700025675,
              45.80945399976507
            ],
            [
              -122.74092199966843,
              45.808804999990016
            ],
            [
              -122.74083200015507,
              45.80818199988001
            ],
            [
              -122.74077299970553,
              45.80789499984896
            ],
            [
              -122.74056799966613,
              45.807404000139364
            ],
            [
              -122.74055500014562,
              45.80736100022392
            ],
            [
              -122.74019699994533,
              45.80644500002424
            ],
            [
              -122.74010200040911,
              45.80470799985865
            ],
            [
              -122.74031599977103,
              45.80375599969128
            ],
            [
              -122.7412439998837,
              45.802257000287874
            ],
            [
              -122.7417910002299,
              45.800543000124286
            ],
            [
              -122.74207699956183,
              45.79852099969708
            ],
            [
              -122.74305200042852,
              45.795547000280806
            ],
            [
              -122.74353799977699,
              45.793659000052486
            ],
            [
              -122.74298100028341,
              45.79366999992822
            ],
            [
              -122.74249400021168,
              45.79367899988185
            ],
            [
              -122.74172000008478,
              45.79368700018739
            ],
            [
              -122.73112299958115,
              45.793804000062124
            ],
            [
              -122.72340300020029,
              45.79386999973854
            ],
            [
              -122.71310000032285,
              45.7939429999634
            ],
            [
              -122.71309600012488,
              45.79304499973126
            ],
            [
              -122.71309199992696,
              45.792077999945015
            ],
            [
              -122.71308799972898,
              45.79097699994744
            ],
            [
              -122.71308799972898,
              45.79085399971161
            ],
            [
              -122.7131389997826,
              45.78804899976467
            ],
            [
              -122.71316300007204,
              45.78669000023066
            ],
            [
              -122.71314899982833,
              45.78669000023066
            ],
            [
              -122.71313399975975,
              45.78669100000284
            ],
            [
              -122.71301900013201,
              45.78669499971765
            ],
            [
              -122.71243499997591,
              45.78669399994555
            ],
            [
              -122.71220200034742,
              45.78669399994555
            ],
            [
              -122.71192299978985,
              45.78669300017348
            ],
            [
              -122.71190400042158,
              45.78669300017348
            ],
            [
              -122.71108699973865,
              45.78669399994555
            ],
            [
              -122.71080899990432,
              45.78669499971765
            ],
            [
              -122.71024900003768,
              45.78669600011613
            ],
            [
              -122.70857199991245,
              45.78669800028663
            ],
            [
              -122.70801299987072,
              45.78669999983058
            ],
            [
              -122.70752800034714,
              45.786707999885124
            ],
            [
              -122.70698500019891,
              45.786710000055145
            ],
            [
              -122.7039020001101,
              45.78672600016015
            ],
            [
              -122.70305000016542,
              45.78673100027036
            ],
            [
              -122.70287500026325,
              45.786743999802994
            ],
            [
              -122.70273100032318,
              45.78671299999688
            ],
            [
              -122.70219599967258,
              45.78671599993846
            ],
            [
              -122.70206400032642,
              45.78671699971017
            ],
            [
              -122.70180499986031,
              45.786718000108245
            ],
            [
              -122.70123599977286,
              45.78672100004955
            ],
            [
              -122.70106599989353,
              45.78672199982113
            ],
            [
              -122.7005779999969,
              45.7867239999907
            ],
            [
              -122.7001629998952,
              45.78672600016015
            ],
            [
              -122.69956600021861,
              45.78672999987246
            ],
            [
              -122.69928199963819,
              45.78673100027036
            ],
            [
              -122.69894400042769,
              45.78673299981312
            ],
            [
              -122.69856799978574,
              45.7867349999823
            ],
            [
              -122.69843600043957,
              45.78673599975362
            ],
            [
              -122.69801700013991,
              45.78673799992269
            ],
            [
              -122.69749099971017,
              45.78674099986292
            ],
            [
              -122.69716199982217,
              45.78674300003176
            ],
            [
              -122.69623299988457,
              45.78674800014044
            ],
            [
              -122.69548899989492,
              45.78675199985117
            ],
            [
              -122.6946570000417,
              45.78675600018804
            ],
            [
              -122.69420500013008,
              45.78675799972996
            ],
            [
              -122.69380300044716,
              45.78676100029555
            ],
            [
              -122.69321699974293,
              45.78676799994412
            ],
            [
              -122.69253800005059,
              45.78677000011204
            ],
            [
              -122.69256200034005,
              45.790172000170344
            ],
            [
              -122.69256499981478,
              45.79045200024047
            ],
            [
              -122.69304799968853,
              45.790446000132896
            ],
            [
              -122.69342799963013,
              45.790442000060835
            ],
            [
              -122.69375099967031,
              45.790991999759015
            ],
            [
              -122.69383799970895,
              45.79114200015836
            ],
            [
              -122.6946360001253,
              45.7924760002895
            ],
            [
              -122.69467999960791,
              45.79255200008872
            ],
            [
              -122.69468200015604,
              45.79266600021965
            ],
            [
              -122.69469899987449,
              45.79356699986802
            ],
            [
              -122.69462299970651,
              45.793602999740415
            ],
            [
              -122.69470399989736,
              45.793630999903506
            ],
            [
              -122.69485799988313,
              45.793694999865444
            ],
            [
              -122.69486999957871,
              45.79368399999464
            ],
            [
              -122.69511700034923,
              45.7934090000138
            ],
            [
              -122.69544399968906,
              45.79354199987334
            ],
            [
              -122.69522500030426,
              45.79380000023102
            ],
            [
              -122.69519500016702,
              45.793835000308974
            ],
            [
              -122.69557199973558,
              45.793991000299364
            ],
            [
              -122.6956570001244,
              45.79402399972346
            ],
            [
              -122.69612599975446,
              45.794208999947934
            ],
            [
              -122.6959450000045,
              45.79506600007214
            ],
            [
              -122.69590700036966,
              45.795242999888195
            ],
            [
              -122.6940019997405,
              45.79573100022369
            ],
            [
              -122.69416199957405,
              45.79763000012132
            ],
            [
              -122.69258599973118,
              45.79764000026378
            ],
            [
              -122.69258200043151,
              45.80129200030197
            ],
            [
              -122.69197599963582,
              45.80129699973168
            ],
            [
              -122.6917489998551,
              45.80130000014084
            ],
            [
              -122.69096499968245,
              45.801307999978505
            ],
            [
              -122.69072000035835,
              45.80129000002896
            ],
            [
              -122.69059899998456,
              45.80126900028916
            ],
            [
              -122.69044300034894,
              45.801267000015336
            ],
            [
              -122.68929000010536,
              45.80127300021039
            ],
            [
              -122.68640899968294,
              45.801288999892385
            ],
            [
              -122.68536599994252,
              45.80129000002896
            ],
            [
              -122.68466399978566,
              45.80129100016548
            ],
            [
              -122.68441799973837,
              45.80132200000486
            ],
            [
              -122.68437199970761,
              45.80133300024679
            ],
            [
              -122.68425799990477,
              45.80136599970694
            ],
            [
              -122.68389899987957,
              45.80135100018246
            ],
            [
              -122.68324199992854,
              45.80135500009779
            ],
            [
              -122.68300400027717,
              45.80135600023314
            ],
            [
              -122.68264199987892,
              45.801360000148115
            ],
            [
              -122.67968000016394,
              45.80136900011233
            ],
            [
              -122.67947699977438,
              45.801362999927605
            ],
            [
              -122.67899800009856,
              45.80136100028337
            ],
            [
              -122.67855799988251,
              45.8013619997924
            ],
            [
              -122.67881700034862,
              45.80190899968826
            ],
            [
              -122.67870799967035,
              45.801940999934935
            ],
            [
              -122.67882900004417,
              45.8021949997535
            ],
            [
              -122.67853100011834,
              45.80226799971889
            ],
            [
              -122.67867800043142,
              45.80258199986922
            ],
            [
              -122.6789010000142,
              45.803052999907706
            ],
            [
              -122.67911799974917,
              45.80301300008177
            ],
            [
              -122.67940900000232,
              45.803628000259394
            ],
            [
              -122.67963199958507,
              45.80358700012478
            ],
            [
              -122.67997300006691,
              45.80430999982978
            ],
            [
              -122.68005599990761,
              45.804475000016865
            ],
            [
              -122.68030600015285,
              45.80497200029177
            ],
            [
              -122.68038999981844,
              45.805137999838024
            ],
            [
              -122.68040599971197,
              45.805169000041786
            ],
            [
              -122.68036700025223,
              45.805169000041786
            ],
            [
              -122.68023400018282,
              45.80517200024237
            ],
            [
              -122.68014999961893,
              45.805173000309196
            ],
            [
              -122.68009199989261,
              45.805173999749826
            ],
            [
              -122.67982599975383,
              45.80517499981661
            ],
            [
              -122.6797329998674,
              45.80517499981661
            ],
            [
              -122.67967099994313,
              45.805173999749826
            ],
            [
              -122.67908699978703,
              45.80517599988338
            ],
            [
              -122.67908799961192,
              45.80541400023704
            ],
            [
              -122.67869299960174,
              45.805415000299526
            ],
            [
              -122.67854100016407,
              45.805415000299526
            ],
            [
              -122.67798399977217,
              45.805415999735764
            ],
            [
              -122.67782300011368,
              45.805416999798204
            ],
            [
              -122.67743499977618,
              45.805416999798204
            ],
            [
              -122.67739200011846,
              45.805416999798204
            ],
            [
              -122.67718299988108,
              45.80541799986069
            ],
            [
              -122.67707699957589,
              45.80541799986069
            ],
            [
              -122.67707599975097,
              45.80529600025193
            ],
            [
              -122.67707599975097,
              45.80514699981813
            ],
            [
              -122.67707599975097,
              45.80500400003153
            ],
            [
              -122.67677299980225,
              45.80500400003153
            ],
            [
              -122.67673699981725,
              45.80500400003153
            ],
            [
              -122.6764160003252,
              45.805005000101374
            ],
            [
              -122.67636699992138,
              45.805005000101374
            ],
            [
              -122.67604899990407,
              45.805005000101374
            ],
            [
              -122.67596799971322,
              45.805005000101374
            ],
            [
              -122.67565399989387,
              45.8050060001712
            ],
            [
              -122.67556699985525,
              45.8050060001712
            ],
            [
              -122.67533599987655,
              45.8050060001712
            ],
            [
              -122.67526200025672,
              45.805007000241
            ],
            [
              -122.67513500003511,
              45.805007000241
            ],
            [
              -122.67505999969202,
              45.805007000241
            ],
            [
              -122.67475300044369,
              45.805007000241
            ],
            [
              -122.67468800014638,
              45.805007000241
            ],
            [
              -122.67240000010086,
              45.805011999963575
            ],
            [
              -122.67236999996362,
              45.80501099989386
            ],
            [
              -122.67232999978064,
              45.80501099989386
            ],
            [
              -122.67223400041948,
              45.80501099989386
            ],
            [
              -122.67203900042584,
              45.805011999963575
            ],
            [
              -122.67202600000702,
              45.805011999963575
            ],
            [
              -122.67195599968686,
              45.805011999963575
            ],
            [
              -122.67185399957958,
              45.805011999963575
            ],
            [
              -122.6622379997904,
              45.80502699975484
            ],
            [
              -122.6622720001256,
              45.80637099985095
            ],
            [
              -122.66209499967526,
              45.80636799971494
            ],
            [
              -122.66209999969814,
              45.80641199981528
            ],
            [
              -122.6621940003078,
              45.806562000038426
            ],
            [
              -122.66233499987479,
              45.80664300024146
            ],
            [
              -122.66241199986769,
              45.80678400012841
            ],
            [
              -122.66237199968471,
              45.80683600019648
            ],
            [
              -122.66238299955536,
              45.80692200017845
            ],
            [
              -122.66238599992842,
              45.80694799984106
            ],
            [
              -122.66239599997415,
              45.80702099984042
            ],
            [
              -122.66237599988266,
              45.80730499990571
            ],
            [
              -122.66230399991265,
              45.807517999943734
            ],
            [
              -122.66231300013347,
              45.80762299993618
            ],
            [
              -122.66223500031568,
              45.80781999970404
            ],
            [
              -122.66216199962243,
              45.80800399982108
            ],
            [
              -122.66208800000258,
              45.8081889999692
            ],
            [
              -122.6620629998882,
              45.80825300011772
            ],
            [
              -122.66199000009328,
              45.80825900018658
            ],
            [
              -122.66196599980384,
              45.808476999745324
            ],
            [
              -122.66195999995605,
              45.808523000071695
            ],
            [
              -122.66194599971236,
              45.80862600003861
            ],
            [
              -122.66184500032833,
              45.80862500003378
            ],
            [
              -122.66176999998527,
              45.80862900005306
            ],
            [
              -122.66162199984726,
              45.8086520001582
            ],
            [
              -122.66162000019744,
              45.808836000031604
            ],
            [
              -122.66161799964928,
              45.80902599990961
            ],
            [
              -122.66142500020378,
              45.80902599990961
            ],
            [
              -122.66033999973224,
              45.8090319998952
            ],
            [
              -122.66033999973224,
              45.81048000006009
            ],
            [
              -122.66141799963275,
              45.81047099968929
            ],
            [
              -122.66161000015168,
              45.810469999717526
            ],
            [
              -122.66161299962641,
              45.8109070000497
            ],
            [
              -122.66161400034966,
              45.81132800015885
            ],
            [
              -122.66161400034966,
              45.81137000018702
            ],
            [
              -122.6615180000902,
              45.81137000018702
            ],
            [
              -122.66147899973211,
              45.81137000018702
            ],
            [
              -122.66065500027484,
              45.811376999875556
            ],
            [
              -122.66065500027484,
              45.81227500021132
            ],
            [
              -122.66075999985681,
              45.812274000272005
            ],
            [
              -122.66093099956103,
              45.812274000272005
            ],
            [
              -122.66093099956103,
              45.812361999873346
            ],
            [
              -122.66093200028426,
              45.81318299970004
            ],
            [
              -122.66162000019744,
              45.8131749996892
            ],
            [
              -122.66161799964928,
              45.81364599970034
            ],
            [
              -122.66161799964928,
              45.81374200019501
            ],
            [
              -122.66161799964928,
              45.81375999987798
            ],
            [
              -122.66162699987012,
              45.81411000014064
            ],
            [
              -122.66102599999562,
              45.81410799970174
            ],
            [
              -122.65988600017081,
              45.814104999982405
            ],
            [
              -122.65922599984671,
              45.81411399976601
            ],
            [
              -122.65904900029473,
              45.81411700011094
            ],
            [
              -122.65904900029473,
              45.81368699994486
            ],
            [
              -122.65904300044694,
              45.81344099990323
            ],
            [
              -122.65904300044694,
              45.813195999950025
            ],
            [
              -122.65904300044694,
              45.81237499968883
            ],
            [
              -122.65904300044694,
              45.81229299974229
            ],
            [
              -122.6590419997237,
              45.812010999951575
            ],
            [
              -122.65904300044694,
              45.81138899996575
            ],
            [
              -122.6590419997237,
              45.810494000286155
            ],
            [
              -122.6597449997055,
              45.81047500020212
            ],
            [
              -122.65974300005567,
              45.808750999876395
            ],
            [
              -122.65974399988058,
              45.80865300016261
            ],
            [
              -122.65937499980964,
              45.80865500017125
            ],
            [
              -122.65862300032238,
              45.80866100019681
            ],
            [
              -122.65775100028618,
              45.808672000241984
            ],
            [
              -122.6577439997152,
              45.8087659999132
            ],
            [
              -122.6577439997152,
              45.810503000027076
            ],
            [
              -122.6554070001642,
              45.810520000159954
            ],
            [
              -122.6554079999891,
              45.81231800009006
            ],
            [
              -122.65412199967614,
              45.81232700016239
            ],
            [
              -122.65411900020139,
              45.81412699979862
            ],
            [
              -122.65125399967248,
              45.814171000031095
            ],
            [
              -122.65125299984759,
              45.81540999974662
            ],
            [
              -122.65125200002267,
              45.815954999699194
            ],
            [
              -122.65141299968114,
              45.81595200007935
            ],
            [
              -122.65185899974497,
              45.81594899983329
            ],
            [
              -122.6523809999768,
              45.81594600021311
            ],
            [
              -122.65278400038294,
              45.81594299996672
            ],
            [
              -122.65327999977718,
              45.81593999972018
            ],
            [
              -122.65360199999243,
              45.81593799997307
            ],
            [
              -122.65384200019196,
              45.81597299991912
            ],
            [
              -122.65406599959962,
              45.81592899985819
            ],
            [
              -122.6541829997755,
              45.81592899985819
            ],
            [
              -122.65416600005706,
              45.81634799983822
            ],
            [
              -122.6540570002771,
              45.818825000223114
            ],
            [
              -122.65404899988121,
              45.818993000068645
            ],
            [
              -122.65124699999981,
              45.81901700009462
            ],
            [
              -122.6512400003271,
              45.82321900007081
            ],
            [
              -122.65201799975364,
              45.823209999880746
            ],
            [
              -122.65314699970777,
              45.8231990002029
            ],
            [
              -122.65450199961772,
              45.8231979998337
            ],
            [
              -122.65446099960984,
              45.82309999987443
            ],
            [
              -122.65442600034808,
              45.823020999935025
            ],
            [
              -122.6541839996004,
              45.822886000206964
            ],
            [
              -122.65402499959173,
              45.82287499983907
            ],
            [
              -122.6540289997897,
              45.8226140002615
            ],
            [
              -122.65403399981257,
              45.822413999711536
            ],
            [
              -122.65441799995213,
              45.82219100018252
            ],
            [
              -122.65477199995448,
              45.82212199970936
            ],
            [
              -122.65477000030462,
              45.82199600006724
            ],
            [
              -122.65509599981958,
              45.82181699994126
            ],
            [
              -122.65523399991181,
              45.82173800005937
            ],
            [
              -122.65533299964603,
              45.82169100023492
            ],
            [
              -122.65533199982112,
              45.82167299998532
            ],
            [
              -122.6553309999962,
              45.82163400015487
            ],
            [
              -122.65534299969177,
              45.82160199995252
            ],
            [
              -122.6553519999126,
              45.82157900018701
            ],
            [
              -122.65538000039999,
              45.8215259997113
            ],
            [
              -122.65539399974541,
              45.82150599986125
            ],
            [
              -122.65535899958527,
              45.821312000254004
            ],
            [
              -122.65528300031563,
              45.82088199992828
            ],
            [
              -122.6551839996831,
              45.82030800030776
            ],
            [
              -122.65511799956089,
              45.81991899977924
            ],
            [
              -122.65456000024237,
              45.81992100000939
            ],
            [
              -122.65455299967135,
              45.81916700017917
            ],
            [
              -122.65511000006326,
              45.81916400010632
            ],
            [
              -122.65566699955687,
              45.81916199984897
            ],
            [
              -122.65622399994879,
              45.81915899977581
            ],
            [
              -122.65675000037857,
              45.81948599990868
            ],
            [
              -122.65715899973416,
              45.81991599974686
            ],
            [
              -122.6574990003911,
              45.82030999989788
            ],
            [
              -122.6578090000125,
              45.820670000077044
            ],
            [
              -122.65811600015917,
              45.82102300007929
            ],
            [
              -122.65840599968908,
              45.821357999996124
            ],
            [
              -122.65841200043516,
              45.82198899983528
            ],
            [
              -122.65841699955973,
              45.82254899995811
            ],
            [
              -122.6584219995826,
              45.823079999963774
            ],
            [
              -122.6584290001536,
              45.82317599984506
            ],
            [
              -122.65912999958726,
              45.823170000131235
            ],
            [
              -122.660209000211,
              45.82316000018936
            ],
            [
              -122.66020099981505,
              45.82299699975687
            ],
            [
              -122.66020099981505,
              45.822891999951445
            ],
            [
              -122.66020099981505,
              45.821474999985504
            ],
            [
              -122.6599210003309,
              45.821200999848756
            ],
            [
              -122.6597880002615,
              45.821071000249
            ],
            [
              -122.65978900008642,
              45.820694999794355
            ],
            [
              -122.66100500007919,
              45.82069000022744
            ],
            [
              -122.66100900027716,
              45.82099400012622
            ],
            [
              -122.66133200031734,
              45.82099799988321
            ],
            [
              -122.66160599995374,
              45.82099199993462
            ],
            [
              -122.66160599995374,
              45.82116099990794
            ],
            [
              -122.66160599995374,
              45.82132799981479
            ],
            [
              -122.66160599995374,
              45.82297800018234
            ],
            [
              -122.66159599990799,
              45.82313300021214
            ],
            [
              -122.66176800033546,
              45.82312899998256
            ],
            [
              -122.663138000314,
              45.823119999777894
            ],
            [
              -122.66380299976262,
              45.82311699991805
            ],
            [
              -122.66604899997535,
              45.82311100019787
            ],
            [
              -122.66680600038381,
              45.8231040001061
            ],
            [
              -122.66776499956032,
              45.82309999987443
            ],
            [
              -122.66850000022744,
              45.82309799975849
            ],
            [
              -122.66930799979124,
              45.82309100029111
            ],
            [
              -122.67051499956317,
              45.82308099970907
            ],
            [
              -122.67174800017268,
              45.823072000122686
            ],
            [
              -122.67195499986194,
              45.8230709997512
            ],
            [
              -122.67195499986194,
              45.82299899987644
            ],
            [
              -122.67195599968686,
              45.822508999733685
            ],
            [
              -122.67195599968686,
              45.82193700014174
            ],
            [
              -122.67195599968686,
              45.82191000019744
            ],
            [
              -122.67276800034689,
              45.821923000288194
            ],
            [
              -122.67276599979876,
              45.82136099995076
            ],
            [
              -122.67359400035234,
              45.821355999817605
            ],
            [
              -122.67441299978674,
              45.821352000086335
            ],
            [
              -122.67523100029457,
              45.82134799972878
            ],
            [
              -122.67522999957136,
              45.82185299971556
            ],
            [
              -122.67523100029457,
              45.82191999973781
            ],
            [
              -122.67523100029457,
              45.8219539999145
            ],
            [
              -122.67527599960209,
              45.821967999760254
            ],
            [
              -122.67532199963286,
              45.82203999971628
            ],
            [
              -122.67533099985368,
              45.82207899988836
            ],
            [
              -122.6753330004018,
              45.822173000094516
            ],
            [
              -122.67534900029534,
              45.822831999973666
            ],
            [
              -122.6753479995721,
              45.82305200020196
            ],
            [
              -122.67610900017856,
              45.82304500010279
            ],
            [
              -122.67650300036385,
              45.82304200023889
            ],
            [
              -122.67692099994026,
              45.82303899974882
            ],
            [
              -122.67703800011614,
              45.82303800000276
            ],
            [
              -122.67703800011614,
              45.823246000006314
            ],
            [
              -122.67703800011614,
              45.82355300018374
            ],
            [
              -122.67703899994106,
              45.82663900015153
            ],
            [
              -122.67945599985798,
              45.82662399992083
            ],
            [
              -122.67946900027677,
              45.825796999765885
            ],
            [
              -122.67947500012455,
              45.825746000196595
            ],
            [
              -122.6798790003556,
              45.82574699989401
            ],
            [
              -122.6823370002804,
              45.82573200004888
            ],
            [
              -122.68266699999329,
              45.82573400007019
            ],
            [
              -122.68268700008477,
              45.82681999977942
            ],
            [
              -122.68269299993256,
              45.827410999850834
            ],
            [
              -122.68269299993256,
              45.827436999964085
            ],
            [
              -122.68269200010764,
              45.827478999736165
            ],
            [
              -122.68268799990969,
              45.82813099994308
            ],
            [
              -122.68265000027485,
              45.82877000028364
            ],
            [
              -122.68257999995465,
              45.829982000231595
            ],
            [
              -122.68254700034268,
              45.83020400023171
            ],
            [
              -122.68327000041597,
              45.830201999745064
            ],
            [
              -122.68441100006567,
              45.830201999745064
            ],
            [
              -122.68449499973124,
              45.830201999745064
            ],
            [
              -122.68449200025651,
              45.830667000165754
            ],
            [
              -122.68449100043159,
              45.83088599987026
            ],
            [
              -122.68692300041715,
              45.83089000016839
            ],
            [
              -122.68692699971679,
              45.83063699999333
            ],
            [
              -122.68693099991474,
              45.83027499993492
            ],
            [
              -122.68693400028779,
              45.83020400023171
            ],
            [
              -122.68695600002911,
              45.83020400023171
            ],
            [
              -122.68758299984292,
              45.83019699978001
            ],
            [
              -122.68777100016388,
              45.83019499991905
            ],
            [
              -122.68919300002098,
              45.83018999995337
            ],
            [
              -122.69000599960762,
              45.83019499991905
            ],
            [
              -122.69106500013989,
              45.830202999988394
            ],
            [
              -122.69106299959172,
              45.8299690001449
            ],
            [
              -122.69186699985586,
              45.82996799989736
            ],
            [
              -122.69177099959639,
              45.829766999852644
            ],
            [
              -122.69086500012331,
              45.82782599991947
            ],
            [
              -122.6907499995973,
              45.8275790000794
            ],
            [
              -122.69070500028978,
              45.82748199998694
            ],
            [
              -122.69062400009892,
              45.82730899986711
            ],
            [
              -122.69052700001453,
              45.827331000100344
            ],
            [
              -122.69018300005794,
              45.826592999764976
            ],
            [
              -122.6900819997756,
              45.82637800006699
            ],
            [
              -122.68995700010214,
              45.82610800028909
            ],
            [
              -122.68985699964472,
              45.82589499998541
            ],
            [
              -122.68906999999734,
              45.82388599981401
            ],
            [
              -122.68901599957066,
              45.82375600022357
            ],
            [
              -122.6889119998136,
              45.82350600001349
            ],
            [
              -122.68866900013934,
              45.82297499968881
            ],
            [
              -122.68874600013224,
              45.82297800018234
            ],
            [
              -122.68885099971422,
              45.8229839999169
            ],
            [
              -122.68897999958565,
              45.822986999783915
            ],
            [
              -122.68905800030176,
              45.8229900002768
            ],
            [
              -122.68953399960454,
              45.82298899990385
            ],
            [
              -122.69048600000666,
              45.82298600003694
            ],
            [
              -122.69060400000743,
              45.82297399994162
            ],
            [
              -122.69068199982522,
              45.822969999700604
            ],
            [
              -122.69076899986389,
              45.82296499971195
            ],
            [
              -122.69101900010911,
              45.82295800022786
            ],
            [
              -122.69193499962792,
              45.82295300023812
            ],
            [
              -122.69397099977836,
              45.822944000005016
            ],
            [
              -122.69569399993432,
              45.82295199986451
            ],
            [
              -122.69675099991842,
              45.82295800022786
            ],
            [
              -122.69694799956191,
              45.82295699985433
            ],
            [
              -122.69749300025829,
              45.82295300023812
            ],
            [
              -122.69912799965239,
              45.82294300025726
            ],
            [
              -122.69967400017367,
              45.822941000135685
            ],
            [
              -122.69991199982502,
              45.82293999976186
            ],
            [
              -122.70030900038337,
              45.82293900001403
            ],
            [
              -122.70096899980915,
              45.822936999892306
            ],
            [
              -122.7017959996395,
              45.8229349997705
            ],
            [
              -122.70221400011422,
              45.82294199988347
            ],
            [
              -122.70285000014887,
              45.82295399998569
            ],
            [
              -122.70286600004238,
              45.823272999928726
            ],
            [
              -122.70288500030895,
              45.82421600015586
            ],
            [
              -122.70289899965435,
              45.82540100022615
            ],
            [
              -122.70288500030895,
              45.826477000199965
            ],
            [
              -122.70288699995879,
              45.827085999914424
            ],
            [
              -122.70325500020482,
              45.82708199996888
            ],
            [
              -122.70382400029231,
              45.82708300026828
            ],
            [
              -122.70382199974418,
              45.82903299969657
            ],
            [
              -122.70293200016464,
              45.829037000127876
            ],
            [
              -122.70287699991303,
              45.82904400009952
            ],
            [
              -122.70286799969222,
              45.829838000113305
            ],
            [
              -122.70286299966935,
              45.82997200026147
            ],
            [
              -122.70286400039258,
              45.83021499977729
            ],
            [
              -122.7040979999287,
              45.830204999849066
            ],
            [
              -122.70521900038523,
              45.83019600016251
            ],
            [
              -122.70535599975423,
              45.83019600016251
            ],
            [
              -122.70552999983154,
              45.83019600016251
            ],
            [
              -122.70552399998375,
              45.83014399999758
            ],
            [
              -122.70551499976291,
              45.829037000127876
            ],
            [
              -122.70803100031236,
              45.82904200019715
            ],
            [
              -122.70802200009153,
              45.826535999695956
            ],
            [
              -122.70895900042505,
              45.82653100002757
            ],
            [
              -122.71316499972188,
              45.82652199974693
            ],
            [
              -122.7131589998741,
              45.8247319997972
            ],
            [
              -122.71308000023139,
              45.8247319997972
            ],
            [
              -122.7130750002085,
              45.82306099979154
            ],
            [
              -122.71305900031498,
              45.822899999818354
            ],
            [
              -122.71313799995768,
              45.822899999818354
            ],
            [
              -122.71322599982126,
              45.822899999818354
            ],
            [
              -122.71778099999585,
              45.822842999724024
            ],
            [
              -122.72091599996318,
              45.822804000087125
            ],
            [
              -122.72356100038407,
              45.82277900006478
            ],
            [
              -122.72377300009616,
              45.822776999937254
            ],
            [
              -122.72441199960552,
              45.82277199993128
            ],
            [
              -122.72462500004086,
              45.82277100018043
            ],
            [
              -122.72507399957944,
              45.82275999978981
            ],
            [
              -122.72642099999177,
              45.82273100011551
            ],
            [
              -122.72687100025357,
              45.82272199984656
            ],
            [
              -122.72758000008312,
              45.82271999971699
            ],
            [
              -122.72970900011998,
              45.822716999835585
            ],
            [
              -122.73041899977446,
              45.822716999835585
            ],
            [
              -122.73052500007968,
              45.822723999976006
            ],
            [
              -122.73244900007711,
              45.82270800019036
            ],
            [
              -122.732449999902,
              45.82278100019219
            ],
            [
              -122.73245300027503,
              45.822854999847586
            ],
            [
              -122.7324509997269,
              45.82289100020271
            ],
            [
              -122.73245300027503,
              45.82298199979679
            ],
            [
              -122.73249599993274,
              45.823040999866876
            ],
            [
              -122.73254299978841,
              45.82309999987443
            ],
            [
              -122.73263900004788,
              45.82316899976152
            ],
            [
              -122.73274199998005,
              45.82317599984506
            ],
            [
              -122.73296299991298,
              45.82327200018688
            ],
            [
              -122.73356399978753,
              45.823340999860804
            ],
            [
              -122.73371199992552,
              45.823340000120126
            ],
            [
              -122.73431399962496,
              45.82333599990542
            ],
            [
              -122.73431600017311,
              45.82348799972462
            ],
            [
              -122.73431600017311,
              45.82352500003381
            ],
            [
              -122.73432700004378,
              45.82409900029265
            ],
            [
              -122.73451500036474,
              45.824097999939625
            ],
            [
              -122.74213799966121,
              45.82400199977017
            ],
            [
              -122.74251400030316,
              45.82399800022899
            ],
            [
              -122.74251400030316,
              45.82403199976266
            ],
            [
              -122.74251400030316,
              45.82441100000747
            ],
            [
              -122.7458479995638,
              45.824390000220006
            ],
            [
              -122.74588199989898,
              45.82439099994178
            ],
            [
              -122.74591600023419,
              45.82439099994178
            ],
            [
              -122.74632100029015,
              45.82438800015036
            ],
            [
              -122.74659300027669,
              45.82438600008069
            ],
            [
              -122.74681300038473,
              45.824390000220006
            ],
            [
              -122.74682500008029,
              45.82441100000747
            ],
            [
              -122.7469740000432,
              45.82468000016166
            ],
            [
              -122.74717400005973,
              45.82503899991802
            ],
            [
              -122.74729299988546,
              45.825287000092494
            ],
            [
              -122.74730700012914,
              45.825382999924045
            ],
            [
              -122.74730600030425,
              45.8255029999501
            ],
            [
              -122.7472769999919,
              45.82567899977082
            ],
            [
              -122.74723000013624,
              45.825835000114175
            ],
            [
              -122.74722199974032,
              45.825864000049584
            ],
            [
              -122.74705699988388,
              45.826211999973744
            ],
            [
              -122.74703500014257,
              45.826260000051604
            ],
            [
              -122.74696800019541,
              45.82636099976723
            ],
            [
              -122.7470860001962,
              45.82637499975671
            ],
            [
              -122.74750200012281,
              45.82637099976007
            ],
            [
              -122.74757999994061,
              45.82637600006881
            ],
            [
              -122.7477260004288,
              45.82637699975492
            ],
            [
              -122.74843500025835,
              45.826378999753054
            ],
            [
              -122.74893400002563,
              45.82638200006312
            ],
            [
              -122.74909300003429,
              45.82638200006312
            ],
            [
              -122.74924199999722,
              45.82638200006312
            ],
            [
              -122.75029200030865,
              45.826384999747084
            ],
            [
              -122.75028599956254,
              45.82627299975255
            ],
            [
              -122.7502830000878,
              45.82620399995676
            ],
            [
              -122.7501900002014,
              45.824361000142744
            ],
            [
              -122.75038900039303,
              45.82436399993555
            ],
            [
              -122.75056400029521,
              45.82436699972822
            ],
            [
              -122.75097900039691,
              45.824375999731274
            ],
            [
              -122.75120000032982,
              45.82438100021921
            ],
            [
              -122.75222399980368,
              45.82435400020815
            ],
            [
              -122.75263999973029,
              45.82434300013037
            ],
            [
              -122.75517200017325,
              45.824327999906934
            ],
            [
              -122.75598099956193,
              45.82431300030547
            ]
          ],
          [
            [
              -122.71173500036717,
              45.79471399988902
            ],
            [
              -122.71163200043502,
              45.794831000112964
            ],
            [
              -122.71114899966295,
              45.79538800016075
            ],
            [
              -122.7109779999587,
              45.79558600021729
            ],
            [
              -122.7102940002435,
              45.796380000120934
            ],
            [
              -122.71012500018908,
              45.79657299993125
            ],
            [
              -122.70964499979007,
              45.79709800022565
            ],
            [
              -122.70938100019943,
              45.7974000001069
            ],
            [
              -122.70923399988634,
              45.79756900027809
            ],
            [
              -122.70796900038809,
              45.7975900001598
            ],
            [
              -122.70796900038809,
              45.797294000052965
            ],
            [
              -122.70796900038809,
              45.79723899984508
            ],
            [
              -122.70798000025874,
              45.796608999740776
            ],
            [
              -122.70784100034155,
              45.79653700009847
            ],
            [
              -122.70775599995275,
              45.79650300006108
            ],
            [
              -122.70715099988027,
              45.79621199970299
            ],
            [
              -122.7067099998393,
              45.79593700029674
            ],
            [
              -122.706351999639,
              45.795713999961706
            ],
            [
              -122.70607800000263,
              45.79551099978519
            ],
            [
              -122.70586999959016,
              45.79531199984464
            ],
            [
              -122.70595900017692,
              45.79528000017501
            ],
            [
              -122.70720500030693,
              45.79481499982918
            ],
            [
              -122.70798799975636,
              45.7945159998659
            ],
            [
              -122.70798799975636,
              45.79398499994648
            ],
            [
              -122.7092599998256,
              45.79337899980858
            ],
            [
              -122.70931000005432,
              45.7934090000138
            ],
            [
              -122.71033799972612,
              45.79402600025731
            ],
            [
              -122.71071400036807,
              45.79421500027675
            ],
            [
              -122.71095299984435,
              45.79432299982111
            ],
            [
              -122.71109299958644,
              45.794392999924355
            ],
            [
              -122.71173500036717,
              45.79471399988902
            ]
          ],
          [
            [
              -122.70835099997952,
              45.79283900024207
            ],
            [
              -122.7082160002603,
              45.7929269998555
            ],
            [
              -122.70608800004837,
              45.79392399987117
            ],
            [
              -122.70579400032048,
              45.79368900010703
            ],
            [
              -122.70443799968733,
              45.7925699997293
            ],
            [
              -122.70437199956508,
              45.79251499986973
            ],
            [
              -122.70369799989562,
              45.792759000302034
            ],
            [
              -122.70320499997611,
              45.79294899989376
            ],
            [
              -122.70295499973085,
              45.793027000244095
            ],
            [
              -122.70305400036337,
              45.79312499988708
            ],
            [
              -122.70354200026,
              45.793520999718844
            ],
            [
              -122.7034850003586,
              45.79358000031178
            ],
            [
              -122.70303099989883,
              45.794040000234354
            ],
            [
              -122.70296399995169,
              45.79411199997113
            ],
            [
              -122.70290399967725,
              45.79414499994992
            ],
            [
              -122.70263900026167,
              45.79429300010785
            ],
            [
              -122.70247900042811,
              45.79451099982776
            ],
            [
              -122.70242900019939,
              45.794647999959516
            ],
            [
              -122.7024590003366,
              45.794780999993776
            ],
            [
              -122.70233499958972,
              45.79482199971904
            ],
            [
              -122.70212100022782,
              45.7951329997537
            ],
            [
              -122.70217700030432,
              45.79523199969661
            ],
            [
              -122.70206900034927,
              45.79528399989985
            ],
            [
              -122.70197100044,
              45.795383000200836
            ],
            [
              -122.70164099982878,
              45.795694999846944
            ],
            [
              -122.70155899981305,
              45.79588800015076
            ],
            [
              -122.70141599969787,
              45.79598399993613
            ],
            [
              -122.70135200012379,
              45.796360000008306
            ],
            [
              -122.70143199959142,
              45.79638199994395
            ],
            [
              -122.70151699998024,
              45.79641999969844
            ],
            [
              -122.70159800017109,
              45.796478000130875
            ],
            [
              -122.70165500007246,
              45.79654499999373
            ],
            [
              -122.70171500034695,
              45.796611999776054
            ],
            [
              -122.70198599961029,
              45.79673300002009
            ],
            [
              -122.70239499986421,
              45.796154999848724
            ],
            [
              -122.70297599964725,
              45.79562800021478
            ],
            [
              -122.70386199992716,
              45.79628499999154
            ],
            [
              -122.70386199992716,
              45.796355000135556
            ],
            [
              -122.70386899959982,
              45.797618000198504
            ],
            [
              -122.70349600022926,
              45.79761999997707
            ],
            [
              -122.70344799965036,
              45.79762100017946
            ],
            [
              -122.70342799955888,
              45.79760999983102
            ],
            [
              -122.70330100023557,
              45.79761200023614
            ],
            [
              -122.70289500035472,
              45.797618000198504
            ],
            [
              -122.69773699975745,
              45.79765299975743
            ],
            [
              -122.69773699975745,
              45.79811700002768
            ],
            [
              -122.69773599993252,
              45.79855199982511
            ],
            [
              -122.69773599993252,
              45.799716000251365
            ],
            [
              -122.6977350001076,
              45.800481999712396
            ],
            [
              -122.6977350001076,
              45.80109799978739
            ],
            [
              -122.69773400028268,
              45.80125699989754
            ],
            [
              -122.69597099994377,
              45.80126800015226
            ],
            [
              -122.6959879996622,
              45.800708999716086
            ],
            [
              -122.69596900029394,
              45.80065300022599
            ],
            [
              -122.69585499959281,
              45.79969399975315
            ],
            [
              -122.6958470000952,
              45.799594000055066
            ],
            [
              -122.69581600013306,
              45.79915999979917
            ],
            [
              -122.69570099960703,
              45.79821099997351
            ],
            [
              -122.69568899991145,
              45.79783900003278
            ],
            [
              -122.69571900004867,
              45.797618000198504
            ],
            [
              -122.69582500035389,
              45.796934999914505
            ],
            [
              -122.69588999975292,
              45.79657299993125
            ],
            [
              -122.69596900029394,
              45.79625399985496
            ],
            [
              -122.69604799993664,
              45.795937999903
            ],
            [
              -122.69614199964796,
              45.79532300002044
            ],
            [
              -122.69618100000605,
              45.79515099981336
            ],
            [
              -122.69621799981597,
              45.79498100020132
            ],
            [
              -122.69631200042564,
              45.79456600022286
            ],
            [
              -122.69636199975601,
              45.79448600025654
            ],
            [
              -122.69645499964243,
              45.794339999881096
            ],
            [
              -122.69658299968894,
              45.79440100012741
            ],
            [
              -122.69672199960611,
              45.794457999896714
            ],
            [
              -122.6967910001014,
              45.79448699988888
            ],
            [
              -122.697423999763,
              45.79476700020293
            ],
            [
              -122.69752400022043,
              45.794811999697146
            ],
            [
              -122.69754900033477,
              45.79482299997165
            ],
            [
              -122.69759100016756,
              45.794832999991556
            ],
            [
              -122.69768900007686,
              45.79484100013144
            ],
            [
              -122.69781299992543,
              45.7948299998605
            ],
            [
              -122.69786399997906,
              45.794811999697146
            ],
            [
              -122.69790099978896,
              45.794801000046824
            ],
            [
              -122.69799100020064,
              45.79476200018726
            ],
            [
              -122.69801499959178,
              45.79474900001924
            ],
            [
              -122.6980639999956,
              45.79472500018286
            ],
            [
              -122.6981579997069,
              45.79464999984462
            ],
            [
              -122.69833699980707,
              45.79442800025613
            ],
            [
              -122.69857600018166,
              45.794110000066716
            ],
            [
              -122.69909400021552,
              45.79342300014584
            ],
            [
              -122.69935600015636,
              45.79325599986289
            ],
            [
              -122.69945300024072,
              45.79322699985655
            ],
            [
              -122.69967599982348,
              45.79319200002313
            ],
            [
              -122.69980300004507,
              45.7931819997088
            ],
            [
              -122.70058399984468,
              45.793150999725086
            ],
            [
              -122.70118800009227,
              45.79312800010987
            ],
            [
              -122.7012619997121,
              45.79312600017014
            ],
            [
              -122.70138700028387,
              45.7931240002303
            ],
            [
              -122.70170100010326,
              45.7931119999635
            ],
            [
              -122.70264500010946,
              45.79307700005789
            ],
            [
              -122.70266699985078,
              45.79307700005789
            ],
            [
              -122.702809000141,
              45.79306299983893
            ],
            [
              -122.70295499973085,
              45.793027000244095
            ],
            [
              -122.70287400043831,
              45.79035900006671
            ],
            [
              -122.70505600017862,
              45.790342999751736
            ],
            [
              -122.70553400002949,
              45.79033799996558
            ],
            [
              -122.70592400001684,
              45.79084000018699
            ],
            [
              -122.70598599994112,
              45.79091999974967
            ],
            [
              -122.70616199966821,
              45.79112400005659
            ],
            [
              -122.70647399983774,
              45.79145199974607
            ],
            [
              -122.70671099966421,
              45.79167300023207
            ],
            [
              -122.70557500003736,
              45.79208199989966
            ],
            [
              -122.70595900017692,
              45.79260600024571
            ],
            [
              -122.70726899988104,
              45.792129000284845
            ],
            [
              -122.70738299968383,
              45.792216999766666
            ],
            [
              -122.70768200033291,
              45.792435999760116
            ],
            [
              -122.70789300022011,
              45.7925699997293
            ],
            [
              -122.70818699994797,
              45.79274300004972
            ],
            [
              -122.70835099997952,
              45.79283900024207
            ]
          ],
          [
            [
              -122.72335700016956,
              45.801164999731554
            ],
            [
              -122.72335299997161,
              45.80191999981425
            ],
            [
              -122.72334399975077,
              45.80345999977594
            ],
            [
              -122.72333700007805,
              45.80479500006845
            ],
            [
              -122.72333000040537,
              45.806036999995015
            ],
            [
              -122.72332899968212,
              45.80617199987047
            ],
            [
              -122.72332000035962,
              45.80776799992838
            ],
            [
              -122.72331600016167,
              45.808409999828136
            ],
            [
              -122.7233329998801,
              45.809602999949576
            ],
            [
              -122.72325800043534,
              45.80987600019472
            ],
            [
              -122.72322599974999,
              45.80971199971021
            ],
            [
              -122.72317600041958,
              45.8095669997692
            ],
            [
              -122.7231639998257,
              45.80953900009988
            ],
            [
              -122.72311399959698,
              45.80942300006743
            ],
            [
              -122.72303300030445,
              45.8092839999587
            ],
            [
              -122.72292000032654,
              45.80914800011573
            ],
            [
              -122.72285800040228,
              45.809086999733005
            ],
            [
              -122.72279099955679,
              45.80901999992337
            ],
            [
              -122.72272100013492,
              45.80896700001685
            ],
            [
              -122.72263499992118,
              45.808902000062695
            ],
            [
              -122.72241900001112,
              45.80875799989408
            ],
            [
              -122.72227000004821,
              45.8086810002773
            ],
            [
              -122.72213100013104,
              45.80862000000929
            ],
            [
              -122.72198600036609,
              45.80856999973979
            ],
            [
              -122.72188099988578,
              45.80853900017634
            ],
            [
              -122.72181599958846,
              45.80852100005831
            ],
            [
              -122.72167599984637,
              45.80848799982684
            ],
            [
              -122.72154000030224,
              45.80846400027239
            ],
            [
              -122.72137200007275,
              45.808440000081404
            ],
            [
              -122.72122599958458,
              45.80842699997365
            ],
            [
              -122.7209820000854,
              45.808411999845504
            ],
            [
              -122.71953099991599,
              45.808411999845504
            ],
            [
              -122.71904600039242,
              45.808414999871474
            ],
            [
              -122.71825499964878,
              45.80842099992288
            ],
            [
              -122.71819299972452,
              45.80841899990579
            ],
            [
              -122.71809800018825,
              45.808414999871474
            ],
            [
              -122.71809300016538,
              45.808460000241254
            ],
            [
              -122.71811099970873,
              45.808579999797296
            ],
            [
              -122.71811300025685,
              45.80873099982099
            ],
            [
              -122.71812699960225,
              45.80968500009955
            ],
            [
              -122.71813199962514,
              45.81000400029847
            ],
            [
              -122.71820899961801,
              45.8100029996922
            ],
            [
              -122.71822399968664,
              45.81138099969721
            ],
            [
              -122.71822100021191,
              45.811714000120205
            ],
            [
              -122.71823799993034,
              45.8120400002002
            ],
            [
              -122.71669300004959,
              45.812039000256654
            ],
            [
              -122.71626299987928,
              45.812039000256654
            ],
            [
              -122.71598599986986,
              45.812039000256654
            ],
            [
              -122.71587299989196,
              45.81203799968696
            ],
            [
              -122.71328799974553,
              45.81203799968696
            ],
            [
              -122.71241700043257,
              45.812039000256654
            ],
            [
              -122.7116519996282,
              45.81204100014372
            ],
            [
              -122.7112809999074,
              45.81204200008723
            ],
            [
              -122.7105600003823,
              45.812048999691314
            ],
            [
              -122.70804600038099,
              45.81205300009084
            ],
            [
              -122.70805200022875,
              45.81115000013514
            ],
            [
              -122.70289000033185,
              45.81115399997304
            ],
            [
              -122.70289100015674,
              45.80991400013882
            ],
            [
              -122.70289100015674,
              45.809846000088754
            ],
            [
              -122.70288500030895,
              45.80909599970126
            ],
            [
              -122.70288100011103,
              45.8084420000977
            ],
            [
              -122.70298300021828,
              45.80844100008956
            ],
            [
              -122.70552999983154,
              45.80843800006499
            ],
            [
              -122.7072599996602,
              45.80843600004855
            ],
            [
              -122.70755099991335,
              45.80843600004855
            ],
            [
              -122.70798799975636,
              45.808435000040305
            ],
            [
              -122.70798899958125,
              45.80838000018489
            ],
            [
              -122.70798899958125,
              45.80800899990087
            ],
            [
              -122.70799000030448,
              45.80742400004499
            ],
            [
              -122.7079910001294,
              45.80666599991434
            ],
            [
              -122.7079919999543,
              45.80645399979322
            ],
            [
              -122.70799399960414,
              45.806017000217615
            ],
            [
              -122.70795400031948,
              45.80601600016594
            ],
            [
              -122.70721899965233,
              45.806006999699974
            ],
            [
              -122.70720699995674,
              45.80481400021134
            ],
            [
              -122.7077650001736,
              45.8048079997714
            ],
            [
              -122.70790300026584,
              45.80480699969802
            ],
            [
              -122.70793699970271,
              45.80480699969802
            ],
            [
              -122.70809599971139,
              45.80480699969802
            ],
            [
              -122.70821000041252,
              45.80480699969802
            ],
            [
              -122.70953900038317,
              45.804805000177396
            ],
            [
              -122.71018200009051,
              45.80480099988357
            ],
            [
              -122.71024999986257,
              45.80480099988357
            ],
            [
              -122.71055600018433,
              45.80480099988357
            ],
            [
              -122.71055700000925,
              45.80428699981041
            ],
            [
              -122.71055700000925,
              45.80129799986807
            ],
            [
              -122.71055700000925,
              45.801209000183846
            ],
            [
              -122.71650999975148,
              45.80119399999086
            ],
            [
              -122.7168770001726,
              45.80119299985261
            ],
            [
              -122.71700199984609,
              45.80119299985261
            ],
            [
              -122.71755699968986,
              45.801191000202316
            ],
            [
              -122.71822100021191,
              45.80119000006396
            ],
            [
              -122.71862700009278,
              45.80117899979384
            ],
            [
              -122.72183300020521,
              45.801181000070834
            ],
            [
              -122.72304099980205,
              45.80117700014305
            ],
            [
              -122.72322300027525,
              45.80117700014305
            ],
            [
              -122.72335700016956,
              45.801164999731554
            ]
          ]
        ]
      },
      "properties": {
        "AREALAND": "19703818",
        "AREAWATER": "193445",
        "BASENAME": "Ridgefield",
        "CBSAPCI": "N",
        "CENTLAT": "+45.8109313",
        "CENTLON": "-122.7048714",
        "FUNCSTAT": "A",
        "GEOID": "5358410",
        "INTPTLAT": "+45.8175707",
        "INTPTLON": "-122.6719591",
        "LSADC": "25",
        "MTFCC": "G4110",
        "NAME": "Ridgefield city",
        "NECTAPCI": "N",
        "OBJECTID": 27633,
        "OID": "27890231883787",
        "PLACE": "58410",
        "PLACECC": "C1",
        "PLACENS": "02410945",
        "STATE": "53",
        "DISP_CLR": 1,
        "slug": "ridgefield",
        "jurisdiction_key": "ridgefield_city",
        "county_fips": [
          "53011"
        ]
      }
    }
  ]
}
