{
  "type": "FeatureCollection",
  "features": [
    {
      "type": "Feature",
      "geometry": {
        "type": "Polygon",
        "coordinates": [
          [
            [
              -118.40852199978323,
              47.11933799989429
            ],
            [
              -118.40849599984396,
              47.118064999932244
            ],
            [
              -118.4084420003156,
              47.118064999932244
            ],
            [
              -118.40663799996875,
              47.11804999998691
            ],
            [
              -118.40603700009423,
              47.11804500020795
            ],
            [
              -118.4059290001392,
              47.118044000129856
            ],
            [
              -118.40560699992392,
              47.11804099989542
            ],
            [
              -118.4054999997938,
              47.118039999817256
            ],
            [
              -118.40534300033329,
              47.118039999817256
            ],
            [
              -118.40487299998,
              47.11804300005175
            ],
            [
              -118.40471700034438,
              47.11804500020795
            ],
            [
              -118.40334900001565,
              47.11805200014289
            ],
            [
              -118.4003100003078,
              47.11806999970933
            ],
            [
              -118.39924499992775,
              47.11807500009719
            ],
            [
              -118.3982980004468,
              47.11807999987334
            ],
            [
              -118.39787699959903,
              47.118082000028195
            ],
            [
              -118.39774600007776,
              47.11808300010558
            ],
            [
              -118.39778700008566,
              47.12314400003294
            ],
            [
              -118.39779299993344,
              47.123939000156064
            ],
            [
              -118.39779999960614,
              47.12488300004051
            ],
            [
              -118.39780399980408,
              47.12537699972617
            ],
            [
              -118.39726400002894,
              47.12537599978588
            ],
            [
              -118.39545499965922,
              47.125372999964895
            ],
            [
              -118.38982599978206,
              47.12536299994918
            ],
            [
              -118.38946699975685,
              47.125362000008636
            ],
            [
              -118.38949299969616,
              47.129195000196745
            ],
            [
              -118.38852000027593,
              47.129197999802145
            ],
            [
              -118.38739200014669,
              47.1291990002818
            ],
            [
              -118.38724999985646,
              47.12911500026597
            ],
            [
              -118.38722700029025,
              47.12821299985567
            ],
            [
              -118.3871800004346,
              47.12803900029187
            ],
            [
              -118.38716899966562,
              47.12800000027993
            ],
            [
              -118.38715899961986,
              47.127058999817265
            ],
            [
              -118.38760700023187,
              47.126496999895856
            ],
            [
              -118.38847199969703,
              47.12540300000074
            ],
            [
              -118.38867300043678,
              47.1254039999405
            ],
            [
              -118.38981599973634,
              47.123943999992356
            ],
            [
              -118.39439100000241,
              47.11809900011868
            ],
            [
              -118.39424000038967,
              47.11810000019574
            ],
            [
              -118.3925039998149,
              47.118093000267145
            ],
            [
              -118.387630999623,
              47.124406999913425
            ],
            [
              -118.38715500032023,
              47.12502599997095
            ],
            [
              -118.38714100007651,
              47.12276799987529
            ],
            [
              -118.38713699987859,
              47.12191300030055
            ],
            [
              -118.38713500022875,
              47.12156299970657
            ],
            [
              -118.38713299968062,
              47.121547000123854
            ],
            [
              -118.38707300030448,
              47.12102000021472
            ],
            [
              -118.38709099984783,
              47.12044999980102
            ],
            [
              -118.38749099988091,
              47.12016299997836
            ],
            [
              -118.38904699963231,
              47.11904699994916
            ],
            [
              -118.39048600010615,
              47.11801500030179
            ],
            [
              -118.3905589999011,
              47.11796299985383
            ],
            [
              -118.38986799961485,
              47.117581999935375
            ],
            [
              -118.38974100029158,
              47.11751199992647
            ],
            [
              -118.38912500034843,
              47.117168999774215
            ],
            [
              -118.38825699961188,
              47.117899000220234
            ],
            [
              -118.38806400016635,
              47.11806100023252
            ],
            [
              -118.38801700031068,
              47.11805599984329
            ],
            [
              -118.38750000010172,
              47.117999999731104
            ],
            [
              -118.3873700004054,
              47.11810999974285
            ],
            [
              -118.38496000016117,
              47.11810999974285
            ],
            [
              -118.38480799982518,
              47.11810999974285
            ],
            [
              -118.38123000016706,
              47.118119999899356
            ],
            [
              -118.38043000010092,
              47.118130000053974
            ],
            [
              -118.37164000031714,
              47.11818999971971
            ],
            [
              -118.36948399961783,
              47.11818399987844
            ],
            [
              -118.36932200013446,
              47.11818299980296
            ],
            [
              -118.36931600028664,
              47.11807600017475
            ],
            [
              -118.36931499956343,
              47.11722400005617
            ],
            [
              -118.36931299991359,
              47.11621199970531
            ],
            [
              -118.36931100026379,
              47.115480999830396
            ],
            [
              -118.36919099971486,
              47.115158000241024
            ],
            [
              -118.36907600008712,
              47.11484600021265
            ],
            [
              -118.3689899998734,
              47.11461599971408
            ],
            [
              -118.36894499966759,
              47.11449299976782
            ],
            [
              -118.36892799994914,
              47.11244799987052
            ],
            [
              -118.3657360000804,
              47.11246399974394
            ],
            [
              -118.36563499979805,
              47.11246900004729
            ],
            [
              -118.3656230001025,
              47.11085299969708
            ],
            [
              -118.34412100002199,
              47.11089999991772
            ],
            [
              -118.34418799996912,
              47.11791599975791
            ],
            [
              -118.34418999961896,
              47.118199999861176
            ],
            [
              -118.35107999969473,
              47.118199999861176
            ],
            [
              -118.35465999990099,
              47.11818000018767
            ],
            [
              -118.35676999967124,
              47.11818800018022
            ],
            [
              -118.35729000025323,
              47.11818999971971
            ],
            [
              -118.35883299958581,
              47.11820300008664
            ],
            [
              -118.35882799956298,
              47.117312999747384
            ],
            [
              -118.36101299967629,
              47.11730500023454
            ],
            [
              -118.36169499974169,
              47.115515999959634
            ],
            [
              -118.36327499978253,
              47.11414800002667
            ],
            [
              -118.36563999982093,
              47.1138740000368
            ],
            [
              -118.36563999982093,
              47.11493000014161
            ],
            [
              -118.36564099964585,
              47.11512400000932
            ],
            [
              -118.36564400001889,
              47.115706000259536
            ],
            [
              -118.36564599966871,
              47.1158999997435
            ],
            [
              -118.36564599966871,
              47.11603800001099
            ],
            [
              -118.36564900004177,
              47.11645199988886
            ],
            [
              -118.36564999986669,
              47.11658999994745
            ],
            [
              -118.36564999986669,
              47.116917999899684
            ],
            [
              -118.36564999986669,
              47.11695000001043
            ],
            [
              -118.3656599999124,
              47.11731999977863
            ],
            [
              -118.36569099987456,
              47.11790199985137
            ],
            [
              -118.36571000014114,
              47.11823000027434
            ],
            [
              -118.36511099991641,
              47.11824799978054
            ],
            [
              -118.3647300001499,
              47.11826000005927
            ],
            [
              -118.36415000019176,
              47.11831000007081
            ],
            [
              -118.36381999958056,
              47.11840999995283
            ],
            [
              -118.36340000035432,
              47.11854999996102
            ],
            [
              -118.36335900034643,
              47.11856900003851
            ],
            [
              -118.36282000039618,
              47.11883000009484
            ],
            [
              -118.36034999987749,
              47.12052999992719
            ],
            [
              -118.35814999969553,
              47.122070000304404
            ],
            [
              -118.35689000022015,
              47.122940000205666
            ],
            [
              -118.35316000022607,
              47.12556000009575
            ],
            [
              -118.35371400024492,
              47.12556000009575
            ],
            [
              -118.35399799992707,
              47.12556100003257
            ],
            [
              -118.35486999996324,
              47.12556199996937
            ],
            [
              -118.35748600007183,
              47.1255649997797
            ],
            [
              -118.35835899993289,
              47.1255670002644
            ],
            [
              -118.35852200013953,
              47.12541200006933
            ],
            [
              -118.36369599973202,
              47.12179900017478
            ],
            [
              -118.36463999973822,
              47.121870000051246
            ],
            [
              -118.3656800000039,
              47.121890000171526
            ],
            [
              -118.36568699967661,
              47.123766999999425
            ],
            [
              -118.36569000004964,
              47.124280000140786
            ],
            [
              -118.36569400024761,
              47.12446599987794
            ],
            [
              -118.36569900027048,
              47.124667000104935
            ],
            [
              -118.3657000000954,
              47.1247099999272
            ],
            [
              -118.3657000000954,
              47.1247899997598
            ],
            [
              -118.3657000000954,
              47.12487199998292
            ],
            [
              -118.3657000000954,
              47.12501100015441
            ],
            [
              -118.3657000000954,
              47.125430000201916
            ],
            [
              -118.3657000000954,
              47.12557000007439
            ],
            [
              -118.3656309996001,
              47.12557000007439
            ],
            [
              -118.36562999977518,
              47.125584999733306
            ],
            [
              -118.36557500042191,
              47.12565600005789
            ],
            [
              -118.36555799980518,
              47.127309000231875
            ],
            [
              -118.36570900031622,
              47.12739900006907
            ],
            [
              -118.36701800019539,
              47.128180999795966
            ],
            [
              -118.36817599956355,
              47.12719500005653
            ],
            [
              -118.36832000040191,
              47.127071999850656
            ],
            [
              -118.36853600031198,
              47.126911000294264
            ],
            [
              -118.36950799990726,
              47.127491000166266
            ],
            [
              -118.37019300034571,
              47.12782799980777
            ],
            [
              -118.3701980003686,
              47.12806999993617
            ],
            [
              -118.37031999966901,
              47.12806999993617
            ],
            [
              -118.37043000017219,
              47.12806999993617
            ],
            [
              -118.37075999988505,
              47.12806999993617
            ],
            [
              -118.37087000038822,
              47.12806999993617
            ],
            [
              -118.37092999976436,
              47.12810000028454
            ],
            [
              -118.37110999968942,
              47.12819000000568
            ],
            [
              -118.37116999996388,
              47.12822000028636
            ],
            [
              -118.37092100044185,
              47.12844400013582
            ],
            [
              -118.37075999988505,
              47.12858999991193
            ],
            [
              -118.3701570003607,
              47.12909899989867
            ],
            [
              -118.3701099996067,
              47.12914000006629
            ],
            [
              -118.37003000013908,
              47.129239999761104
            ],
            [
              -118.37006000027633,
              47.12928999984363
            ],
            [
              -118.3701299996982,
              47.12933999987909
            ],
            [
              -118.37027600018637,
              47.1294150001498
            ],
            [
              -118.3707130000294,
              47.12964299990767
            ],
            [
              -118.37086000034249,
              47.12972000007957
            ],
            [
              -118.37114599967443,
              47.1298830000122
            ],
            [
              -118.3711499998724,
              47.12995099992643
            ],
            [
              -118.37115300024543,
              47.130124999958205
            ],
            [
              -118.3711570004434,
              47.13033400019219
            ],
            [
              -118.37116599976594,
              47.13085400003538
            ],
            [
              -118.37119699972807,
              47.13257099979684
            ],
            [
              -118.37118500003251,
              47.13281199993416
            ],
            [
              -118.37114099965159,
              47.1335140000972
            ],
            [
              -118.3711089998645,
              47.13414300009976
            ],
            [
              -118.37110600038977,
              47.134184000045636
            ],
            [
              -118.37110399984164,
              47.134286999964104
            ],
            [
              -118.37110999968942,
              47.13444400011456
            ],
            [
              -118.37111499971229,
              47.13553400022351
            ],
            [
              -118.371128999956,
              47.13555100023722
            ],
            [
              -118.3711220002833,
              47.136642999722525
            ],
            [
              -118.3711869996823,
              47.136642999722525
            ],
            [
              -118.37472099985781,
              47.13664199999403
            ],
            [
              -118.374719000208,
              47.13652499985376
            ],
            [
              -118.37647199960287,
              47.13655499971062
            ],
            [
              -118.38054999975151,
              47.136519999977835
            ],
            [
              -118.38324799987583,
              47.13649700005365
            ],
            [
              -118.38727699962065,
              47.136460999939764
            ],
            [
              -118.38727300032103,
              47.136281999962094
            ],
            [
              -118.3872570004275,
              47.135585000248284
            ],
            [
              -118.38723999981073,
              47.1348299997009
            ],
            [
              -118.38721300004654,
              47.133496000255796
            ],
            [
              -118.38719999962775,
              47.132799999882145
            ],
            [
              -118.38712000016015,
              47.13207999975153
            ],
            [
              -118.3870260004488,
              47.13159799969531
            ],
            [
              -118.38723399996294,
              47.131603000034026
            ],
            [
              -118.38724999985646,
              47.13161000001855
            ],
            [
              -118.38854000036741,
              47.13235000025533
            ],
            [
              -118.38897999968515,
              47.13255000022002
            ],
            [
              -118.38911799977743,
              47.13259700022177
            ],
            [
              -118.38930000025061,
              47.132660000093956
            ],
            [
              -118.38953000040438,
              47.132719999873686
            ],
            [
              -118.38969899956047,
              47.13272299989146
            ],
            [
              -118.38969799973555,
              47.13242700017492
            ],
            [
              -118.38970199993352,
              47.13208500004493
            ],
            [
              -118.38970299975841,
              47.131966000023624
            ],
            [
              -118.38970600013147,
              47.13163799994733
            ],
            [
              -118.38976700023083,
              47.13163700012475
            ],
            [
              -118.39206799979682,
              47.13072800021572
            ],
            [
              -118.39878499962023,
              47.12810200006267
            ],
            [
              -118.3997549995657,
              47.128097999895104
            ],
            [
              -118.39975200009096,
              47.12772199991493
            ],
            [
              -118.40024199963742,
              47.12752999994026
            ],
            [
              -118.40852199978323,
              47.11933799989429
            ]
          ]
        ]
      },
      "properties": {
        "AREALAND": "5716366",
        "AREAWATER": "0",
        "BASENAME": "Ritzville",
        "CBSAPCI": "N",
        "CENTLAT": "+47.1230414",
        "CENTLON": "-118.3753324",
        "FUNCSTAT": "A",
        "GEOID": "5358725",
        "INTPTLAT": "+47.1230414",
        "INTPTLON": "-118.3753324",
        "LSADC": "25",
        "MTFCC": "G4110",
        "NAME": "Ritzville city",
        "NECTAPCI": "N",
        "OBJECTID": 18870,
        "OID": "27890225708850",
        "PLACE": "58725",
        "PLACECC": "C1",
        "PLACENS": "02410959",
        "STATE": "53",
        "DISP_CLR": 2,
        "slug": "ritzville",
        "jurisdiction_key": "ritzville_city",
        "county_fips": [
          "53001"
        ]
      }
    }
  ]
}
