{"type":"FeatureCollection","features":[{"type":"Feature","geometry":{"type":"MultiPolygon","coordinates":[[[[-117.3766570003887,47.240224000208975],[-117.3766289999013,47.236620000184374],[-117.37662200022862,47.23572200014588],[-117.37660999963472,47.234009999808315],[-117.37659600028933,47.23241299984635],[-117.37659299991627,47.23177800002428],[-117.37659000044154,47.23135499990804],[-117.37658600024359,47.231100999969506],[-117.37656000030432,47.231100999969506],[-117.37533799956545,47.23108900015361],[-117.37308899987802,47.23106600029561],[-117.37298199974788,47.23106400012184],[-117.37260500017935,47.23106199994799],[-117.37208299994752,47.23053700019634],[-117.3710469998798,47.230526999836904],[-117.37104500023,47.23044099996169],[-117.37101199971971,47.229437999787734],[-117.36969000032003,47.22942199973392],[-117.36892899971362,47.22941600024629],[-117.36888199985798,47.22935299978972],[-117.3688700001624,47.22933699971029],[-117.36885099989581,47.22932699973441],[-117.36882999997943,47.22928299994021],[-117.36881999993368,47.229269999896985],[-117.3687809995756,47.229215000241844],[-117.36876999970497,47.22919999993781],[-117.36868900041243,47.229038999863924],[-117.36866000010009,47.22898000007438],[-117.36863199961272,47.22898199971677],[-117.36854899977203,47.22898799986356],[-117.36852200000784,47.228990999936734],[-117.3684199999006,47.2285129997639],[-117.36833600023502,47.22702400012404],[-117.36833100021215,47.22693599972569],[-117.36824099980045,47.22683799995591],[-117.36806199970032,47.226687999758155],[-117.36775499955365,47.226577999912706],[-117.36712600009001,47.226424000111635],[-117.36640800003961,47.226319000295774],[-117.36565999985199,47.226258000173594],[-117.36563200026289,47.22560099990869],[-117.36419000031432,47.225610000092686],[-117.36425700026147,47.22809900019147],[-117.36440899969912,47.22809200010606],[-117.36440899969912,47.228156000068175],[-117.36463499965492,47.2281609998618],[-117.36560100030076,47.22813499983175],[-117.36562700024002,47.228790000150596],[-117.36559899975263,47.228790999975416],[-117.36551500008702,47.22879599970914],[-117.36548800032286,47.22879799996851],[-117.36583999977704,47.22902000022838],[-117.3658299997313,47.22949999972183],[-117.36583200027944,47.22957599997504],[-117.36587599976205,47.231242999821006],[-117.36587999996001,47.231390000001085],[-117.36587999996001,47.23179999980529],[-117.36587999996001,47.23237999994314],[-117.36586999991428,47.23281999980989],[-117.36465999976927,47.23281999980989],[-117.36447999984424,47.23282999973667],[-117.36407599961318,47.23283399995084],[-117.36307399988065,47.23284599998158],[-117.3631190000865,47.23607799981646],[-117.36314300037596,47.23712199977962],[-117.36319100005653,47.240091999802665],[-117.36319400042956,47.240221999770945],[-117.3657290003473,47.24019600016877],[-117.36591699976995,47.240190000071095],[-117.36592199979282,47.240737000287034],[-117.36567200044587,47.24074099990434],[-117.36556299976763,47.24073900009572],[-117.36528499993327,47.24077899991295],[-117.36532299956808,47.24093300008608],[-117.36547999992693,47.24107900001902],[-117.36569400018719,47.24127400018332],[-117.36569900021006,47.2418860002226],[-117.36570099985988,47.24197899990276],[-117.36591799959484,47.241990000116445],[-117.3659410000594,47.24199199987784],[-117.36597100019661,47.24418200005943],[-117.36599999961061,47.24659300029243],[-117.36600800000656,47.24705100024123],[-117.36601100037959,47.24719199995149],[-117.36557100016356,47.247425000297916],[-117.36538200001765,47.2475440002888],[-117.36499299985522,47.247803999922915],[-117.36464200022593,47.24808200016501],[-117.36439000033086,47.24831500025521],[-117.36402899975754,47.24872899983672],[-117.36624300018318,47.24875300001371],[-117.3662599999016,47.24862000006485],[-117.36636500038192,47.247967999917556],[-117.36637999955221,47.247880000147155],[-117.36644599967445,47.24754800000201],[-117.3664499998724,47.24752999976567],[-117.36645499989527,47.24750699972586],[-117.36679600037714,47.24751200013307],[-117.36698100032505,47.24751499976735],[-117.36748599994014,47.24752299980762],[-117.36777800001816,47.24695100028409],[-117.36813600021847,47.24626999973289],[-117.36856100036593,47.245586999948266],[-117.36866500012299,47.245412999909895],[-117.3690679996308,47.24478299980557],[-117.36926799964732,47.24438000020128],[-117.36943900024988,47.24386999986791],[-117.36992299994856,47.242383999832825],[-117.37066000026553,47.240119999897885],[-117.37071399979388,47.240119999897885],[-117.37075999982461,47.240119999897885],[-117.37094899997052,47.240124999782616],[-117.37151700023308,47.24014199987514],[-117.3717070002039,47.240147999978255],[-117.37177999999882,47.24014999980918],[-117.37197599981741,47.24015599991138],[-117.37208999962023,47.24016000018239],[-117.37278099990644,47.2402100001907],[-117.37305000041827,47.24023000030281],[-117.37330700033623,47.240224000208975],[-117.37379900043081,47.24021300023851],[-117.37424999961921,47.24021500006698],[-117.3752430000292,47.24021899972369],[-117.3766570003887,47.240224000208975]]],[[[-117.36279600004632,47.23710699988376],[-117.36279199984835,47.23683400018273],[-117.36213900009527,47.23684300028912],[-117.36211099960788,47.23684300028912],[-117.36211599963075,47.237115000276],[-117.36214599976799,47.237115000276],[-117.36224000037762,47.23711599994376],[-117.36279600004632,47.23710699988376]]],[[[-117.42543400036692,47.234862999830774],[-117.4254329996437,47.233748999836926],[-117.42542099994813,47.23270999988069],[-117.42428199994825,47.23323500006567],[-117.42447299974398,47.23340399993537],[-117.42154299981605,47.2357580000979],[-117.42121899995095,47.23601499995982],[-117.42060499965761,47.23558200009992],[-117.41991300044481,47.23589399969593],[-117.419567999765,47.23603000016486],[-117.41923899987702,47.236139999912034],[-117.41897100008842,47.23622300002482],[-117.4185829997509,47.2363270000561],[-117.4182160002281,47.23640700022278],[-117.41808300015872,47.23643200017383],[-117.41792900017295,47.23645999976351],[-117.41780100012642,47.23648099975097],[-117.4176529999884,47.236503000019376],[-117.41740299974315,47.236533999827614],[-117.41737900035201,47.236499000082155],[-117.41737400032915,47.235698000164234],[-117.41728999976525,47.23571000015639],[-117.41693999996087,47.23573000013733],[-117.41687399983866,47.236108000186576],[-117.41678000012732,47.23666000006164],[-117.4166470000579,47.237238000132265],[-117.41664000038523,47.23726999978527],[-117.41653900010287,47.23760699981777],[-117.41656900024012,47.2376089997446],[-117.41666200012654,47.23761500013452],[-117.41669300008867,47.23761799971934],[-117.41713499995454,47.23765899972056],[-117.41740299974315,47.23768400030077],[-117.41715300039621,47.238718999940836],[-117.41708399990091,47.239006000028546],[-117.4159199997867,47.23974999979839],[-117.41594999992391,47.239810000023],[-117.41598000006115,47.2398599997517],[-117.41610999975747,47.23993000026842],[-117.4162300003064,47.2399600002873],[-117.41636000000273,47.23997999988387],[-117.41770999988982,47.23997999988387],[-117.41940000043382,47.23999000028923],[-117.41980999961434,47.240030000062035],[-117.42128099987525,47.23867399976697],[-117.42543400036692,47.234862999830774]]]]},"properties":{"AREALAND":"1627018","AREAWATER":"0","BASENAME":"Rosalia","CBSAPCI":"N","CENTLAT":"+47.2362865","CENTLON":"-117.3764765","FUNCSTAT":"A","GEOID":"5359775","INTPTLAT":"+47.2362865","INTPTLON":"-117.3764765","LSADC":"43","MTFCC":"G4110","NAME":"Rosalia town","NECTAPCI":"N","OBJECTID":8115,"OID":"27890256943256","PLACE":"59775","PLACECC":"C1","PLACENS":"02412576","STATE":"53","DISP_CLR":4,"slug":"rosalia","jurisdiction_key":"rosalia_city","county_fips":["53075"]}}]}
