{
  "type": "FeatureCollection",
  "features": [
    {
      "type": "Feature",
      "geometry": {
        "type": "Polygon",
        "coordinates": [
          [
            [
              -117.14250600028753,
              47.45656000019554
            ],
            [
              -117.14250299991447,
              47.456439000295525
            ],
            [
              -117.14249299986874,
              47.45605499986819
            ],
            [
              -117.14249200004382,
              47.45600100008621
            ],
            [
              -117.14248199999807,
              47.455617000104695
            ],
            [
              -117.1424779998001,
              47.45545199986342
            ],
            [
              -117.14246799975436,
              47.45506899992507
            ],
            [
              -117.14246699992947,
              47.455013999936384
            ],
            [
              -117.1424569998837,
              47.45463000003612
            ],
            [
              -117.14245299968576,
              47.454464999734896
            ],
            [
              -117.14244600001304,
              47.45419599981984
            ],
            [
              -117.14244500018815,
              47.45415199995344
            ],
            [
              -117.14243099994447,
              47.45359700028603
            ],
            [
              -117.14242900029463,
              47.45351399987939
            ],
            [
              -117.1424200000738,
              47.45312699983975
            ],
            [
              -117.14241699970073,
              47.45305099999344
            ],
            [
              -117.14241500005092,
              47.45297100006847
            ],
            [
              -117.14240900020314,
              47.452723000195945
            ],
            [
              -117.14240599983009,
              47.45260299981813
            ],
            [
              -117.14240199963211,
              47.45243699998817
            ],
            [
              -117.14239599978433,
              47.452205000138306
            ],
            [
              -117.14236200034746,
              47.450856999822754
            ],
            [
              -117.14235800014951,
              47.450706000024724
            ],
            [
              -117.14235599960138,
              47.45057800021045
            ],
            [
              -117.14233700023311,
              47.44985300020478
            ],
            [
              -117.14232899983719,
              47.44958000016302
            ],
            [
              -117.14232600036246,
              47.449464000139095
            ],
            [
              -117.14232399981432,
              47.449393999917056
            ],
            [
              -117.14232600036246,
              47.44937800016565
            ],
            [
              -117.14218499989715,
              47.44937900007432
            ],
            [
              -117.1417510004272,
              47.449379999982966
            ],
            [
              -117.14169399962746,
              47.44938099989161
            ],
            [
              -117.14163300042641,
              47.44941299999522
            ],
            [
              -117.14158599967243,
              47.44942799982826
            ],
            [
              -117.14150299983176,
              47.44944899970883
            ],
            [
              -117.1414419997324,
              47.449460999810384
            ],
            [
              -117.1413789999832,
              47.44946599995314
            ],
            [
              -117.14097599957707,
              47.449478000050824
            ],
            [
              -117.14092000039888,
              47.44947999986434
            ],
            [
              -117.14041999990837,
              47.449482000285265
            ],
            [
              -117.13983099972941,
              47.449439999934604
            ],
            [
              -117.13978600042188,
              47.44943700021202
            ],
            [
              -117.13976799998022,
              47.44943499978938
            ],
            [
              -117.13938700021372,
              47.44939999997445
            ],
            [
              -117.13936700012222,
              47.44940099988271
            ],
            [
              -117.13919399986986,
              47.44940600003116
            ],
            [
              -117.13900899992196,
              47.44941299999522
            ],
            [
              -117.13867800038413,
              47.44940799984742
            ],
            [
              -117.13850599995668,
              47.44940600003116
            ],
            [
              -117.13843399998667,
              47.449395999733774
            ],
            [
              -117.138315000161,
              47.449379999982966
            ],
            [
              -117.13822300009947,
              47.44935399992196
            ],
            [
              -117.13815399960419,
              47.449334999822504
            ],
            [
              -117.13812699984001,
              47.44932699993843
            ],
            [
              -117.13765099963895,
              47.44930400018901
            ],
            [
              -117.13746300021629,
              47.44929499978249
            ],
            [
              -117.13677100010516,
              47.449291000141315
            ],
            [
              -117.13613699972032,
              47.449299000030855
            ],
            [
              -117.13584399981738,
              47.44930300027892
            ],
            [
              -117.13563299993018,
              47.449312000076574
            ],
            [
              -117.13553699967072,
              47.44930300027892
            ],
            [
              -117.13550599970857,
              47.449299999941026
            ],
            [
              -117.13415800036965,
              47.44928400016102
            ],
            [
              -117.13389999972847,
              47.44928099982205
            ],
            [
              -117.13389899990355,
              47.449155000010386
            ],
            [
              -117.13390700029947,
              47.44884699980755
            ],
            [
              -117.13390800012439,
              47.44880299971812
            ],
            [
              -117.13390899994928,
              47.44876800009012
            ],
            [
              -117.13391099959914,
              47.44872399993459
            ],
            [
              -117.13391899999505,
              47.44840599975966
            ],
            [
              -117.13392099964484,
              47.44833500002351
            ],
            [
              -117.13371800015359,
              47.4483320002379
            ],
            [
              -117.1336289995668,
              47.4483320002379
            ],
            [
              -117.13357900023642,
              47.448330999701824
            ],
            [
              -117.13351599958892,
              47.448329999773236
            ],
            [
              -117.13337900021988,
              47.44832899984463
            ],
            [
              -117.13336199960312,
              47.44832899984463
            ],
            [
              -117.13336099977819,
              47.44817099995004
            ],
            [
              -117.1333599999533,
              47.44812300017254
            ],
            [
              -117.13335900012841,
              47.44777500002035
            ],
            [
              -117.13335800030349,
              47.44753799993414
            ],
            [
              -117.13335699958024,
              47.44730099999507
            ],
            [
              -117.13335699958024,
              47.447254999929314
            ],
            [
              -117.13335599975532,
              47.44719899971567
            ],
            [
              -117.13335199955738,
              47.44621500012009
            ],
            [
              -117.13335199955738,
              47.446172000228565
            ],
            [
              -117.1333089998997,
              47.44617100025892
            ],
            [
              -117.13216300022708,
              47.44615800004437
            ],
            [
              -117.13200900024131,
              47.44615600010455
            ],
            [
              -117.13198300030207,
              47.44615500013461
            ],
            [
              -117.13183099996608,
              47.44615600010455
            ],
            [
              -117.13183099996608,
              47.445769999966075
            ],
            [
              -117.13183099996608,
              47.44571399999401
            ],
            [
              -117.13183099996608,
              47.44555700012334
            ],
            [
              -117.13033999961368,
              47.44555100023507
            ],
            [
              -117.13024699972729,
              47.44555100023507
            ],
            [
              -117.13057499979034,
              47.44534999993746
            ],
            [
              -117.13055200022413,
              47.4452870002211
            ],
            [
              -117.1305229999118,
              47.445208000016876
            ],
            [
              -117.13042699965233,
              47.44498899976867
            ],
            [
              -117.13032299989527,
              47.44485300005718
            ],
            [
              -117.13005699975648,
              47.444603000179555
            ],
            [
              -117.1297410002873,
              47.44440199990476
            ],
            [
              -117.12940700037646,
              47.4442870000097
            ],
            [
              -117.1289310001754,
              47.44417199986319
            ],
            [
              -117.12854700003585,
              47.44407800027519
            ],
            [
              -117.12824800028508,
              47.44402499974832
            ],
            [
              -117.12788599988686,
              47.44397099976419
            ],
            [
              -117.12783700038138,
              47.44396300027933
            ],
            [
              -117.12755299980091,
              47.44408799976105
            ],
            [
              -117.12712099998078,
              47.44427899996535
            ],
            [
              -117.12691599994139,
              47.44436799978234
            ],
            [
              -117.12669400018352,
              47.444465000073535
            ],
            [
              -117.12650400021272,
              47.44454900018117
            ],
            [
              -117.12640200010546,
              47.444594000183685
            ],
            [
              -117.1262980003484,
              47.444642000143894
            ],
            [
              -117.12618199999744,
              47.44469000006031
            ],
            [
              -117.1246720002768,
              47.44535299989314
            ],
            [
              -117.12409200031868,
              47.445607999753484
            ],
            [
              -117.12385399976898,
              47.445607999753484
            ],
            [
              -117.12379799969247,
              47.445607999753484
            ],
            [
              -117.1237280002706,
              47.445607999753484
            ],
            [
              -117.12367899986678,
              47.445607999753484
            ],
            [
              -117.12151200019512,
              47.445606999773126
            ],
            [
              -117.12148500043094,
              47.445606999773126
            ],
            [
              -117.12145699994352,
              47.445606999773126
            ],
            [
              -117.12104100001693,
              47.44560099989057
            ],
            [
              -117.12104100001693,
              47.44568599998564
            ],
            [
              -117.12104000019201,
              47.44573000025251
            ],
            [
              -117.12103799964387,
              47.446061999809196
            ],
            [
              -117.12103699981895,
              47.44615000028461
            ],
            [
              -117.12103500016914,
              47.44648200022798
            ],
            [
              -117.12101799955238,
              47.449133000099145
            ],
            [
              -117.12101799955238,
              47.449211999875786
            ],
            [
              -117.12101900027561,
              47.44927399984043
            ],
            [
              -117.12102000010051,
              47.44929700021046
            ],
            [
              -117.12102199975035,
              47.449364000227305
            ],
            [
              -117.12105000023774,
              47.45054499971422
            ],
            [
              -117.12105500026061,
              47.45075299999222
            ],
            [
              -117.12107000032923,
              47.45136399999991
            ],
            [
              -117.12108500039785,
              47.452002999896344
            ],
            [
              -117.12108799987259,
              47.45214399984025
            ],
            [
              -117.12109100024564,
              47.45224799995735
            ],
            [
              -117.12109399972036,
              47.45237999997325
            ],
            [
              -117.12111700018491,
              47.4533540001016
            ],
            [
              -117.12111999965964,
              47.45345800025548
            ],
            [
              -117.12114300012418,
              47.454405000049235
            ],
            [
              -117.12114499977399,
              47.454492999929265
            ],
            [
              -117.12117800028426,
              47.455869999833475
            ],
            [
              -117.12118800033002,
              47.45630100026548
            ],
            [
              -117.12119099980475,
              47.45640899976524
            ],
            [
              -117.12123299963756,
              47.45641000014763
            ],
            [
              -117.1213980003923,
              47.456413000079905
            ],
            [
              -117.12169999961777,
              47.456418000169066
            ],
            [
              -117.12260699981407,
              47.456432999826426
            ],
            [
              -117.12287299995285,
              47.45643799991368
            ],
            [
              -117.12290999976278,
              47.456439000295525
            ],
            [
              -117.12324600022176,
              47.45644300000051
            ],
            [
              -117.12397599996773,
              47.4564539999469
            ],
            [
              -117.12425399980206,
              47.456450000242754
            ],
            [
              -117.12459100008596,
              47.45644599993091
            ],
            [
              -117.12471199956146,
              47.45651200017818
            ],
            [
              -117.12482899973732,
              47.45651200017818
            ],
            [
              -117.1252990000906,
              47.456512999951215
            ],
            [
              -117.12559299981848,
              47.45651399972423
            ],
            [
              -117.1258559995842,
              47.45651399972423
            ],
            [
              -117.12597699995803,
              47.45651500010463
            ],
            [
              -117.12616199990596,
              47.45651500010463
            ],
            [
              -117.12634500020408,
              47.45651500010463
            ],
            [
              -117.12671900029787,
              47.45651599987761
            ],
            [
              -117.12696899964482,
              47.456517000257975
            ],
            [
              -117.12721600041536,
              47.456517000257975
            ],
            [
              -117.1278690001684,
              47.45652000018414
            ],
            [
              -117.12796799990262,
              47.45652000018414
            ],
            [
              -117.12804099969755,
              47.45652099995702
            ],
            [
              -117.1280590001392,
              47.45652099995702
            ],
            [
              -117.12829500014075,
              47.45652099995702
            ],
            [
              -117.12892000030475,
              47.45652199972989
            ],
            [
              -117.1291570001312,
              47.45652300011013
            ],
            [
              -117.1292140000326,
              47.45652300011013
            ],
            [
              -117.12947799962326,
              47.45652300011013
            ],
            [
              -117.12998200031171,
              47.45652399988296
            ],
            [
              -117.13058499983607,
              47.456526000035915
            ],
            [
              -117.13061099977534,
              47.456526000035915
            ],
            [
              -117.1308529996247,
              47.456526000035915
            ],
            [
              -117.13170000044481,
              47.45652800018883
            ],
            [
              -117.13191999965454,
              47.45652800018883
            ],
            [
              -117.13208899970893,
              47.45652899996157
            ],
            [
              -117.13306000037765,
              47.45653100011437
            ],
            [
              -117.13309399981449,
              47.456531999887055
            ],
            [
              -117.13316599978452,
              47.456531999887055
            ],
            [
              -117.13325600019624,
              47.456531999887055
            ],
            [
              -117.13328499961024,
              47.456531999887055
            ],
            [
              -117.13330200022696,
              47.456531999887055
            ],
            [
              -117.13333200036419,
              47.456531999887055
            ],
            [
              -117.1333959999383,
              47.45653300026711
            ],
            [
              -117.13382000026084,
              47.45653400003974
            ],
            [
              -117.13607899999403,
              47.456541000269866
            ],
            [
              -117.1362389998276,
              47.456541000269866
            ],
            [
              -117.13633699973688,
              47.456542000042354
            ],
            [
              -117.13644899988986,
              47.45657100011746
            ],
            [
              -117.13657399956335,
              47.456595000104706
            ],
            [
              -117.13660299987566,
              47.456595999876164
            ],
            [
              -117.13694000015957,
              47.4566169999315
            ],
            [
              -117.13789699968623,
              47.456603999869294
            ],
            [
              -117.1383290004047,
              47.45659899979777
            ],
            [
              -117.13854100011682,
              47.4565810002653
            ],
            [
              -117.13876899972243,
              47.45654900027137
            ],
            [
              -117.13881999977608,
              47.45654900027137
            ],
            [
              -117.14040800021279,
              47.45655399974024
            ],
            [
              -117.14100099969144,
              47.456555999892096
            ],
            [
              -117.14250600028753,
              47.45656000019554
            ]
          ]
        ]
      },
      "properties": {
        "AREALAND": "1720698",
        "AREAWATER": "0",
        "BASENAME": "Rockford",
        "CBSAPCI": "N",
        "CENTLAT": "+47.4514743",
        "CENTLON": "-117.1306271",
        "FUNCSTAT": "A",
        "GEOID": "5359145",
        "INTPTLAT": "+47.4514743",
        "INTPTLON": "-117.1306271",
        "LSADC": "43",
        "MTFCC": "G4110",
        "NAME": "Rockford town",
        "NECTAPCI": "N",
        "OBJECTID": 7948,
        "OID": "27890481567804",
        "PLACE": "59145",
        "PLACECC": "C1",
        "PLACENS": "02412562",
        "STATE": "53",
        "DISP_CLR": 2,
        "slug": "rockford",
        "jurisdiction_key": "rockford_city",
        "county_fips": [
          "53063"
        ]
      }
    }
  ]
}
