{
  "type": "FeatureCollection",
  "features": [
    {
      "type": "Feature",
      "geometry": {
        "type": "Polygon",
        "coordinates": [
          [
            [
              -122.51568900029584,
              47.29486599977405
            ],
            [
              -122.51570799966409,
              47.29442899988973
            ],
            [
              -122.5112730000384,
              47.29437899989299
            ],
            [
              -122.51039400032953,
              47.29436900000983
            ],
            [
              -122.50955099970733,
              47.29436900000983
            ],
            [
              -122.50809799988812,
              47.2943620001514
            ],
            [
              -122.50651100017456,
              47.29435600009798
            ],
            [
              -122.5051679999602,
              47.29435600009798
            ],
            [
              -122.505177000181,
              47.29484799978323
            ],
            [
              -122.50516399976222,
              47.2957279998805
            ],
            [
              -122.50513000032535,
              47.29581099982763
            ],
            [
              -122.50512899960214,
              47.297206999777245
            ],
            [
              -122.5051260001274,
              47.297591999753344
            ],
            [
              -122.5051260001274,
              47.29761700006631
            ],
            [
              -122.50512500030248,
              47.297839000084814
            ],
            [
              -122.50512500030248,
              47.298041999922596
            ],
            [
              -122.50512500030248,
              47.298133999940546
            ],
            [
              -122.50515999956427,
              47.298676000054826
            ],
            [
              -122.50515700008954,
              47.29872999975515
            ],
            [
              -122.50514500039395,
              47.29898699987442
            ],
            [
              -122.50513699999803,
              47.29916000020654
            ],
            [
              -122.50510699986081,
              47.29981300017312
            ],
            [
              -122.50512899960214,
              47.299829999989896
            ],
            [
              -122.50512799977722,
              47.30003999982012
            ],
            [
              -122.50512799977722,
              47.30014299972499
            ],
            [
              -122.50512799977722,
              47.300517999706166
            ],
            [
              -122.50512899960214,
              47.30082499970392
            ],
            [
              -122.50512899960214,
              47.30085400026638
            ],
            [
              -122.50512899960214,
              47.30091299980714
            ],
            [
              -122.50524999997593,
              47.30092300028036
            ],
            [
              -122.5055279998103,
              47.30107099987412
            ],
            [
              -122.50565000000904,
              47.301136000285055
            ],
            [
              -122.50576399981185,
              47.30117000028077
            ],
            [
              -122.50583400013205,
              47.30123800020657
            ],
            [
              -122.50583599978188,
              47.30130299980302
            ],
            [
              -122.50587900033788,
              47.30135400023645
            ],
            [
              -122.50573299984971,
              47.30170999978934
            ],
            [
              -122.5056190000469,
              47.301988999912645
            ],
            [
              -122.50602699957757,
              47.30227600007744
            ],
            [
              -122.50616800004289,
              47.302375999709376
            ],
            [
              -122.50674700017612,
              47.302781999707946
            ],
            [
              -122.50682400016902,
              47.30283699973353
            ],
            [
              -122.50696499973601,
              47.30277700025659
            ],
            [
              -122.5069859996524,
              47.302767999780926
            ],
            [
              -122.50728399957822,
              47.30263999975396
            ],
            [
              -122.50739699955615,
              47.30264600008575
            ],
            [
              -122.50740900015002,
              47.302634000030594
            ],
            [
              -122.50833700026271,
              47.30222899977081
            ],
            [
              -122.50861300044724,
              47.30210799970947
            ],
            [
              -122.5086390003865,
              47.30209800006958
            ],
            [
              -122.50867799984624,
              47.30203900002372
            ],
            [
              -122.50930499966005,
              47.30177100014292
            ],
            [
              -122.5103509997735,
              47.30170799984647
            ],
            [
              -122.51042699994147,
              47.30173499998272
            ],
            [
              -122.51053700044466,
              47.301742999749685
            ],
            [
              -122.51151700043587,
              47.30174400002506
            ],
            [
              -122.51290400013286,
              47.301758000223295
            ],
            [
              -122.51428800035512,
              47.301769999868064
            ],
            [
              -122.51563999989203,
              47.30178200011934
            ],
            [
              -122.51564499991488,
              47.30059399980216
            ],
            [
              -122.51564699956472,
              47.29933599971707
            ],
            [
              -122.51566900020435,
              47.29810300024375
            ],
            [
              -122.51567199967909,
              47.297311000077194
            ],
            [
              -122.51567500005211,
              47.29627600012412
            ],
            [
              -122.51567500005211,
              47.29622999973726
            ],
            [
              -122.51567900025009,
              47.2953550002275
            ],
            [
              -122.51568900029584,
              47.29486599977405
            ]
          ]
        ]
      },
      "properties": {
        "AREALAND": "661911",
        "AREAWATER": "5237",
        "BASENAME": "Ruston",
        "CBSAPCI": "N",
        "CENTLAT": "+47.2981592",
        "CENTLON": "-122.5103359",
        "FUNCSTAT": "A",
        "GEOID": "5360510",
        "INTPTLAT": "+47.2975738",
        "INTPTLON": "-122.5103760",
        "LSADC": "25",
        "MTFCC": "G4110",
        "NAME": "Ruston city",
        "NECTAPCI": "N",
        "OBJECTID": 2909,
        "OID": "278901445839840",
        "PLACE": "60510",
        "PLACECC": "C1",
        "PLACENS": "02412586",
        "STATE": "53",
        "DISP_CLR": 2,
        "slug": "ruston",
        "jurisdiction_key": "ruston_city",
        "county_fips": [
          "53053"
        ]
      }
    }
  ]
}
