{
  "type": "FeatureCollection",
  "features": [
    {
      "type": "Feature",
      "geometry": {
        "type": "Polygon",
        "coordinates": [
          [
            [
              -122.09847100038375,
              47.591933000284364
            ],
            [
              -122.09846600036089,
              47.58778400007291
            ],
            [
              -122.09846399981275,
              47.58470300017823
            ],
            [
              -122.09733599968354,
              47.5810829997394
            ],
            [
              -122.09717599984994,
              47.58060599999142
            ],
            [
              -122.09672499976325,
              47.580190000294024
            ],
            [
              -122.09594200031385,
              47.579465999871964
            ],
            [
              -122.09410600017996,
              47.57865900010679
            ],
            [
              -122.08867599959613,
              47.57715200004806
            ],
            [
              -122.08605199998995,
              47.57642399977044
            ],
            [
              -122.08426400043497,
              47.57586199971726
            ],
            [
              -122.08226699974428,
              47.57522199974703
            ],
            [
              -122.07697500015102,
              47.57115599990953
            ],
            [
              -122.07574800028759,
              47.56981500009943
            ],
            [
              -122.07261999999297,
              47.56639999981984
            ],
            [
              -122.07190100011765,
              47.56561000016637
            ],
            [
              -122.06386899966895,
              47.56557600026986
            ],
            [
              -122.06362799964455,
              47.565575000147774
            ],
            [
              -122.05733599996856,
              47.565532999852145
            ],
            [
              -122.05737699997644,
              47.5666439997413
            ],
            [
              -122.0573590004331,
              47.56731500002881
            ],
            [
              -122.05735600006007,
              47.5674319999919
            ],
            [
              -122.05734900038736,
              47.56767599995485
            ],
            [
              -122.05733699979349,
              47.56811999992245
            ],
            [
              -122.05733599996856,
              47.56822099997524
            ],
            [
              -122.05733099994572,
              47.56837900013523
            ],
            [
              -122.05733299959552,
              47.56840099982047
            ],
            [
              -122.05734099999144,
              47.568461999698414
            ],
            [
              -122.05741100031165,
              47.56926500004307
            ],
            [
              -122.05740999958842,
              47.569392999829134
            ],
            [
              -122.05739899971775,
              47.56992200014898
            ],
            [
              -122.05739200004507,
              47.57023800003301
            ],
            [
              -122.05739100022015,
              47.570278000127864
            ],
            [
              -122.05722999966335,
              47.57027600006326
            ],
            [
              -122.05711800040868,
              47.57027500003091
            ],
            [
              -122.05708900009637,
              47.57027399999856
            ],
            [
              -122.05541299979606,
              47.5702560000189
            ],
            [
              -122.05537099996326,
              47.5702560000189
            ],
            [
              -122.05354300022529,
              47.570235999966854
            ],
            [
              -122.05348100030102,
              47.57023499993376
            ],
            [
              -122.05295800024427,
              47.57022899973472
            ],
            [
              -122.05272999974034,
              47.57022700027432
            ],
            [
              -122.0525930003713,
              47.57034699988642
            ],
            [
              -122.05248399969305,
              47.57042999996734
            ],
            [
              -122.0522770000038,
              47.57055599988267
            ],
            [
              -122.05214800013238,
              47.570621999803926
            ],
            [
              -122.05193600042027,
              47.57070900015155
            ],
            [
              -122.05169600022076,
              47.57077999999375
            ],
            [
              -122.05161500002991,
              47.57080199988265
            ],
            [
              -122.05138200040139,
              47.57084600023876
            ],
            [
              -122.05126600005046,
              47.57086199997341
            ],
            [
              -122.05062300034312,
              47.570883999827856
            ],
            [
              -122.0501370000963,
              47.57083600002332
            ],
            [
              -122.0496630004434,
              47.5706820001009
            ],
            [
              -122.04915600028018,
              47.57042199973159
            ],
            [
              -122.04835200001607,
              47.56971800026215
            ],
            [
              -122.04790000010445,
              47.56935899996381
            ],
            [
              -122.04760300000352,
              47.56915000003953
            ],
            [
              -122.04741300003273,
              47.56901599992768
            ],
            [
              -122.04665200032463,
              47.568562000238835
            ],
            [
              -122.0465440003696,
              47.56850500013602
            ],
            [
              -122.04649999998867,
              47.57084300017434
            ],
            [
              -122.04644899993504,
              47.57376600024902
            ],
            [
              -122.04506200023803,
              47.5737550000192
            ],
            [
              -122.04392700043611,
              47.57374700029142
            ],
            [
              -122.04329600042433,
              47.57374199985485
            ],
            [
              -122.04280500015469,
              47.57373799999012
            ],
            [
              -122.04108299982359,
              47.57372499982151
            ],
            [
              -122.04102199972424,
              47.57736899993819
            ],
            [
              -122.03565099958993,
              47.57733399989944
            ],
            [
              -122.03570099981864,
              47.574891999811754
            ],
            [
              -122.03571900026033,
              47.573861999897495
            ],
            [
              -122.03570500001662,
              47.57350899995135
            ],
            [
              -122.0357119996893,
              47.572260999956654
            ],
            [
              -122.03571699971219,
              47.571997000155946
            ],
            [
              -122.03576399956786,
              47.5697379999059
            ],
            [
              -122.03577799981154,
              47.569258999732895
            ],
            [
              -122.03581600034471,
              47.56903900000743
            ],
            [
              -122.0358170001696,
              47.56831600002112
            ],
            [
              -122.03583399988806,
              47.56815800027719
            ],
            [
              -122.03583399988806,
              47.56734300008521
            ],
            [
              -122.03592000010177,
              47.563632999807645
            ],
            [
              -122.03593900036834,
              47.562739999778024
            ],
            [
              -122.03983099984582,
              47.56280100018711
            ],
            [
              -122.03992999958002,
              47.562800000012004
            ],
            [
              -122.03998200035687,
              47.56280100018711
            ],
            [
              -122.04000800029614,
              47.56280199975597
            ],
            [
              -122.04012600029694,
              47.56280299993099
            ],
            [
              -122.0401530000611,
              47.56280400010599
            ],
            [
              -122.04025199979532,
              47.562805000280974
            ],
            [
              -122.04037900001691,
              47.562807000024755
            ],
            [
              -122.04082500008076,
              47.562814000036525
            ],
            [
              -122.04129000041115,
              47.56282200022201
            ],
            [
              -122.04139400016822,
              47.56282299979052
            ],
            [
              -122.04174899999548,
              47.56282900023183
            ],
            [
              -122.0420129995861,
              47.56283299971742
            ],
            [
              -122.04203699987555,
              47.56278499980844
            ],
            [
              -122.0423070002123,
              47.56223099974687
            ],
            [
              -122.04268899980373,
              47.56144499985302
            ],
            [
              -122.04267200008529,
              47.559233999919606
            ],
            [
              -122.04211800006641,
              47.55922200003139
            ],
            [
              -122.03668699965766,
              47.559113000062275
            ],
            [
              -122.03657299985484,
              47.55911100017754
            ],
            [
              -122.03655799978624,
              47.55907400017399
            ],
            [
              -122.03653100002205,
              47.559008999891475
            ],
            [
              -122.0365269998241,
              47.55899899984086
            ],
            [
              -122.036499000235,
              47.559008999891475
            ],
            [
              -122.03646200042509,
              47.55901800029913
            ],
            [
              -122.03633400037856,
              47.5590479998282
            ],
            [
              -122.03628300032496,
              47.559055999982576
            ],
            [
              -122.03621700020271,
              47.559067000268705
            ],
            [
              -122.03605999984386,
              47.559084999850114
            ],
            [
              -122.03599500044486,
              47.559089000227715
            ],
            [
              -122.0358220001925,
              47.55909400024468
            ],
            [
              -122.03391099971554,
              47.55907400017399
            ],
            [
              -122.0328239995942,
              47.55906200024917
            ],
            [
              -122.0319309996416,
              47.559052000208624
            ],
            [
              -122.03071700019697,
              47.55903299976273
            ],
            [
              -122.02982900026727,
              47.55901899994018
            ],
            [
              -122.02916599957014,
              47.55901200002755
            ],
            [
              -122.02829899955681,
              47.559003000225076
            ],
            [
              -122.0277980001397,
              47.55899699995177
            ],
            [
              -122.02516299976459,
              47.558969999925765
            ],
            [
              -122.02494400037976,
              47.55896600014525
            ],
            [
              -122.02445700030806,
              47.558959000225535
            ],
            [
              -122.02427800020791,
              47.55897199981593
            ],
            [
              -122.02410499995557,
              47.55901300027493
            ],
            [
              -122.02399799982543,
              47.55884900006496
            ],
            [
              -122.02348800018748,
              47.55806500027814
            ],
            [
              -122.02297299962838,
              47.55724299991384
            ],
            [
              -122.02264000044075,
              47.556687999760385
            ],
            [
              -122.02230900000464,
              47.55619800000375
            ],
            [
              -122.0212839998076,
              47.55476700000782
            ],
            [
              -122.02052999977217,
              47.555197000029665
            ],
            [
              -122.02013099956399,
              47.55542400008448
            ],
            [
              -122.02006299979195,
              47.555463999973504
            ],
            [
              -122.02002400033219,
              47.555330999724255
            ],
            [
              -122.01997400010347,
              47.55518299978846
            ],
            [
              -122.01944299965083,
              47.553603999810456
            ],
            [
              -122.01775999967784,
              47.55406999986502
            ],
            [
              -122.01809000028905,
              47.55439700025231
            ],
            [
              -122.01793799995306,
              47.554431000129085
            ],
            [
              -122.016624000051,
              47.55472700019296
            ],
            [
              -122.01479700013793,
              47.5557260000377
            ],
            [
              -122.01479499958981,
              47.557089999714584
            ],
            [
              -122.0147939997649,
              47.557542999744626
            ],
            [
              -122.01479200011507,
              47.557956999988235
            ],
            [
              -122.01479200011507,
              47.55826599990508
            ],
            [
              -122.01490799956771,
              47.55837499981765
            ],
            [
              -122.01432500013485,
              47.558676999736804
            ],
            [
              -122.01413199979099,
              47.55877700016551
            ],
            [
              -122.01259100010822,
              47.55956499994518
            ],
            [
              -122.01132900008469,
              47.56021300028132
            ],
            [
              -122.00946799983645,
              47.5611159999957
            ],
            [
              -122.0075909996947,
              47.561995999775085
            ],
            [
              -122.00699099964505,
              47.562276999793355
            ],
            [
              -122.00595299992753,
              47.56276399975865
            ],
            [
              -122.00555600026748,
              47.56295199973147
            ],
            [
              -122.00462499978175,
              47.56339400001476
            ],
            [
              -122.00399399976999,
              47.563674999808214
            ],
            [
              -122.00341499963676,
              47.563921000001365
            ],
            [
              -122.0020999999098,
              47.56444499971067
            ],
            [
              -122.00125299998797,
              47.564781999762936
            ],
            [
              -122.00105200014652,
              47.56487300004923
            ],
            [
              -122.00094400019148,
              47.564921999998006
            ],
            [
              -122.00002799977439,
              47.56533700024975
            ],
            [
              -121.99988300000943,
              47.565405999850164
            ],
            [
              -121.99863000020673,
              47.56600200023152
            ],
            [
              -121.99844899955843,
              47.566092000104554
            ],
            [
              -121.99813200026435,
              47.566268000163625
            ],
            [
              -121.99804199985266,
              47.56632400016861
            ],
            [
              -121.99794999979113,
              47.56638100022044
            ],
            [
              -121.99787199997333,
              47.566428999865074
            ],
            [
              -121.99785400043,
              47.56643999981533
            ],
            [
              -121.99663300041435,
              47.567303000173226
            ],
            [
              -121.99637800014622,
              47.56746499980997
            ],
            [
              -121.99623400020616,
              47.56754800021541
            ],
            [
              -121.99614899981736,
              47.56759200027479
            ],
            [
              -121.99604099986233,
              47.56763899993922
            ],
            [
              -121.99592899970935,
              47.567680999758394
            ],
            [
              -121.995546000293,
              47.56778900000469
            ],
            [
              -121.99514899973467,
              47.567889000011746
            ],
            [
              -121.99420300007864,
              47.568100000266966
            ],
            [
              -121.99396899972689,
              47.56817100000943
            ],
            [
              -121.99374199994617,
              47.56825000022444
            ],
            [
              -121.99352400038627,
              47.5683399998715
            ],
            [
              -121.9932010003461,
              47.56849800027862
            ],
            [
              -121.99284599962054,
              47.568695000237504
            ],
            [
              -121.99140200002215,
              47.56949499989873
            ],
            [
              -121.99105700024066,
              47.569685000045375
            ],
            [
              -121.99074400024621,
              47.56987900026863
            ],
            [
              -121.9905960001082,
              47.56998300007369
            ],
            [
              -121.99044100029751,
              47.570116000100434
            ],
            [
              -121.99029900000728,
              47.57027500003091
            ],
            [
              -121.99020000027306,
              47.57042299976116
            ],
            [
              -121.99012599975492,
              47.57057899989221
            ],
            [
              -121.99007800007432,
              47.57073900025877
            ],
            [
              -121.98999299968553,
              47.57169500005124
            ],
            [
              -121.9899359997841,
              47.5721749997591
            ],
            [
              -121.98989300012641,
              47.572424000007025
            ],
            [
              -121.9898560003165,
              47.57257700027312
            ],
            [
              -121.98981000028571,
              47.57273000009222
            ],
            [
              -121.98975500003414,
              47.57288200008778
            ],
            [
              -121.98966100032284,
              47.57309600016303
            ],
            [
              -121.98953999994899,
              47.57332600016382
            ],
            [
              -121.98945100026053,
              47.573469999871435
            ],
            [
              -121.98905799990014,
              47.574009999793596
            ],
            [
              -121.9880190003577,
              47.57542300020905
            ],
            [
              -121.98772899992949,
              47.57582300017771
            ],
            [
              -121.9874639996156,
              47.57619300012504
            ],
            [
              -121.98645900040835,
              47.57755999989323
            ],
            [
              -121.98569100012924,
              47.57858200019104
            ],
            [
              -121.98556300008272,
              47.57875499987466
            ],
            [
              -121.98511100017109,
              47.57934199990363
            ],
            [
              -121.98498999979726,
              47.57947200022459
            ],
            [
              -121.98486299957565,
              47.57959599988507
            ],
            [
              -121.9847260002066,
              47.57971800015375
            ],
            [
              -121.98458300009149,
              47.579835000283516
            ],
            [
              -121.98428500016566,
              47.58005199996144
            ],
            [
              -121.9841250003321,
              47.58016599981444
            ],
            [
              -121.98292799970756,
              47.58100700018623
            ],
            [
              -121.98273799973678,
              47.58114700007486
            ],
            [
              -121.98184999980705,
              47.58175999993992
            ],
            [
              -121.98174199985202,
              47.58762200027943
            ],
            [
              -121.97634999980134,
              47.587545999919264
            ],
            [
              -121.97642400031951,
              47.58418200006799
            ],
            [
              -121.97508699995291,
              47.584295000252006
            ],
            [
              -121.9749100004009,
              47.584309999748655
            ],
            [
              -121.97428400041201,
              47.58436000005966
            ],
            [
              -121.973467999554,
              47.58441900000163
            ],
            [
              -121.97347799959974,
              47.583922000074914
            ],
            [
              -121.97355600031588,
              47.580200999777965
            ],
            [
              -121.97129199966147,
              47.58016800010731
            ],
            [
              -121.97112699980504,
              47.58016599981444
            ],
            [
              -121.96995500019322,
              47.5801589996977
            ],
            [
              -121.96982200012381,
              47.58015799985409
            ],
            [
              -121.96889300018623,
              47.580153000029775
            ],
            [
              -121.9685040000238,
              47.58041500024073
            ],
            [
              -121.9685240001153,
              47.58048399997408
            ],
            [
              -121.96855500007743,
              47.58059700026308
            ],
            [
              -121.96854400020678,
              47.58083499989705
            ],
            [
              -121.96847600043472,
              47.5810829997394
            ],
            [
              -121.96866200020754,
              47.581352999922814
            ],
            [
              -121.96875300044415,
              47.581484999734606
            ],
            [
              -121.96925999970904,
              47.581619999872686
            ],
            [
              -121.96933000002923,
              47.581768000261434
            ],
            [
              -121.96935900034154,
              47.58206600000398
            ],
            [
              -121.9691729996704,
              47.58227300028064
            ],
            [
              -121.96879899957658,
              47.582371000295886
            ],
            [
              -121.96862200002457,
              47.582417000227466
            ],
            [
              -121.96838500019811,
              47.5824969999594
            ],
            [
              -121.96826299999938,
              47.582500999760995
            ],
            [
              -121.96808999974701,
              47.582604000152095
            ],
            [
              -121.96830599965708,
              47.58287399976238
            ],
            [
              -121.96826499964921,
              47.58297799981525
            ],
            [
              -121.96830099963421,
              47.583012999716644
            ],
            [
              -121.96838299964998,
              47.58305499993104
            ],
            [
              -121.96849200032824,
              47.58318599990713
            ],
            [
              -121.96856400029824,
              47.58331700016133
            ],
            [
              -121.96843299987869,
              47.58356900008465
            ],
            [
              -121.96821199994575,
              47.583670999809726
            ],
            [
              -121.96796400024863,
              47.583653999970316
            ],
            [
              -121.96773099972182,
              47.58358200023291
            ],
            [
              -121.96746100028341,
              47.58359000027598
            ],
            [
              -121.96737099987169,
              47.58374000009912
            ],
            [
              -121.96735699962801,
              47.58380299983608
            ],
            [
              -121.9672870002061,
              47.58393200021508
            ],
            [
              -121.9671809999009,
              47.58403200029951
            ],
            [
              -121.96721299968794,
              47.584106999934534
            ],
            [
              -121.96722100008388,
              47.58427399973756
            ],
            [
              -121.96712900002235,
              47.584423000262305
            ],
            [
              -121.96697800040964,
              47.58460399992249
            ],
            [
              -121.96614099963523,
              47.58471100004994
            ],
            [
              -121.96592300007532,
              47.5847200002829
            ],
            [
              -121.9658700003719,
              47.58472100003938
            ],
            [
              -121.96562199977646,
              47.58471000029326
            ],
            [
              -121.96548399968421,
              47.58469600006226
            ],
            [
              -121.96533200024653,
              47.584673000193945
            ],
            [
              -121.96522099991846,
              47.58464899995181
            ],
            [
              -121.9652240002915,
              47.58481599984346
            ],
            [
              -121.96523599998709,
              47.58530700008173
            ],
            [
              -121.96565100008877,
              47.5865650002094
            ],
            [
              -121.96546799979068,
              47.58683200023576
            ],
            [
              -121.96527199997209,
              47.58710999996189
            ],
            [
              -121.96522099991846,
              47.587178999959434
            ],
            [
              -121.96458400005893,
              47.5875599999939
            ],
            [
              -121.96552100039243,
              47.58791200003386
            ],
            [
              -121.96561799957851,
              47.58791200003386
            ],
            [
              -121.96658199967621,
              47.58815500000729
            ],
            [
              -121.96664000030081,
              47.58817000021552
            ],
            [
              -121.96715099976367,
              47.58851900013071
            ],
            [
              -121.96725000039618,
              47.5887980002692
            ],
            [
              -121.9675190000097,
              47.58901600003293
            ],
            [
              -121.96787300001203,
              47.589513000062595
            ],
            [
              -121.96860799978089,
              47.59010599977184
            ],
            [
              -121.96902399970749,
              47.59111299995109
            ],
            [
              -121.96923499959466,
              47.591726000039834
            ],
            [
              -121.96987200035255,
              47.59248299973659
            ],
            [
              -121.96992500005598,
              47.59332900011202
            ],
            [
              -121.97012900027049,
              47.59455000029734
            ],
            [
              -121.97067700044158,
              47.59454600020486
            ],
            [
              -121.97077199997783,
              47.59454600020486
            ],
            [
              -121.97076799977985,
              47.59475799984068
            ],
            [
              -121.97067599971835,
              47.600228999984886
            ],
            [
              -121.97067400006851,
              47.60034799982796
            ],
            [
              -121.97065999982482,
              47.60113599988367
            ],
            [
              -121.9713899995708,
              47.60114300022381
            ],
            [
              -121.97166699958021,
              47.60113799998094
            ],
            [
              -121.9746840004451,
              47.60117399990155
            ],
            [
              -121.97596400001197,
              47.60119300020298
            ],
            [
              -121.9794370000881,
              47.60125800022565
            ],
            [
              -121.97978500024264,
              47.60126499994374
            ],
            [
              -121.98255199996396,
              47.60126599998992
            ],
            [
              -121.9859220001079,
              47.60129999973144
            ],
            [
              -121.98698199956675,
              47.60131100023095
            ],
            [
              -121.9886460001715,
              47.601327999787
            ],
            [
              -121.99234799967817,
              47.601365000226885
            ],
            [
              -121.9923850003864,
              47.598599999780774
            ],
            [
              -121.9934409996473,
              47.59861299983033
            ],
            [
              -122.0028330000288,
              47.598727999941744
            ],
            [
              -122.0034459995989,
              47.59941200026434
            ],
            [
              -122.00342499968251,
              47.59999399969822
            ],
            [
              -122.0038180000429,
              47.600278000166846
            ],
            [
              -122.00381499966987,
              47.600315000137854
            ],
            [
              -122.00382999973846,
              47.60044599992308
            ],
            [
              -122.00387300029448,
              47.60057699998603
            ],
            [
              -122.00395100011231,
              47.60068799979187
            ],
            [
              -122.00403899997583,
              47.6007959998026
            ],
            [
              -122.00422100044904,
              47.60093199985789
            ],
            [
              -122.00432600003101,
              47.601025999867645
            ],
            [
              -122.00435500034334,
              47.601051999969414
            ],
            [
              -122.00447199962086,
              47.60120099997715
            ],
            [
              -122.0045350002684,
              47.60135799991645
            ],
            [
              -122.00453899956803,
              47.601497999889354
            ],
            [
              -122.00402300008231,
              47.60148599999289
            ],
            [
              -122.0040859998315,
              47.603186000096784
            ],
            [
              -122.00460499969027,
              47.603366000279614
            ],
            [
              -122.00460899988825,
              47.60345300012578
            ],
            [
              -122.0045999996674,
              47.603604999962315
            ],
            [
              -122.00456000038277,
              47.60371900000415
            ],
            [
              -122.00448199966664,
              47.603886000222545
            ],
            [
              -122.0044590001004,
              47.60395899988584
            ],
            [
              -122.00349500000272,
              47.60392500005533
            ],
            [
              -122.00351300044437,
              47.604006000220785
            ],
            [
              -122.00396899965564,
              47.604376000249026
            ],
            [
              -122.00410300044827,
              47.60474000020473
            ],
            [
              -122.00454799978887,
              47.605286000234464
            ],
            [
              -122.00449599991032,
              47.60549300013693
            ],
            [
              -122.00488199969972,
              47.60579900015118
            ],
            [
              -122.00492199988267,
              47.60584000029222
            ],
            [
              -122.00496799991343,
              47.605886000190665
            ],
            [
              -122.00536399974857,
              47.6062869999221
            ],
            [
              -122.00546400020596,
              47.60638900019256
            ],
            [
              -122.00548900032034,
              47.60641400010381
            ],
            [
              -122.00576399978165,
              47.606692999925684
            ],
            [
              -122.0060709999283,
              47.60700800022185
            ],
            [
              -122.00583800029979,
              47.60770199993329
            ],
            [
              -122.00526300036454,
              47.609408000263215
            ],
            [
              -122.00483999986692,
              47.60946400015864
            ],
            [
              -122.00472299969107,
              47.60948000020423
            ],
            [
              -122.00462499978175,
              47.60949299997272
            ],
            [
              -122.0043739997116,
              47.60952599992964
            ],
            [
              -122.0035440004065,
              47.60963700012728
            ],
            [
              -122.00316399956661,
              47.6097120000129
            ],
            [
              -122.00279299984585,
              47.60982600006905
            ],
            [
              -122.0024389998435,
              47.60994999989056
            ],
            [
              -122.00134300039964,
              47.61049000021754
            ],
            [
              -121.99748100016109,
              47.61031700004238
            ],
            [
              -121.9975039997273,
              47.60921999991626
            ],
            [
              -121.99699599973921,
              47.60919699992406
            ],
            [
              -121.99541300022362,
              47.6091109998373
            ],
            [
              -121.99544400018576,
              47.60831300027416
            ],
            [
              -121.99219799989034,
              47.60828000015759
            ],
            [
              -121.99211599987457,
              47.61194199999684
            ],
            [
              -121.99211199967662,
              47.612116999924474
            ],
            [
              -121.99209900015614,
              47.61271599981539
            ],
            [
              -121.99564800040025,
              47.61289100018091
            ],
            [
              -121.99667400042225,
              47.61294200026026
            ],
            [
              -121.99670399966114,
              47.612232999861774
            ],
            [
              -121.9967079998591,
              47.61214100028762
            ],
            [
              -121.99694700023372,
              47.61211100028617
            ],
            [
              -121.99696200030232,
              47.612106999719465
            ],
            [
              -121.99725699985511,
              47.612121999723456
            ],
            [
              -121.99761800042845,
              47.61213999984373
            ],
            [
              -121.99824199986918,
              47.612166999709736
            ],
            [
              -122.00087800006924,
              47.612298999930466
            ],
            [
              -122.00189300022058,
              47.61234999998162
            ],
            [
              -122.0033679997811,
              47.61242299994446
            ],
            [
              -122.00378000040806,
              47.61244400006425
            ],
            [
              -122.00383099956338,
              47.61244700016717
            ],
            [
              -122.0053019998243,
              47.612519999994646
            ],
            [
              -122.00572799979665,
              47.61254100007545
            ],
            [
              -122.006698999567,
              47.61259000023125
            ],
            [
              -122.01024100013845,
              47.61276700006546
            ],
            [
              -122.01059199976771,
              47.61278700022116
            ],
            [
              -122.01083199996722,
              47.61280200003016
            ],
            [
              -122.01133300028266,
              47.61283200024076
            ],
            [
              -122.01403600042985,
              47.61299499993382
            ],
            [
              -122.01395900043696,
              47.615016999888354
            ],
            [
              -122.01386700037544,
              47.6167260000494
            ],
            [
              -122.01385700032971,
              47.617193000183285
            ],
            [
              -122.01386099962934,
              47.61851299980143
            ],
            [
              -122.01386099962934,
              47.6195240000509
            ],
            [
              -122.01385999980442,
              47.619899000167926
            ],
            [
              -122.01385899997952,
              47.621128000049154
            ],
            [
              -122.01386599965221,
              47.62222299994455
            ],
            [
              -122.01386800020036,
              47.62405399994827
            ],
            [
              -122.0138690000253,
              47.624496000285724
            ],
            [
              -122.01386999985019,
              47.625336999699705
            ],
            [
              -122.01387099967508,
              47.625872000064604
            ],
            [
              -122.0138690000253,
              47.626789000122315
            ],
            [
              -122.0138690000253,
              47.62765400008265
            ],
            [
              -122.0138690000253,
              47.627695000041804
            ],
            [
              -122.01374600000162,
              47.627692999749236
            ],
            [
              -122.0137019996207,
              47.62768999991559
            ],
            [
              -122.01308599967753,
              47.627648999952555
            ],
            [
              -122.01242299987871,
              47.62760600026685
            ],
            [
              -122.01176500010277,
              47.62756299994033
            ],
            [
              -122.01127499965803,
              47.627529999862865
            ],
            [
              -122.01110200030395,
              47.62751900003422
            ],
            [
              -122.0110839998623,
              47.62751799988456
            ],
            [
              -122.01053099966836,
              47.627481999933146
            ],
            [
              -122.01018400023702,
              47.627460000253336
            ],
            [
              -122.00977800035615,
              47.62743299980809
            ],
            [
              -122.00921199974343,
              47.627396000251565
            ],
            [
              -122.00911399983413,
              47.627388999792544
            ],
            [
              -122.00900900025212,
              47.62738199993802
            ],
            [
              -122.00842199972297,
              47.627343000039424
            ],
            [
              -122.00775599955114,
              47.627301000255756
            ],
            [
              -122.00772799996203,
              47.62729899994812
            ],
            [
              -122.00769799982479,
              47.627297000245775
            ],
            [
              -122.00709699995026,
              47.62725800028375
            ],
            [
              -122.00707500020897,
              47.62725700012914
            ],
            [
              -122.00669100006942,
              47.62723099973416
            ],
            [
              -122.00639700034154,
              47.627211000259805
            ],
            [
              -122.00580599961444,
              47.62717100007731
            ],
            [
              -122.00573600019254,
              47.62716599990102
            ],
            [
              -122.00506300034799,
              47.62712100010887
            ],
            [
              -122.00496999956327,
              47.627114000218455
            ],
            [
              -122.00437999955939,
              47.627075000119895
            ],
            [
              -122.00297199994597,
              47.62698199986051
            ],
            [
              -122.00297500031903,
              47.63063200022187
            ],
            [
              -122.00434699994742,
              47.63071100001328
            ],
            [
              -122.00700400006384,
              47.63089300007447
            ],
            [
              -122.00699499984303,
              47.63127900000928
            ],
            [
              -122.00686199977362,
              47.63135399972855
            ],
            [
              -122.00655200015223,
              47.631399000113824
            ],
            [
              -122.00640400001424,
              47.63132199970006
            ],
            [
              -122.0063250003715,
              47.63136100026189
            ],
            [
              -122.00625000002844,
              47.631378999812874
            ],
            [
              -122.00619399995195,
              47.63172099978944
            ],
            [
              -122.00613000037785,
              47.631874999933096
            ],
            [
              -122.00610899956314,
              47.63192699972189
            ],
            [
              -122.00609000019487,
              47.63224400008587
            ],
            [
              -122.00618200025639,
              47.63232299986201
            ],
            [
              -122.00632600019642,
              47.632545000095426
            ],
            [
              -122.00661499990142,
              47.632688999726234
            ],
            [
              -122.00685400027604,
              47.63291599984764
            ],
            [
              -122.00692000039825,
              47.632956999916445
            ],
            [
              -122.0070559999424,
              47.63304100004551
            ],
            [
              -122.00710699999601,
              47.63307999992984
            ],
            [
              -122.00769100015212,
              47.63311400017776
            ],
            [
              -122.0077470002286,
              47.632734000172654
            ],
            [
              -122.00833300003454,
              47.63277899997499
            ],
            [
              -122.0083880002861,
              47.632783000170804
            ],
            [
              -122.00838599973797,
              47.63291599984764
            ],
            [
              -122.00838200043833,
              47.633230000144955
            ],
            [
              -122.00837400004241,
              47.63390299996725
            ],
            [
              -122.00836800019462,
              47.63419399988856
            ],
            [
              -122.00835599960075,
              47.63489600026153
            ],
            [
              -122.00830799992018,
              47.63758199998903
            ],
            [
              -122.01365899996298,
              47.63798000015107
            ],
            [
              -122.01365099956706,
              47.638305000265845
            ],
            [
              -122.01364899991725,
              47.63855899975648
            ],
            [
              -122.01561499974747,
              47.63855400006435
            ],
            [
              -122.01665300036333,
              47.63854500001212
            ],
            [
              -122.01722400010064,
              47.63854300013478
            ],
            [
              -122.01759099962342,
              47.6385410002574
            ],
            [
              -122.01811100020541,
              47.638538999774646
            ],
            [
              -122.01913600040248,
              47.638534000080604
            ],
            [
              -122.01914600044823,
              47.63937400006954
            ],
            [
              -122.01961300042848,
              47.63937100030113
            ],
            [
              -122.02048200009162,
              47.63948599977399
            ],
            [
              -122.02046299982503,
              47.6385279998419
            ],
            [
              -122.02349900005815,
              47.638514000089245
            ],
            [
              -122.02376500019693,
              47.638513000149985
            ],
            [
              -122.02737899984007,
              47.63849699990894
            ],
            [
              -122.02917899998893,
              47.638487999846845
            ],
            [
              -122.03004900037531,
              47.638484000087765
            ],
            [
              -122.03359000022348,
              47.638467999837836
            ],
            [
              -122.04765599970699,
              47.63846100025656
            ],
            [
              -122.04987599998039,
              47.640924000221226
            ],
            [
              -122.05177099966552,
              47.64092099993655
            ],
            [
              -122.0517759996884,
              47.64209099983812
            ],
            [
              -122.05404500036563,
              47.64209099983812
            ],
            [
              -122.05524899976452,
              47.64209099983812
            ],
            [
              -122.05535599989463,
              47.642293999841385
            ],
            [
              -122.05543200006264,
              47.642427999989735
            ],
            [
              -122.05559600009416,
              47.64271900024839
            ],
            [
              -122.05563499955389,
              47.64278700028318
            ],
            [
              -122.05576000012569,
              47.64298100010947
            ],
            [
              -122.0558720002787,
              47.64314299976811
            ],
            [
              -122.05611300030311,
              47.64347800010252
            ],
            [
              -122.05622399973288,
              47.64363100025425
            ],
            [
              -122.05640700003097,
              47.6438540000961
            ],
            [
              -122.0564580000846,
              47.643932000035875
            ],
            [
              -122.05650199956725,
              47.64401699990747
            ],
            [
              -122.0565490003212,
              47.64413399971104
            ],
            [
              -122.05657699991029,
              47.64422899997432
            ],
            [
              -122.05658799978096,
              47.644303000040566
            ],
            [
              -122.05658500030621,
              47.644495000034475
            ],
            [
              -122.05657899956009,
              47.64463900002067
            ],
            [
              -122.05612400017374,
              47.64645600026239
            ],
            [
              -122.056042000158,
              47.64691199989384
            ],
            [
              -122.05577600001921,
              47.64855699996604
            ],
            [
              -122.0557679996233,
              47.648604999903895
            ],
            [
              -122.05575299955468,
              47.649077000170905
            ],
            [
              -122.05578199986698,
              47.64917399999233
            ],
            [
              -122.05581899967693,
              47.649299000026765
            ],
            [
              -122.06449899985583,
              47.6493170000555
            ],
            [
              -122.06432099958057,
              47.649506999711534
            ],
            [
              -122.06431300008296,
              47.64966199981077
            ],
            [
              -122.06426100020444,
              47.64979500009536
            ],
            [
              -122.06422600004433,
              47.649956999802455
            ],
            [
              -122.06439900029669,
              47.65020099995192
            ],
            [
              -122.06461299965865,
              47.65063499996021
            ],
            [
              -122.06473999988023,
              47.65071700009493
            ],
            [
              -122.06488899984315,
              47.65071700009493
            ],
            [
              -122.06511499979895,
              47.65056899987634
            ],
            [
              -122.06514800030924,
              47.65054900025625
            ],
            [
              -122.06531900001346,
              47.65030800026804
            ],
            [
              -122.06565700012227,
              47.6502899999757
            ],
            [
              -122.06580000023739,
              47.65028100012978
            ],
            [
              -122.06600000025394,
              47.650317000109304
            ],
            [
              -122.06608899994238,
              47.65044700019859
            ],
            [
              -122.06616199973733,
              47.65058500005104
            ],
            [
              -122.06620299974522,
              47.650595999865715
            ],
            [
              -122.066216000164,
              47.65047800030248
            ],
            [
              -122.06644600031778,
              47.65047800030248
            ],
            [
              -122.0663700001498,
              47.65028100012978
            ],
            [
              -122.06636000010407,
              47.65025600001171
            ],
            [
              -122.06629800017977,
              47.650134000207956
            ],
            [
              -122.06623500043058,
              47.64997300016465
            ],
            [
              -122.06641700000546,
              47.64990800017565
            ],
            [
              -122.06653300035642,
              47.649884000205844
            ],
            [
              -122.06649200034852,
              47.64984599987801
            ],
            [
              -122.06643799992183,
              47.64973499971769
            ],
            [
              -122.06646499968605,
              47.649674999876254
            ],
            [
              -122.06644100029492,
              47.64961999980977
            ],
            [
              -122.06641100015767,
              47.649583000227594
            ],
            [
              -122.06633300033988,
              47.64955999983627
            ],
            [
              -122.06622200001179,
              47.64947400017759
            ],
            [
              -122.06621100014114,
              47.64941800016891
            ],
            [
              -122.06612699957724,
              47.64931999985797
            ],
            [
              -122.06648200030278,
              47.6493219999279
            ],
            [
              -122.0665960001056,
              47.6493219999279
            ],
            [
              -122.06737299970725,
              47.64932399999776
            ],
            [
              -122.07135100029674,
              47.64933300000859
            ],
            [
              -122.07441199974592,
              47.6493399999487
            ],
            [
              -122.07745700019987,
              47.649366999968315
            ],
            [
              -122.07885899996548,
              47.6493809998385
            ],
            [
              -122.07884100042213,
              47.653000999826084
            ],
            [
              -122.07928400011292,
              47.65300799987966
            ],
            [
              -122.07940700013657,
              47.65301600019916
            ],
            [
              -122.07956399959708,
              47.65303299989061
            ],
            [
              -122.07977600020752,
              47.65307900002466
            ],
            [
              -122.07993299966803,
              47.653118999739924
            ],
            [
              -122.08009300039993,
              47.65317600027975
            ],
            [
              -122.08020700020273,
              47.65323300015218
            ],
            [
              -122.08024499983757,
              47.6532560001362
            ],
            [
              -122.08062700032731,
              47.65349600018045
            ],
            [
              -122.08159999974752,
              47.654225000124306
            ],
            [
              -122.0819019998713,
              47.654481000142106
            ],
            [
              -122.08231899962283,
              47.654901999706745
            ],
            [
              -122.08364599994367,
              47.65611599996533
            ],
            [
              -122.08382099984587,
              47.656237999711536
            ],
            [
              -122.08399599974804,
              47.656377999793165
            ],
            [
              -122.08459400014785,
              47.65685400016732
            ],
            [
              -122.08591700027073,
              47.65713799982367
            ],
            [
              -122.08663699997096,
              47.65727699972731
            ],
            [
              -122.0869630003842,
              47.6573239999375
            ],
            [
              -122.0872520000892,
              47.65736599979346
            ],
            [
              -122.0875550000379,
              47.65740700003799
            ],
            [
              -122.08811800027762,
              47.65748100019134
            ],
            [
              -122.0881619997602,
              47.65748700006833
            ],
            [
              -122.08848200032568,
              47.657198999748594
            ],
            [
              -122.08873599987056,
              47.65705799986369
            ],
            [
              -122.08891199959768,
              47.65697700019534
            ],
            [
              -122.08902399975067,
              47.6569170002031
            ],
            [
              -122.08912099983506,
              47.65682699978293
            ],
            [
              -122.08925499972936,
              47.656671999771405
            ],
            [
              -122.0893650002325,
              47.656531000278584
            ],
            [
              -122.08957799976955,
              47.65607600012535
            ],
            [
              -122.0899130004036,
              47.655637000079956
            ],
            [
              -122.09021899982704,
              47.65514000020528
            ],
            [
              -122.09035600009439,
              47.6549060000241
            ],
            [
              -122.0904630002245,
              47.65472400009944
            ],
            [
              -122.09060899981438,
              47.654476000158496
            ],
            [
              -122.09070300042403,
              47.654363999916214
            ],
            [
              -122.09075000027968,
              47.65431899994571
            ],
            [
              -122.09086599973233,
              47.6542459997901
            ],
            [
              -122.09104200035773,
              47.65417100025335
            ],
            [
              -122.09123300015345,
              47.65411400019453
            ],
            [
              -122.09114699993971,
              47.65398700029618
            ],
            [
              -122.09109300041135,
              47.653907999993955
            ],
            [
              -122.09138700013926,
              47.65381599993561
            ],
            [
              -122.0916030000493,
              47.65374799973571
            ],
            [
              -122.0918559997693,
              47.65366900028215
            ],
            [
              -122.09199899988441,
              47.653624999967825
            ],
            [
              -122.09247900028345,
              47.65347399995508
            ],
            [
              -122.09687200007635,
              47.64987399996299
            ],
            [
              -122.09815400019136,
              47.64838100001813
            ],
            [
              -122.09751099958574,
              47.64787400005451
            ],
            [
              -122.09724600017016,
              47.64766500015411
            ],
            [
              -122.09662799967887,
              47.64713800018143
            ],
            [
              -122.09352200002387,
              47.64448999969999
            ],
            [
              -122.09254100020772,
              47.64375799991719
            ],
            [
              -122.09238700022193,
              47.6436510001025
            ],
            [
              -122.09196299989941,
              47.64337200016579
            ],
            [
              -122.08932699969937,
              47.64164200024904
            ],
            [
              -122.08902899977353,
              47.641467999765744
            ],
            [
              -122.08884700019865,
              47.64135299981353
            ],
            [
              -122.08647499958924,
              47.63970099982008
            ],
            [
              -122.08584399957749,
              47.639198000048864
            ],
            [
              -122.0842469998182,
              47.63796900010065
            ],
            [
              -122.08284900025056,
              47.63663300003126
            ],
            [
              -122.08166599986973,
              47.63520700015524
            ],
            [
              -122.08080100040456,
              47.63384800024314
            ],
            [
              -122.08071000016798,
              47.63370400017398
            ],
            [
              -122.08056000038015,
              47.63337899989199
            ],
            [
              -122.07999100029267,
              47.63214199999907
            ],
            [
              -122.07968900016888,
              47.63111900004665
            ],
            [
              -122.07951799956633,
              47.63053800014588
            ],
            [
              -122.07930099983135,
              47.62808099998519
            ],
            [
              -122.07930099983135,
              47.627536000153675
            ],
            [
              -122.07930099983135,
              47.624822999905376
            ],
            [
              -122.07931099987711,
              47.6230339998096
            ],
            [
              -122.07973000017675,
              47.621057000069804
            ],
            [
              -122.08091199983434,
              47.61852299999248
            ],
            [
              -122.08098399980435,
              47.61845299982614
            ],
            [
              -122.0817529999084,
              47.61767999988032
            ],
            [
              -122.0819660003437,
              47.617479999738
            ],
            [
              -122.08368500030174,
              47.61576599994312
            ],
            [
              -122.08646500044182,
              47.61351700006457
            ],
            [
              -122.08913099988078,
              47.6117369998732
            ],
            [
              -122.0896949999454,
              47.611344000178036
            ],
            [
              -122.09087699960298,
              47.61051999993767
            ],
            [
              -122.09242499985676,
              47.60918599987156
            ],
            [
              -122.0937580000254,
              47.607748999933364
            ],
            [
              -122.0948619998652,
              47.606226999848246
            ],
            [
              -122.09572399985562,
              47.60463499980188
            ],
            [
              -122.09633599960083,
              47.60299000029702
            ],
            [
              -122.0965309995945,
              47.60230700013938
            ],
            [
              -122.09831999987271,
              47.59273100013219
            ],
            [
              -122.09847100038375,
              47.591933000284364
            ]
          ]
        ]
      },
      "properties": {
        "AREALAND": "52906365",
        "AREAWATER": "9342545",
        "BASENAME": "Sammamish",
        "CBSAPCI": "N",
        "CENTLAT": "+47.6017122",
        "CENTLON": "-122.0416969",
        "FUNCSTAT": "A",
        "GEOID": "5361115",
        "INTPTLAT": "+47.5942675",
        "INTPTLON": "-122.0380805",
        "LSADC": "25",
        "MTFCC": "G4110",
        "NAME": "Sammamish city",
        "NECTAPCI": "N",
        "OBJECTID": 30700,
        "OID": "27890836057943",
        "PLACE": "61115",
        "PLACECC": "C1",
        "PLACENS": "02411772",
        "STATE": "53",
        "DISP_CLR": 4,
        "slug": "sammamish",
        "jurisdiction_key": "sammamish_city",
        "county_fips": [
          "53033"
        ]
      }
    }
  ]
}
