{"type":"FeatureCollection","features":[{"type":"Feature","geometry":{"type":"Polygon","coordinates":[[[-122.3262050002372,47.453609999876825],[-122.32623500037444,47.45349999982713],[-122.32613800029006,47.45330899969676],[-122.32612300022143,47.45327400003018],[-122.32597400025853,47.45297400019694],[-122.32589499971749,47.4528170001285],[-122.325734000059,47.45250299980035],[-122.32569600042416,47.45242599980893],[-122.32562299973091,47.45242499995819],[-122.3256060000125,47.45236600022659],[-122.32532800017816,47.452048000203874],[-122.32514700042817,47.451810999933464],[-122.32490800005357,47.45146100014656],[-122.32484799977912,47.45133799970473],[-122.32477599980909,47.451168999902706],[-122.32470999968685,47.4509800001746],[-122.3246209999984,47.4507720001869],[-122.32439699969241,47.45037800018067],[-122.32380900023665,47.44927900000096],[-122.32358599975558,47.44881900025194],[-122.32277999984166,47.44743400022309],[-122.32219499986061,47.446510999775874],[-122.32213100028653,47.4464429998053],[-122.32206299961615,47.44638799990773],[-122.32196200023212,47.446293000059654],[-122.32170299976605,47.44586300020022],[-122.32155999965092,47.445619000143715],[-122.32146699976451,47.445259999972386],[-122.32145300041908,47.44519000023058],[-122.32147400033551,47.44519000023058],[-122.32157800009257,47.44519000023058],[-122.32128500018963,47.44411399999505],[-122.32130699993091,47.44406700017026],[-122.32116200016596,47.44399300001192],[-122.32113700005162,47.44396899974117],[-122.32111600013522,47.443933999934266],[-122.32114000042466,47.44344500021389],[-122.32114100024957,47.44342199971505],[-122.32106500008159,47.44342199971505],[-122.32109199984578,47.44306699985343],[-122.3211079997393,47.442854000001624],[-122.32111600013522,47.44274900010819],[-122.32119099957997,47.44241100005221],[-122.32124500000663,47.44216699978018],[-122.32135600033472,47.44166900015021],[-122.32145900026687,47.441203999753554],[-122.32166699978104,47.440270000277444],[-122.32174499959885,47.440176999876634],[-122.32207600003495,47.43979600006573],[-122.32242599983931,47.43935700028173],[-122.32246500019737,47.43932199983681],[-122.32253200014453,47.43928900017718],[-122.32258900004594,47.43927100018836],[-122.32279999993314,47.4392209999847],[-122.32359599980133,47.439636999964996],[-122.32409299991878,47.43989499985137],[-122.32410700016248,47.43984199997088],[-122.3241420003226,47.43970899998992],[-122.32439199966954,47.43722299994025],[-122.3244539995938,47.436610000027606],[-122.32447200003547,47.43644499970159],[-122.32455800024921,47.43556599992812],[-122.32466600020425,47.43426000010239],[-122.32476599976336,47.43340199989178],[-122.32485299980199,47.43250400022894],[-122.32489499963478,47.43208899999666],[-122.32496900015295,47.431226999836035],[-122.32496599977989,47.431021000038065],[-122.32496300030516,47.430785000086786],[-122.32493700036589,47.42988799980181],[-122.32492700032016,47.42938699976287],[-122.32491800009932,47.429002000247884],[-122.3249099997034,47.42855400004045],[-122.32318900009555,47.42851300030172],[-122.32213100028653,47.42849999997767],[-122.32165599991039,47.42849199996367],[-122.32114600027244,47.42847599993201],[-122.32018999967234,47.42846500021126],[-122.32007400021972,47.428463999905055],[-122.31829800036027,47.428443000155184],[-122.31830800040603,47.42791600001343],[-122.31833799964494,47.42763899969724],[-122.31836500030744,47.42747799989011],[-122.31839500044468,47.427337000069755],[-122.31851900029322,47.42695000008289],[-122.31883200028768,47.42624600020422],[-122.31898700009836,47.42588800007306],[-122.31908699965749,47.42565700017467],[-122.3196380002016,47.4243910001415],[-122.31977899976862,47.42399799985184],[-122.31982599962426,47.4238489997142],[-122.32005699960295,47.42293899986495],[-122.3201860003727,47.42237100026477],[-122.3202690002134,47.42197400019496],[-122.32028599993181,47.42184100002876],[-122.32029599997756,47.42162899977754],[-122.32028199973385,47.421116000261705],[-122.32024999994681,47.41987300028926],[-122.3202359997031,47.419163999993266],[-122.32022400000756,47.41858599970549],[-122.32022300018262,47.41854599999134],[-122.3201860003727,47.41733100004496],[-122.32016999958086,47.41680299997092],[-122.32017799997678,47.41648700000046],[-122.32019100039557,47.41634899970315],[-122.32021999980958,47.41617500029278],[-122.3202569996195,47.41603799972011],[-122.31904700037283,47.41603799972011],[-122.31882499971665,47.41603799972011],[-122.3188189998689,47.41597199974741],[-122.31881200019619,47.415903999817935],[-122.31880999964805,47.415841000099896],[-122.31880600034839,47.41577300000129],[-122.31869199964729,47.41577300000129],[-122.31820700012369,47.41575399993119],[-122.31658799972479,47.41567299987547],[-122.31556900027381,47.415631999829806],[-122.31443600012173,47.41559899990328],[-122.31389200014858,47.4155799997704],[-122.31308600023466,47.41554799975511],[-122.31275499979856,47.41553499987632],[-122.31230600025997,47.41553799970836],[-122.31208399960383,47.41556000029504],[-122.31189399963301,47.41556100023858],[-122.31047900034692,47.415531000099996],[-122.30963800027288,47.41552000010567],[-122.30930400036205,47.41551599972034],[-122.30919800005682,47.415511999942574],[-122.30907000001031,47.41551299988708],[-122.30864900006084,47.41551900016135],[-122.30711099985278,47.4155269997155],[-122.30693900032364,47.41552800026756],[-122.30677399956889,47.415529000211706],[-122.3060420001731,47.41552800026756],[-122.30512999995395,47.41554200009199],[-122.30464000040749,47.41554399997979],[-122.30413999991698,47.41554399997979],[-122.30371300011971,47.41553799970836],[-122.30255499985326,47.4155269997155],[-122.30249499957881,47.41551900016135],[-122.30249299992899,47.41545400009159],[-122.30249600030204,47.41493099981791],[-122.30248899973103,47.41409899986632],[-122.30248500043139,47.4136910002651],[-122.30248799990612,47.41187799973119],[-122.29782899997444,47.41179599977744],[-122.29803400001386,47.41037800008957],[-122.29830600000042,47.40839000011902],[-122.29832100006904,47.40823400021955],[-122.29820899991603,47.408233000136875],[-122.29813100009822,47.40823200005419],[-122.29720800000842,47.40822199983405],[-122.2965669999509,47.40821499986121],[-122.29601700013002,47.40821300030303],[-122.29517600005596,47.408205999721034],[-122.29485999968847,47.408203000079276],[-122.29452199957964,47.40819999982943],[-122.2936939999244,47.408193999937104],[-122.2926389995901,47.40818800004409],[-122.29265899968159,47.40808900019101],[-122.29268200014612,47.40796100004371],[-122.29273099965162,47.407688000276735],[-122.29278099988034,47.40741400021247],[-122.29290100042924,47.40663299976746],[-122.29294699956169,47.40629100011181],[-122.29297900024706,47.4060489998033],[-122.29285100020053,47.40604300027394],[-122.29254300022895,47.406028000231565],[-122.29254800025183,47.40599199999089],[-122.29261199982594,47.405284000188146],[-122.29265100018398,47.404589000141364],[-122.29265200000891,47.40456200028958],[-122.29266299987957,47.40375699974734],[-122.29266399970446,47.403619000138995],[-122.29309999972257,47.403616999798345],[-122.29315499997415,47.40361799996866],[-122.2931459997533,47.4033669997892],[-122.29312099963897,47.40259500002591],[-122.29308899985192,47.40211899997748],[-122.29306799993552,47.40182799969962],[-122.29315999999703,47.401828999903906],[-122.2931590001721,47.40102299994117],[-122.29315800034718,47.40083899995446],[-122.29295999998048,47.40083899995446],[-122.29293599969104,47.400659999849694],[-122.29290999975177,47.40047899989307],[-122.29283399958379,47.39997200006358],[-122.29271800013115,47.39918799979104],[-122.29258699971159,47.39831500029274],[-122.29248700015245,47.398321999756995],[-122.2922920001588,47.39701000018635],[-122.29220699976997,47.396444000003164],[-122.29216099973924,47.396134999853714],[-122.29210100036308,47.39613899988688],[-122.29209200014223,47.3960689998703],[-122.2918560001407,47.3960660001455],[-122.29172700026926,47.39606499983182],[-122.2913280000611,47.39606499983182],[-122.29034600042006,47.396076000241024],[-122.29003199970238,47.396080999984015],[-122.2899489998617,47.3958980000816],[-122.28914799997065,47.39591599970143],[-122.28909400044228,47.395914000284506],[-122.28899900000769,47.39590600018366],[-122.28892799986261,47.39589600005593],[-122.28796399976491,47.39589699976472],[-122.28750099998264,47.39589600005593],[-122.2873570000426,47.39589600005593],[-122.28729199974525,47.39589600005593],[-122.28728900027052,47.395848999734035],[-122.28728900027052,47.395692999788466],[-122.28676299984075,47.3957000002091],[-122.28662899994644,47.395702000242245],[-122.28652199981633,47.39570400027532],[-122.28652500018939,47.39573000009016],[-122.28652500018939,47.395751999829976],[-122.28652500018939,47.39605400002843],[-122.28652600001428,47.3963289998975],[-122.2865269998392,47.39650600011992],[-122.28604700033848,47.39651800013408],[-122.28576199993314,47.39652499983704],[-122.28407499976218,47.39656600016344],[-122.28411699959497,47.396640000123014],[-122.28346600039002,47.39677100010072],[-122.28347300006274,47.397026000051596],[-122.28294499998312,47.39745200014984],[-122.28276000003521,47.39745400011645],[-122.28277000008093,47.39927199981361],[-122.28387800011866,47.39925299987092],[-122.28388099959342,47.39984100013955],[-122.28388499979137,47.400568999835016],[-122.28388800016442,47.40106800007474],[-122.28563499971153,47.40104699973344],[-122.28605300018627,47.40103899980392],[-122.28655199995357,47.40103099987316],[-122.29018599968818,47.40096799999593],[-122.29018499986326,47.401019000278765],[-122.29018099966531,47.401316000229386],[-122.29017599964244,47.40166299978076],[-122.29017399999259,47.401833000112894],[-122.29017099961956,47.402104000033795],[-122.29016899996972,47.40214100008988],[-122.29016599959668,47.40220000020764],[-122.29016599959668,47.402212999730025],[-122.28864099980743,47.40222500026853],[-122.28834899972938,47.40222700005402],[-122.28830500024675,47.40222700005402],[-122.28829699985083,47.40266900003035],[-122.28829699985083,47.40267900008869],[-122.28847099992812,47.40291800012827],[-122.28871399960238,47.40325900022571],[-122.28874899976246,47.403365000046996],[-122.288764999656,47.403457999835],[-122.28877800007479,47.40366500004858],[-122.28873700006689,47.40369100019124],[-122.28870699992967,47.403723000115306],[-122.28868299964023,47.40376799976662],[-122.28868000016548,47.4037770000571],[-122.2886170004163,47.40377800022437],[-122.28856200016472,47.40377899978367],[-122.28850100006534,47.403779999950906],[-122.28840700035401,47.40378100011813],[-122.2882509998201,47.40378299984454],[-122.28812000029885,47.40378500017889],[-122.28808699978858,47.40378599973801],[-122.28667499997721,47.40380799976222],[-122.28663099959628,47.40380799976222],[-122.28659299996144,47.40380899992891],[-122.28655600015152,47.40381000009564],[-122.28655899962625,47.40426400024042],[-122.28658100026588,47.408242999746975],[-122.28614600007269,47.40824900024169],[-122.285654999803,47.40825400004543],[-122.28525499976992,47.4082640002595],[-122.28502299996633,47.407923999819666],[-122.28488200039934,47.407714000257585],[-122.28485999975973,47.407683999904364],[-122.28474799960672,47.40752700024971],[-122.28463200015409,47.40740700013226],[-122.2845619998339,47.407358000152584],[-122.2844639999246,47.40730400023388],[-122.28440299982523,47.407274000255164],[-122.28422700009814,47.40720800024174],[-122.28413199966357,47.40717899970308],[-122.2840270000816,47.4071579999739],[-122.2839080002559,47.40714300024904],[-122.28377099998858,47.4071360001328],[-122.28354599985767,47.40714800015777],[-122.28345600034429,47.4071619997782],[-122.2833090000312,47.407194000025605],[-122.2831469996495,47.40724900015846],[-122.28304000041769,47.40730099993282],[-122.2828930001046,47.40739199987033],[-122.2827530003625,47.40750200027308],[-122.28197599986255,47.40815200006378],[-122.28186999955736,47.4082260001655],[-122.28179599993751,47.40826599981573],[-122.28163199990597,47.40831999996407],[-122.28137400016311,47.40838499972022],[-122.281379000186,47.40840400001725],[-122.28137699963784,47.40844199998283],[-122.28135999991943,47.408477000294845],[-122.2813289999573,47.40850899974335],[-122.28128499957634,47.408532999772945],[-122.28123400042105,47.40854799970988],[-122.28131800008663,47.40876099981264],[-122.28134599967571,47.408860000226454],[-122.28135700044469,47.40893999974945],[-122.28137599981292,47.40925199976779],[-122.28136999996516,47.41037099979533],[-122.28134499985079,47.41075800007571],[-122.28131600043679,47.41098100005801],[-122.28115999990285,47.41168499981463],[-122.28129499962208,47.41226699989242],[-122.28129700017021,47.41261600025615],[-122.28130200019308,47.41326100022011],[-122.28153700036975,47.413561999769215],[-122.28182500024982,47.41410099980887],[-122.2821549999627,47.41473700018903],[-122.28226299991773,47.41517000019226],[-122.28234999995637,47.4155170002726],[-122.28236400020008,47.4155720002243],[-122.28233099968979,47.41579900024604],[-122.28229100040515,47.41607000004553],[-122.28226100026791,47.416277999862984],[-122.28222899958257,47.41635399995369],[-122.28212400000056,47.41660199987068],[-122.28179000008971,47.41738699983433],[-122.28149600036186,47.41808199999254],[-122.28140799959998,47.41829100026363],[-122.28145100015601,47.41917999981636],[-122.28225500042012,47.41916300011814],[-122.28407899996013,47.419143000180135],[-122.28410599972432,47.419904000246355],[-122.28417000019674,47.421712000049226],[-122.28366399985843,47.42206699994706],[-122.28281100008883,47.42150299998632],[-122.28238000009361,47.42185400017409],[-122.2822539996969,47.42194000016618],[-122.2815569995629,47.42236800021421],[-122.28157199963152,47.42281700000105],[-122.28119900026091,47.4230919999572],[-122.2808729998477,47.42330899998487],[-122.28096499990922,47.42337300028714],[-122.27846099995364,47.42514099990537],[-122.27828699987636,47.425068000239726],[-122.27575100013375,47.42684500005272],[-122.27566699956985,47.42678200005561],[-122.27504300012907,47.42722699977087],[-122.27490199966377,47.42712000023754],[-122.27485599963303,47.427164000230974],[-122.2743619998886,47.427582999873046],[-122.27362000044707,47.428187999745674],[-122.27250700038647,47.42909600003258],[-122.27132999985344,47.429935999809906],[-122.2707149997352,47.430383000138235],[-122.27049299997735,47.43054400017483],[-122.27035900008305,47.430640999823275],[-122.27029600033386,47.43068699983212],[-122.27018900020374,47.43078800026536],[-122.27014700037095,47.430932000126674],[-122.27017400013514,47.43103199983228],[-122.26993099956256,47.431090999794364],[-122.2698129995618,47.43115400010313],[-122.26970600032998,47.43126799989136],[-122.2696369998347,47.43142499986713],[-122.26963199981184,47.431475000186865],[-122.2696080004207,47.4317049998304],[-122.26962699978897,47.43207299984311],[-122.26969000043647,47.43232700003515],[-122.26971399982757,47.43253300019018],[-122.26968000039071,47.43272600025865],[-122.26968899971324,47.43283400016441],[-122.26967899966749,47.432902999718095],[-122.26993399993562,47.43289700020964],[-122.27024799975499,47.43288999987073],[-122.27084699997968,47.432894000151336],[-122.27104799982112,47.43289700020964],[-122.27095800030774,47.43380500007568],[-122.27077300035984,47.434161000044156],[-122.27069700019186,47.43431699970157],[-122.27059799955936,47.434517000034866],[-122.27055599972655,47.43460299999919],[-122.27052200028969,47.434691999778934],[-122.27046000036539,47.43485499976358],[-122.2704400002739,47.43494700027383],[-122.27042199983227,47.4350279998436],[-122.26999400021008,47.43545899972605],[-122.26938099974166,47.43606999996412],[-122.26933899990887,47.43611499992789],[-122.26887000027881,47.436584999882584],[-122.26877999986714,47.436675000106064],[-122.26867799975987,47.43676699986482],[-122.2685870004216,47.43684099985785],[-122.2684839995911,47.436917000037965],[-122.26837800018421,47.43698699985092],[-122.26826799968104,47.43705200007125],[-122.26815499970314,47.43711099996804],[-122.26803900025051,47.437164000169055],[-122.26762400014881,47.437339999754315],[-122.26752600023953,47.43737900024213],[-122.26652299978376,47.43782099990218],[-122.26647299955505,47.43786100016111],[-122.26624499994944,47.437977999771704],[-122.26622099965998,47.437991999702476],[-122.26614799986503,47.43803599972107],[-122.2660950001616,47.438069000166585],[-122.26603099968915,47.438113000120836],[-122.26594200000072,47.438178000165365],[-122.26589900034301,47.438213000156125],[-122.26576600027363,47.43833000019922],[-122.26568400025786,47.43841399977369],[-122.26562099961036,47.43848500014127],[-122.26549000008909,47.43865799983135],[-122.26539700020268,47.43881300002236],[-122.26534600014908,47.43891799987274],[-122.26529300044562,47.43905700005249],[-122.26523399999604,47.4392449999912],[-122.26523099962301,47.43937400014223],[-122.26522599960012,47.43965300024909],[-122.26522099957728,47.439906000221086],[-122.26520100038411,47.44092600004241],[-122.26519399981309,47.441295000037016],[-122.26518999961512,47.44145800022481],[-122.26518600031548,47.441684999816346],[-122.2651799995694,47.4419629997698],[-122.26515899965298,47.44296099974691],[-122.2655810003257,47.443086999815144],[-122.26581200030436,47.44315499987128],[-122.26706199973404,47.44356400020403],[-122.26716499966618,47.443598000238595],[-122.26713100022931,47.44373200012495],[-122.26709500024431,47.443899000104075],[-122.26695100030425,47.444552000182526],[-122.26690899957313,47.44473999992671],[-122.26686500009053,47.44492900020732],[-122.26681700040994,47.44512199976736],[-122.26676200015837,47.4451239997465],[-122.26668000014261,47.445120999777764],[-122.26573399958826,47.44510799991125],[-122.26571400039508,47.44518500028886],[-122.26569299958037,47.44526599989383],[-122.26567099983905,47.44534699998161],[-122.26562999983118,47.44549899995972],[-122.26558799999839,47.445650000126534],[-122.26554000031783,47.44582000002094],[-122.26550099995974,47.445952999741124],[-122.26546900017271,47.44605799992217],[-122.26536100021765,47.44640399996118],[-122.26524800023975,47.446749000195624],[-122.26518299994243,47.446930000299346],[-122.26512799969085,47.44709300003765],[-122.26512900041408,47.44734099972906],[-122.26513699991169,47.44780599994751],[-122.26562599963323,47.44780899976312],[-122.26564700044794,47.44780899976312],[-122.26578800001492,47.447807999824605],[-122.26649199982162,47.447816999878086],[-122.26704400019067,47.447824000053615],[-122.26791799987669,47.44783400004239],[-122.26807299968738,47.44783599991842],[-122.26859900011715,47.44784300009142],[-122.26886199988289,47.44784699984271],[-122.26888100014946,47.449126000097834],[-122.26730299975843,47.44910799982982],[-122.26729500026084,47.449126000097834],[-122.26725699972769,47.44918100016981],[-122.26723300033656,47.44921600013047],[-122.26714299992489,47.44934299970535],[-122.26708699984839,47.44942300028938],[-122.26701999990125,47.449560000239984],[-122.26700200035788,47.4496399998865],[-122.26700599965751,47.44992999971116],[-122.26701700042649,47.45062100014482],[-122.26704199964254,47.45112999991802],[-122.2679189997016,47.45113200027618],[-122.26795800005966,47.45113300015151],[-122.26795899988456,47.45120000025935],[-122.26795999970948,47.45129200013233],[-122.26796300008253,47.45146200001562],[-122.26796300008253,47.45148199982285],[-122.26796700028048,47.45171600016087],[-122.26889200002012,47.45172900021663],[-122.26890799991365,47.45225900017378],[-122.26821900017558,47.45224700010322],[-122.26783699968584,47.45224600024908],[-122.26783500003599,47.45232600006203],[-122.26780999992165,47.45392400027693],[-122.26779900005099,47.45417999970703],[-122.26778200033255,47.45449099969893],[-122.27050800004598,47.454501000242395],[-122.27133400005141,47.45449900001236],[-122.27134300027225,47.45469999997067],[-122.27134300027225,47.45484399999429],[-122.27134300027225,47.45500899971371],[-122.27134300027225,47.455062999907],[-122.27134300027225,47.455226999749215],[-122.27134300027225,47.45536500016828],[-122.27134699957188,47.456253999789645],[-122.27141000021939,47.456253999789645],[-122.2716570000916,47.456253999789645],[-122.2720510002769,47.45625500017495],[-122.27286899988638,47.456253999789645],[-122.27323200010957,47.45625300001169],[-122.27349400005038,47.45626000027918],[-122.2738470002278,47.456261000057005],[-122.27443999970642,47.456253999789645],[-122.27492799960304,47.45625899989393],[-122.27524999981833,47.45626000027918],[-122.27615399964158,47.45626300022001],[-122.2771000001959,47.45626499977553],[-122.27739899994664,47.456266000160674],[-122.27748299961222,47.45626799971607],[-122.27805900027074,47.45627200004147],[-122.2783119999907,47.456275999759114],[-122.27892499956083,47.456275999759114],[-122.27956499979341,47.4562800000839],[-122.28124000026881,47.456274999981574],[-122.28119400023805,47.456370000022076],[-122.28118699966704,47.45644500015659],[-122.28117699962131,47.456512999951215],[-122.28116800029878,47.45706299979213],[-122.2811749999715,47.457472999851184],[-122.28117300032167,47.45793900012815],[-122.28117300032167,47.458248000273734],[-122.28117699962131,47.45963699984002],[-122.28127799990364,47.45963499980536],[-122.28216300035862,47.45963699984002],[-122.28278000012669,47.45963800016101],[-122.28326600037349,47.459640000195556],[-122.2856520003283,47.45964999975971],[-122.28577600017685,47.45962799998719],[-122.2858570003677,47.45960400016964],[-122.28595100007902,47.45956100029194],[-122.28603999976748,47.45949500022764],[-122.28617200001196,47.45953600012089],[-122.28633299967045,47.45957499994523],[-122.28643800015074,47.45959600002553],[-122.28658299991571,47.459619000132825],[-122.28673400042673,47.45963699984002],[-122.28703300017747,47.459638999874606],[-122.28724099969165,47.459640999909105],[-122.2882650000638,47.459649000046326],[-122.28900200038078,47.45965500014847],[-122.29150399978819,47.45964799972555],[-122.29158099978109,47.45965199979379],[-122.2909840001045,47.46089200020268],[-122.29046699989557,47.46195800001],[-122.29001400015903,47.46291800009511],[-122.28980599974656,47.463288999969286],[-122.28972499955572,47.463443000213765],[-122.28966900037753,47.46355199986566],[-122.28960599973003,47.463677000163344],[-122.28958700036179,47.46371599995246],[-122.28887500015915,47.46514199971556],[-122.28849799969228,47.46584600027018],[-122.28795000041954,47.46696100024558],[-122.28802999988714,47.46696199981992],[-122.28810799970495,47.46696199981992],[-122.28878899994544,47.466964999757366],[-122.28890000027353,47.4672420001287],[-122.28895899982474,47.467452000292354],[-122.28909100006922,47.46815600027215],[-122.28918700032868,47.46880499979471],[-122.2893999998657,47.470233999705336],[-122.28946000014018,47.47064099994709],[-122.28965500013385,47.47205200002947],[-122.28966799965433,47.472120000283745],[-122.28969600014172,47.47225399975931],[-122.28976899993667,47.47247500017346],[-122.28979499987591,47.472533999808135],[-122.28991500042484,47.472732999898795],[-122.29099900017313,47.47434299974206],[-122.29150200013835,47.47508200006415],[-122.29170999965253,47.47539699976024],[-122.29315699962397,47.477518999856954],[-122.2934319999836,47.47798599970277],[-122.29422299982889,47.47936499982332],[-122.29444700013491,47.47975700009895],[-122.2946379999306,47.48011700026613],[-122.29470999990063,47.48030900007524],[-122.29496699981857,47.48155299972196],[-122.29514300044399,47.48241999973921],[-122.29527800016321,47.48296499991616],[-122.29540500038482,47.483383000288754],[-122.29565599955667,47.48420399993374],[-122.29587200036507,47.48490000018962],[-122.29605800013789,47.48550600004054],[-122.29608699955189,47.48559700015672],[-122.29612799955977,47.48573200029885],[-122.29624100043598,47.486095000255254],[-122.29629199959128,47.486251000082966],[-122.29637100013234,47.48649700001395],[-122.29642800003374,47.48664200016399],[-122.29667300025612,47.48732499993376],[-122.29691500010546,47.487963999829724],[-122.29718299989405,47.48861800002931],[-122.2972339999477,47.48873000019168],[-122.29743099959117,47.48873399986787],[-122.29824300025123,47.48872700028259],[-122.29995999966113,47.488712000127485],[-122.30211100033758,47.48869400005713],[-122.30342199986659,47.48867599998059],[-122.30357300037765,47.48867200029999],[-122.30480400043903,47.48866000004231],[-122.30611699961786,47.48863600012573],[-122.30677600011701,47.488630000296595],[-122.30745200033465,47.48862399985978],[-122.30756899961217,47.48862199971404],[-122.3084499998692,47.488610999821546],[-122.30871500018306,47.488607000135985],[-122.30901800013176,47.48860299984309],[-122.31063099978456,47.488581999817995],[-122.31136399990359,47.48857200029452],[-122.31157999981366,47.48856899976937],[-122.31165400033181,47.48843099970832],[-122.3120119996338,47.487758999824656],[-122.31219599975681,47.48741399974207],[-122.31250200007854,47.48683699981848],[-122.31302000011239,47.48585799987559],[-122.31303000015815,47.48583600014473],[-122.31316200040264,47.485552999860076],[-122.31338499998539,47.48494699994429],[-122.31346600017625,47.48464699993531],[-122.31358500000194,47.48404899995402],[-122.31375499988124,47.4831219998071],[-122.31408600031735,47.48134399995622],[-122.31440699980939,47.479631999792765],[-122.31476300035989,47.477727000290535],[-122.31511599963899,47.47576000009252],[-122.31516400021786,47.47551999978242],[-122.3152079997005,47.475356000093676],[-122.31526600032511,47.47500100023608],[-122.31532599970124,47.47463700008966],[-122.31533900012003,47.47455300007143],[-122.31540400041739,47.47415899974093],[-122.31550599962631,47.47370199981204],[-122.31558699981716,47.473500000183186],[-122.31573599978009,47.473197000194915],[-122.31588200026826,47.472974999713806],[-122.31603000040627,47.472812000046254],[-122.3162439997682,47.47258999976035],[-122.317643999884,47.47125899970352],[-122.31790300035007,47.471025000108256],[-122.31811500006218,47.47082799983838],[-122.31879600030265,47.47020200012711],[-122.31891699977817,47.47009100005382],[-122.31943800018507,47.46960400028784],[-122.31963599965349,47.46942699981839],[-122.3197219998672,47.46934800004775],[-122.31981800012667,47.469256999718965],[-122.31990599999021,47.469173999742104],[-122.31993000027965,47.469156000263894],[-122.32235399986928,47.46691700012998],[-122.3229959997517,47.466321999933015],[-122.32321099983685,47.4660750000693],[-122.32328899965466,47.466026000037104],[-122.32342599992202,47.46601500027145],[-122.32343799961757,47.46509199981101],[-122.32343699979265,47.46459099974485],[-122.32343099994489,47.463285999822006],[-122.32341900024932,47.46184599986026],[-122.3234240002722,47.46097299991219],[-122.32341500005136,47.460566000117446],[-122.32346000025721,47.460243000153916],[-122.3235360004252,47.46003200002947],[-122.32361400024298,47.459863000228594],[-122.32378400012232,47.45965100008045],[-122.32402799962146,47.45934999985984],[-122.32448399973104,47.45882300010216],[-122.3245590000741,47.458719000233515],[-122.32465000031068,47.45857799969767],[-122.32476099974049,47.45837900006841],[-122.32487299989347,47.45808200004187],[-122.3249440000386,47.45784199978261],[-122.32519400028386,47.45704499981109],[-122.32523100009375,47.456922000281935],[-122.32548299998882,47.456090000113456],[-122.32605700009918,47.454118000059054],[-122.32611400000062,47.45392299984724],[-122.3262050002372,47.453609999876825]]]},"properties":{"AREALAND":"26066428","AREAWATER":"453910","BASENAME":"SeaTac","CBSAPCI":"N","CENTLAT":"+47.4443796","CENTLON":"-122.2985931","FUNCSTAT":"A","GEOID":"5362288","INTPTLAT":"+47.4436876","INTPTLON":"-122.2985163","LSADC":"25","MTFCC":"G4110","NAME":"SeaTac city","NECTAPCI":"N","OBJECTID":28442,"OID":"27890836057944","PLACE":"62288","PLACECC":"C1","PLACENS":"02411855","STATE":"53","DISP_CLR":1,"slug":"seatac","jurisdiction_key":"seatac_city","county_fips":["53033"]}}]}
