{"type":"FeatureCollection","features":[{"type":"Feature","geometry":{"type":"Polygon","coordinates":[[[-122.39882500004488,47.7779379999484],[-122.39818499981229,47.77023300022053],[-122.39603599968397,47.76707800019667],[-122.39352000003284,47.76338399970439],[-122.38477899975457,47.75675700005037],[-122.3871310002725,47.748734999711004],[-122.38678599959269,47.74685899987587],[-122.38592600015036,47.74549099990264],[-122.38194799956086,47.73916300011007],[-122.3812680000436,47.7343020002447],[-122.37504900016258,47.73416400001709],[-122.37488599995595,47.73416400001709],[-122.37468099991655,47.73416300009728],[-122.37461800016736,47.73416300009728],[-122.37447599987713,47.734164999936866],[-122.37432000024153,47.73416300009728],[-122.37430199979985,47.73416300009728],[-122.37424099970049,47.73416300009728],[-122.37419600039296,47.73416300009728],[-122.3734669995736,47.73416100025762],[-122.3733539995957,47.73416100025762],[-122.37244800012262,47.73415999973357],[-122.37216000024254,47.7341589998137],[-122.37208499989946,47.7341589998137],[-122.37175400036168,47.7341579998938],[-122.37166899997285,47.7341579998938],[-122.37036299956839,47.73415600005395],[-122.3702489997656,47.73415600005395],[-122.36903000029808,47.73415400021402],[-122.36715399998124,47.7341439998049],[-122.36705500024705,47.7341439998049],[-122.3663000003867,47.734140000124036],[-122.36391699990665,47.73413599983869],[-122.36385300033257,47.73413599983869],[-122.36195899957404,47.73414499972506],[-122.36093099990222,47.734139000203776],[-122.35916900028653,47.73413599983869],[-122.35557200036183,47.734128999791764],[-122.35426000010959,47.734127999871305],[-122.35303999991886,47.734127999871305],[-122.35177399969736,47.734127999871305],[-122.35050699965097,47.734127999871305],[-122.34780299967885,47.7341269999508],[-122.3462999996309,47.7341269999508],[-122.34521099985975,47.7341269999508],[-122.34509799988186,47.7341269999508],[-122.34499400012477,47.7341269999508],[-122.3440049999127,47.734127999871305],[-122.34342499995458,47.734127999871305],[-122.34239300008483,47.734128999791764],[-122.34133699992562,47.73412999971222],[-122.34103399997691,47.73412999971222],[-122.34074400044702,47.73412999971222],[-122.33968800028781,47.73413100023681],[-122.3386310003037,47.73413200015722],[-122.33807599956161,47.73413200015722],[-122.33698299959248,47.73413300007762],[-122.33592599960835,47.734133999997994],[-122.33554599966678,47.734133999997994],[-122.33533300012975,47.734133999997994],[-122.33427699997054,47.73413499991835],[-122.33374899989096,47.73412999971222],[-122.33303000001564,47.73412500010977],[-122.33157899984622,47.73411399977429],[-122.33022599958609,47.73410300004071],[-122.32888099972189,47.73409300022593],[-122.3263819997892,47.734073999908006],[-122.32621600010785,47.73407299998648],[-122.32565500041629,47.734069000300174],[-122.32531999978221,47.7340620002442],[-122.32524600016237,47.734065000009366],[-122.32498199967343,47.73406300016594],[-122.3247339999763,47.734060999718295],[-122.3245230000891,47.734059999796514],[-122.32445699996688,47.73405899987472],[-122.32358900012864,47.7340519998174],[-122.32221900015007,47.73403900022635],[-122.32080099959262,47.734026000027896],[-122.31811699971203,47.73400100014834],[-122.31676000015224,47.7339879999404],[-122.31544299987712,47.73397499972923],[-122.31274999977566,47.733949999825185],[-122.3100480003517,47.733918999758316],[-122.30869599991647,47.73390400028453],[-122.30839899981558,47.73389999998109],[-122.30804499981323,47.7338960002815],[-122.30732599993793,47.733889000202275],[-122.30617100004453,47.73387599996638],[-122.30599399959422,47.7338740001157],[-122.30484399972369,47.73385999995044],[-122.30457400028526,47.73385600024776],[-122.3035990003169,47.73384599978136],[-122.30195499980364,47.73382799990376],[-122.30058599964998,47.733817000109724],[-122.29922999991516,47.73380599970922],[-122.29787699965503,47.73379499991054],[-122.29652000009524,47.733784000109594],[-122.29530599975229,47.73377400023355],[-122.29516299963717,47.73377299970207],[-122.29469200035729,47.73376899999277],[-122.29381000027533,47.733761999896466],[-122.29243500027391,47.733751000088496],[-122.29245600019031,47.735287999836764],[-122.29242799970292,47.73554299983845],[-122.29237099980149,47.73580199995736],[-122.29218900022664,47.736309999962],[-122.29275900013904,47.73679700017752],[-122.29290100042924,47.73687900026449],[-122.29312200036217,47.736930000135516],[-122.29379699985657,47.73693800027662],[-122.29389200029112,47.73693900014314],[-122.293897000314,47.73736900017021],[-122.29527200031544,47.73736699984953],[-122.2979450003254,47.73740400003015],[-122.29929000018957,47.73741299995585],[-122.2993119999309,47.739225000022586],[-122.29933200002237,47.7410240001943],[-122.29859499970541,47.74103099991844],[-122.29663399989803,47.741047000147304],[-122.29533500006463,47.741058000226296],[-122.29500500035174,47.74106100019253],[-122.29468399996136,47.74106400015854],[-122.2947209997713,47.742797999933465],[-122.29501399967424,47.74280200015743],[-122.29536900039979,47.74280700013488],[-122.2959269997183,47.74281299986555],[-122.2960310003737,47.74281400022333],[-122.29602100032797,47.74313600025464],[-122.29603600039657,47.74426300008273],[-122.29669199962439,47.74429400003177],[-122.29669699964725,47.74464300022988],[-122.2971500002821,47.744648000030544],[-122.29729800042008,47.74465000007149],[-122.29733400040512,47.74673399975654],[-122.29734199990273,47.74829799998269],[-122.29904199959417,47.74830999998966],[-122.29904199959417,47.7487620002511],[-122.29905599983785,47.74904399988763],[-122.29894299985995,47.749401000288124],[-122.29894799988281,47.74955500002462],[-122.29898399986784,47.749697000225],[-122.29910900043961,47.74979900017238],[-122.2992340001131,47.749820000030155],[-122.29988000019347,47.74981899980702],[-122.30011799984484,47.74981899980702],[-122.30017899994422,47.749815999741536],[-122.30052600027385,47.74975000006866],[-122.30068899958215,47.749681000238816],[-122.30095899991888,47.74961400016766],[-122.30104699978244,47.7496049999352],[-122.3011489998897,47.749595000077704],[-122.30134200023355,47.74959800015597],[-122.30152999965621,47.749622000171684],[-122.3017110003045,47.74966700009585],[-122.30218499995742,47.749845999784796],[-122.30300000009218,47.750158000055244],[-122.30303400042737,47.75106999997085],[-122.30262400034856,47.75197900027105],[-122.30331999975934,47.752645999970106],[-122.30239300036988,47.75310200005618],[-122.30205299971294,47.75413799972545],[-122.30207399962933,47.75488600011934],[-122.30211100033758,47.755614000212134],[-122.30232100039984,47.75699699990988],[-122.30240300041562,47.75718299971892],[-122.30249899977676,47.75730900018587],[-122.30263500021921,47.75743300019414],[-122.30285199995417,47.75756700004615],[-122.30348100031613,47.757873000117925],[-122.30406799994695,47.75815800009366],[-122.30419500016856,47.75828899970922],[-122.30424500039727,47.758390999725464],[-122.30397599988544,47.758397000075455],[-122.30373099966306,47.75838700009569],[-122.30355400011108,47.75867100022236],[-122.30354599971513,47.75870799975473],[-122.30354300024041,47.75877300009361],[-122.30360400033979,47.759216000286955],[-122.30363699995173,47.759364999767364],[-122.30372399999037,47.75948600019873],[-122.30385100021199,47.75958500017761],[-122.30451700038385,47.7599489997247],[-122.30500000025759,47.760212999919744],[-122.30578299970702,47.760641999719496],[-122.30586399989787,47.760684999747895],[-122.3062549997101,47.76088899984767],[-122.30657799975032,47.761059000124924],[-122.30699100020216,47.76127600000563],[-122.30734400037959,47.761465000216106],[-122.30753199980225,47.76184199979285],[-122.30764300013034,47.762070999883775],[-122.30771900029832,47.762226000153824],[-122.3080919996689,47.76300799979903],[-122.30646499977242,47.76298199997811],[-122.30626999977875,47.7629780000974],[-122.30626999977875,47.76357100018868],[-122.30626999977875,47.76374499997745],[-122.3062739999767,47.76431800028983],[-122.30644800005396,47.76434300010283],[-122.30672500006341,47.76439400023969],[-122.30673599993406,47.7651910000255],[-122.30676299969822,47.76655599992582],[-122.30704499973054,47.76655900023384],[-122.3079579997746,47.76656799994921],[-122.30820200017207,47.766569999751596],[-122.30820200017207,47.766624999720726],[-122.30814400044575,47.766682999932605],[-122.30813799969967,47.76679900016229],[-122.30813000020206,47.766999000263105],[-122.30923999988964,47.76700399972746],[-122.30924200043778,47.767550999811355],[-122.30934899966957,47.76808400016225],[-122.3094929996096,47.768788000121205],[-122.30954200001341,47.769019000135145],[-122.3095479998612,47.769061999880755],[-122.30957600034859,47.76919900012486],[-122.3097589997484,47.76920099982604],[-122.31020800018527,47.769204999832006],[-122.31033000038401,47.769203999981485],[-122.31032799983585,47.76963799971448],[-122.31032700001096,47.769765000044835],[-122.31114399979558,47.769783000175934],[-122.31120900009289,47.769783000175934],[-122.31118099960547,47.76992500011939],[-122.31214200022843,47.76992299984227],[-122.31214999972606,47.76988299971728],[-122.31221599984828,47.76953299987745],[-122.31394499985207,47.76953100018903],[-122.31342199979532,47.77015400024893],[-122.31300500004382,47.770343000202715],[-122.3117940000739,47.770777000091016],[-122.31152399973715,47.770874000077235],[-122.31131100020013,47.77095099992503],[-122.31057600043133,47.771187000261634],[-122.31053299987529,47.771201000048414],[-122.31018899991871,47.77134100012387],[-122.31000300014585,47.7714269999661],[-122.30982999989351,47.77135100002859],[-122.30971000024292,47.771300000071804],[-122.30941099959384,47.771201000048414],[-122.30923599969164,47.77114600008816],[-122.30860200020517,47.77094499981553],[-122.3082259995632,47.770753000172355],[-122.30804700036137,47.77062700026654],[-122.3072520003181,47.770624000193195],[-122.30725300014299,47.770824999895176],[-122.30725499979285,47.77106200001463],[-122.30725999981568,47.771542999879],[-122.30637400043412,47.771542000073424],[-122.30636400038838,47.77110400006835],[-122.30604700019596,47.771094000116136],[-122.30604299999801,47.770885999708156],[-122.30566999972912,47.77088400007176],[-122.3054839999563,47.77088300025351],[-122.3054780001085,47.77067999992388],[-122.30546200021497,47.770126999940736],[-122.30280599992344,47.77011699980065],[-122.30187699998582,47.770115000134645],[-122.30128000030925,47.77011400030166],[-122.30008900043084,47.77011100019871],[-122.29950500027475,47.77010999976183],[-122.29742499974338,47.770104999992256],[-122.29743700033728,47.77062100011967],[-122.29744800020794,47.771091000069724],[-122.29745599970555,47.77145700022861],[-122.29745700042876,47.77150599981518],[-122.29747800034518,47.77244899996669],[-122.29749599988853,47.77322700017826],[-122.29750799958408,47.773781999927415],[-122.2975290003988,47.77471900018539],[-122.29753100004861,47.77479700012017],[-122.29754399956909,47.77530699996819],[-122.2975529997899,47.77560099978097],[-122.29757399970632,47.776539000173926],[-122.2975939997978,47.77741999999321],[-122.2980309996408,47.777423999970644],[-122.29811799967943,47.777425000266824],[-122.29821099956587,47.7774259999593],[-122.29914500042464,47.77743500020895],[-122.29915899977001,47.77743500020895],[-122.29933700004527,47.77743700019718],[-122.29938300007603,47.77743700019718],[-122.29956499965088,47.77743900018528],[-122.29974200010122,47.77744100017331],[-122.30128699998195,47.77745599977936],[-122.30130100022565,47.77745599977936],[-122.30136300014993,47.77745599977936],[-122.30148199997564,47.77745799976673],[-122.30155200029581,47.777459000062265],[-122.30176300018302,47.77746100004952],[-122.30194300010805,47.77746300003671],[-122.3029790001758,47.777472999971565],[-122.3030079995898,47.777472999971565],[-122.3032179996521,47.77747499995829],[-122.30421299971191,47.77748400019949],[-122.30498400036407,47.77749099984939],[-122.30512400010616,47.77749200014428],[-122.30522899968814,47.77749200014428],[-122.30566600042947,47.7774969998073],[-122.306331999703,47.7775029997645],[-122.30669999994903,47.777506000044696],[-122.30758200003098,47.77751399998609],[-122.30795100010192,47.777523000220555],[-122.30810500008769,47.77752700019007],[-122.3083589996326,47.77753300014382],[-122.30883499983366,47.777535000128246],[-122.3089650004283,47.777537999802895],[-122.30903700039833,47.77753900009688],[-122.30922800019407,47.77753999978716],[-122.30928699974528,47.77753999978716],[-122.30955100023425,47.7775419997713],[-122.30982800024368,47.77754300006517],[-122.31047599997386,47.77754300006517],[-122.31070600012765,47.77754300006517],[-122.31092799988551,47.77754599973941],[-122.31155600042253,47.77755200029461],[-122.31190500040196,47.777556000261946],[-122.31192100029553,47.77755699995186],[-122.31228799981831,47.77755800024548],[-122.31232800000129,47.77755899993539],[-122.31265299969128,47.77756000022893],[-122.31267199995787,47.77756099991881],[-122.31299900019603,47.77756499988545],[-122.31312999971728,47.77756600017887],[-122.31314399996099,47.77756699986863],[-122.313328000084,47.77756899985174],[-122.31342199979532,47.77757000014513],[-122.31373499978976,47.77757800007669],[-122.31387700007998,47.777582000041974],[-122.31488100036066,47.77759900019298],[-122.31509100042291,47.77760999979057],[-122.31524799988345,47.77761900000841],[-122.31568100042679,47.77761599973474],[-122.31579100003168,47.77761599973474],[-122.31664999964907,47.77761599973474],[-122.31669099965696,47.77761599973474],[-122.31680500035809,47.77761599973474],[-122.31688700037384,47.77761599973474],[-122.31709900008596,47.77761599973474],[-122.31731300034618,47.77761700002723],[-122.31746300013403,47.77761799971601],[-122.31756199986822,47.77761799971601],[-122.31765200027992,47.77761799971601],[-122.31780899974042,47.777620999989516],[-122.31787300021283,47.777620999989516],[-122.31790499999991,47.777620999989516],[-122.31795900042657,47.77762200028191],[-122.318004999559,47.77762200028191],[-122.31825900000223,47.777622999970596],[-122.31855699992806,47.7776240002629],[-122.3186459996165,47.77762499995155],[-122.31943700036015,47.777630000205455],[-122.31968500005728,47.77763099989399],[-122.32121400004449,47.77764099979648],[-122.3212829996415,47.77764099979648],[-122.32140400001529,47.77764200008849],[-122.3218480004293,47.77764499975698],[-122.32229600014298,47.777646000048854],[-122.3230869999883,47.77765300028067],[-122.32455400005126,47.77766300017894],[-122.32463500024211,47.77766399986683],[-122.32470399983906,47.77766500015836],[-122.32627600038231,47.777686999927006],[-122.32653900014803,47.777682999969755],[-122.32659699987435,47.77768200028222],[-122.32684499957148,47.777679000012185],[-122.32722899971104,47.7776570002402],[-122.3273040000541,47.777651999988876],[-122.32733400019133,47.77765000000896],[-122.32739199991765,47.777646000048854],[-122.32762899974412,47.77763200018614],[-122.32832900025117,47.777595000229],[-122.32993900042923,47.777620000300836],[-122.32995299977463,47.777620000300836],[-122.33000399982826,47.777620999989516],[-122.33239700035405,47.77764400006871],[-122.33354700022457,47.77767500005436],[-122.33532300008399,47.77776999987578],[-122.335363000267,47.77776999987578],[-122.33540099990181,47.77776999987578],[-122.33730200033301,47.77777900006588],[-122.33735800040951,47.77777900006588],[-122.33753900015947,47.77777999975154],[-122.33760199990869,47.77777999975154],[-122.33783899973515,47.77777999975154],[-122.3381469997067,47.77777999975154],[-122.33834900027139,47.77778199972645],[-122.3385190001507,47.777784999990544],[-122.34031699975144,47.777783999701334],[-122.34035699993441,47.777784999990544],[-122.34083700033345,47.777784999990544],[-122.34088599983892,47.777784999990544],[-122.34093600006764,47.777786000279775],[-122.34121300007705,47.777786000279775],[-122.34176100024814,47.777786000279775],[-122.34182700037039,47.77778699996527],[-122.34188699974652,47.77778699996527],[-122.34615499986595,47.7777940001781],[-122.34622500018618,47.7777940001781],[-122.34628600028553,47.7777940001781],[-122.34630700020193,47.7777940001781],[-122.34633499979101,47.777792999889016],[-122.34763699999752,47.77779000022907],[-122.34770700031771,47.77779000022907],[-122.34778099993753,47.77779000022907],[-122.34986499976856,47.777784999990544],[-122.34994400030959,47.777784999990544],[-122.35091400025507,47.77778199972645],[-122.35149000001525,47.777781000040875],[-122.35180700020764,47.77777999975154],[-122.35235200000568,47.77777799977655],[-122.35262900001513,47.77777700009084],[-122.35265099975642,47.77777700009084],[-122.35272199990155,47.77777700009084],[-122.35366799955757,47.77777300014051],[-122.35400900003941,47.777771999851076],[-122.35486299963394,47.77776900018991],[-122.35493899980192,47.77776900018991],[-122.35495499969545,47.77776900018991],[-122.35501099977195,47.77776900018991],[-122.35540599978216,47.777767999900355],[-122.35542000002587,47.777767999900355],[-122.35548799979792,47.777767999900355],[-122.35594999975528,47.7777659999249],[-122.35620900022136,47.7777659999249],[-122.35647399963693,47.7777659999249],[-122.3565199996677,47.7777659999249],[-122.35802699991359,47.7777659999249],[-122.35804100015729,47.7777659999249],[-122.35811099957918,47.7777659999249],[-122.3586670001462,47.7777659999249],[-122.35888399988116,47.7777659999249],[-122.36064800004502,47.7777670002145],[-122.36132599991244,47.77776399994938],[-122.3616170001656,47.77777700009084],[-122.36289000005976,47.77774699985232],[-122.3629760002735,47.77773600028372],[-122.36309900029715,47.77773399970334],[-122.36400800014324,47.77772399981868],[-122.36421400000758,47.77772199984154],[-122.36427199973389,47.77772100015476],[-122.36438899990976,47.777715999909596],[-122.36462099971334,47.777715999909596],[-122.36495700017234,47.77773399970334],[-122.36518599960289,47.77774000023684],[-122.36668500035117,47.77774299989968],[-122.36691399978172,47.777750000118424],[-122.36708899968392,47.77775400007049],[-122.36799099985733,47.777794999863474],[-122.36822000018618,47.77779800012677],[-122.36847299990617,47.7777940001781],[-122.36891499977202,47.77776399994938],[-122.3692140004211,47.777750999804645],[-122.36958299959373,47.77775499975663],[-122.36971400001329,47.777752999780674],[-122.3698410002349,47.77775200009449],[-122.36989399993836,47.777761000287754],[-122.36994199961892,47.77777700009084],[-122.36997599995412,47.777796999837804],[-122.37012099971908,47.77779800012677],[-122.37159000033016,47.77780999997103],[-122.37208400007457,47.777800999786294],[-122.37213199975515,47.777800999786294],[-122.3731209999672,47.777806999708375],[-122.37424099970049,47.777817999865654],[-122.37428699973125,47.777817999865654],[-122.37441300012794,47.77781900015425],[-122.37545300039363,47.777825999759045],[-122.37554100025716,47.77782700004749],[-122.37721800038238,47.77784600009084],[-122.37733399983503,47.777848000063216],[-122.37748399962285,47.77785000003556],[-122.37752200015602,47.77785000003556],[-122.37810499958887,47.77785300029568],[-122.37894300018817,47.777857999924024],[-122.37910399984669,47.777859000211805],[-122.38000900039312,47.77784299983026],[-122.38002799976138,47.77784299983026],[-122.38018900031821,47.777840000173214],[-122.38274299960416,47.77786999975444],[-122.38287900004659,47.777871999725896],[-122.38696100039319,47.77791899993867],[-122.38820400015014,47.77790999977277],[-122.38826000022662,47.77790900008959],[-122.38827399957201,47.77790900008959],[-122.38855399995451,47.77790100020898],[-122.38944100005928,47.77789599998113],[-122.38963400040316,47.777894000010605],[-122.38981099995515,47.777894000010605],[-122.3901309996223,47.77791199974268],[-122.39198400037294,47.777934000010454],[-122.3925400000416,47.777930999754965],[-122.39317199987829,47.777928999785786],[-122.39319399961961,47.777928999785786],[-122.39333199971186,47.777928000102975],[-122.39348300022291,47.77792699981652],[-122.39382600035458,47.77792400016431],[-122.39454299968176,47.77791899993867],[-122.39463399991834,47.77791899993867],[-122.39497200002718,47.77792099990825],[-122.39557600027476,47.77792299987773],[-122.39882500004488,47.7779379999484]]]},"properties":{"AREALAND":"30133246","AREAWATER":"2077937","BASENAME":"Shoreline","CBSAPCI":"N","CENTLAT":"+47.7563610","CENTLON":"-122.3452453","FUNCSTAT":"A","GEOID":"5363960","INTPTLAT":"+47.7575321","INTPTLON":"-122.3453030","LSADC":"25","MTFCC":"G4110","NAME":"Shoreline city","NECTAPCI":"N","OBJECTID":28832,"OID":"27890836057946","PLACE":"63960","PLACECC":"C1","PLACENS":"02411893","STATE":"53","DISP_CLR":2,"slug":"shoreline","jurisdiction_key":"shoreline_city","county_fips":["53033"]}}]}
