{
  "type": "FeatureCollection",
  "features": [
    {
      "type": "Feature",
      "geometry": {
        "type": "MultiPolygon",
        "coordinates": [
          [
            [
              [
                -121.36639200038779,
                47.71392900029786
              ],
              [
                -121.36638200034204,
                47.71376300023302
              ],
              [
                -121.36636899992325,
                47.71354900022846
              ],
              [
                -121.36636700027344,
                47.7135189998187
              ],
              [
                -121.36632999956521,
                47.712868999995955
              ],
              [
                -121.36632700009044,
                47.71282500002367
              ],
              [
                -121.36631799986962,
                47.71266100012948
              ],
              [
                -121.36629899960307,
                47.71233999995575
              ],
              [
                -121.36629000028054,
                47.712158000234886
              ],
              [
                -121.36628400043276,
                47.71204200029367
              ],
              [
                -121.36625699977027,
                47.71171699973978
              ],
              [
                -121.36625099992249,
                47.711507000005646
              ],
              [
                -121.36621999996035,
                47.71096899977904
              ],
              [
                -121.36621800031051,
                47.71093700017478
              ],
              [
                -121.36618700034838,
                47.71039400004127
              ],
              [
                -121.36618099960228,
                47.71029500018524
              ],
              [
                -121.36617399992959,
                47.710177999948144
              ],
              [
                -121.3661680000818,
                47.71008599993883
              ],
              [
                -121.36616600043197,
                47.710058000114
              ],
              [
                -121.36616499970877,
                47.710042999813076
              ],
              [
                -121.36611500037834,
                47.7092929998143
              ],
              [
                -121.36610899963226,
                47.70920900022551
              ],
              [
                -121.36610600015753,
                47.709151999823014
              ],
              [
                -121.36610199995955,
                47.709098999753394
              ],
              [
                -121.36610000030974,
                47.7090610002177
              ],
              [
                -121.3660989995865,
                47.709043000237116
              ],
              [
                -121.36609299973874,
                47.70895499983946
              ],
              [
                -121.366090000264,
                47.70891599979432
              ],
              [
                -121.36608799971584,
                47.7088909999515
              ],
              [
                -121.36608500024113,
                47.70884100022992
              ],
              [
                -121.36608400041621,
                47.70882799978672
              ],
              [
                -121.36608000021826,
                47.708765999953144
              ],
              [
                -121.3660769998452,
                47.70871300009548
              ],
              [
                -121.3660750001954,
                47.70868599994195
              ],
              [
                -121.3660740003705,
                47.70866499981287
              ],
              [
                -121.36606900034761,
                47.70858999988731
              ],
              [
                -121.36606400032474,
                47.70850799999028
              ],
              [
                -121.36605799957863,
                47.70840099988637
              ],
              [
                -121.36604500005815,
                47.70820400008659
              ],
              [
                -121.36603800038547,
                47.70809399991122
              ],
              [
                -121.36599700037758,
                47.707434999857256
              ],
              [
                -121.36598999980657,
                47.70733899991636
              ],
              [
                -121.36598700033184,
                47.70728800008366
              ],
              [
                -121.36597999976084,
                47.70717799978855
              ],
              [
                -121.36597599956286,
                47.70711599980571
              ],
              [
                -121.36596999971509,
                47.70700999970319
              ],
              [
                -121.36596499969221,
                47.70694100005101
              ],
              [
                -121.36595999966933,
                47.70685199989166
              ],
              [
                -121.36591700001165,
                47.70685199989166
              ],
              [
                -121.3658099998815,
                47.706852999731275
              ],
              [
                -121.36561300023801,
                47.706852999731275
              ],
              [
                -121.36534100025145,
                47.706861000261064
              ],
              [
                -121.36513899968678,
                47.70686699990199
              ],
              [
                -121.3648859999668,
                47.706874999825125
              ],
              [
                -121.36470100001885,
                47.70688000022986
              ],
              [
                -121.36455799990374,
                47.70688400019056
              ],
              [
                -121.36438499965138,
                47.706888999989935
              ],
              [
                -121.36435000038959,
                47.70688999982884
              ],
              [
                -121.3641699995662,
                47.70689500023213
              ],
              [
                -121.36399800003709,
                47.706899000191726
              ],
              [
                -121.36395100018143,
                47.70690099986914
              ],
              [
                -121.3637810003021,
                47.70690600027138
              ],
              [
                -121.36372000020272,
                47.70690799994851
              ],
              [
                -121.36356700004187,
                47.706912999745576
              ],
              [
                -121.36345800026191,
                47.70691699970375
              ],
              [
                -121.36330199972801,
                47.70692100026616
              ],
              [
                -121.3630769995971,
                47.70692500022372
              ],
              [
                -121.36241799999624,
                47.706937000094634
              ],
              [
                -121.36238000036141,
                47.70693799993267
              ],
              [
                -121.3623250001098,
                47.706938999770635
              ],
              [
                -121.36229900017057,
                47.70694000021309
              ],
              [
                -121.36204999975021,
                47.70694599984491
              ],
              [
                -121.36175600002234,
                47.706952999918244
              ],
              [
                -121.36158699996794,
                47.70695699987335
              ],
              [
                -121.36156400040173,
                47.70695699987335
              ],
              [
                -121.36150099975421,
                47.706959000153084
              ],
              [
                -121.36145300007364,
                47.706959999990644
              ],
              [
                -121.36139199997426,
                47.70696099982818
              ],
              [
                -121.36095500013126,
                47.70697100001613
              ],
              [
                -121.36077600003114,
                47.70697499996989
              ],
              [
                -121.36002199999572,
                47.70699399989713
              ],
              [
                -121.35995699969837,
                47.70699499973402
              ],
              [
                -121.35975699968184,
                47.707000000127245
              ],
              [
                -121.35972499989478,
                47.707000000127245
              ],
              [
                -121.35965899977253,
                47.707001999800774
              ],
              [
                -121.35949800011407,
                47.707005999752155
              ],
              [
                -121.35920699986092,
                47.707012999817444
              ],
              [
                -121.35902699993588,
                47.70701699976794
              ],
              [
                -121.35894499992011,
                47.70701900004537
              ],
              [
                -121.35889600041463,
                47.70701999988178
              ],
              [
                -121.35876900019302,
                47.7070229999954
              ],
              [
                -121.35872200033734,
                47.70702399983173
              ],
              [
                -121.35868200015439,
                47.70702500027256
              ],
              [
                -121.35862299970482,
                47.7070260001089
              ],
              [
                -121.35856199960546,
                47.70702799978143
              ],
              [
                -121.3583030000377,
                47.707034999843756
              ],
              [
                -121.35823500026561,
                47.70703600028437
              ],
              [
                -121.35781099994311,
                47.707047000293855
              ],
              [
                -121.35760199970572,
                47.70705100024174
              ],
              [
                -121.35732100039665,
                47.70705800030098
              ],
              [
                -121.35730100030517,
                47.70705800030098
              ],
              [
                -121.3570080004022,
                47.70706499975481
              ],
              [
                -121.3566279995623,
                47.707074000087445
              ],
              [
                -121.35657499985886,
                47.70707599975814
              ],
              [
                -121.35637800021534,
                47.70707999970384
              ],
              [
                -121.35634499970509,
                47.70708100014359
              ],
              [
                -121.35627000026031,
                47.70708299981401
              ],
              [
                -121.3562200000316,
                47.7070840002537
              ],
              [
                -121.35575100040154,
                47.70709500025306
              ],
              [
                -121.35560200043864,
                47.70709900019731
              ],
              [
                -121.35555600040786,
                47.70710000003219
              ],
              [
                -121.35541199956951,
                47.70710300014121
              ],
              [
                -121.3551630000475,
                47.70710899975427
              ],
              [
                -121.35511700001673,
                47.70711000019346
              ],
              [
                -121.35508199985665,
                47.70711100002812
              ],
              [
                -121.35502699960506,
                47.707113000301945
              ],
              [
                -121.35494399976437,
                47.70711499997115
              ],
              [
                -121.35461300022659,
                47.707125999963964
              ],
              [
                -121.35420499979759,
                47.70713799978856
              ],
              [
                -121.35416799998765,
                47.70713900022719
              ],
              [
                -121.35411600010913,
                47.70714099989544
              ],
              [
                -121.35403099972031,
                47.7071440000021
              ],
              [
                -121.3536359997101,
                47.70715599982259
              ],
              [
                -121.35361300014385,
                47.707157000260885
              ],
              [
                -121.35353799980079,
                47.70715899992843
              ],
              [
                -121.35330500017231,
                47.70716699980675
              ],
              [
                -121.35328699973064,
                47.70716699980675
              ],
              [
                -121.35322999982922,
                47.70716900007839
              ],
              [
                -121.35318200014866,
                47.707170999745436
              ],
              [
                -121.35258700012191,
                47.70718899976807
              ],
              [
                -121.35250400028121,
                47.70719199987197
              ],
              [
                -121.3524180000675,
                47.70719499997574
              ],
              [
                -121.35238399973231,
                47.707195999808775
              ],
              [
                -121.35229000002097,
                47.70719899991227
              ],
              [
                -121.35221499967791,
                47.70720100018272
              ],
              [
                -121.35219600030965,
                47.70720100018272
              ],
              [
                -121.35201100036171,
                47.707206999784496
              ],
              [
                -121.35190699970633,
                47.70721099972011
              ],
              [
                -121.35142499965748,
                47.70722600023162
              ],
              [
                -121.35128300026558,
                47.707230000165815
              ],
              [
                -121.35125599960308,
                47.70723099999818
              ],
              [
                -121.35104600043911,
                47.70723800003324
              ],
              [
                -121.35101100027903,
                47.70723899986546
              ],
              [
                -121.35089499992807,
                47.70724199996652
              ],
              [
                -121.35058399958345,
                47.707252000100546
              ],
              [
                -121.35020600019,
                47.70726399989618
              ],
              [
                -121.35014099989266,
                47.70726600016409
              ],
              [
                -121.34989900004332,
                47.707270999926806
              ],
              [
                -121.34986399988324,
                47.707270999926806
              ],
              [
                -121.34986499970813,
                47.70729599994219
              ],
              [
                -121.34986600043138,
                47.707320999945566
              ],
              [
                -121.34986899990608,
                47.7073950000545
              ],
              [
                -121.34987099955592,
                47.70743799994704
              ],
              [
                -121.34987300010405,
                47.707465999970445
              ],
              [
                -121.34987399992895,
                47.70750199980571
              ],
              [
                -121.3498759995788,
                47.70753599996314
              ],
              [
                -121.34987800012692,
                47.707574999831955
              ],
              [
                -121.34987999977675,
                47.70762900006712
              ],
              [
                -121.34988099960167,
                47.70765200026222
              ],
              [
                -121.34988899999759,
                47.70782600022675
              ],
              [
                -121.3498909996474,
                47.70785400004172
              ],
              [
                -121.34989400002046,
                47.70793700018205
              ],
              [
                -121.34990499989108,
                47.70816599989841
              ],
              [
                -121.34991499993684,
                47.70838199986754
              ],
              [
                -121.34994099987611,
                47.70894400023265
              ],
              [
                -121.34995699976965,
                47.7092929998143
              ],
              [
                -121.34996000014267,
                47.709359999792156
              ],
              [
                -121.34998000023417,
                47.70985799997799
              ],
              [
                -121.34999299975465,
                47.71020599970846
              ],
              [
                -121.35000600017347,
                47.71052200027849
              ],
              [
                -121.35001000037141,
                47.71061400012256
              ],
              [
                -121.35002200006696,
                47.71088900012711
              ],
              [
                -121.35028700038085,
                47.710871000173405
              ],
              [
                -121.35133199977108,
                47.71070599980426
              ],
              [
                -121.35134299964174,
                47.710858999999296
              ],
              [
                -121.35142999968035,
                47.71243799982116
              ],
              [
                -121.3514399997261,
                47.712588999703286
              ],
              [
                -121.35164599959042,
                47.712516999782046
              ],
              [
                -121.35182700023873,
                47.712455999838085
              ],
              [
                -121.35204899999655,
                47.71237899985645
              ],
              [
                -121.35241700024261,
                47.71225300002566
              ],
              [
                -121.35244700037983,
                47.71224399998291
              ],
              [
                -121.35280100038216,
                47.71213800003418
              ],
              [
                -121.35318100032374,
                47.71204900028699
              ],
              [
                -121.35341300012735,
                47.71201200022514
              ],
              [
                -121.35402800024556,
                47.711910999726534
              ],
              [
                -121.35434899973762,
                47.71188300027775
              ],
              [
                -121.3551439997809,
                47.7118440000059
              ],
              [
                -121.35539900004903,
                47.711832000055885
              ],
              [
                -121.3554249999883,
                47.71183299979997
              ],
              [
                -121.35543699968389,
                47.71210500019998
              ],
              [
                -121.3554659999962,
                47.71260700027249
              ],
              [
                -121.35546799964601,
                47.71265400021833
              ],
              [
                -121.35553499959315,
                47.71384199999848
              ],
              [
                -121.35553899979112,
                47.71390399983767
              ],
              [
                -121.35555200020991,
                47.71415099996587
              ],
              [
                -121.35555499968466,
                47.71420300003454
              ],
              [
                -121.3555589998826,
                47.714265999746004
              ],
              [
                -121.35579400005925,
                47.71425900005048
              ],
              [
                -121.35640099978156,
                47.71424199974978
              ],
              [
                -121.36078100005399,
                47.71410200015587
              ],
              [
                -121.36597999976084,
                47.713940999765
              ],
              [
                -121.36639200038779,
                47.71392900029786
              ]
            ]
          ],
          [
            [
              [
                -121.34941500034465,
                47.71144300022928
              ],
              [
                -121.34941100014667,
                47.711348000170794
              ],
              [
                -121.34939400042826,
                47.71125400029876
              ],
              [
                -121.34938900040537,
                47.71123399975112
              ],
              [
                -121.34938600003234,
                47.71122099990479
              ],
              [
                -121.34936500011594,
                47.71116500025078
              ],
              [
                -121.34930900003944,
                47.71101599999324
              ],
              [
                -121.34894699964117,
                47.71107500029221
              ],
              [
                -121.34780900036453,
                47.71126000003846
              ],
              [
                -121.34751700028649,
                47.71135199978865
              ],
              [
                -121.34744199994343,
                47.71144100012168
              ],
              [
                -121.34703400041272,
                47.71151699992582
              ],
              [
                -121.3464629997771,
                47.711737000102055
              ],
              [
                -121.34634999979919,
                47.71182099984741
              ],
              [
                -121.3461249996683,
                47.71198799979526
              ],
              [
                -121.3460329996068,
                47.71202699995934
              ],
              [
                -121.34619300033869,
                47.71213800003418
              ],
              [
                -121.34621000005713,
                47.712149999913734
              ],
              [
                -121.3462359999964,
                47.71216800003013
              ],
              [
                -121.34625799973769,
                47.71218299971944
              ],
              [
                -121.34628899969982,
                47.71220499998123
              ],
              [
                -121.34647399964776,
                47.712330999928035
              ],
              [
                -121.34719900026917,
                47.712822000244024
              ],
              [
                -121.3474119998062,
                47.71296900012446
              ],
              [
                -121.34744399959322,
                47.71299100005443
              ],
              [
                -121.34748700014926,
                47.71301999983804
              ],
              [
                -121.34781600003723,
                47.71291499998218
              ],
              [
                -121.34803699997016,
                47.712844000236046
              ],
              [
                -121.34834999996463,
                47.71274399986772
              ],
              [
                -121.34876800043935,
                47.712423999938046
              ],
              [
                -121.34916299955127,
                47.71212199998896
              ],
              [
                -121.34920699993219,
                47.71208900014464
              ],
              [
                -121.349216000153,
                47.7120570000192
              ],
              [
                -121.34923000039672,
                47.71201099988004
              ],
              [
                -121.34923399969635,
                47.71199800022758
              ],
              [
                -121.34926200018377,
                47.71190299997191
              ],
              [
                -121.34931499988723,
                47.71181500017231
              ],
              [
                -121.34935800044323,
                47.711723999776744
              ],
              [
                -121.34938400038251,
                47.711644000074934
              ],
              [
                -121.34939699990299,
                47.71158999976856
              ],
              [
                -121.34940399957569,
                47.71155500008858
              ],
              [
                -121.34940799977365,
                47.71153800011464
              ],
              [
                -121.34941500034465,
                47.71144300022928
              ]
            ]
          ]
        ]
      },
      "properties": {
        "AREALAND": "813565",
        "AREAWATER": "66283",
        "BASENAME": "Skykomish",
        "CBSAPCI": "N",
        "CENTLAT": "+47.7103588",
        "CENTLON": "-121.3584258",
        "FUNCSTAT": "A",
        "GEOID": "5364855",
        "INTPTLAT": "+47.7099322",
        "INTPTLON": "-121.3572857",
        "LSADC": "43",
        "MTFCC": "G4110",
        "NAME": "Skykomish town",
        "NECTAPCI": "N",
        "OBJECTID": 3806,
        "OID": "27890836057947",
        "PLACE": "64855",
        "PLACECC": "C1",
        "PLACENS": "02413295",
        "STATE": "53",
        "DISP_CLR": 5,
        "slug": "skykomish",
        "jurisdiction_key": "skykomish_city",
        "county_fips": [
          "53033"
        ]
      }
    }
  ]
}
