{
  "type": "FeatureCollection",
  "features": [
    {
      "type": "Feature",
      "geometry": {
        "type": "MultiPolygon",
        "coordinates": [
          [
            [
              [
                -121.89367900001129,
                47.54363099992234
              ],
              [
                -121.89309400003027,
                47.543140999960954
              ],
              [
                -121.89290300023457,
                47.54293600013418
              ],
              [
                -121.89276900034028,
                47.542745000041535
              ],
              [
                -121.89271099971562,
                47.54264499994411
              ],
              [
                -121.89239100004849,
                47.54231099988544
              ],
              [
                -121.89230300018492,
                47.5421839999874
              ],
              [
                -121.89219299968175,
                47.54197200029343
              ],
              [
                -121.89214599982613,
                47.54181899977572
              ],
              [
                -121.89210099962025,
                47.54155100007576
              ],
              [
                -121.89202299980246,
                47.54069499994031
              ],
              [
                -121.8919969998632,
                47.54009899972271
              ],
              [
                -121.89201799977958,
                47.53963599979413
              ],
              [
                -121.89205700013764,
                47.53915100019157
              ],
              [
                -121.89205600031275,
                47.538903000087906
              ],
              [
                -121.89199900041132,
                47.53851800004577
              ],
              [
                -121.89194800035771,
                47.538332999838985
              ],
              [
                -121.89182799980878,
                47.53804200017611
              ],
              [
                -121.89175300036405,
                47.53793499990228
              ],
              [
                -121.89132900004151,
                47.53754599982709
              ],
              [
                -121.89130800012512,
                47.53752700007377
              ],
              [
                -121.89099699978048,
                47.53721899982453
              ],
              [
                -121.89081299965747,
                47.536972999802636
              ],
              [
                -121.89078500006836,
                47.53691499983644
              ],
              [
                -121.8907580003042,
                47.53679800025307
              ],
              [
                -121.8907289999919,
                47.53655699981689
              ],
              [
                -121.89071899994613,
                47.536478999793275
              ],
              [
                -121.89069600037992,
                47.53635199971646
              ],
              [
                -121.89025600016386,
                47.53635700008346
              ],
              [
                -121.89012300009445,
                47.53635299978988
              ],
              [
                -121.88866500025237,
                47.53637799980021
              ],
              [
                -121.88742900016813,
                47.53638400023756
              ],
              [
                -121.88597299997583,
                47.53638300016473
              ],
              [
                -121.88415899958325,
                47.536382000091834
              ],
              [
                -121.88292699969698,
                47.53638100001896
              ],
              [
                -121.8823080002791,
                47.53637999994604
              ],
              [
                -121.88192900016237,
                47.53637300004168
              ],
              [
                -121.88189900002517,
                47.53286200023226
              ],
              [
                -121.8818759995606,
                47.529547000245664
              ],
              [
                -121.88187499973571,
                47.52934800006461
              ],
              [
                -121.8818730000859,
                47.5291089997789
              ],
              [
                -121.8818730000859,
                47.52904399993663
              ],
              [
                -121.8818730000859,
                47.529028000168395
              ],
              [
                -121.88187200026098,
                47.52887300026552
              ],
              [
                -121.8820279998966,
                47.5288709998333
              ],
              [
                -121.8822389997838,
                47.52887500009109
              ],
              [
                -121.88237699987604,
                47.528884000214994
              ],
              [
                -121.88273900027431,
                47.52895200029279
              ],
              [
                -121.88290599978056,
                47.528966999869944
              ],
              [
                -121.88366999986172,
                47.52897499976396
              ],
              [
                -121.88417299982694,
                47.52898699990599
              ],
              [
                -121.88560200025506,
                47.52897700019221
              ],
              [
                -121.88589400033311,
                47.52897799979976
              ],
              [
                -121.88653200001755,
                47.529006999934445
              ],
              [
                -121.8867110001177,
                47.529022999709085
              ],
              [
                -121.88730100012158,
                47.52908800018395
              ],
              [
                -121.88720200038739,
                47.52175899989604
              ],
              [
                -121.88719300016655,
                47.518168999892026
              ],
              [
                -121.88718399994573,
                47.514578999959575
              ],
              [
                -121.88718499977062,
                47.513176999955476
              ],
              [
                -121.88720700041027,
                47.51165800026648
              ],
              [
                -121.88513399955158,
                47.51170900009176
              ],
              [
                -121.88491900036476,
                47.51174700009592
              ],
              [
                -121.88482399993019,
                47.51176899989419
              ],
              [
                -121.8843450002544,
                47.511922000111284
              ],
              [
                -121.88404499978043,
                47.51201900015269
              ],
              [
                -121.88398299985616,
                47.51203399971772
              ],
              [
                -121.88381799999972,
                47.512057999862336
              ],
              [
                -121.8835350001425,
                47.512082999925475
              ],
              [
                -121.8833739995857,
                47.51208700024998
              ],
              [
                -121.88321899977502,
                47.512081999995964
              ],
              [
                -121.88291099980343,
                47.51204199976718
              ],
              [
                -121.88285399990203,
                47.512317999815366
              ],
              [
                -121.88278899960468,
                47.51254100021202
              ],
              [
                -121.88269700044148,
                47.51276700001726
              ],
              [
                -121.88251199959527,
                47.51306100011141
              ],
              [
                -121.88235699978456,
                47.513260000193895
              ],
              [
                -121.88119600004337,
                47.51447900014474
              ],
              [
                -121.88112200042353,
                47.514554999754424
              ],
              [
                -121.87954099965947,
                47.51454299995108
              ],
              [
                -121.87829600025269,
                47.514532999910664
              ],
              [
                -121.87719099968969,
                47.51451699996337
              ],
              [
                -121.87232099987081,
                47.514495999987155
              ],
              [
                -121.870708000218,
                47.51449000007909
              ],
              [
                -121.86909100036723,
                47.51447300023475
              ],
              [
                -121.86819099984363,
                47.514468000208126
              ],
              [
                -121.86725000021049,
                47.51446599983329
              ],
              [
                -121.8662230003636,
                47.5144590000376
              ],
              [
                -121.86612200008125,
                47.5144590000376
              ],
              [
                -121.86564000003243,
                47.51445499989391
              ],
              [
                -121.86565799957577,
                47.515488999891566
              ],
              [
                -121.8657589998581,
                47.5161800000527
              ],
              [
                -121.86577200027689,
                47.51631899984272
              ],
              [
                -121.86578499979736,
                47.51661600019416
              ],
              [
                -121.86578300014754,
                47.516735000196185
              ],
              [
                -121.86578200032262,
                47.51685499976691
              ],
              [
                -121.86577099955367,
                47.51747799983638
              ],
              [
                -121.86575600038336,
                47.51782499982181
              ],
              [
                -121.86574600033765,
                47.51806499977001
              ],
              [
                -121.86569299973586,
                47.51934699994901
              ],
              [
                -121.86569500028399,
                47.51941800023314
              ],
              [
                -121.86568900043622,
                47.51944799998253
              ],
              [
                -121.86573100026901,
                47.51966100013669
              ],
              [
                -121.86572399969802,
                47.520399999905216
              ],
              [
                -121.86572899972086,
                47.521765999931226
              ],
              [
                -121.86570799980448,
                47.522670999729065
              ],
              [
                -121.86569699993383,
                47.52320300019609
              ],
              [
                -121.86568799971299,
                47.52359100019497
              ],
              [
                -121.8655189996586,
                47.52357700000412
              ],
              [
                -121.86552100020674,
                47.52363100011294
              ],
              [
                -121.86523900017443,
                47.523751999997735
              ],
              [
                -121.8650819998156,
                47.52382000005611
              ],
              [
                -121.86503900015788,
                47.52383200016433
              ],
              [
                -121.86431799973444,
                47.52403999978386
              ],
              [
                -121.86362300014856,
                47.52409800003819
              ],
              [
                -121.86348400023138,
                47.52411000008278
              ],
              [
                -121.86284800019678,
                47.52416200024437
              ],
              [
                -121.86241300000358,
                47.52417499997345
              ],
              [
                -121.86149999995952,
                47.52417899998271
              ],
              [
                -121.86034199969306,
                47.524053000149756
              ],
              [
                -121.8603230003248,
                47.524782000019634
              ],
              [
                -121.86030900008109,
                47.52531100006417
              ],
              [
                -121.86227400008639,
                47.52532899971388
              ],
              [
                -121.86298200009108,
                47.52533999980003
              ],
              [
                -121.86295600015178,
                47.526272999981074
              ],
              [
                -121.8633360000934,
                47.526281000286026
              ],
              [
                -121.86501099967046,
                47.52630300005677
              ],
              [
                -121.86503499995992,
                47.52630300005677
              ],
              [
                -121.86511600015076,
                47.526303999715246
              ],
              [
                -121.86562699961361,
                47.526315000203546
              ],
              [
                -121.8655699997122,
                47.5288369997529
              ],
              [
                -121.86556700023748,
                47.52896999990616
              ],
              [
                -121.86556600041258,
                47.528983999870746
              ],
              [
                -121.86556600041258,
                47.52904599975568
              ],
              [
                -121.86556499968934,
                47.52906599976159
              ],
              [
                -121.86525000004508,
                47.529059000094
              ],
              [
                -121.86509400040947,
                47.52905600006287
              ],
              [
                -121.86495999961686,
                47.52905400024421
              ],
              [
                -121.86491100011138,
                47.5290510002128
              ],
              [
                -121.86482499989766,
                47.529050000000076
              ],
              [
                -121.86465500001833,
                47.52904699996844
              ],
              [
                -121.86296600019752,
                47.52901300000217
              ],
              [
                -121.86291699979373,
                47.529011999788715
              ],
              [
                -121.86274400043969,
                47.52900800014795
              ],
              [
                -121.86258700008086,
                47.52900500011391
              ],
              [
                -121.86248599979851,
                47.529003999900354
              ],
              [
                -121.86221999965973,
                47.528997999831596
              ],
              [
                -121.86026800007322,
                47.52895799976024
              ],
              [
                -121.85975800043526,
                47.52894600021814
              ],
              [
                -121.85883299979733,
                47.52893200024341
              ],
              [
                -121.8582469999914,
                47.528920000088796
              ],
              [
                -121.85691899984563,
                47.528892999730836
              ],
              [
                -121.85683799965479,
                47.528890999905954
              ],
              [
                -121.85505099992471,
                47.528912999795146
              ],
              [
                -121.85408799965192,
                47.528892999730836
              ],
              [
                -121.85282900000144,
                47.52885500001229
              ],
              [
                -121.8517209999637,
                47.52883100027165
              ],
              [
                -121.85106300018776,
                47.52882299974906
              ],
              [
                -121.85018199993075,
                47.528802000039605
              ],
              [
                -121.84854099979053,
                47.52874400013402
              ],
              [
                -121.84767499960212,
                47.52870099981752
              ],
              [
                -121.84761900042396,
                47.52868799999699
              ],
              [
                -121.84756199962425,
                47.528681999892136
              ],
              [
                -121.84696999997051,
                47.528692000268734
              ],
              [
                -121.84679599989326,
                47.528686999777385
              ],
              [
                -121.84668200009044,
                47.528673999953384
              ],
              [
                -121.84652800010464,
                47.528639999745316
              ],
              [
                -121.84637499994379,
                47.52861799974162
              ],
              [
                -121.84441099976338,
                47.5286220000187
              ],
              [
                -121.8443909996719,
                47.53013600018194
              ],
              [
                -121.84437700032649,
                47.53106300013692
              ],
              [
                -121.84437200030364,
                47.53146800002669
              ],
              [
                -121.84437200030364,
                47.5315959999659
              ],
              [
                -121.84437399995346,
                47.53161699976974
              ],
              [
                -121.84436800010566,
                47.531723000037516
              ],
              [
                -121.8443639999077,
                47.53203599998984
              ],
              [
                -121.8443620002579,
                47.532139999709734
              ],
              [
                -121.8443639999077,
                47.532170000068824
              ],
              [
                -121.8443630000828,
                47.53221199981493
              ],
              [
                -121.84359200032895,
                47.53221900027474
              ],
              [
                -121.84332500036527,
                47.53222200012494
              ],
              [
                -121.84164800024004,
                47.53224099998097
              ],
              [
                -121.84062300004297,
                47.532251999830635
              ],
              [
                -121.84032000009427,
                47.53225500028548
              ],
              [
                -121.84009900016136,
                47.532258000133616
              ],
              [
                -121.8400199996203,
                47.532259000285116
              ],
              [
                -121.83943600036254,
                47.5322649999808
              ],
              [
                -121.83907899998712,
                47.53225299998225
              ],
              [
                -121.83905100039804,
                47.53225299998225
              ],
              [
                -121.83837299963231,
                47.53222799982486
              ],
              [
                -121.83830099966231,
                47.53222600012714
              ],
              [
                -121.83818900040761,
                47.532220999972736
              ],
              [
                -121.83769599958978,
                47.532216999970146
              ],
              [
                -121.83746200013637,
                47.53221500027206
              ],
              [
                -121.83650300006154,
                47.53217800008084
              ],
              [
                -121.83633499983208,
                47.532147000179194
              ],
              [
                -121.83628799997639,
                47.532133999999786
              ],
              [
                -121.83619000006712,
                47.53208400016615
              ],
              [
                -121.8357809998132,
                47.53182600021837
              ],
              [
                -121.83564500026905,
                47.531769999732916
              ],
              [
                -121.83562400035268,
                47.53176100010421
              ],
              [
                -121.83545399957504,
                47.53171600011798
              ],
              [
                -121.83536400006167,
                47.53170100011399
              ],
              [
                -121.8347749998827,
                47.53159000019372
              ],
              [
                -121.83459800033069,
                47.531543999895604
              ],
              [
                -121.83441000000973,
                47.53148499982338
              ],
              [
                -121.83389000032606,
                47.53129600020399
              ],
              [
                -121.83358700037734,
                47.531166999966764
              ],
              [
                -121.83323599984975,
                47.53103299975111
              ],
              [
                -121.83286099993101,
                47.530907000005485
              ],
              [
                -121.83283099979377,
                47.530897000051226
              ],
              [
                -121.83235100029307,
                47.53073699991705
              ],
              [
                -121.83234899974495,
                47.53063500020606
              ],
              [
                -121.83234500044529,
                47.530466000028234
              ],
              [
                -121.83234200007226,
                47.5303219997772
              ],
              [
                -121.83234100024734,
                47.530305000210035
              ],
              [
                -121.83234100024734,
                47.530270999846174
              ],
              [
                -121.83233799987428,
                47.53009100001444
              ],
              [
                -121.83233500039955,
                47.53000100017017
              ],
              [
                -121.83233500039955,
                47.529911000171445
              ],
              [
                -121.83233399967634,
                47.52982899978208
              ],
              [
                -121.83233399967634,
                47.52980300009046
              ],
              [
                -121.83233399967634,
                47.52974600027818
              ],
              [
                -121.83233600022447,
                47.52936300013507
              ],
              [
                -121.83233600022447,
                47.529334999797925
              ],
              [
                -121.83233799987428,
                47.52892399973628
              ],
              [
                -121.83233700004939,
                47.528827000010516
              ],
              [
                -121.83225500003363,
                47.528827000010516
              ],
              [
                -121.83181900001551,
                47.52882599979357
              ],
              [
                -121.83163800026556,
                47.52882299974906
              ],
              [
                -121.83158300001396,
                47.52882200013861
              ],
              [
                -121.83079899984133,
                47.52883000005474
              ],
              [
                -121.83068099984057,
                47.52882800022745
              ],
              [
                -121.83068199966546,
                47.52875800015893
              ],
              [
                -121.83068400021362,
                47.52855700017946
              ],
              [
                -121.83068599986343,
                47.528387999977824
              ],
              [
                -121.83069199971122,
                47.52800799971432
              ],
              [
                -121.82943200023584,
                47.5279910000037
              ],
              [
                -121.82935699989275,
                47.52798999977082
              ],
              [
                -121.82935400041802,
                47.52819999973823
              ],
              [
                -121.82848499985656,
                47.5282260002245
              ],
              [
                -121.82849300025248,
                47.527512999927104
              ],
              [
                -121.82851499999377,
                47.52674700001975
              ],
              [
                -121.8285300000624,
                47.5267240001782
              ],
              [
                -121.82854400030612,
                47.52668499984358
              ],
              [
                -121.82854599995594,
                47.526641000006705
              ],
              [
                -121.82853900028323,
                47.52661100012437
              ],
              [
                -121.82854900032899,
                47.52564899973378
              ],
              [
                -121.8285719998952,
                47.524998000012594
              ],
              [
                -121.82859100016178,
                47.52438900004283
              ],
              [
                -121.8285919999867,
                47.52433599980368
              ],
              [
                -121.82856600004743,
                47.523591999905115
              ],
              [
                -121.82856600004743,
                47.522906000126255
              ],
              [
                -121.82853099988732,
                47.51979800024024
              ],
              [
                -121.82852300038972,
                47.5196870000023
              ],
              [
                -121.82850999997093,
                47.51890800004889
              ],
              [
                -121.82846200029034,
                47.518144000301525
              ],
              [
                -121.82843499962785,
                47.51770299979128
              ],
              [
                -121.8284380000009,
                47.51759899995899
              ],
              [
                -121.82844800004663,
                47.51722899993447
              ],
              [
                -121.82845499971933,
                47.51699899998158
              ],
              [
                -121.82846800013814,
                47.51651399971755
              ],
              [
                -121.82844999969647,
                47.51602399994587
              ],
              [
                -121.82844100037396,
                47.5158020002543
              ],
              [
                -121.82843499962785,
                47.515014000182376
              ],
              [
                -121.82843200015311,
                47.5144890001955
              ],
              [
                -121.82842200010737,
                47.51419199993958
              ],
              [
                -121.82832099982502,
                47.51419100005025
              ],
              [
                -121.82829999990862,
                47.51419000016096
              ],
              [
                -121.82820899967204,
                47.51418799977553
              ],
              [
                -121.82808900002142,
                47.514184000217874
              ],
              [
                -121.82807499977774,
                47.514184000217874
              ],
              [
                -121.82803499959479,
                47.51412300025235
              ],
              [
                -121.82800799983058,
                47.51407300023763
              ],
              [
                -121.82799000028723,
                47.514029000136766
              ],
              [
                -121.82797600004355,
                47.513988000285345
              ],
              [
                -121.82796299962476,
                47.51394300021916
              ],
              [
                -121.827952999579,
                47.51387400020453
              ],
              [
                -121.82795099992919,
                47.51379599981494
              ],
              [
                -121.82796000015,
                47.51371600011946
              ],
              [
                -121.82798400043947,
                47.51363100019565
              ],
              [
                -121.82677000009652,
                47.513352999961484
              ],
              [
                -121.8267979996856,
                47.51333300003189
              ],
              [
                -121.82681399957913,
                47.51330500023901
              ],
              [
                -121.82680899955623,
                47.51325099981618
              ],
              [
                -121.82678500016512,
                47.51316900007909
              ],
              [
                -121.82667399983704,
                47.51318999997956
              ],
              [
                -121.82655599983626,
                47.513192999704636
              ],
              [
                -121.82637699973611,
                47.51317400022948
              ],
              [
                -121.82622799977321,
                47.51314499983582
              ],
              [
                -121.82558199969283,
                47.51298600007057
              ],
              [
                -121.82529999966052,
                47.51291600009749
              ],
              [
                -121.82510600039008,
                47.51287400006882
              ],
              [
                -121.82491999971893,
                47.512841999764404
              ],
              [
                -121.82475800023552,
                47.51281899989377
              ],
              [
                -121.82444199986803,
                47.51278999991069
              ],
              [
                -121.824109999607,
                47.51278000014291
              ],
              [
                -121.8239520003216,
                47.51278600024647
              ],
              [
                -121.82380800038153,
                47.512796999928966
              ],
              [
                -121.82369399968042,
                47.51281199987843
              ],
              [
                -121.82352200015127,
                47.51283399983694
              ],
              [
                -121.82324400031695,
                47.51288999991036
              ],
              [
                -121.82308600013317,
                47.51293500027276
              ],
              [
                -121.82304500012529,
                47.512946999837055
              ],
              [
                -121.82304500012529,
                47.51281999980923
              ],
              [
                -121.82304400030037,
                47.51271600000663
              ],
              [
                -121.82304199975225,
                47.512604999954966
              ],
              [
                -121.82303699972937,
                47.512256000181566
              ],
              [
                -121.8229620002846,
                47.512256000181566
              ],
              [
                -121.82290700003303,
                47.512256000181566
              ],
              [
                -121.82233200009777,
                47.51225800003388
              ],
              [
                -121.82231700002914,
                47.51225800003388
              ],
              [
                -121.8214249999015,
                47.51225999988612
              ],
              [
                -121.82128000013654,
                47.512260999812185
              ],
              [
                -121.82119800012077,
                47.512260999812185
              ],
              [
                -121.8211730000064,
                47.512260999812185
              ],
              [
                -121.82008599988505,
                47.51226300027107
              ],
              [
                -121.81991400035594,
                47.51226500012312
              ],
              [
                -121.81988199967057,
                47.51226500012312
              ],
              [
                -121.8188089997929,
                47.51226799990108
              ],
              [
                -121.81828200043655,
                47.512268999827036
              ],
              [
                -121.81815500021494,
                47.51226999975294
              ],
              [
                -121.81812599990262,
                47.51226999975294
              ],
              [
                -121.81775699983167,
                47.512271000285615
              ],
              [
                -121.81687899994772,
                47.51227300013736
              ],
              [
                -121.81556099984769,
                47.51227699984062
              ],
              [
                -121.81551700036509,
                47.51227699984062
              ],
              [
                -121.81441000015225,
                47.51228000022465
              ],
              [
                -121.81433900000714,
                47.51228000022465
              ],
              [
                -121.81426000036441,
                47.51228000022465
              ],
              [
                -121.81414999986126,
                47.51228000022465
              ],
              [
                -121.81389100029347,
                47.512279000298896
              ],
              [
                -121.81379000001115,
                47.512139000193564
              ],
              [
                -121.81279099975333,
                47.51079600027811
              ],
              [
                -121.8126469998133,
                47.5106019997424
              ],
              [
                -121.81257800021632,
                47.510509999913225
              ],
              [
                -121.81227500026762,
                47.510519000154254
              ],
              [
                -121.81108100001616,
                47.508885000001186
              ],
              [
                -121.81027900030016,
                47.507751999853404
              ],
              [
                -121.80970000016696,
                47.506967999764385
              ],
              [
                -121.80965800033414,
                47.50690999999073
              ],
              [
                -121.8095429998081,
                47.506904999850306
              ],
              [
                -121.80935000036258,
                47.50689500017484
              ],
              [
                -121.80957399977027,
                47.507265000247905
              ],
              [
                -121.80946699964012,
                47.50751800016582
              ],
              [
                -121.80896399967487,
                47.50811099989778
              ],
              [
                -121.80834199988394,
                47.50787299995171
              ],
              [
                -121.80761799998575,
                47.50798799972639
              ],
              [
                -121.8072609996104,
                47.50810799988222
              ],
              [
                -121.80687399999609,
                47.50817900020427
              ],
              [
                -121.80605300001353,
                47.508448999945045
              ],
              [
                -121.805740999844,
                47.50840199998439
              ],
              [
                -121.80563700008695,
                47.508590000181314
              ],
              [
                -121.80568300011768,
                47.508702000223835
              ],
              [
                -121.8055790003606,
                47.50887800006787
              ],
              [
                -121.80538500019185,
                47.508967999746226
              ],
              [
                -121.80532599974232,
                47.509046000030374
              ],
              [
                -121.80523299985589,
                47.509168000164514
              ],
              [
                -121.80516400025891,
                47.5092589999357
              ],
              [
                -121.80563100023916,
                47.51005799991383
              ],
              [
                -121.8068599997524,
                47.51030799982809
              ],
              [
                -121.80771400024523,
                47.50995799997872
              ],
              [
                -121.808485999824,
                47.50989599998395
              ],
              [
                -121.81023999994213,
                47.51101500006184
              ],
              [
                -121.80971799971027,
                47.51114899984178
              ],
              [
                -121.80736799974049,
                47.51186000000965
              ],
              [
                -121.80718799981545,
                47.51191400004353
              ],
              [
                -121.80705200027134,
                47.511953999763165
              ],
              [
                -121.8069939996467,
                47.511955000301874
              ],
              [
                -121.80397099983237,
                47.51204099983689
              ],
              [
                -121.80381799967148,
                47.5120450001646
              ],
              [
                -121.80312499973545,
                47.5120649999783
              ],
              [
                -121.80289200010694,
                47.512071000163616
              ],
              [
                -121.80146900042493,
                47.51211099976358
              ],
              [
                -121.80089799978931,
                47.51212699983774
              ],
              [
                -121.80058200032013,
                47.51213599980147
              ],
              [
                -121.79858800000248,
                47.512192000013
              ],
              [
                -121.79845800030618,
                47.512195999722444
              ],
              [
                -121.7969689996036,
                47.51229000008765
              ],
              [
                -121.79622999963681,
                47.512334999751076
              ],
              [
                -121.79494199967401,
                47.5124149997316
              ],
              [
                -121.7942860004462,
                47.51245500028284
              ],
              [
                -121.79411200036895,
                47.51246699995689
              ],
              [
                -121.79262400038961,
                47.51044600004248
              ],
              [
                -121.79174399995749,
                47.51045800017589
              ],
              [
                -121.79025000013038,
                47.51049200003332
              ],
              [
                -121.78949199989701,
                47.51050500011574
              ],
              [
                -121.78938899996484,
                47.51050400015622
              ],
              [
                -121.78925699972037,
                47.51050200023706
              ],
              [
                -121.78932899969038,
                47.510614999797575
              ],
              [
                -121.7894070004065,
                47.51081999977533
              ],
              [
                -121.78950100011785,
                47.51085699986362
              ],
              [
                -121.78964199968483,
                47.511104999716316
              ],
              [
                -121.78971799985281,
                47.511388000044455
              ],
              [
                -121.78972299987568,
                47.51153100015304
              ],
              [
                -121.78974700016514,
                47.51158699979662
              ],
              [
                -121.78983300037885,
                47.511634999876975
              ],
              [
                -121.78996999974788,
                47.51164800028304
              ],
              [
                -121.7901120000381,
                47.511691999953264
              ],
              [
                -121.79016899993952,
                47.51192499990879
              ],
              [
                -121.79012100025895,
                47.51223000027415
              ],
              [
                -121.79006400035752,
                47.51245800004994
              ],
              [
                -121.78987900040961,
                47.51261499975609
              ],
              [
                -121.78960700042305,
                47.512686000048625
              ],
              [
                -121.78929699990333,
                47.51261700020143
              ],
              [
                -121.7891039995595,
                47.51252000005185
              ],
              [
                -121.78864199960213,
                47.51213300001597
              ],
              [
                -121.78849099998938,
                47.51195199989926
              ],
              [
                -121.78828799959982,
                47.51187700009372
              ],
              [
                -121.78794299981828,
                47.5119210001787
              ],
              [
                -121.7878020002513,
                47.51210500018961
              ],
              [
                -121.78778899983251,
                47.51242400025265
              ],
              [
                -121.78784200043428,
                47.51264399983587
              ],
              [
                -121.78796399973469,
                47.51288899999623
              ],
              [
                -121.7880399999027,
                47.51300399970184
              ],
              [
                -121.78818800004068,
                47.51333100022053
              ],
              [
                -121.78855000043893,
                47.51363499979541
              ],
              [
                -121.78877399984661,
                47.513711000020706
              ],
              [
                -121.78894600027405,
                47.51370500002285
              ],
              [
                -121.78908900038918,
                47.51381399977513
              ],
              [
                -121.78914999959025,
                47.51400899985806
              ],
              [
                -121.78914100026772,
                47.51414299988086
              ],
              [
                -121.78902400009187,
                47.514255000207854
              ],
              [
                -121.78813899963689,
                47.51438699983136
              ],
              [
                -121.78794299981828,
                47.51466599992859
              ],
              [
                -121.7880130001385,
                47.51497600011697
              ],
              [
                -121.78819399988846,
                47.51527999986971
              ],
              [
                -121.78825599981276,
                47.51540799987741
              ],
              [
                -121.7883789998364,
                47.51553399984543
              ],
              [
                -121.78859300009665,
                47.51572799974393
              ],
              [
                -121.78863599975433,
                47.51602700011567
              ],
              [
                -121.78863199955637,
                47.51633600030246
              ],
              [
                -121.78851799975357,
                47.516551000038255
              ],
              [
                -121.78831299971415,
                47.51664599972555
              ],
              [
                -121.78768699972527,
                47.51674600026434
              ],
              [
                -121.78710900031528,
                47.51782600024854
              ],
              [
                -121.78691900034448,
                47.51817599979947
              ],
              [
                -121.7864859998011,
                47.51854299979377
              ],
              [
                -121.7863939997396,
                47.51891600026373
              ],
              [
                -121.78619799992103,
                47.51889099981578
              ],
              [
                -121.78602700021678,
                47.51886699976285
              ],
              [
                -121.78545200028152,
                47.51853399971553
              ],
              [
                -121.78484200018617,
                47.51842400025209
              ],
              [
                -121.78444800000088,
                47.51847299995332
              ],
              [
                -121.78411099971699,
                47.51872700024639
              ],
              [
                -121.78403999957185,
                47.51904900009247
              ],
              [
                -121.7839450000356,
                47.51947900011003
              ],
              [
                -121.78402500040156,
                47.51977799973378
              ],
              [
                -121.78404600031796,
                47.51987100008291
              ],
              [
                -121.78400299976195,
                47.52026499970747
              ],
              [
                -121.78369899998832,
                47.52069200016921
              ],
              [
                -121.7836489997596,
                47.52079200027666
              ],
              [
                -121.78346999965946,
                47.521146000302075
              ],
              [
                -121.7832129997415,
                47.52195299983115
              ],
              [
                -121.78321799976439,
                47.522106999819236
              ],
              [
                -121.78322299978726,
                47.522249000100906
              ],
              [
                -121.78325200009958,
                47.52306900025837
              ],
              [
                -121.78326600034329,
                47.52314999997194
              ],
              [
                -121.78340600008538,
                47.52393199974603
              ],
              [
                -121.78349599959873,
                47.52430100012
              ],
              [
                -121.78356400026912,
                47.52458099996869
              ],
              [
                -121.78358199981247,
                47.524596999880266
              ],
              [
                -121.78367200022413,
                47.52467899995696
              ],
              [
                -121.78373599979824,
                47.52473599981639
              ],
              [
                -121.78412599978559,
                47.52488699985769
              ],
              [
                -121.78607200042262,
                47.52523000004781
              ],
              [
                -121.78677299985628,
                47.52547200004742
              ],
              [
                -121.78936999969827,
                47.5260659997799
              ],
              [
                -121.79080999999702,
                47.526242000228585
              ],
              [
                -121.79212999974688,
                47.52625399978276
              ],
              [
                -121.7931750000354,
                47.52612899974299
              ],
              [
                -121.79414099978295,
                47.52594499977337
              ],
              [
                -121.79460100009048,
                47.52581599971966
              ],
              [
                -121.79492499995558,
                47.525723000203605
              ],
              [
                -121.79579100014399,
                47.52536700016717
              ],
              [
                -121.79592099984032,
                47.525303999895456
              ],
              [
                -121.79756799982833,
                47.52472199993117
              ],
              [
                -121.79853699994888,
                47.52425199979564
              ],
              [
                -121.7991579999149,
                47.524166000254674
              ],
              [
                -121.79976399981231,
                47.52438399974787
              ],
              [
                -121.80041900011352,
                47.524888999835234
              ],
              [
                -121.80095700023884,
                47.52529900029433
              ],
              [
                -121.80129299979953,
                47.525446000015805
              ],
              [
                -121.80214800011727,
                47.5258779997098
              ],
              [
                -121.8032050001014,
                47.52628199994492
              ],
              [
                -121.80365100016522,
                47.52660999986516
              ],
              [
                -121.80393300019753,
                47.52685599997577
              ],
              [
                -121.80430599956811,
                47.52723600009329
              ],
              [
                -121.80472900006575,
                47.527826000135825
              ],
              [
                -121.80483199999792,
                47.52796999996112
              ],
              [
                -121.80522799983302,
                47.5285229998955
              ],
              [
                -121.80537000012325,
                47.52877299979156
              ],
              [
                -121.80537900034409,
                47.52879299990158
              ],
              [
                -121.80575799956243,
                47.52879200029055
              ],
              [
                -121.80597500019573,
                47.52879200029055
              ],
              [
                -121.80602600024937,
                47.52879200029055
              ],
              [
                -121.80612099978562,
                47.52879299990158
              ],
              [
                -121.80654599993304,
                47.52934999987207
              ],
              [
                -121.80663100032186,
                47.529461000287476
              ],
              [
                -121.80681399972164,
                47.52970000018228
              ],
              [
                -121.8069300000726,
                47.52985300027917
              ],
              [
                -121.80721700012778,
                47.530228000175036
              ],
              [
                -121.8073259999077,
                47.53040999991017
              ],
              [
                -121.8082180000354,
                47.531699999951854
              ],
              [
                -121.80845499986187,
                47.53204299986666
              ],
              [
                -121.80870900030507,
                47.53242300000869
              ],
              [
                -121.80896100020016,
                47.53277399996799
              ],
              [
                -121.80907300035315,
                47.53292300024606
              ],
              [
                -121.81072100016605,
                47.535111000017004
              ],
              [
                -121.810429000088,
                47.53510500004047
              ],
              [
                -121.81029199982065,
                47.53510700023491
              ],
              [
                -121.81023499991923,
                47.53510799972557
              ],
              [
                -121.8095689997474,
                47.53511200011413
              ],
              [
                -121.8094850000818,
                47.5351169999929
              ],
              [
                -121.80954799983097,
                47.53534900015028
              ],
              [
                -121.8097250002813,
                47.53593199993646
              ],
              [
                -121.8097400003499,
                47.535989000303154
              ],
              [
                -121.80990500020637,
                47.53662099998288
              ],
              [
                -121.81006400021504,
                47.53727800011674
              ],
              [
                -121.81008699978125,
                47.53755899987779
              ],
              [
                -121.81009400035225,
                47.53790499980898
              ],
              [
                -121.81007199971262,
                47.53808600015168
              ],
              [
                -121.81002599968187,
                47.53843000017633
              ],
              [
                -121.81000499976548,
                47.538488000286044
              ],
              [
                -121.80995999955964,
                47.538558000102974
              ],
              [
                -121.80988400028994,
                47.53863199994646
              ],
              [
                -121.8098309996882,
                47.53866999985825
              ],
              [
                -121.80961200030339,
                47.538768000205934
              ],
              [
                -121.80937600030185,
                47.53888400021987
              ],
              [
                -121.80921300009521,
                47.53897500000408
              ],
              [
                -121.8091620000416,
                47.539033000117364
              ],
              [
                -121.80912000020881,
                47.53909500025113
              ],
              [
                -121.80908199967567,
                47.53918799970788
              ],
              [
                -121.8090699999801,
                47.5392450001737
              ],
              [
                -121.80906800033026,
                47.5393029999883
              ],
              [
                -121.80907400017804,
                47.539360999738705
              ],
              [
                -121.80908900024667,
                47.53941800001644
              ],
              [
                -121.81002200038222,
                47.541193000176456
              ],
              [
                -121.81014600023077,
                47.541445000268865
              ],
              [
                -121.81024199959194,
                47.541702000219985
              ],
              [
                -121.81031500028519,
                47.54198899971699
              ],
              [
                -121.81033200000363,
                47.542094000279256
              ],
              [
                -121.81037600038455,
                47.54316499982318
              ],
              [
                -121.81037600038455,
                47.54329299971135
              ],
              [
                -121.81051500030172,
                47.54329099982918
              ],
              [
                -121.81146400033082,
                47.54327899992828
              ],
              [
                -121.8117599997085,
                47.54327500016286
              ],
              [
                -121.81212299993166,
                47.5432699998492
              ],
              [
                -121.81217800018324,
                47.5432699998492
              ],
              [
                -121.81225699982596,
                47.54326899990771
              ],
              [
                -121.81233299999396,
                47.543267999966204
              ],
              [
                -121.81249700002547,
                47.543265000141524
              ],
              [
                -121.81265799968396,
                47.543263000258285
              ],
              [
                -121.8129420002644,
                47.543260999768584
              ],
              [
                -121.81302900030303,
                47.54325999982692
              ],
              [
                -121.81332399985583,
                47.54325799994349
              ],
              [
                -121.81355300018468,
                47.54325600006004
              ],
              [
                -121.81374999982818,
                47.54325500011824
              ],
              [
                -121.81399800042361,
                47.54325300023467
              ],
              [
                -121.81409299995985,
                47.54325200029282
              ],
              [
                -121.81427799990776,
                47.54325099974458
              ],
              [
                -121.81450899988644,
                47.543248999860815
              ],
              [
                -121.8147730003754,
                47.54324699997702
              ],
              [
                -121.81490600044481,
                47.54324600003504
              ],
              [
                -121.81504600018687,
                47.543245000093094
              ],
              [
                -121.81520199982249,
                47.54324400015113
              ],
              [
                -121.8152729999676,
                47.54324300020911
              ],
              [
                -121.81541199988476,
                47.5432420002671
              ],
              [
                -121.81556500004565,
                47.54324099971867
              ],
              [
                -121.8156510002594,
                47.54323999977663
              ],
              [
                -121.8157790003059,
                47.54323999977663
              ],
              [
                -121.81590499980427,
                47.54323899983452
              ],
              [
                -121.81597099992652,
                47.54323799989245
              ],
              [
                -121.81605200011737,
                47.543236999950345
              ],
              [
                -121.81616599992019,
                47.543236999950345
              ],
              [
                -121.8162930001418,
                47.543236000008186
              ],
              [
                -121.8163719997845,
                47.54323500006605
              ],
              [
                -121.81641699999037,
                47.54323500006605
              ],
              [
                -121.816611999984,
                47.543233000181665
              ],
              [
                -121.81671999993904,
                47.54323200023947
              ],
              [
                -121.81678900043434,
                47.54323200023947
              ],
              [
                -121.81686100040437,
                47.54323100029721
              ],
              [
                -121.81691800030578,
                47.54323100029721
              ],
              [
                -121.81697299965904,
                47.54322999974858
              ],
              [
                -121.81704600035228,
                47.54322999974858
              ],
              [
                -121.8171109997513,
                47.54322899980633
              ],
              [
                -121.81716299962984,
                47.54322899980633
              ],
              [
                -121.81724499964561,
                47.54322799986406
              ],
              [
                -121.81731400014088,
                47.54322799986406
              ],
              [
                -121.81736500019451,
                47.54322799986406
              ],
              [
                -121.81746599957854,
                47.54322699992173
              ],
              [
                -121.81767900001388,
                47.54322599997942
              ],
              [
                -121.81785200026623,
                47.54322400009469
              ],
              [
                -121.81793699975674,
                47.54322300015233
              ],
              [
                -121.81816899956031,
                47.54322100026749
              ],
              [
                -121.81826499981979,
                47.54322100026749
              ],
              [
                -121.81833900033796,
                47.54321999971867
              ],
              [
                -121.81845099959264,
                47.54321899977623
              ],
              [
                -121.81854900040022,
                47.54321899977623
              ],
              [
                -121.81862200019518,
                47.543217999833715
              ],
              [
                -121.81871400025669,
                47.54321699989124
              ],
              [
                -121.81877700000588,
                47.54321699989124
              ],
              [
                -121.818884000136,
                47.54321599994874
              ],
              [
                -121.81896799980157,
                47.54321500000617
              ],
              [
                -121.81903599957366,
                47.54321500000617
              ],
              [
                -121.81910400024401,
                47.543214000063635
              ],
              [
                -121.81913299965801,
                47.543214000063635
              ],
              [
                -121.8191999996052,
                47.543214000063635
              ],
              [
                -121.81926599972742,
                47.54321300012108
              ],
              [
                -121.8193279996517,
                47.54321300012108
              ],
              [
                -121.81938700010124,
                47.54321200017846
              ],
              [
                -121.81945099967535,
                47.54321200017846
              ],
              [
                -121.81948599983544,
                47.543211000235864
              ],
              [
                -121.81952900039146,
                47.543211000235864
              ],
              [
                -121.81959399979047,
                47.543211000235864
              ],
              [
                -121.81965300024002,
                47.54321000029325
              ],
              [
                -121.81969000004995,
                47.54321000029325
              ],
              [
                -121.81974000027866,
                47.54321000029325
              ],
              [
                -121.8197989998299,
                47.54320899974421
              ],
              [
                -121.81984700040877,
                47.54320899974421
              ],
              [
                -121.8199040003102,
                47.54320799980152
              ],
              [
                -121.81997499955699,
                47.54320799980152
              ],
              [
                -121.82002999980858,
                47.543206999858846
              ],
              [
                -121.82010500015163,
                47.543206999858846
              ],
              [
                -121.82017499957354,
                47.54320599991612
              ],
              [
                -121.82022099960427,
                47.54320599991612
              ],
              [
                -121.8203059999931,
                47.5432049999734
              ],
              [
                -121.82041399994813,
                47.54320400003067
              ],
              [
                -121.82049299959084,
                47.54320400003067
              ],
              [
                -121.82058800002541,
                47.54320300008788
              ],
              [
                -121.82062400001041,
                47.54320300008788
              ],
              [
                -121.82068099991183,
                47.543202000145115
              ],
              [
                -121.82078600039213,
                47.543202000145115
              ],
              [
                -121.82083900009556,
                47.54320100020232
              ],
              [
                -121.82089599999698,
                47.54320100020232
              ],
              [
                -121.8209970002793,
                47.543200000259475
              ],
              [
                -121.82104400013496,
                47.543200000259475
              ],
              [
                -121.82109000016574,
                47.543198999710256
              ],
              [
                -121.82117600037948,
                47.543198999710256
              ],
              [
                -121.82121900003716,
                47.54319799976741
              ],
              [
                -121.8212779995884,
                47.54319799976741
              ],
              [
                -121.82133299983998,
                47.54319699982455
              ],
              [
                -121.82138899991646,
                47.54319699982455
              ],
              [
                -121.82142200042675,
                47.54319699982455
              ],
              [
                -121.82148000015307,
                47.54319599988162
              ],
              [
                -121.82154200007734,
                47.54319599988162
              ],
              [
                -121.82161099967432,
                47.54319499993872
              ],
              [
                -121.82165000003238,
                47.54319499993872
              ],
              [
                -121.82171399960649,
                47.54319499993872
              ],
              [
                -121.82177399988095,
                47.5431939999958
              ],
              [
                -121.8218330003305,
                47.5431939999958
              ],
              [
                -121.82186599994245,
                47.54319300005282
              ],
              [
                -121.82193999956229,
                47.54319300005282
              ],
              [
                -121.82203699964667,
                47.54319200010986
              ],
              [
                -121.822065999959,
                47.54319200010986
              ],
              [
                -121.82211899966244,
                47.543191000166836
              ],
              [
                -121.8221940000055,
                47.543191000166836
              ],
              [
                -121.82225000008201,
                47.54319000022384
              ],
              [
                -121.82227600002126,
                47.54319000022384
              ],
              [
                -121.82233200009777,
                47.54319000022384
              ],
              [
                -121.82235499966401,
                47.54319000022384
              ],
              [
                -121.82328000030192,
                47.5431869997883
              ],
              [
                -121.82491899989401,
                47.54319799976741
              ],
              [
                -121.82490200017558,
                47.543363999722985
              ],
              [
                -121.82491100039641,
                47.54434100022938
              ],
              [
                -121.82491600041928,
                47.54493899994519
              ],
              [
                -121.82491800006909,
                47.54507799993731
              ],
              [
                -121.82492999976466,
                47.54651699978055
              ],
              [
                -121.8249309995896,
                47.54665199971857
              ],
              [
                -121.82493300013772,
                47.54681400015536
              ],
              [
                -121.82493800016059,
                47.54738799981407
              ],
              [
                -121.82493899998549,
                47.5474740000835
              ],
              [
                -121.82501599997842,
                47.54749900024814
              ],
              [
                -121.8268250003481,
                47.54809699971098
              ],
              [
                -121.82705200012883,
                47.548175999882176
              ],
              [
                -121.8272760004348,
                47.54825800007976
              ],
              [
                -121.82749800019265,
                47.54834300028962
              ],
              [
                -121.82777100000412,
                47.54845300007127
              ],
              [
                -121.82804100034085,
                47.54856800003713
              ],
              [
                -121.82820000034951,
                47.548639000180074
              ],
              [
                -121.82835799963497,
                47.54871299973989
              ],
              [
                -121.82841299988652,
                47.548663999789035
              ],
              [
                -121.82860399968226,
                47.548753999737826
              ],
              [
                -121.82863700019251,
                47.548710000226805
              ],
              [
                -121.82869900011681,
                47.548613999952856
              ],
              [
                -121.82876400041414,
                47.54847799976895
              ],
              [
                -121.82878699998035,
                47.54840200019017
              ],
              [
                -121.82880899972166,
                47.54828799970591
              ],
              [
                -121.82881499956946,
                47.54818499972528
              ],
              [
                -121.82880899972166,
                47.54808700000318
              ],
              [
                -121.82871599983524,
                47.54744999976869
              ],
              [
                -121.82862999962151,
                47.54693999987946
              ],
              [
                -121.82861600027614,
                47.546854999819736
              ],
              [
                -121.82896100005762,
                47.546848000101114
              ],
              [
                -121.82918799983835,
                47.54684999984757
              ],
              [
                -121.83061300006851,
                47.546863999889624
              ],
              [
                -121.83307099999331,
                47.546888999738904
              ],
              [
                -121.83363599988283,
                47.5468900002177
              ],
              [
                -121.83465699988193,
                47.546901999898346
              ],
              [
                -121.83515800019734,
                47.54690400024906
              ],
              [
                -121.8360760002643,
                47.546910000088126
              ],
              [
                -121.83679900033756,
                47.54691099996016
              ],
              [
                -121.83716300038562,
                47.546910000088126
              ],
              [
                -121.83881200002345,
                47.54692099989233
              ],
              [
                -121.83945800010383,
                47.54692400011415
              ],
              [
                -121.83963999967871,
                47.54692400011415
              ],
              [
                -121.8397800003191,
                47.54692400011415
              ],
              [
                -121.83994799965026,
                47.54692499998592
              ],
              [
                -121.84020299991842,
                47.546925999857706
              ],
              [
                -121.84209900032674,
                47.546934999915415
              ],
              [
                -121.84246099982668,
                47.54693999987946
              ],
              [
                -121.84287799957819,
                47.54692699972944
              ],
              [
                -121.8430049997998,
                47.54692499998592
              ],
              [
                -121.8430409997848,
                47.54692499998592
              ],
              [
                -121.84344400019094,
                47.54791500012219
              ],
              [
                -121.84354899977292,
                47.54817500003427
              ],
              [
                -121.84359800017671,
                47.54829499983854
              ],
              [
                -121.8437439997666,
                47.54811599987818
              ],
              [
                -121.84383199963015,
                47.54807300028779
              ],
              [
                -121.84401999995114,
                47.547981000072745
              ],
              [
                -121.84404199969244,
                47.54712199982204
              ],
              [
                -121.84404800043853,
                47.546949999806095
              ],
              [
                -121.84408100005051,
                47.54600400024074
              ],
              [
                -121.84412299988331,
                47.54484499986379
              ],
              [
                -121.84413999960172,
                47.54436899983087
              ],
              [
                -121.84414700017273,
                47.544149999798414
              ],
              [
                -121.84417599958674,
                47.5433470001389
              ],
              [
                -121.84417999978469,
                47.54322999974858
              ],
              [
                -121.84421099974684,
                47.54149500027314
              ],
              [
                -121.84421199957174,
                47.54142300017909
              ],
              [
                -121.84424300043219,
                47.539627999707015
              ],
              [
                -121.8442440002571,
                47.539566000203536
              ],
              [
                -121.84425599995268,
                47.539071999760125
              ],
              [
                -121.84559699961892,
                47.539059000084556
              ],
              [
                -121.84564299964968,
                47.539060000106346
              ],
              [
                -121.84586100010787,
                47.53905600001903
              ],
              [
                -121.8461659997064,
                47.539057000040884
              ],
              [
                -121.84864200007287,
                47.53903000005034
              ],
              [
                -121.84884600028737,
                47.53902800000555
              ],
              [
                -121.8506229999717,
                47.53903000005034
              ],
              [
                -121.85055000017678,
                47.54106799996276
              ],
              [
                -121.85048700042759,
                47.54279599996928
              ],
              [
                -121.85047099963575,
                47.54323999977663
              ],
              [
                -121.85056100004743,
                47.54337199984636
              ],
              [
                -121.85081799996537,
                47.54337199984636
              ],
              [
                -121.85111000004342,
                47.54337299978592
              ],
              [
                -121.85484099986243,
                47.54338700015024
              ],
              [
                -121.85733499977225,
                47.54344999992433
              ],
              [
                -121.8573029999852,
                47.543525000076386
              ],
              [
                -121.8573799999781,
                47.54363600020155
              ],
              [
                -121.85752100044341,
                47.54368300013454
              ],
              [
                -121.85764299974382,
                47.54369400000959
              ],
              [
                -121.85777400016337,
                47.54373999995803
              ],
              [
                -121.85785700000407,
                47.54386800026135
              ],
              [
                -121.85789600036213,
                47.543974000020135
              ],
              [
                -121.85801799966255,
                47.54401300023215
              ],
              [
                -121.85811800011999,
                47.544047000175624
              ],
              [
                -121.85828299997642,
                47.54409199988852
              ],
              [
                -121.85850499973428,
                47.54403599976826
              ],
              [
                -121.85867200013884,
                47.5439609997409
              ],
              [
                -121.858775000071,
                47.54393399985034
              ],
              [
                -121.85883000032258,
                47.54389600011549
              ],
              [
                -121.85897400026262,
                47.54391899970298
              ],
              [
                -121.8591740002792,
                47.54393900010061
              ],
              [
                -121.85923100018059,
                47.54395099985043
              ],
              [
                -121.85956400026652,
                47.54402300011079
              ],
              [
                -121.8600079997822,
                47.54421399979176
              ],
              [
                -121.86020600014892,
                47.544359999938976
              ],
              [
                -121.86037699985314,
                47.54446799975297
              ],
              [
                -121.86050099970171,
                47.54461000013554
              ],
              [
                -121.86068399999984,
                47.54474500013397
              ],
              [
                -121.86085600042726,
                47.544831999800564
              ],
              [
                -121.86104499967486,
                47.54493399979031
              ],
              [
                -121.86123899984361,
                47.54499899994774
              ],
              [
                -121.86134000012594,
                47.54501600020883
              ],
              [
                -121.86139500037751,
                47.54502599989614
              ],
              [
                -121.86140299987514,
                47.54497899995454
              ],
              [
                -121.86151599985303,
                47.545000999764746
              ],
              [
                -121.86150199960933,
                47.54507199988854
              ],
              [
                -121.8617250000904,
                47.545176999733116
              ],
              [
                -121.86190400019055,
                47.54531999991654
              ],
              [
                -121.86262999973854,
                47.545627999872885
              ],
              [
                -121.8629639996494,
                47.54578800004947
              ],
              [
                -121.86319899982607,
                47.545965000297315
              ],
              [
                -121.86381499976919,
                47.54576900025112
              ],
              [
                -121.86378399980705,
                47.54547600022297
              ],
              [
                -121.86362599962331,
                47.54535000001151
              ],
              [
                -121.86322899996328,
                47.54524300009945
              ],
              [
                -121.86319600035131,
                47.54526599970228
              ],
              [
                -121.8631879999554,
                47.545089000125955
              ],
              [
                -121.86299600033476,
                47.545081000264624
              ],
              [
                -121.86285900006743,
                47.54494500000918
              ],
              [
                -121.86293199986237,
                47.54482399989996
              ],
              [
                -121.86273900041682,
                47.54467199973779
              ],
              [
                -121.86267800031744,
                47.54452800029463
              ],
              [
                -121.86278100024961,
                47.54443500000183
              ],
              [
                -121.86304900003822,
                47.54443900028518
              ],
              [
                -121.8632930004357,
                47.54454500010208
              ],
              [
                -121.86353000026217,
                47.54441999999787
              ],
              [
                -121.86377399976129,
                47.544447000244496
              ],
              [
                -121.86400499973999,
                47.54465499997151
              ],
              [
                -121.86398299999868,
                47.54476099995802
              ],
              [
                -121.86405400014378,
                47.54479099976658
              ],
              [
                -121.86415000040327,
                47.54470699977429
              ],
              [
                -121.86437499963584,
                47.54478700011648
              ],
              [
                -121.86460800016266,
                47.54475499987298
              ],
              [
                -121.86470400042212,
                47.544603000117114
              ],
              [
                -121.86462999990398,
                47.544366999989805
              ],
              [
                -121.86451899957588,
                47.54412699970593
              ],
              [
                -121.86449099998678,
                47.543869000191464
              ],
              [
                -121.86452399959875,
                47.543773000146686
              ],
              [
                -121.86451000025338,
                47.54365500016664
              ],
              [
                -121.8645129997281,
                47.543632999791534
              ],
              [
                -121.8653859995892,
                47.54365500016664
              ],
              [
                -121.86548000019884,
                47.543657999969
              ],
              [
                -121.86546799960497,
                47.54710399976928
              ],
              [
                -121.86546799960497,
                47.54712199982204
              ],
              [
                -121.86557499973509,
                47.54712199982204
              ],
              [
                -121.86637099960329,
                47.547123000296395
              ],
              [
                -121.8763899997986,
                47.54721000026059
              ],
              [
                -121.876671000006,
                47.54721900026958
              ],
              [
                -121.87673299993027,
                47.547212999859525
              ],
              [
                -121.87796999983946,
                47.5472240002065
              ],
              [
                -121.87831200014622,
                47.54722599993861
              ],
              [
                -121.879852999829,
                47.54723900001448
              ],
              [
                -121.88108399989036,
                47.54724999974963
              ],
              [
                -121.8819299999873,
                47.54725799988634
              ],
              [
                -121.88410599987981,
                47.547275999886224
              ],
              [
                -121.88569299959333,
                47.547288999949686
              ],
              [
                -121.88678200026281,
                47.5473010001453
              ],
              [
                -121.88695999963974,
                47.54730299987448
              ],
              [
                -121.88736499969569,
                47.54730500020994
              ],
              [
                -121.88730799979427,
                47.543738000092965
              ],
              [
                -121.89367900001129,
                47.54363099992234
              ]
            ]
          ],
          [
            [
              [
                -121.82512499975834,
                47.50746099980385
              ],
              [
                -121.82450999964011,
                47.50689800025974
              ],
              [
                -121.82445100008887,
                47.50689800025974
              ],
              [
                -121.82316499977591,
                47.50689700023144
              ],
              [
                -121.8231380000117,
                47.50689700023144
              ],
              [
                -121.82310799987448,
                47.50689700023144
              ],
              [
                -121.82310799987448,
                47.506922999746756
              ],
              [
                -121.82310700004956,
                47.5072449998186
              ],
              [
                -121.82310700004956,
                47.50741300015365
              ],
              [
                -121.82310700004956,
                47.50763900019675
              ],
              [
                -121.82310600022467,
                47.507908000279166
              ],
              [
                -121.82310600022467,
                47.508045000122856
              ],
              [
                -121.82310600022467,
                47.5080959998183
              ],
              [
                -121.82310600022467,
                47.50812099994839
              ],
              [
                -121.82310600022467,
                47.508136000020684
              ],
              [
                -121.82310500039975,
                47.508715000142885
              ],
              [
                -121.82310500039975,
                47.50875999983773
              ],
              [
                -121.82310299985161,
                47.509303999770935
              ],
              [
                -121.82310299985161,
                47.509399999816296
              ],
              [
                -121.82310299985161,
                47.50986700020595
              ],
              [
                -121.82312799996596,
                47.509838999777344
              ],
              [
                -121.82328100012684,
                47.50965600029243
              ],
              [
                -121.82331999958657,
                47.50960900019903
              ],
              [
                -121.82442099995163,
                47.50829899992342
              ],
              [
                -121.82512499975834,
                47.50746099980385
              ]
            ]
          ],
          [
            [
              [
                -121.84470000036669,
                47.507140999890794
              ],
              [
                -121.84470399966632,
                47.50698899971892
              ],
              [
                -121.84399900003471,
                47.50698600024605
              ],
              [
                -121.84174000030156,
                47.50696699973743
              ],
              [
                -121.83304599987895,
                47.5069059998784
              ],
              [
                -121.82920700010493,
                47.5068829998336
              ],
              [
                -121.82960299994004,
                47.507006000167216
              ],
              [
                -121.82970000002445,
                47.50703699975688
              ],
              [
                -121.83030300044712,
                47.50721000026268
              ],
              [
                -121.8311980000495,
                47.507467999926156
              ],
              [
                -121.83139399986808,
                47.50763800018261
              ],
              [
                -121.83142200035549,
                47.50766199991032
              ],
              [
                -121.83159499970952,
                47.50781299994283
              ],
              [
                -121.83218899991138,
                47.50832799996105
              ],
              [
                -121.83219499975917,
                47.508406999982206
              ],
              [
                -121.8322190000486,
                47.50872800005867
              ],
              [
                -121.83223800031517,
                47.508978000240354
              ],
              [
                -121.83230100006436,
                47.50981599980419
              ],
              [
                -121.83231100011012,
                47.5099510001885
              ],
              [
                -121.83235600031595,
                47.51054199981933
              ],
              [
                -121.83236399981355,
                47.510647000246436
              ],
              [
                -121.83237200020947,
                47.51076000010153
              ],
              [
                -121.83386699986151,
                47.51073400005975
              ],
              [
                -121.83384599994511,
                47.512071000163616
              ],
              [
                -121.83398900006023,
                47.512168999857494
              ],
              [
                -121.83410000038832,
                47.512242999926116
              ],
              [
                -121.83421400019114,
                47.51231699989033
              ],
              [
                -121.83432999964377,
                47.51238799997934
              ],
              [
                -121.83444699981965,
                47.51245899997223
              ],
              [
                -121.83456599964532,
                47.51252800002717
              ],
              [
                -121.83468899966898,
                47.512596000071674
              ],
              [
                -121.83470499956252,
                47.512604999954966
              ],
              [
                -121.83477099968475,
                47.51264100007946
              ],
              [
                -121.83481099986771,
                47.51266200019122
              ],
              [
                -121.83493399989138,
                47.51272699970379
              ],
              [
                -121.83506000028807,
                47.51278999991069
              ],
              [
                -121.83518800033458,
                47.51285200012707
              ],
              [
                -121.835317000206,
                47.51291199983618
              ],
              [
                -121.83544799972725,
                47.51297000025829
              ],
              [
                -121.83557999997174,
                47.5130280000096
              ],
              [
                -121.83571399986606,
                47.513082999965555
              ],
              [
                -121.83584899958525,
                47.51313699995456
              ],
              [
                -121.83598500002769,
                47.51318999997956
              ],
              [
                -121.83612300011995,
                47.513240000228855
              ],
              [
                -121.83626200003712,
                47.5132889999173
              ],
              [
                -121.83640299960413,
                47.51333700026111
              ],
              [
                -121.83656499998581,
                47.51339000008415
              ],
              [
                -121.83715199961667,
                47.513478000107106
              ],
              [
                -121.83721799973891,
                47.513487999741876
              ],
              [
                -121.83845700019621,
                47.51367300022517
              ],
              [
                -121.83876099996984,
                47.51372300001427
              ],
              [
                -121.839196000163,
                47.51379499991811
              ],
              [
                -121.83919799981284,
                47.51350400000292
              ],
              [
                -121.83920200001079,
                47.51273999983935
              ],
              [
                -121.8392170000794,
                47.51063899998433
              ],
              [
                -121.83921799990432,
                47.51052699982787
              ],
              [
                -121.8437350004441,
                47.51049299999312
              ],
              [
                -121.84410199996688,
                47.51049000011371
              ],
              [
                -121.84460999995503,
                47.51048099986771
              ],
              [
                -121.84464599994,
                47.50911599970435
              ],
              [
                -121.84465500016084,
                47.50871700013013
              ],
              [
                -121.84465900035882,
                47.50858700019313
              ],
              [
                -121.84470000036669,
                47.507140999890794
              ]
            ]
          ]
        ]
      },
      "properties": {
        "AREALAND": "18611633",
        "AREAWATER": "609888",
        "BASENAME": "Snoqualmie",
        "CBSAPCI": "N",
        "CENTLAT": "+47.5292390",
        "CENTLON": "-121.8410205",
        "FUNCSTAT": "A",
        "GEOID": "5365205",
        "INTPTLAT": "+47.5432449",
        "INTPTLON": "-121.8686448",
        "LSADC": "25",
        "MTFCC": "G4110",
        "NAME": "Snoqualmie city",
        "NECTAPCI": "N",
        "OBJECTID": 26931,
        "OID": "27890836057948",
        "PLACE": "65205",
        "PLACECC": "C1",
        "PLACENS": "02411915",
        "STATE": "53",
        "DISP_CLR": 2,
        "slug": "snoqualmie",
        "jurisdiction_key": "snoqualmie_city",
        "county_fips": [
          "53033"
        ]
      }
    }
  ]
}
