{"type":"FeatureCollection","features":[{"type":"Feature","geometry":{"type":"Polygon","coordinates":[[[-123.82767099966755,46.68335199997781],[-123.82762100033715,46.6833020000361],[-123.82747200037421,46.68315199993334],[-123.82742299997042,46.683103000019074],[-123.82678399956275,46.68246199988948],[-123.82577000013465,46.68144600025],[-123.82489300007559,46.680516000269925],[-123.82429499967577,46.67988199970234],[-123.8242729999345,46.67985900021753],[-123.82416300032963,46.67974499983968],[-123.82383400044166,46.67940400000927],[-123.8237249997634,46.67929100018719],[-123.82354099964039,46.679101000302644],[-123.82298900016963,46.67853099972184],[-123.82280599987153,46.67834100024648],[-123.82263500016731,46.67816300005397],[-123.82479000014342,46.67817100001981],[-123.82479699981613,46.67786800017844],[-123.82479900036427,46.67780099974414],[-123.82489100042577,46.67414899971069],[-123.82489399990051,46.674035999993734],[-123.82201900022416,46.67414299990622],[-123.81984300033166,46.67410000026066],[-123.81984199960846,46.66985099971982],[-123.81987199974567,46.668985000056566],[-123.81987799959346,46.668283000035785],[-123.81987799959346,46.66819100016697],[-123.81987799959346,46.66766600002991],[-123.81987900031669,46.666869000185535],[-123.82216700036217,46.66689200026758],[-123.82220900019497,46.66326899991567],[-123.8206559999183,46.66326200017308],[-123.81981800021732,46.663264000099616],[-123.81897600031834,46.66325900028314],[-123.81811099995485,46.66325299988623],[-123.81749099981376,46.6632499999958],[-123.81739299990446,46.66303699995035],[-123.81733400035321,46.66301600001329],[-123.8169889996734,46.66289500007032],[-123.8169729997799,46.6621659997069],[-123.81538799971618,46.662154999886624],[-123.81539299973905,46.662432000228385],[-123.81543100027221,46.662689000293405],[-123.8155099999149,46.662829000155426],[-123.81556900036446,46.66288599972238],[-123.8156580000529,46.66296199987352],[-123.81599699998662,46.66327099984191],[-123.81589999990224,46.66327099984191],[-123.81460500026675,46.66328100008873],[-123.81460699991659,46.66324200028711],[-123.81460899956639,46.66321500002856],[-123.8146849997344,46.66188399990817],[-123.81467399986373,46.66181300004186],[-123.81457599995446,46.66135600017314],[-123.81457799960425,46.661296000227274],[-123.81456099988583,46.65969799997871],[-123.81448100041823,46.65969699994947],[-123.80941700043056,46.6596559999687],[-123.80698899974468,46.65964200016363],[-123.80358599998877,46.6596230002022],[-123.80268600036347,46.659618000048965],[-123.80265700005114,46.659618000048965],[-123.79896100039227,46.65959599998588],[-123.79835200012181,46.659592999892524],[-123.79831000028902,46.659592999892524],[-123.79819200028824,46.65959399992369],[-123.79819099956501,46.65960899977203],[-123.79818999974012,46.65963599998182],[-123.79818399989232,46.65973000028735],[-123.79805500002087,46.65971199976928],[-123.7978180001944,46.6597050001827],[-123.79762700039873,46.65970100006623],[-123.7975910004137,46.65970300012451],[-123.7975910004137,46.65967900003692],[-123.7975920002386,46.65961900007967],[-123.79760099956113,46.65888699980219],[-123.79644200036806,46.65888000010886],[-123.79643300014725,46.6596650002378],[-123.79635699997927,46.659664000208004],[-123.79255900021315,46.65963299989069],[-123.79126700005237,46.65963099982983],[-123.79071499968333,46.65955199983289],[-123.79068299989628,46.65956500024614],[-123.79060500007847,46.65956899975611],[-123.7904939997504,46.65957599997686],[-123.79020800041842,46.65960000011012],[-123.78962099988928,46.659606999710284],[-123.7894230004209,46.65960200017212],[-123.78932899981123,46.65962400023277],[-123.7881089996205,46.65961900007967],[-123.7880659999628,46.659618000048965],[-123.78267800011008,46.65958899976777],[-123.78134499994144,46.659604000234054],[-123.78126299992567,46.65986699971854],[-123.78103100012207,46.66021999975851],[-123.78066700007402,46.660471999783134],[-123.78039099988949,46.660631000067745],[-123.78019900026888,46.66089400010546],[-123.779637999679,46.66117300013004],[-123.77899599979655,46.661280000230455],[-123.77870600026667,46.66132900020574],[-123.77864500016729,46.661399000093354],[-123.77831899975403,46.661727000209204],[-123.77819599973039,46.66192300007289],[-123.77819200043076,46.66220199971962],[-123.77839599974696,46.662457000305146],[-123.77842800043233,46.66249600005658],[-123.77874800009945,46.66265100003931],[-123.77885199985654,46.6628199997965],[-123.7789070001081,46.663047000240404],[-123.7786529996649,46.663140000198666],[-123.77861400020515,46.6631440000607],[-123.77835399991416,46.6631699997732],[-123.77834999971618,46.66332800017587],[-123.77519200018264,46.66340500028279],[-123.77472900040034,46.66341699980919],[-123.7715130002422,46.66350300003609],[-123.7697259996138,46.66348400019845],[-123.76958199967373,46.66348200028005],[-123.76728600013065,46.66345700006075],[-123.76737999984196,46.66682299999208],[-123.7673890000628,46.667121999933435],[-123.77141799980764,46.66704600008245],[-123.77163600026583,46.66704199989265],[-123.77372299957156,46.66700400023249],[-123.77370199965517,46.66661099974703],[-123.77367999991385,46.6661770001357],[-123.77462800011803,46.66616200026011],[-123.77478799995158,46.66615899991463],[-123.77477299988298,46.665699000040014],[-123.77586800040025,46.66567699998544],[-123.77589000014156,46.666299999944705],[-123.77798800021624,46.66626099985511],[-123.77803599989686,46.66702999993798],[-123.77819200043076,46.66957900025534],[-123.77819200043076,46.67084499999118],[-123.77819200043076,46.67115600014962],[-123.77828899961682,46.671156999966854],[-123.77843599992991,46.67115799978412],[-123.77923099997321,46.671166000170594],[-123.78081299966387,46.67118199970721],[-123.78110399991702,46.67118399995712],[-123.78131800017725,46.67125099996605],[-123.78151399999584,46.67132499982419],[-123.78154400013308,46.671316000263346],[-123.78165799993587,46.67129600027504],[-123.781941999618,46.67128199978568],[-123.7826379999271,46.67129199978334],[-123.78315599996097,46.67127799990936],[-123.78315599996097,46.67120799986866],[-123.78315500013603,46.67087900012734],[-123.78315500013603,46.67080300001099],[-123.78315500013603,46.670771000092266],[-123.78487599974387,46.67078800018629],[-123.78501899985902,46.670791000274846],[-123.78502300005697,46.67089000002175],[-123.78502300005697,46.67090099991396],[-123.78502300005697,46.67092000022683],[-123.78501999968394,46.6710410000835],[-123.78497299982826,46.67118399995712],[-123.78494400041427,46.67124700008744],[-123.78490000003333,46.67130499983918],[-123.78538399973199,46.67132899969699],[-123.7859960003755,46.671340000116274],[-123.7860800000411,46.671347000045685],[-123.78622599963097,46.67134799985939],[-123.78623499985179,46.67092700021064],[-123.78623700039992,46.67084299972868],[-123.78624200042279,46.67063399993704],[-123.7866719996948,46.67063900030426],[-123.78701300017666,46.670654999996835],[-123.78747400030909,46.67071899995273],[-123.78755799997468,46.67073099970487],[-123.78810199994783,46.67080699992246],[-123.79045399956742,46.67111200015856],[-123.7910300002259,46.67119199972337],[-123.79329900000481,46.673125000217915],[-123.79340399958681,46.67330900026139],[-123.79356699979343,46.6735949999563],[-123.79369499983997,46.673766000171575],[-123.79406700028395,46.67426000028808],[-123.79418000026185,46.674376999800245],[-123.79447300016481,46.67468200022991],[-123.79532299956138,46.67516800019303],[-123.7963109999485,46.67529599981884],[-123.7975429998348,46.67530999988476],[-123.79788299959343,46.675368000207094],[-123.7979150002788,46.67537399987555],[-123.79843900016041,46.67561700006541],[-123.79896999971477,46.6760970000448],[-123.79895999966904,46.675304000209145],[-123.79895899984412,46.675212999705984],[-123.79890299976763,46.67036999998586],[-123.8045400000407,46.670248000025765],[-123.80671400028336,46.6702009997908],[-123.80979099962609,46.67013500016568],[-123.81093800002186,46.670112000230674],[-123.81135499977341,46.670104000304605],[-123.81251399986476,46.67007100013468],[-123.81252200026069,46.67008099974002],[-123.81276999995778,46.67040299997323],[-123.81306000038602,46.67077700027109],[-123.81354900010757,46.671271999786164],[-123.81373599970533,46.67146100026549],[-123.81379099995691,46.671531999788805],[-123.81815399961256,46.67644100018091],[-123.81822899995565,46.67697400028246],[-123.8183389995605,46.677753000219006],[-123.81875000036253,46.67898999980789],[-123.81922700038851,46.68076900023265],[-123.81954700005566,46.68220399992993],[-123.82009000020386,46.6840940000089],[-123.82016399982372,46.68457300030021],[-123.82013299986158,46.68474600003427],[-123.8205630000319,46.685286000146824],[-123.82064699969749,46.685392999967725],[-123.82069299972822,46.68545600017206],[-123.82099400002711,46.68587599986203],[-123.82101699959333,46.68590800008015],[-123.82144199974078,46.68650199976285],[-123.82215899996625,46.68714999975413],[-123.82229299986055,46.68725499992525],[-123.82453099967735,46.68901800015533],[-123.82498000011422,46.688751999832206],[-123.82503899966547,46.68605699976772],[-123.82504399968833,46.68581399969362],[-123.82505200008426,46.685468999901836],[-123.82496000002274,46.68468799991802],[-123.82494900015209,46.684593999873584],[-123.82480900041,46.68340900008904],[-123.82478900031852,46.683243000008375],[-123.82477400024992,46.683115999698785],[-123.82484200002197,46.683106000040254],[-123.82511400000855,46.683136000242925],[-123.8252050002451,46.683145999895906],[-123.82527300001719,46.683179000093496],[-123.82529999978138,46.68319199975498],[-123.82578900040123,46.683431999911505],[-123.82633599984908,46.68359500003387],[-123.82680299982933,46.68356500008608],[-123.82700200002095,46.68358700025483],[-123.82736400041921,46.68343799991717],[-123.82749699959028,46.683407999882206],[-123.82767099966755,46.68335199997781]]]},"properties":{"AREALAND":"4250727","AREAWATER":"912509","BASENAME":"South Bend","CBSAPCI":"N","CENTLAT":"+46.6678179","CENTLON":"-123.8006167","FUNCSTAT":"A","GEOID":"5365625","INTPTLAT":"+46.6699775","INTPTLON":"-123.8017189","LSADC":"25","MTFCC":"G4110","NAME":"South Bend city","NECTAPCI":"N","OBJECTID":16004,"OID":"278901474041759","PLACE":"65625","PLACECC":"C1","PLACENS":"02411933","STATE":"53","DISP_CLR":3,"slug":"south_bend","jurisdiction_key":"south_bend_city","county_fips":["53049"]}}]}
