{"type":"FeatureCollection","features":[{"type":"Feature","geometry":{"type":"MultiPolygon","coordinates":[[[[-122.12039699988848,47.9166820002884],[-122.11991400001473,47.91607600007917],[-122.11933099968353,47.914530000249314],[-122.11920000016228,47.91448000004061],[-122.11906299989494,47.914280999995505],[-122.11874300022781,47.91404099980654],[-122.11824100008748,47.91376100018614],[-122.11819800042977,47.913656000238895],[-122.11810399982012,47.913560999701694],[-122.11632899978561,47.91282900027175],[-122.1161100004008,47.912738999913266],[-122.11600800029355,47.91275900007335],[-122.11487199976841,47.91241299988675],[-122.11397600034108,47.91224600017663],[-122.11339300000992,47.91216999973712],[-122.11323900002411,47.91220000000313],[-122.1127589996251,47.912104000294796],[-122.11170099981605,47.912081000150025],[-122.11149699960157,47.91212099976689],[-122.11136600008032,47.91207100024101],[-122.11100799988003,47.91213899994566],[-122.1103090000962,47.91204800008162],[-122.10941899961836,47.91203099998337],[-122.10928800009711,47.91198099976841],[-122.10886499959948,47.91202499991196],[-122.10875699964447,47.91200700029566],[-122.10750300001685,47.91179700029543],[-122.10672399986709,47.91174000023433],[-122.10665000024721,47.91173500024711],[-122.10627799980324,47.911769000030276],[-122.10596499980879,47.9116790002367],[-122.10564400031674,47.911703000076535],[-122.10503199967326,47.91155700002579],[-122.10452899970798,47.91154099988798],[-122.10414999959131,47.9114250000955],[-122.10399700032876,47.91145500019133],[-122.10326800040771,47.91129399995498],[-122.10233600009705,47.91117200004065],[-122.10166499990233,47.91115000021303],[-122.10140299996151,47.91104999983871],[-122.10124999980063,47.911079000021374],[-122.10068400008618,47.910935999814555],[-122.1005719999332,47.91090800028782],[-122.09988700039307,47.91085199998462],[-122.09944299997906,47.91071100002817],[-122.09879500024886,47.91060999987017],[-122.09866999967709,47.91063400020577],[-122.09853900015581,47.91065900006683],[-122.09786899978599,47.91063800016023],[-122.0973619996228,47.91070800021709],[-122.09713900004004,47.91073999979863],[-122.09700799962046,47.91069000014267],[-122.09668700012841,47.910713999839075],[-122.09590700015374,47.910562999908265],[-122.09492499961438,47.910186999880835],[-122.09462000001587,47.90998199987777],[-122.09399499985187,47.909537000263576],[-122.09395200019418,47.90943200017552],[-122.09380999990395,47.909348999874915],[-122.09351600017607,47.909177000279115],[-122.09283999995847,47.908475999851255],[-122.0919479998308,47.907909999744376],[-122.09179499966992,47.90781299971225],[-122.09104700038063,47.90720300019225],[-122.0907870000896,47.90683899998359],[-122.09033000015513,47.90639999996278],[-122.09014699985701,47.90601899986212],[-122.09005899999347,47.90599299993951],[-122.08941399973801,47.905983000058455],[-122.08927099962287,47.90599999973467],[-122.08727600037864,47.90600599990247],[-122.08566000035279,47.90599600002393],[-122.08437999988759,47.90599700025272],[-122.08437999988759,47.90601599977908],[-122.08227599996512,47.90599700025272],[-122.08222200043674,47.90927000010355],[-122.08221900006372,47.90946399994392],[-122.08221499986574,47.90961200019603],[-122.0822269995613,47.90962199997809],[-122.08235499960783,47.90973199986189],[-122.08239999981369,47.90977099993422],[-122.08249199987519,47.91012999985283],[-122.08234600028534,47.910263999766165],[-122.08213299984997,47.910463000206086],[-122.0819799996891,47.910492000115504],[-122.081767999977,47.910646000068326],[-122.08148799959451,47.91103900020122],[-122.08147199970098,47.91126800027372],[-122.08164900015132,47.91169699996709],[-122.08168799961105,47.911791000196885],[-122.08213299984997,47.912073999973074],[-122.08240599966147,47.91224700028464],[-122.08273500044773,47.9124570002651],[-122.0830480004422,47.912610000290535],[-122.08325799960616,47.912712000256874],[-122.08328699991849,47.91272699993391],[-122.08343300040666,47.912980000213835],[-122.08348199991215,47.91306599978458],[-122.08347799971418,47.91320300019172],[-122.08347299969131,47.913445000222545],[-122.08334700019293,47.913808000254015],[-122.08337899997998,47.91388600024688],[-122.08341900016296,47.91398299973433],[-122.08340999994212,47.91411499976274],[-122.08338700037591,47.91444099990444],[-122.08369000032462,47.915396000172606],[-122.08379099970863,47.915712999702215],[-122.08393899984664,47.91618099993231],[-122.08392700015108,47.91639799979641],[-122.08389000034113,47.91713199994082],[-122.0836969999973,47.91773399981516],[-122.08324099988772,47.91833999987072],[-122.08323400021503,47.91834999977236],[-122.08266199975449,47.91874799970697],[-122.08263400016541,47.91876699997067],[-122.08248699985232,47.91894600005272],[-122.08233299986652,47.918976000002495],[-122.08212100015443,47.91912999999264],[-122.08177800002274,47.91950100022102],[-122.08132100008827,47.919998999859935],[-122.08071000016798,47.92105800013591],[-122.08099600039824,47.9220209998321],[-122.08078999963561,47.92232399971969],[-122.08053299971765,47.9224770000674],[-122.07986099969803,47.92287899976876],[-122.07953199981004,47.923117000102366],[-122.07901100030143,47.92349499986875],[-122.07890900019419,47.9236180001144],[-122.07813000004442,47.92456800019968],[-122.07779299976053,47.92482099976871],[-122.07755000008628,47.92495900021604],[-122.07757799967538,47.9252340001491],[-122.07755299956104,47.925683000211535],[-122.07742600023774,47.925996999789355],[-122.07738600005476,47.92628599974437],[-122.07747200026849,47.92668300019509],[-122.07781100020219,47.92687999984092],[-122.07813500006729,47.92710600016964],[-122.07816799967927,47.92714700003024],[-122.07822799995373,47.92722399995955],[-122.07828099965717,47.92730300001018],[-122.07829599972578,47.92732500019329],[-122.07831099979438,47.9273550000996],[-122.07833400025893,47.927449999989],[-122.07832500003809,47.92751799994844],[-122.07836299967293,47.92793500028494],[-122.07839899965795,47.92808699988475],[-122.07852900025262,47.92849499989641],[-122.07860299987243,47.92881100003641],[-122.07945399999223,47.9291270000514],[-122.07942999970278,47.929214000251825],[-122.07942200020517,47.929294999829494],[-122.07942200020517,47.92945500025727],[-122.07945999984003,47.92976800003893],[-122.07946800023593,47.929920000270705],[-122.07945300016733,47.93007999996867],[-122.07942200020517,47.93023699989087],[-122.0793610001058,47.930386000073916],[-122.07923899990708,47.93060700016084],[-122.07910199963973,47.93082399970583],[-122.07894900037716,47.931034000126544],[-122.07882700017845,47.931170999904104],[-122.07868999991106,47.93129699977456],[-122.07806399992221,47.93176699993624],[-122.07750700042858,47.932174999806925],[-122.07728599959734,47.93236200000097],[-122.077079999733,47.93255199986927],[-122.07689700033323,47.932757999843666],[-122.07679000020309,47.9328989999082],[-122.07670599963922,47.93304400021815],[-122.07663000036952,47.93319300013799],[-122.07657599994283,47.93335000023934],[-122.07656099987426,47.93342600026287],[-122.07655300037662,47.93350600016692],[-122.07655300037662,47.933662000225745],[-122.07657599994283,47.93382300007459],[-122.07664500043816,47.93413500021635],[-122.07668300007298,47.93436799970777],[-122.07669800014158,47.93460800009327],[-122.07674300034742,47.93485199985478],[-122.07679199985293,47.935076999985924],[-122.07681000029459,47.9351380000828],[-122.07683899970858,47.935233000119986],[-122.07692800029537,47.93548399996127],[-122.07700199991518,47.935692999858524],[-122.0770649996644,47.93592499990123],[-122.07708399993098,47.936082000133354],[-122.07708499975587,47.93623899988872],[-122.07706100036476,47.93655400001482],[-122.07703700007532,47.93692699971915],[-122.0769879996715,47.937698000118786],[-122.07698500019676,47.937743000274075],[-122.07696599993018,47.93804399971719],[-122.0769600000824,47.938129999752064],[-122.07694900021175,47.93840999988218],[-122.07694500001381,47.93851399993977],[-122.07708099955792,47.938512000137386],[-122.07739899957524,47.93851099993528],[-122.07810800030313,47.93850799993056],[-122.07940899978641,47.93850300012297],[-122.07955000025171,47.938501999920646],[-122.07966499987943,47.938501999920646],[-122.08022200027133,47.938498999915446],[-122.08067300035806,47.938497999713086],[-122.08116200007959,47.93849599991008],[-122.08156999961031,47.93849400010699],[-122.0819660003437,47.93849199970201],[-122.0821410002459,47.93849199970201],[-122.08229600005662,47.93849100010129],[-122.08229799970641,47.93863299977796],[-122.08228400036104,47.938702999873435],[-122.08238399992015,47.93875699972756],[-122.08238200027034,47.93891900015519],[-122.08238100044542,47.93905600010579],[-122.0823799997222,47.93919300029513],[-122.08237899989729,47.939330999705966],[-122.08237600042254,47.93960500006954],[-122.08237399987442,47.93987900018455],[-122.08236999967644,47.94030099977888],[-122.08236300000375,47.941054000070665],[-122.08236100035391,47.94120200022809],[-122.08235999963071,47.941361999921604],[-122.08235499960783,47.94186999987879],[-122.08235299995802,47.94211300014018],[-122.08506899962566,47.9420910002304],[-122.08549899979602,47.942087000300496],[-122.08560000007833,47.942087000300496],[-122.08616999999072,47.94208200023726],[-122.08657800041975,47.942077999704885],[-122.08719000016492,47.94207300024255],[-122.0876270000079,47.94206999984279],[-122.0876670001909,47.94206899970948],[-122.0877509998565,47.94206899970948],[-122.08774400018378,47.941877000236616],[-122.08774300035888,47.94184699972802],[-122.08773999998583,47.941758000042384],[-122.08773900016091,47.94172900020638],[-122.08774900020666,47.94111199988194],[-122.08775699970428,47.9406529997716],[-122.0877650001002,47.94012399991639],[-122.08776699974999,47.939876000259254],[-122.08777099994796,47.939471999900924],[-122.08777199977287,47.939262000046575],[-122.08777299959779,47.93917000015694],[-122.08778500019167,47.9386459999662],[-122.08778500019167,47.93860800019373],[-122.08778600001658,47.93858700019663],[-122.08778799966642,47.93849599991008],[-122.08778900038965,47.9384590002305],[-122.08809900001104,47.9384590002305],[-122.08822200003469,47.93845999983184],[-122.08920899969857,47.938464000042345],[-122.08936199985945,47.93845800002736],[-122.08952300041625,47.93845600022281],[-122.08995699988623,47.93845399981636],[-122.09024700031443,47.938452000011644],[-122.0911169998025,47.9384470001986],[-122.09118299992471,47.9384470001986],[-122.09140700023073,47.93843800017288],[-122.09181700030953,47.93843999997813],[-122.092130000304,47.9384429999868],[-122.09292199997424,47.9384329997567],[-122.09304800037093,47.93843200015484],[-122.09324199964136,47.93843099995119],[-122.09345900027468,47.93842399972854],[-122.09392399970676,47.93840999988218],[-122.09397999978326,47.93840900027987],[-122.09490700007105,47.9384039998609],[-122.09516099961593,47.93840999988218],[-122.09519400012621,47.93840999988218],[-122.09523000011123,47.93841100008625],[-122.09531100030208,47.93840900027987],[-122.09530200008125,47.938540999972616],[-122.09517099966166,47.940017000171416],[-122.09515499976817,47.94019600013756],[-122.09546199991482,47.940190999891435],[-122.09597400010088,47.94018900015391],[-122.09597300027599,47.94046300018266],[-122.09597499992577,47.9409779998252],[-122.09597499992577,47.94202499984314],[-122.0961869996379,47.9420029998959],[-122.09625100011033,47.94199600015692],[-122.09666000036422,47.9419679999879],[-122.09669100032639,47.941966999852646],[-122.09668299993047,47.94254199981913],[-122.09667399970962,47.94321900000378],[-122.09665899964101,47.94441399975188],[-122.09665100014341,47.94502700007531],[-122.0974670001031,47.945025999999245],[-122.09746000043042,47.9456160000065],[-122.09765000040119,47.94561700007115],[-122.09779500016614,47.94561800013582],[-122.09787499963379,47.94561800013582],[-122.09827200019213,47.94562000026507],[-122.09854599982852,47.94561900020043],[-122.09877799963212,47.94561800013582],[-122.09877599998227,47.94573799993061],[-122.09877500015737,47.94577000010961],[-122.09876799958634,47.94622899991451],[-122.09876699976145,47.946382999996366],[-122.09876699976145,47.94641699987446],[-122.09951300029924,47.946447000137695],[-122.09951599977398,47.946711000258965],[-122.09952499999483,47.94740199981767],[-122.100072000341,47.947407999998035],[-122.10007599964065,47.94710400021183],[-122.10117600018076,47.9471089997893],[-122.1015229996121,47.94711199989657],[-122.10187400013969,47.94711199989657],[-122.1018180000632,47.94677700007858],[-122.10176700000957,47.94648799970708],[-122.10166499990233,47.94589100021263],[-122.10162700026748,47.94563900028546],[-122.10145200036531,47.94563500002841],[-122.10145300019023,47.9455610000304],[-122.10144700034243,47.945545000179514],[-122.10143800012159,47.94534900010009],[-122.10143399992364,47.9452630000394],[-122.10135500028093,47.9452630000394],[-122.10133799966417,47.94509200016531],[-122.10131900029593,47.94471999987875],[-122.10130599987711,47.94447400017913],[-122.10127200044025,47.94382800026178],[-122.10126900006722,47.943764999986826],[-122.10126700041738,47.94372000025918],[-122.10126099967127,47.94361200003096],[-122.10124999980063,47.943396000101025],[-122.10123899992998,47.94317999987027],[-122.10123599955692,47.94308700022006],[-122.10132900034166,47.94308499999284],[-122.10130300040238,47.94253100025754],[-122.10120499959478,47.94253000013318],[-122.10119399972413,47.942315000022916],[-122.10118299985348,47.94209799995652],[-122.10117700000568,47.94199299975269],[-122.10117100015789,47.9418819997179],[-122.10116000028727,47.94166599978031],[-122.1011490004166,47.94144899999844],[-122.1011429996705,47.941335999704194],[-122.10114000019576,47.941276999995594],[-122.1011369998227,47.94123300005693],[-122.10113199979983,47.94113599990933],[-122.10112599995205,47.94101299980164],[-122.10111599990634,47.940799999715615],[-122.10111099988346,47.940712000192356],[-122.1011069996855,47.94063899992708],[-122.10110400021075,47.94058400007132],[-122.1011000000128,47.94047700007482],[-122.10109499998991,47.94036100016591],[-122.10109400016502,47.94033699977877],[-122.1010720004237,47.93988699978394],[-122.10105999982983,47.939628000014245],[-122.10121700018865,47.939629999773466],[-122.10136799980141,47.939630999953934],[-122.10143100044891,47.939630999953934],[-122.10146599971068,47.93963200013442],[-122.10178700010107,47.9396390001935],[-122.10194799975953,47.9396390001935],[-122.10218299993618,47.93963999977203],[-122.10228199967037,47.93964099995229],[-122.1023810003029,47.939642000132544],[-122.10265800031235,47.93964299971102],[-122.10267300038095,47.93964299971102],[-122.10293500032176,47.93964500007146],[-122.10306099982013,47.93964500007146],[-122.10321099960798,47.93964600025163],[-122.10344499995969,47.939646999830025],[-122.1034879996174,47.93964800001015],[-122.10376399980193,47.939649000190315],[-122.10383599977196,47.939649000190315],[-122.10404099981136,47.939650999948725],[-122.10411699997934,47.939650999948725],[-122.10421599971356,47.93965200012878],[-122.10431799982081,47.93965200012878],[-122.10456399986809,47.939653999887064],[-122.10459400000532,47.939653999887064],[-122.10475499966381,47.93965600024709],[-122.10487100001474,47.93965600024709],[-122.10489699995404,47.93965600024709],[-122.10514700019928,47.939658000005224],[-122.10521599979627,47.93965900018515],[-122.10542400020873,47.939659999763286],[-122.10553100033884,47.93966099994317],[-122.10570299986799,47.93966200012307],[-122.10585199983089,47.93966299970111],[-122.10597700040269,47.939663999880985],[-122.10616700037346,47.93966500006079],[-122.10624400036637,47.93966600024057],[-122.10627199995545,47.93966600024057],[-122.10652999969831,47.93966799999833],[-122.1065580001857,47.93966900017809],[-122.10690600034026,47.93967099993573],[-122.10692800008158,47.93967099993573],[-122.10715900006025,47.939673000295095],[-122.10730499965013,47.93992899991712],[-122.10738699966589,47.94009400019582],[-122.10745500033627,47.94021499974459],[-122.10755700044352,47.94039800028964],[-122.10753599962881,47.94040199974844],[-122.10747299987962,47.94041399992835],[-122.10745199996322,47.940417999987666],[-122.10737800034337,47.94043199989207],[-122.10727399968799,47.94044299990025],[-122.1071339999459,47.94044100017247],[-122.10706299980079,47.94054599991797],[-122.10490799982469,47.94052999971835],[-122.10449899957077,47.940526999830794],[-122.10449699992095,47.940807000218335],[-122.10411100013158,47.94081299996074],[-122.10410899958342,47.94116299977635],[-122.10410899958342,47.9412639998672],[-122.1041069999336,47.94160900013101],[-122.10410100008585,47.942402999826285],[-122.104091999865,47.943320000289916],[-122.10408500019228,47.9440190002154],[-122.10408099999434,47.9444569999047],[-122.10407599997147,47.9448960001733],[-122.10407299959842,47.94517599976242],[-122.1040690002988,47.945661999952506],[-122.1041220000022,47.945661999952506],[-122.10424300037604,47.9456630000163],[-122.10425699972143,47.9456630000163],[-122.10430199992727,47.94566400008004],[-122.10452399968514,47.94566500014377],[-122.10460900007394,47.94566600020751],[-122.105522000118,47.94567199998767],[-122.10584000013532,47.9456750001784],[-122.10589700003673,47.9456750001784],[-122.10606799974096,47.94567699970371],[-122.10612600036559,47.94567799976717],[-122.10669000043022,47.945683000084315],[-122.10678499996646,47.945683000084315],[-122.10739900025976,47.945684000147665],[-122.10775699956174,47.94569400017857],[-122.10793200036225,47.94569200005224],[-122.10857199969651,47.945689999925776],[-122.10876199966731,47.945689999925776],[-122.10903500037712,47.94569200005224],[-122.10942199999141,47.945702000081596],[-122.1098429999409,47.945695000241756],[-122.1099559999188,47.94569699976629],[-122.1101409998667,47.945684000147665],[-122.110274999761,47.94564099981216],[-122.110274999761,47.94575100013733],[-122.11027899995898,47.94603099990867],[-122.11028099960879,47.94622300019897],[-122.11028300015693,47.946414999776096],[-122.11018100004968,47.94641399972685],[-122.11017900039987,47.94652400021205],[-122.1102610004156,47.9465269997516],[-122.11025700021769,47.946739000265694],[-122.11094199975778,47.94674499992129],[-122.11094199975778,47.947168000062064],[-122.1109429995827,47.9475840001654],[-122.1109429995827,47.94762600006206],[-122.1109429995827,47.94789999978238],[-122.11094400030592,47.94868100025237],[-122.11094400030592,47.949007999771354],[-122.11089499990213,47.94900899977037],[-122.11090400012294,47.94928299998058],[-122.11121700011742,47.949284999967965],[-122.11181499961889,47.94928899994257],[-122.11230500006366,47.94928199998682],[-122.11231500010942,47.9509959999498],[-122.11231599993431,47.95106400023273],[-122.1122310004438,47.951063000273436],[-122.11206599968905,47.95106199971249],[-122.11200700013781,47.95106199971249],[-122.1111040001395,47.9510589998345],[-122.11046899992978,47.95106099975319],[-122.11045200021134,47.95105999979384],[-122.10971999991725,47.95105599995635],[-122.10938299963334,47.95102799988173],[-122.10938000015862,47.951101999874055],[-122.10937299958759,47.95118599993208],[-122.10934800037154,47.95149099972537],[-122.10932599973194,47.951662000088376],[-122.1093070003637,47.9517090000151],[-122.10923200002061,47.95178799996211],[-122.10920699990623,47.95187100016472],[-122.10946899984708,47.95197800004075],[-122.11103800001725,47.952646000015456],[-122.1115190002412,47.952905000139594],[-122.11254199989011,47.95326199992271],[-122.11289400024262,47.953256999737164],[-122.11353799977488,47.95341899984695],[-122.11369599995862,47.95348400021249],[-122.11449199982681,47.95380900021194],[-122.11456899981971,47.95382300009939],[-122.11473899969901,47.953825999816914],[-122.1154629995972,47.953825999816914],[-122.11852300011977,47.95383000004165],[-122.11846700004325,47.95374799988473],[-122.11835400006535,47.95358299987159],[-122.118152000399,47.953298999836676],[-122.11784500025234,47.952868999867846],[-122.11779800039669,47.952809000161366],[-122.11765600010646,47.95262900002231],[-122.11762400031941,47.95258799990966],[-122.11748200002918,47.9524209999364],[-122.11738900014277,47.95231199990417],[-122.11720199964672,47.95211600021722],[-122.11704400036126,47.95195199974824],[-122.11693999970588,47.95184299993002],[-122.11660599979504,47.95151099994481],[-122.11582499999544,47.95073399998748],[-122.11569399957587,47.9505980002687],[-122.11529799974076,47.9501850002872],[-122.11486799957045,47.94973699995081],[-122.1148359997834,47.94970499982112],[-122.11474000042224,47.94961199987711],[-122.11470799973688,47.949581000259705],[-122.11474999956967,47.94953500019147],[-122.11481400004207,47.94946800029352],[-122.11488299963908,47.94940200030013],[-122.11492899966981,47.94936000004168],[-122.1149489997613,47.94935100011077],[-122.11500900003574,47.94932399970702],[-122.11502900012725,47.94931499976984],[-122.11508699985356,47.949307999817655],[-122.11517100041746,47.94929899987768],[-122.1153150003575,47.94929999987107],[-122.11551399965083,47.94930199985784],[-122.11583300039138,47.94930399984452],[-122.11582699964528,47.94916599998071],[-122.11582400017053,47.94864100002197],[-122.11582300034564,47.94860399978129],[-122.11552000039691,47.94821799990275],[-122.1154989995822,47.94819100011045],[-122.11535299999235,47.94802000029608],[-122.11601199959318,47.94751099997728],[-122.11609100013425,47.94745000003771],[-122.11640999997645,47.947203000059446],[-122.11648899961916,47.94714000028774],[-122.11630399967123,47.947020000137705],[-122.11619900008928,47.94694999987134],[-122.11607900043866,47.94686999970877],[-122.11605400032433,47.94685300022232],[-122.1157160002155,47.94663900008613],[-122.11559499984168,47.946563000229396],[-122.11554100031331,47.94652899984567],[-122.1154340001832,47.94647200014315],[-122.1152640003039,47.94638199994653],[-122.11503099977706,47.94627000025856],[-122.11493899971555,47.94623100002011],[-122.11489199985989,47.946212000217294],[-122.11476800001135,47.94616500010497],[-122.11476100033865,47.946072999863866],[-122.11475600031578,47.946056000115334],[-122.11474299989699,47.94574100011746],[-122.1147370000492,47.9456360000927],[-122.11477700023218,47.94552700019096],[-122.11477800005707,47.94524199973695],[-122.11477600040725,47.94390000013814],[-122.11728000036283,47.94390299982994],[-122.11725699989827,47.94211999986332],[-122.1146519996604,47.94210199988557],[-122.11466300042935,47.94122699976149],[-122.11467000010204,47.940749000064876],[-122.11467699977474,47.9402329997776],[-122.11468099997269,47.93997200019],[-122.11470199988909,47.93846800025257],[-122.11471500030791,47.93756300001975],[-122.11472000033078,47.93714899976474],[-122.11472700000346,47.93666399981692],[-122.11474000042224,47.93577499977468],[-122.11474399972188,47.93547800020229],[-122.11474899974478,47.93511499994621],[-122.11476100033865,47.93487799972202],[-122.11456899981971,47.934875999778995],[-122.11342399997204,47.93486000023199],[-122.11342700034507,47.93303800017603],[-122.11335500037507,47.93303699986803],[-122.11335600019999,47.93213700009357],[-122.11319100034353,47.93213700009357],[-122.11287800034908,47.93213700009357],[-122.11272099999026,47.932135999768136],[-122.11274000025684,47.93123199979374],[-122.11271900034045,47.93123199979374],[-122.11266999993663,47.93123199979374],[-122.11255399958567,47.93123199979374],[-122.11197899965042,47.93123199979374],[-122.11159100021123,47.93122600014323],[-122.11139299984451,47.931222999715864],[-122.11061399969473,47.93123199979374],[-122.11042799992188,47.93123800004541],[-122.11004100030759,47.931252999768695],[-122.1090429998747,47.93128900004983],[-122.1089919998211,47.93128900004983],[-122.10824500035667,47.93129199987151],[-122.10636499984187,47.93126899982987],[-122.10584299961005,47.931259999758424],[-122.1057330000052,47.931259000017924],[-122.10542099983567,47.931259999758424],[-122.10510700001632,47.93125400011121],[-122.10479400002187,47.931266000006836],[-122.10491500039569,47.93121099981026],[-122.10526600002495,47.93105199974456],[-122.10527699989561,47.93104600007321],[-122.10539700044454,47.930987000057705],[-122.10554899988219,47.93091199980822],[-122.10582199969365,47.93075899973241],[-122.10588500034119,47.930719000078525],[-122.10615899997757,47.9305480002464],[-122.1064660001242,47.93032100015189],[-122.10676700042309,47.93006999992683],[-122.10703699986153,47.929804000150035],[-122.10716800028109,47.9296589997838],[-122.10722000015963,47.929604000285714],[-122.10748200010046,47.92925099992602],[-122.10750300001685,47.9292150000319],[-122.10765700000263,47.92895400020046],[-122.10779599991982,47.928662000130934],[-122.1078799995854,47.92845199970903],[-122.10789100035436,47.928424999825125],[-122.10795999995133,47.928186000037265],[-122.10801100000496,47.92795100016881],[-122.108042999792,47.92771599983456],[-122.10806799990637,47.92732800024491],[-122.10807399975415,47.927169000279704],[-122.10808799999785,47.927011000250346],[-122.10808799999785,47.92685299973827],[-122.10809499967056,47.92669400011871],[-122.10810499971629,47.92661399990945],[-122.1081199997849,47.92612999970677],[-122.10812999983064,47.925915999862134],[-122.10813400002861,47.92584699975721],[-122.1081480002723,47.92557900023019],[-122.10815099974704,47.92550399996339],[-122.10882899961447,47.92549599994454],[-122.10950300018226,47.925475000039725],[-122.10950499983208,47.92544200008611],[-122.10955300041098,47.92543999977814],[-122.10999100007888,47.9254319997494],[-122.11006600042194,47.92542799973459],[-122.11013099982097,47.925430999896236],[-122.11022999955519,47.92542500017473],[-122.11034799955596,47.92540400024107],[-122.1105629996411,47.925414999834764],[-122.1107440002894,47.92540599994847],[-122.11128999991234,47.92540400024107],[-122.11154900037842,47.92540400024107],[-122.11170199964097,47.92540699980215],[-122.11175500024274,47.925414999834764],[-122.11181799999193,47.92543800007207],[-122.1118770004415,47.92547599989208],[-122.11193299961965,47.92552999971506],[-122.11194699986336,47.925559000209816],[-122.1119560000842,47.9255779997779],[-122.1119569999091,47.92559699994093],[-122.11196699995486,47.92574700009611],[-122.11196699995486,47.92580100023809],[-122.1130399998325,47.92580399977614],[-122.1132869997047,47.92580500022405],[-122.11328599987978,47.92574399995278],[-122.11328400022995,47.92558499993384],[-122.11328099985691,47.92539600020681],[-122.11336000039793,47.92539700006065],[-122.11435899975743,47.92539700006065],[-122.11562599980384,47.925402999785405],[-122.11584699973675,47.925402999785405],[-122.11584799956165,47.925081000130355],[-122.11585099993472,47.923989999943736],[-122.11477499968404,47.923984999936245],[-122.11477600040725,47.92365500018004],[-122.11477700023218,47.92318999982334],[-122.11477899988199,47.92262200010125],[-122.11477899988199,47.92234800004022],[-122.11437399982604,47.922371999747625],[-122.11369699978351,47.92120299993318],[-122.112871999603,47.921623999719266],[-122.11283200031835,47.921496999831525],[-122.1125960003168,47.920838000124164],[-122.11253100001946,47.920657000075174],[-122.1121960002837,47.92033800023006],[-122.1119829998484,47.920135000015975],[-122.11192000009918,47.919998999859935],[-122.11175400041782,47.9196450002031],[-122.11185399997693,47.91919400015865],[-122.11195500025929,47.918739999847354],[-122.1120620003894,47.91825800000224],[-122.11209199962832,47.9181350002569],[-122.11207200043516,47.91812399971726],[-122.11200299993986,47.91808599991471],[-122.11184200028138,47.91798299970755],[-122.11182800003768,47.91797399973233],[-122.11174600002192,47.9179209998464],[-122.11140999956292,47.917694999723444],[-122.111344000339,47.917650000183166],[-122.11133099992021,47.917642000153755],[-122.11160200008189,47.917448000266184],[-122.11235299974423,47.916917000180376],[-122.1126599998909,47.91670000008471],[-122.11340899990341,47.91669700001875],[-122.114814999867,47.91669299993055],[-122.11956199966221,47.91668999986417],[-122.11972200039412,47.91668999986417],[-122.12039699988848,47.9166820002884]]],[[[-121.91496099998379,48.018795000202026],[-121.91494400026534,48.01870899983472],[-121.91468399997432,48.01872300015581],[-121.91443600027722,48.018736999872225],[-121.91393900015977,48.0188249998912],[-121.91391400004542,48.01883699988216],[-121.91368300006673,48.01895599979138],[-121.91354400014956,48.019047000172854],[-121.91341600010304,48.01919799995626],[-121.91333300026236,48.01936099976726],[-121.91330499977495,48.019536000092835],[-121.91333699956199,48.01970799972756],[-121.91341199990507,48.01987299998715],[-121.91351599966212,48.020029000085636],[-121.91363799986088,48.02019200027349],[-121.91481299984578,48.020176999927536],[-121.91480399962494,48.01966200022383],[-121.91477500021094,48.019566999786456],[-121.91471900013445,48.01945900009488],[-121.91471900013445,48.0192870002303],[-121.91478899955632,48.019171000011575],[-121.91489099966357,48.01891199991252],[-121.91496099998379,48.018795000202026]]],[[[-122.07170399957582,47.93495000002691],[-122.07170299975093,47.934917999770036],[-122.07170299975093,47.93478199996203],[-122.0715100003054,47.934811000083876],[-122.07127400030384,47.934833999753835],[-122.07064999996477,47.93492800007814],[-122.07012000023536,47.934986000141755],[-122.07000300005951,47.93499199995784],[-122.0697140003545,47.93498499987139],[-122.06946099973618,47.93497799978404],[-122.06871300044689,47.934966000147924],[-122.06859100024815,47.93497500017617],[-122.0682430000936,47.9349579997871],[-122.06812099989487,47.93496699981675],[-122.06776900044069,47.9349620002686],[-122.06753000006607,47.934946999815566],[-122.06643100024915,47.93493000001914],[-122.06642799987613,47.93502000029403],[-122.06654800042503,47.93502299989928],[-122.06940700020783,47.93506999991098],[-122.06947300033008,47.93506999991098],[-122.06946800030721,47.93532099994166],[-122.06945999991129,47.93574800010287],[-122.06819700006282,47.935725999891815],[-122.06783700021272,47.935718999904736],[-122.06783300001477,47.93593199986038],[-122.06783200018985,47.93599899985152],[-122.06653500000624,47.93597799999839],[-122.06640500030991,47.9359749998467],[-122.06640399958667,47.93599899985152],[-122.06639899956377,47.936267000151524],[-122.06639500026415,47.93641700005444],[-122.0663850002184,47.936870000261194],[-122.06638199984536,47.93702099984938],[-122.0663579995559,47.938035000223124],[-122.06635099988323,47.93832999974181],[-122.0663500000583,47.93841100008625],[-122.06634800040848,47.93848399988677],[-122.06685499967337,47.938486000292066],[-122.06997899977004,47.93849400010699],[-122.07166099991814,47.938497999713086],[-122.07170399957582,47.93495000002691]]]]},"properties":{"AREALAND":"9120175","AREAWATER":"517113","BASENAME":"Snohomish","CBSAPCI":"N","CENTLAT":"+47.9275845","CENTLON":"-122.0968122","FUNCSTAT":"A","GEOID":"5365170","INTPTLAT":"+47.9288663","INTPTLON":"-122.0926843","LSADC":"25","MTFCC":"G4110","NAME":"Snohomish city","NECTAPCI":"N","OBJECTID":22680,"OID":"27890921610449","PLACE":"65170","PLACECC":"C1","PLACENS":"02411913","STATE":"53","DISP_CLR":4,"slug":"snohomish","jurisdiction_key":"snohomish_city","county_fips":["53061"]}}]}
