{"type":"FeatureCollection","features":[{"type":"Feature","geometry":{"type":"Polygon","coordinates":[[[-122.10277899978784,47.13745400005278],[-122.10279700022951,47.136261000017406],[-122.10254100013647,47.13627400024607],[-122.10221800009629,47.13629100002316],[-122.10212699985969,47.13629500018561],[-122.10198100026982,47.136302999898525],[-122.10188199963729,47.13630799979485],[-122.10188099981237,47.13621900010317],[-122.10187599978953,47.13581999987418],[-122.10186999994173,47.135728999874445],[-122.10187300031478,47.13563400011815],[-122.10188400018542,47.135571000102566],[-122.10190500010184,47.135500000179825],[-122.10192099999537,47.13532300014047],[-122.10192099999537,47.13510499969666],[-122.10191500014759,47.13498999997142],[-122.10192199982026,47.13448199991004],[-122.10192600001824,47.134140000162084],[-122.1019290003913,47.13403300023774],[-122.10193500023905,47.13380699991837],[-122.10192600001824,47.13371000021684],[-122.10037699993951,47.13368700029945],[-122.09650999967808,47.1336299997439],[-122.09346000009957,47.133660999796305],[-122.09154199994992,47.13367300026517],[-122.09108599984037,47.13368500012015],[-122.09041600036885,47.13368500012015],[-122.08572300010198,47.133688999867516],[-122.08574400001838,47.1348059998938],[-122.08574999986617,47.13518100014905],[-122.0857530002392,47.13535399981706],[-122.08575999991193,47.13571100017165],[-122.08576999995763,47.13628600012522],[-122.08578900022422,47.13722699988907],[-122.08578300037642,47.13730299975299],[-122.0857959998969,47.13739899990822],[-122.08583400043007,47.139773000051356],[-122.08584899960036,47.140267000151546],[-122.08585199997343,47.140790000199594],[-122.08585600017136,47.1410459999377],[-122.08665799988736,47.14104700019442],[-122.08675599979664,47.141047999840126],[-122.08727399983049,47.14104700019442],[-122.08774900020666,47.1410459999377],[-122.08855799959534,47.141045000291996],[-122.08897900044313,47.14104700019442],[-122.08968499989963,47.14103799971632],[-122.08989900015989,47.14103399991068],[-122.09063399992873,47.14104999974244],[-122.09183200037816,47.1410459999377],[-122.09246599986466,47.14104400003524],[-122.09253899965958,47.14104299977846],[-122.0925830000405,47.14104299977846],[-122.09267699975184,47.14104200013266],[-122.09319800015876,47.14104099987584],[-122.09533300004338,47.1410119997523],[-122.09654800021124,47.14101300000966],[-122.09672300011344,47.1410079999447],[-122.09711999977347,47.14100499978328],[-122.09821699994055,47.14099700016677],[-122.09856400027017,47.140999000071],[-122.0987709999594,47.14099700016677],[-122.09893800036399,47.14099599990911],[-122.09940600016915,47.14100099997519],[-122.1017829999031,47.14096800001918],[-122.10178799992596,47.140780000027256],[-122.10184800020045,47.13851000022825],[-122.10186699956868,47.13831000006889],[-122.10276799991719,47.138156000044624],[-122.10277899978784,47.13745400005278]]]},"properties":{"AREALAND":"991971","AREAWATER":"19697","BASENAME":"South Prairie","CBSAPCI":"N","CENTLAT":"+47.1373350","CENTLON":"-122.0939435","FUNCSTAT":"A","GEOID":"5366045","INTPTLAT":"+47.1353858","INTPTLON":"-122.0966235","LSADC":"43","MTFCC":"G4110","NAME":"South Prairie town","NECTAPCI":"N","OBJECTID":4883,"OID":"278901445839841","PLACE":"66045","PLACECC":"C1","PLACENS":"02413310","STATE":"53","DISP_CLR":5,"slug":"south_prairie","jurisdiction_key":"south_prairie_city","county_fips":["53053"]}}]}
