{
  "type": "FeatureCollection",
  "features": [
    {
      "type": "Feature",
      "geometry": {
        "type": "Polygon",
        "coordinates": [
          [
            [
              -117.38846800033696,
              47.42466700015465
            ],
            [
              -117.38847400018474,
              47.42422200006876
            ],
            [
              -117.38845800029122,
              47.42389899993796
            ],
            [
              -117.38843599965159,
              47.423702999737216
            ],
            [
              -117.38802999977074,
              47.42368700007313
            ],
            [
              -117.38649699958555,
              47.42368499988687
            ],
            [
              -117.38636299969126,
              47.42381099992568
            ],
            [
              -117.38605100042003,
              47.42418999983568
            ],
            [
              -117.38577699988534,
              47.42462400027637
            ],
            [
              -117.38554699973159,
              47.424937000128054
            ],
            [
              -117.38526899989722,
              47.42567799982054
            ],
            [
              -117.38512999998002,
              47.42567799982054
            ],
            [
              -117.38075200025577,
              47.42566799987448
            ],
            [
              -117.37989699993801,
              47.425665999763446
            ],
            [
              -117.37974299995224,
              47.42566700012282
            ],
            [
              -117.37965099989071,
              47.42566400026015
            ],
            [
              -117.3796209997535,
              47.426258000129096
            ],
            [
              -117.37961099970777,
              47.426456000013964
            ],
            [
              -117.37961400008079,
              47.42651399990056
            ],
            [
              -117.37962300030163,
              47.42668900012464
            ],
            [
              -117.37962699960129,
              47.42674800009334
            ],
            [
              -117.37963199962412,
              47.42684500005272
            ],
            [
              -117.37964300039313,
              47.42705699996183
            ],
            [
              -117.37964300039313,
              47.427136000073645
            ],
            [
              -117.37964300039313,
              47.42723400025531
            ],
            [
              -117.37964300039313,
              47.4272919998924
            ],
            [
              -117.3795489997835,
              47.4272919998924
            ],
            [
              -117.37852399958642,
              47.42728900012232
            ],
            [
              -117.37845400016451,
              47.42728900012232
            ],
            [
              -117.37840099956274,
              47.42728799979376
            ],
            [
              -117.37823200040668,
              47.42728900012232
            ],
            [
              -117.37803599968977,
              47.42728700007288
            ],
            [
              -117.37674299970413,
              47.427282999973876
            ],
            [
              -117.37568599972,
              47.42727800015351
            ],
            [
              -117.37434199968072,
              47.42727299972493
            ],
            [
              -117.37431800028956,
              47.4272720000038
            ],
            [
              -117.37398500020366,
              47.434398999826854
            ],
            [
              -117.37411499989999,
              47.434400000020254
            ],
            [
              -117.37431900011448,
              47.434379999794366
            ],
            [
              -117.37461700004032,
              47.43435300002424
            ],
            [
              -117.37493400023273,
              47.43433999992745
            ],
            [
              -117.37514000009703,
              47.43433299978049
            ],
            [
              -117.37540799988567,
              47.43433500016983
            ],
            [
              -117.37575900041324,
              47.43433800014599
            ],
            [
              -117.37621200014978,
              47.43431699970157
            ],
            [
              -117.37648099976329,
              47.43430599998629
            ],
            [
              -117.37663099955113,
              47.43430700018146
            ],
            [
              -117.37708400018597,
              47.4343130001368
            ],
            [
              -117.37723499979869,
              47.434314999919245
            ],
            [
              -117.37734299975372,
              47.434314999919245
            ],
            [
              -117.37766699961885,
              47.43431799989654
            ],
            [
              -117.37777499957386,
              47.434319000091484
            ],
            [
              -117.37781499975684,
              47.434319000091484
            ],
            [
              -117.37793500030574,
              47.43432000028642
            ],
            [
              -117.3779749995904,
              47.43432099987366
            ],
            [
              -117.3779949996819,
              47.43432099987366
            ],
            [
              -117.37805499995636,
              47.43432099987366
            ],
            [
              -117.37807599987275,
              47.43432099987366
            ],
            [
              -117.3783339996156,
              47.43432200006855
            ],
            [
              -117.37911000029064,
              47.43432800002221
            ],
            [
              -117.37936899985843,
              47.434330999998764
            ],
            [
              -117.38144900038976,
              47.434367999898264
            ],
            [
              -117.38257599979576,
              47.43438899971467
            ],
            [
              -117.38270100036756,
              47.43438800012871
            ],
            [
              -117.38304699997396,
              47.43438800012871
            ],
            [
              -117.38553099983804,
              47.434379999794366
            ],
            [
              -117.38554699973159,
              47.434382999768
            ],
            [
              -117.38561399967872,
              47.434382999768
            ],
            [
              -117.38565300003678,
              47.43438200018189
            ],
            [
              -117.3856610004327,
              47.434354999805166
            ],
            [
              -117.38566700028046,
              47.4343339999752
            ],
            [
              -117.38578299973312,
              47.43391799999545
            ],
            [
              -117.38579100012903,
              47.43388600018796
            ],
            [
              -117.38582999958876,
              47.433741999902125
            ],
            [
              -117.38590300028203,
              47.43347200012708
            ],
            [
              -117.38592599984824,
              47.43327099986096
            ],
            [
              -117.38714199984105,
              47.429505999949235
            ],
            [
              -117.38834899961297,
              47.425866000155374
            ],
            [
              -117.38837399972732,
              47.42542799999038
            ],
            [
              -117.38844400004751,
              47.42494700021304
            ],
            [
              -117.38846800033696,
              47.42466700015465
            ]
          ]
        ]
      },
      "properties": {
        "AREALAND": "905192",
        "AREAWATER": "0",
        "BASENAME": "Spangle",
        "CBSAPCI": "N",
        "CENTLAT": "+47.4298941",
        "CENTLON": "-117.3812242",
        "FUNCSTAT": "A",
        "GEOID": "5366290",
        "INTPTLAT": "+47.4298941",
        "INTPTLON": "-117.3812242",
        "LSADC": "25",
        "MTFCC": "G4110",
        "NAME": "Spangle city",
        "NECTAPCI": "N",
        "OBJECTID": 3494,
        "OID": "27890481567805",
        "PLACE": "66290",
        "PLACECC": "C1",
        "PLACENS": "02413311",
        "STATE": "53",
        "DISP_CLR": 5,
        "slug": "spangle",
        "jurisdiction_key": "spangle_city",
        "county_fips": [
          "53063"
        ]
      }
    }
  ]
}
