{"type":"FeatureCollection","features":[{"type":"Feature","geometry":{"type":"Polygon","coordinates":[[[-121.91873899965843,45.686991000223195],[-121.9184890003115,45.68699300020297],[-121.91791199982808,45.68681800013342],[-121.91345200008804,45.68546699987011],[-121.91332099966849,45.685426999797436],[-121.91302899959041,45.68533799970577],[-121.91112399985956,45.68721500002334],[-121.91102599995028,45.68731499977904],[-121.9109420002847,45.68739299974047],[-121.90489400010787,45.684784999707084],[-121.90488400006213,45.683007000243926],[-121.90488599971195,45.681538999829236],[-121.90488599971195,45.68134500011729],[-121.90488700043518,45.68049700013771],[-121.90458600013632,45.68066299991241],[-121.90444999969387,45.68073600016782],[-121.90359600009936,45.681192999911815],[-121.90319900043933,45.68140600029012],[-121.90228700022016,45.681898999996925],[-121.90201100003563,45.68204999977516],[-121.90161699985032,45.682268000086836],[-121.9014860003291,45.68233800022556],[-121.90140099994028,45.6823839998028],[-121.90109700016664,45.682555000287266],[-121.90096800029521,45.68262799995688],[-121.90006399957365,45.68312999978197],[-121.89859900005885,45.683929999780425],[-121.89735799995174,45.684608000195865],[-121.89598499960012,45.68534799989939],[-121.8938990001193,45.68647800022618],[-121.89352199965246,45.68667899999285],[-121.8928210002188,45.68707299996275],[-121.89214800037425,45.68743399995817],[-121.89149200024814,45.68780600017746],[-121.89147999965424,45.68781299969056],[-121.89117199968268,45.688009000136],[-121.8908579998633,45.688230000035375],[-121.89056800033337,45.688444999905975],[-121.89027600025535,45.68867800011108],[-121.88999599987287,45.68892300006627],[-121.88972899990918,45.68917200000721],[-121.88938400012769,45.68950800007571],[-121.88932700022626,45.68956299984236],[-121.88915499979883,45.689729999954814],[-121.88909899972232,45.689785999756914],[-121.88906000026259,45.68982399997166],[-121.88894300008671,45.68993799983353],[-121.88890399972865,45.689975999945005],[-121.88864900035884,45.689792000023715],[-121.88840199958832,45.689577999940475],[-121.88801099977609,45.689191000012634],[-121.88797599961597,45.68915600016278],[-121.88759999987232,45.688729000231184],[-121.88736600041894,45.688356999874955],[-121.88697100040872,45.68772800016439],[-121.88687699979906,45.687913999919424],[-121.88677899988976,45.688108000071125],[-121.88669299967604,45.688279000002694],[-121.88665000001835,45.688362000015935],[-121.88665900023918,45.688482000127266],[-121.88667799960744,45.688742000008254],[-121.88629699984094,45.6889870003107],[-121.8855920002093,45.68894900015481],[-121.88526900016912,45.688930999708646],[-121.88483099960291,45.68906100001171],[-121.88390099984039,45.689335000240206],[-121.88226999974593,45.68981599982953],[-121.88121000028708,45.6906909998884],[-121.8811769997768,45.69072600003276],[-121.88093400010254,45.691054000213406],[-121.88076800042121,45.691262000188374],[-121.87935099968867,45.69200499973121],[-121.87825900044277,45.69214699982094],[-121.87739599972907,45.692259000176456],[-121.87690500035772,45.69287899985766],[-121.8768199999689,45.692986999844095],[-121.87716499975042,45.69334799994666],[-121.87736899996492,45.69356099985102],[-121.87761599983712,45.69381999978469],[-121.87764599997433,45.6938530001189],[-121.87766900043889,45.694196000271965],[-121.87767600011156,45.69432699980454],[-121.87769700002796,45.69460200012896],[-121.87752700014866,45.69476900025468],[-121.87748500031587,45.69485099988587],[-121.8777060002488,45.69492300028932],[-121.8777060002488,45.69499099995775],[-121.8777070000737,45.69504599997976],[-121.8776910001802,45.695115000284495],[-121.87766600006583,45.695174000186555],[-121.87764799962417,45.69523000018488],[-121.87763400027877,45.69527400014426],[-121.87781900022671,45.695363000113076],[-121.87788000032609,45.6954200000751],[-121.87790500044042,45.69544299982318],[-121.87792800000666,45.69546500003713],[-121.87799300030399,45.695495999724976],[-121.87802500009104,45.69551100011422],[-121.87808100016753,45.695537000277454],[-121.87810399973375,45.69557000022594],[-121.87813200022116,45.69560999994723],[-121.87809899971089,45.69564299985259],[-121.87806600009891,45.69567599973851],[-121.87792899983157,45.69577099994781],[-121.87784500016598,45.69582999978521],[-121.87774600043178,45.69589700008871],[-121.87770899972354,45.695924000216415],[-121.87748600014079,45.696141999793966],[-121.87740199957689,45.696226000198735],[-121.8772979998198,45.69632700029426],[-121.87725799963685,45.69636800023753],[-121.87713399978827,45.696527999804985],[-121.87721199960606,45.696684999778675],[-121.87727799972834,45.69681500025449],[-121.87721099978117,45.69685300008555],[-121.87700999993973,45.6969659999259],[-121.87694399981747,45.69700499977888],[-121.87598999976552,45.69754599993768],[-121.87562400006763,45.69775400023746],[-121.87460200024361,45.69835200016178],[-121.87397799990457,45.69870999985743],[-121.87341499966483,45.699024999748],[-121.87313099998273,45.69917099992394],[-121.87305800018778,45.69921000012129],[-121.87276299973668,45.699347999780755],[-121.87245300011527,45.699475000098424],[-121.87212199967917,45.69959600028585],[-121.87215199981641,45.699669999752956],[-121.87219100017445,45.69976600015349],[-121.87213099990001,45.699784000249466],[-121.87207700037166,45.69986600005562],[-121.87195799964765,45.70005699994886],[-121.87187399998204,45.70018900024934],[-121.87157100003336,45.700592999764766],[-121.8720880002423,45.70234300030059],[-121.87178399957038,45.702343999702315],[-121.87153000002549,45.702343999702315],[-121.87154400026917,45.70394800014278],[-121.87154199972105,45.70400900013392],[-121.8710460003268,45.704013000131],[-121.8709190001052,45.704013000131],[-121.87069599962412,45.704015000129445],[-121.87053300031583,45.704018000127],[-121.87008899990181,45.70404000010391],[-121.8696310001424,45.7040580000786],[-121.86938199972207,45.7040580000786],[-121.86921400039087,45.7040580000786],[-121.86918900027653,45.704059000077024],[-121.86919000010145,45.704158999829126],[-121.86920699981987,45.70609699984854],[-121.86920699981987,45.70628999970151],[-121.86921000019295,45.70648999982775],[-121.86853099960227,45.70649299969244],[-121.86854200037125,45.707843000261164],[-121.86940600001152,45.70782299976114],[-121.87078900040886,45.70781999996784],[-121.8713130002905,45.70781999996784],[-121.87553399965594,45.7077849998578],[-121.87553100018123,45.70651799981341],[-121.87645199972287,45.706514999950016],[-121.87660800025684,45.70651899976784],[-121.87660800025684,45.706386000027074],[-121.87660900008173,45.70632899995165],[-121.87660200040902,45.70599000005247],[-121.87659999986089,45.705859000240224],[-121.87660400005886,45.70562600009816],[-121.87661699957934,45.7049300000669],[-121.87662199960218,45.70469799980372],[-121.8766280003483,45.70445199995484],[-121.87664800043979,45.70371200017744],[-121.87664500006673,45.70356199991029],[-121.87661900012746,45.703471999807746],[-121.87658999981515,45.703389000260884],[-121.8765649997008,45.703340999741116],[-121.87655300000523,45.70332700020911],[-121.87650399960143,45.70326700011374],[-121.8764240001338,45.70319099973323],[-121.876270000148,45.703068999781344],[-121.87619200033019,45.70301500013931],[-121.87606000008574,45.702925999802254],[-121.87620300020086,45.702819000210354],[-121.87622300029236,45.70280900000353],[-121.87639800019453,45.702731000210846],[-121.87660200040902,45.702677000242346],[-121.87680599972522,45.70264200004901],[-121.8770020004421,45.70262400024574],[-121.87719700043577,45.70263299983442],[-121.87737999983557,45.70262000014929],[-121.87745900037658,45.702615000028295],[-121.87770299987578,45.70256199997297],[-121.87801400022039,45.70247800030316],[-121.87836900004761,45.70236699973929],[-121.87847500035281,45.70232200031271],[-121.87863600001133,45.70225600020981],[-121.8788179995862,45.70216199975769],[-121.87885699994423,45.70211900023234],[-121.87897400012011,45.70199200027397],[-121.87901400030309,45.701950000026635],[-121.8790569999608,45.701902000153474],[-121.87918699965712,45.70176099977798],[-121.87923100003805,45.70171399978294],[-121.8793099996808,45.70178500009391],[-121.87934300019106,45.70183500014396],[-121.87938599984875,45.701898000005315],[-121.87943899955222,45.70193099996415],[-121.87951899991815,45.70194799995431],[-121.87970200021627,45.70194799995431],[-121.8797979995774,45.70194399980948],[-121.87988499961605,45.70194000029171],[-121.87988600033928,45.70233500006712],[-121.88109800013409,45.70232999992065],[-121.88109899995898,45.70243100028349],[-121.8810999997839,45.70268799986837],[-121.88112900009621,45.70268699984541],[-121.88122100015772,45.70268999991422],[-121.88192699961425,45.70268999991422],[-121.88196699979723,45.70268699984541],[-121.88197000017026,45.702441999957905],[-121.88197000017026,45.702327999861915],[-121.88208800017105,45.70232899989129],[-121.88245499969383,45.702327999861915],[-121.88253699970963,45.702327999861915],[-121.88258199991546,45.7023259998031],[-121.88340299989804,45.702326999832515],[-121.8842730002844,45.70232499977372],[-121.88527900021488,45.70232200031271],[-121.88581399996718,45.70232299971481],[-121.88579200022588,45.702243999840526],[-121.88576799993639,45.702063000231895],[-121.88575600024085,45.70190999982152],[-121.88575000039306,45.70186900017753],[-121.88573299977631,45.70175200004895],[-121.88564499991276,45.701592999787394],[-121.88593600016591,45.70172600026597],[-121.88706000009715,45.702304999808845],[-121.887978999989,45.70229300007747],[-121.88921500007328,45.702277000222466],[-121.88930399976174,45.7024080002728],[-121.88945000024992,45.70264300007277],[-121.88951600037217,45.702733000255115],[-121.88968799990128,45.70289199978411],[-121.8897869996355,45.70298200019299],[-121.88979599985632,45.70367299998362],[-121.88980400025224,45.70427099996642],[-121.88981500012291,45.70507099997817],[-121.8923209997283,45.7050759998795],[-121.89235400023858,45.70509000022823],[-121.89238600002561,45.70503000014294],[-121.8924129997898,45.704980999795566],[-121.89245799999564,45.70479399972655],[-121.8924909996076,45.70465399973177],[-121.8925619997527,45.70452799987581],[-121.89267700027877,45.70439099981972],[-121.8928210002188,45.70455200025862],[-121.89294900026532,45.70469499984271],[-121.89311300029682,45.70482199993435],[-121.8933219996359,45.70492700011829],[-121.89333800042773,45.70493599996358],[-121.89352599985038,45.70504499985664],[-121.89380299985984,45.705107999864836],[-121.89390999998996,45.70512900006088],[-121.89390099976912,45.703569999968174],[-121.89389699957117,45.70339200029202],[-121.89502100040076,45.703390000271284],[-121.89535299976346,45.703347999819485],[-121.89568300037465,45.70291200016627],[-121.89593899956938,45.70257300024899],[-121.89595000033835,45.70247500022298],[-121.89594000029261,45.70236999982528],[-121.8959050001325,45.702262999796694],[-121.89581700026898,45.70212699986932],[-121.89573299970505,45.70204100010438],[-121.89559200013807,45.701942999773216],[-121.89538899974846,45.70185500027692],[-121.89517100018855,45.70183200002931],[-121.89514299970118,45.701733999959195],[-121.89514100005134,45.701724000185635],[-121.8950670004315,45.70161700017544],[-121.89507499992912,45.70160699975361],[-121.89510199969328,45.701577999774884],[-121.89511099991412,45.70156900001639],[-121.89516299979266,45.70151100000447],[-121.89518399970906,45.70148900028709],[-121.89530199970983,45.701326999763204],[-121.8953479997406,45.70126499993423],[-121.89511500011207,45.701165000024695],[-121.89505599966255,45.7011389999687],[-121.89461499962157,45.7011389999687],[-121.89458799985741,45.7011389999687],[-121.89451400023756,45.7011389999687],[-121.89412800044816,45.70114000001934],[-121.8941250000751,45.70099099980593],[-121.8941230004253,45.70085900014411],[-121.89403100036378,45.700835000058035],[-121.89400100022655,45.700828000292404],[-121.89387200035515,45.70079500030993],[-121.89372900024,45.70075800007831],[-121.8937379995625,45.70115999977353],[-121.8933710000397,45.701165000024695],[-121.89324200016829,45.70116600007483],[-121.8932289997495,45.7006259998664],[-121.89322399972663,45.70046900029229],[-121.89321899970375,45.700304999818854],[-121.89306300006814,45.70030699994991],[-121.89306700026611,45.70045500004112],[-121.893068000091,45.70058299978713],[-121.89300399961861,45.70056700007017],[-121.89269700037025,45.700488000224254],[-121.89241899963758,45.700440999786444],[-121.89232999994914,45.70043399997148],[-121.89231099968255,45.69890599976087],[-121.89196500007614,45.69855700031004],[-121.89180799971729,45.69839700027399],[-121.89177900030329,45.69820500025383],[-121.8916389996629,45.69814199999575],[-121.89161600009669,45.698047000049925],[-121.89159500018029,45.697960000175954],[-121.89154999997444,45.69776799991008],[-121.89149399989795,45.697537000157624],[-121.89206200016051,45.69754099999031],[-121.89188600043342,45.69726799992767],[-121.89167700019604,45.69694599992636],[-121.891533000256,45.69672899984808],[-121.89130499975207,45.69638500003683],[-121.89113300022292,45.696127000201415],[-121.89167899984588,45.696124999920784],[-121.89262799987495,45.696111999977354],[-121.89261899965413,45.69614599972648],[-121.89280399960204,45.696411999928905],[-121.89296900035679,45.69666199991397],[-121.8930749997637,45.6968400003114],[-121.89312099979446,45.69691800016597],[-121.89317799969585,45.69699800016122],[-121.893292000397,45.6971569996865],[-121.89337400041276,45.69727400001919],[-121.89346499975103,45.69740100002818],[-121.89352199965246,45.6974589999116],[-121.89373500008777,45.697670999731],[-121.89426800019025,45.69772099969556],[-121.8944759997044,45.69773899982245],[-121.89463899991101,45.697749000308676],[-121.89478899969885,45.697756999943486],[-121.89479600026986,45.69789799975042],[-121.89512500015785,45.697897000269215],[-121.89510300041653,45.6980660001775],[-121.89509900021855,45.69813700010171],[-121.89510699971616,45.69817799997268],[-121.89514500024931,45.6982590001497],[-121.89518200005921,45.698310999790976],[-121.89531099993067,45.69846000024482],[-121.89536000033446,45.69851700018711],[-121.89540100034233,45.698576999733376],[-121.8954919996806,45.69873799997535],[-121.89555100013018,45.69884399975689],[-121.89558100026743,45.69887500008118],[-121.89561100040464,45.698906999851445],[-121.89563999981864,45.698954999786224],[-121.89566199955993,45.699007000035095],[-121.89571199978865,45.69909099990052],[-121.89577399971294,45.69916600012191],[-121.8958349998123,45.69920699986579],[-121.89591299963011,45.699244999953514],[-121.89603400000394,45.699279000307286],[-121.8962840002492,45.69932599983969],[-121.89634299980042,45.699334999959184],[-121.89645999997629,45.699362000309115],[-121.89667199968838,45.699413000097955],[-121.89677600034378,45.69943000022632],[-121.89713100017102,45.6994869998072],[-121.89750799973957,45.69954800027393],[-121.89777600042648,45.69959400012931],[-121.89789400042726,45.69962899972117],[-121.89796899987202,45.69965499985194],[-121.89804400021508,45.699680999970575],[-121.89814799997217,45.699701999695655],[-121.89822400014015,45.69970700007717],[-121.89834700016378,45.69971099975463],[-121.8985660004469,45.69971099975463],[-121.89893999964241,45.69972300004023],[-121.89897099960454,45.699726000268036],[-121.89902800040429,45.69972999994418],[-121.89909299980329,45.69974000007438],[-121.89917099962108,45.69975499995259],[-121.89928500032222,45.69978100002472],[-121.89943599993495,45.69981500005261],[-121.9000460000303,45.69965399977473],[-121.90004199983235,45.69955899988819],[-121.90003699980949,45.699534999871496],[-121.90023099997823,45.69936499992894],[-121.9005570003915,45.69907900010675],[-121.9007420003394,45.698934999870716],[-121.90119400025102,45.698583999780816],[-121.90142600005464,45.69850099987895],[-121.90162000022339,45.69843199998769],[-121.90175499994258,45.69838499970386],[-121.90247700019096,45.69822900021402],[-121.90371400010012,45.69786100011137],[-121.90398799973651,45.69756500023549],[-121.90413699969942,45.69750199988371],[-121.90421700006537,45.69746899982053],[-121.90429999990603,45.697435000248404],[-121.90439000031773,45.69739700018543],[-121.90451199961815,45.69744400004489],[-121.9046909997183,45.697514000015964],[-121.90497100010077,45.69779699998272],[-121.90503399984996,45.69800800029625],[-121.90508800027665,45.69810599999563],[-121.90510199962205,45.698153999990645],[-121.90511699969065,45.6982329999972],[-121.90514400035312,45.698310999790976],[-121.90516500026955,45.69835200016178],[-121.90525499978293,45.698501999976784],[-121.90537199995877,45.69843099988861],[-121.90540700011888,45.698408000114675],[-121.90555899955652,45.69830999968973],[-121.90571099989248,45.698203000047585],[-121.90578700006046,45.69813399978858],[-121.90588599979465,45.69804499983802],[-121.90602200023712,45.697897000269215],[-121.90609900023001,45.69779300016829],[-121.90631299959192,45.69743000029111],[-121.9064160004224,45.697280000110084],[-121.90653400042318,45.697134000015986],[-121.90663800018027,45.69702099988772],[-121.90666400011952,45.69699400028964],[-121.90675700000592,45.696902000027706],[-121.90685599974015,45.69681299999852],[-121.90698799998462,45.696708999763764],[-121.90729099993334,45.69651399982187],[-121.90732199989547,45.69649499979439],[-121.90745499996487,45.696423000160074],[-121.90793500036388,45.696181999733554],[-121.90819300010673,45.696012999778205],[-121.90822800026685,45.69597899994821],[-121.90826900027471,45.695941000150704],[-121.90833100019901,45.69584799989337],[-121.90837100038196,45.695659999872326],[-121.9084280002834,45.69531500023211],[-121.90846099989534,45.69522699971583],[-121.90848699983461,45.69515999986445],[-121.90858100044424,45.694965000168125],[-121.90881200042294,45.694565999732205],[-121.90887900037008,45.6943999997989],[-121.90890399958613,45.69421600000016],[-121.91003699973822,45.69421899989599],[-121.91032399979339,45.694220000070395],[-121.91093800008673,45.69368800013552],[-121.91131399983037,45.693369000167706],[-121.9116679998327,45.69306500005318],[-121.91178199963552,45.69295499982339],[-121.91208499958421,45.69270400000628],[-121.91338299959276,45.69158499988327],[-121.9141540002449,45.690921000077395],[-121.91487599959497,45.690299000164075],[-121.91611500005227,45.68923099990389],[-121.9170330001192,45.68844199970038],[-121.9183350003257,45.68733500008525],[-121.91873899965843,45.686991000223195]]]},"properties":{"AREALAND":"4259493","AREAWATER":"380048","BASENAME":"Stevenson","CBSAPCI":"N","CENTLAT":"+45.6943544","CENTLON":"-121.8931455","FUNCSTAT":"A","GEOID":"5367875","INTPTLAT":"+45.6964404","INTPTLON":"-121.8979141","LSADC":"25","MTFCC":"G4110","NAME":"Stevenson city","NECTAPCI":"N","OBJECTID":15990,"OID":"27890254087403","PLACE":"67875","PLACECC":"C1","PLACENS":"02411980","STATE":"53","DISP_CLR":5,"slug":"stevenson","jurisdiction_key":"stevenson_city","county_fips":["53059"]}}]}
