{"type":"FeatureCollection","features":[{"type":"Feature","geometry":{"type":"MultiPolygon","coordinates":[[[[-122.38358299985327,48.240488999771756],[-122.3835130004314,48.240401000056075],[-122.38322999967588,48.24012100000803],[-122.3828170001223,48.23981199987697],[-122.38260600023513,48.23967900024893],[-122.3823919999749,48.23953999998476],[-122.38217000021702,48.239407000247866],[-122.38194199971308,48.23927900013407],[-122.38170599971153,48.23915600027923],[-122.3814649996871,48.239040000237566],[-122.38121699999,48.238928999935936],[-122.38096400027,48.23882399976855],[-122.38085299994192,48.2387820001199],[-122.38070499980391,48.23872499977235],[-122.38044200003817,48.23862499981737],[-122.37997800043098,48.23848900018711],[-122.37972099961473,48.238416999954936],[-122.37951599957532,48.238367000000004],[-122.3793730003585,48.23833299995487],[-122.37914300020473,48.23828299991786],[-122.3790150001582,48.23825699980748],[-122.3788229996393,48.23822100013915],[-122.37877900015665,48.23821300014293],[-122.3784789996827,48.23816399976482],[-122.37832600042013,48.23814400004881],[-122.37817999993196,48.23812399972662],[-122.3779010002727,48.23809300004947],[-122.37777800024907,48.23810399999497],[-122.37713800001646,48.23817399991903],[-122.37704699977985,48.2382070002945],[-122.37691100023571,48.23825600003311],[-122.37349800043407,48.23947200023443],[-122.37158199993422,48.24015399972582],[-122.37054500004162,48.24019800011419],[-122.36972700043208,48.24000600009985],[-122.36950700032403,48.23994499975749],[-122.369291000414,48.239878000288236],[-122.36907999962848,48.23980499987367],[-122.36887299993923,48.23972499993898],[-122.36867200009779,48.23963999994605],[-122.36847700010412,48.23954900012089],[-122.36828799995824,48.239451999833186],[-122.36810600038336,48.239349999998346],[-122.36792999975795,48.23924299998827],[-122.36776099970355,48.23913000001423],[-122.36760099986998,48.239013000154024],[-122.36748799989208,48.23892300017153],[-122.3674479997091,48.23889100001994],[-122.36730299994414,48.23876499993892],[-122.3672779998298,48.23874100020172],[-122.36716599967679,48.23863400011448],[-122.3671389999126,48.23860800018249],[-122.36709600025489,48.23862400005014],[-122.36706799976751,48.23863600024675],[-122.36625600000578,48.238923999932865],[-122.36624099993716,48.2389919998133],[-122.36622300039383,48.23904099999662],[-122.3662009997542,48.23909899975004],[-122.36612600030942,48.23914099973676],[-122.3660459999435,48.23918600015437],[-122.3660040001107,48.239210000281126],[-122.36506599995226,48.23703899984957],[-122.36536200022829,48.23599100018285],[-122.36533799993884,48.23599100018285],[-122.36529399955792,48.23599100018285],[-122.36520599969435,48.23598999976585],[-122.3650049998529,48.23598100020024],[-122.36483900017157,48.235974000271085],[-122.36466300044448,48.23596999979828],[-122.36431199991685,48.23596400028515],[-122.3641529999082,48.235955999936],[-122.36378499966217,48.23594500012702],[-122.36357399977497,48.235942999889545],[-122.36257700006533,48.235915000146385],[-122.36217399965919,48.23590900002847],[-122.36194400040372,48.23590699978958],[-122.36178200002203,48.23590800020821],[-122.3617250001206,48.23590200008946],[-122.3616680002192,48.23589100026886],[-122.36161499961743,48.235875999965735],[-122.36154900039351,48.23583400029027],[-122.3615059998375,48.23576700022373],[-122.36149999998972,48.23569699999798],[-122.36150099981464,48.23565800024951],[-122.36150199963956,48.2356280001006],[-122.36150900021056,48.23542399993771],[-122.36151300040851,48.23532599977555],[-122.36152099990612,48.23507100018352],[-122.36152299955596,48.23500900010241],[-122.36152299955596,48.23493900003626],[-122.35977500018393,48.234921999775004],[-122.35958699986294,48.23496199992324],[-122.3595419996571,48.23505700007525],[-122.35939400041741,48.23542399993771],[-122.35892700043719,48.23541099975607],[-122.35837000004526,48.23539599991053],[-122.3578389995926,48.235381999891196],[-122.35773499983554,48.23551000018179],[-122.35757500000199,48.235577999813295],[-122.35691800005094,48.23585500013231],[-122.35674499979858,48.23592800019997],[-122.35666199995792,48.23594900000344],[-122.35726600020548,48.23664500006668],[-122.35729200014475,48.23940399979545],[-122.35729299996967,48.23945800013386],[-122.3568100000959,48.23946199973563],[-122.35471500039425,48.239489000180505],[-122.35291500024537,48.239509999718905],[-122.35199999965319,48.239520000208366],[-122.34887899992955,48.23955800025544],[-122.347657000089,48.23957199973039],[-122.3472970002389,48.23957599992155],[-122.34716900019238,48.239431000270926],[-122.34705700003937,48.239304999725036],[-122.34666600022712,48.23886300009521],[-122.34545000023434,48.23748700021384],[-122.34480699962872,48.23675899994831],[-122.34362900016907,48.235535000065646],[-122.3426859999878,48.23465500003363],[-122.34191000021107,48.23410400002652],[-122.34103800017488,48.23351100028215],[-122.3399979999092,48.23288699980929],[-122.33925899994242,48.23249799979985],[-122.33868200035732,48.23219600014844],[-122.33847499976977,48.23209799978738],[-122.33742100015873,48.231603999738105],[-122.33667299997109,48.23129500022506],[-122.33574099966044,48.230958999897666],[-122.33566500039076,48.230927000150366],[-122.3348510000809,48.230665000120275],[-122.33217700024602,48.229803000220286],[-122.33147099989118,48.22957600026725],[-122.33142200038571,48.22964000023467],[-122.33138899987541,48.22968500003293],[-122.33129699981392,48.2298079999179],[-122.33119100040703,48.22995299991351],[-122.33131899955522,48.23004599992138],[-122.33066699962707,48.23061000015142],[-122.33090299962862,48.23109700022431],[-122.33095600023039,48.23230499971897],[-122.33082499981082,48.23227400010628],[-122.33062999981715,48.232243999768336],[-122.33057000044099,48.232235000142225],[-122.33040399986135,48.23221499990363],[-122.33018299992838,48.232201000210694],[-122.32974000023759,48.232169000043285],[-122.32966800026757,48.23216399997789],[-122.32908900013436,48.2321699999366],[-122.32895900043803,48.2321750000014],[-122.32873599995693,48.232184000236415],[-122.32850199960521,48.2321819998519],[-122.32840799989388,48.2321759998946],[-122.32829599974087,48.2321699999366],[-122.3279669998529,48.23212900010509],[-122.32789400005798,48.23219700004127],[-122.3270789999232,48.23219600014844],[-122.32627800003215,48.232191000085734],[-122.3262129997348,48.23221800017928],[-122.32600600004555,48.23236100014915],[-122.3258899996946,48.232468000191616],[-122.32575099977743,48.23262100010406],[-122.32561199986026,48.23276400014448],[-122.32554999993599,48.23280500006559],[-122.32545000037688,48.23287099994262],[-122.32537000001095,48.23296900001996],[-122.32531099956137,48.23305000022312],[-122.32525399965999,48.233184000203764],[-122.32523100009375,48.23329200019176],[-122.32512700033666,48.23361599998483],[-122.3250229996813,48.23374099972036],[-122.32488499958902,48.23385699980973],[-122.32480099992344,48.233877999864845],[-122.32479900027364,48.2339459998702],[-122.32481599999207,48.23579199998196],[-122.32485399962688,48.237913000279],[-122.32485699999994,48.238235999754735],[-122.324860000373,48.23863999991283],[-122.32427899969163,48.238647000075495],[-122.3233320002107,48.23865700013533],[-122.3230510000033,48.23866000003325],[-122.3230590003992,48.23935499995982],[-122.32316200033137,48.23935400020685],[-122.32319499994334,48.23935099975138],[-122.32414300014749,48.23934099982719],[-122.32472999977836,48.239335000111105],[-122.32487100024365,48.23933300000611],[-122.3248810002894,48.24010099986047],[-122.32488600031226,48.24070899989436],[-122.32489600035802,48.2415510001625],[-122.3249030000307,48.24222799977723],[-122.32490399985561,48.24230799998542],[-122.32491100042662,48.24290100007322],[-122.32491599955115,48.24363399982522],[-122.32493399999284,48.245058000241364],[-122.32432499972238,48.2450739998864],[-122.32434900001182,48.24509599976399],[-122.32444199989823,48.24518199990178],[-122.32431800004969,48.245241000107484],[-122.32398599978866,48.245537999977394],[-122.32377300025165,48.245575000110314],[-122.32357400006003,48.24554999974859],[-122.32354200027295,48.245521000246924],[-122.32337900006635,48.24537199976319],[-122.32325100001985,48.245206000206586],[-122.32292200013185,48.245060999763915],[-122.32287600010112,48.245062000003536],[-122.32262500003094,48.245067000004916],[-122.32226699983065,48.24503000010276],[-122.32227699987641,48.24516300017594],[-122.32211299984488,48.24528599994482],[-122.32202199960825,48.2454050002811],[-122.32204599989774,48.245570000158594],[-122.321891000087,48.24573300024726],[-122.32167400035205,48.245842000291944],[-122.32138300009889,48.24592200023185],[-122.3211560003182,48.24599599991527],[-122.32089000017942,48.24610600021694],[-122.32081800020939,48.24617299990406],[-122.32077800002641,48.2463109998759],[-122.32079399991993,48.24639900019238],[-122.32080399996568,48.24645299972699],[-122.3207839998742,48.246589999930016],[-122.32077800002641,48.24674400029216],[-122.31999899987666,48.24674799992248],[-122.3192420003665,48.24675399996558],[-122.31924700038937,48.24771799974255],[-122.31924999986411,48.24844099991383],[-122.31925200041225,48.248541999993684],[-122.31925300023717,48.24902000020645],[-122.31925400006206,48.24923300021757],[-122.31925999990985,48.25032999972114],[-122.3192919996969,48.25032900018272],[-122.31929599989485,48.25041999997185],[-122.31931500016142,48.25109099990539],[-122.319222000275,48.251061999956576],[-122.31904700037283,48.25098299980636],[-122.3188840001662,48.25089599972685],[-122.31855299973009,48.25072000006225],[-122.31813599997858,48.250507000262964],[-122.31798100016789,48.25043800000297],[-122.31783800005277,48.25044000027189],[-122.31784800009848,48.25396699988667],[-122.3181729997885,48.25395599976355],[-122.31848400013314,48.253942000038464],[-122.31964200039958,48.25389900017529],[-122.31979399983723,48.2538900001715],[-122.31996200006671,48.2538859999035],[-122.32074799988919,48.25385600027591],[-122.32114600027244,48.25384400006111],[-122.32110199989151,48.25664599979369],[-122.32502400040453,48.256563999853235],[-122.32502500022943,48.256633000220354],[-122.32502600005435,48.25672500016622],[-122.32501699983354,48.256894000038535],[-122.32501299963556,48.25710600014301],[-122.32500000011508,48.25736499994092],[-122.32500400031303,48.25761800025703],[-122.3250019997649,48.257811999930276],[-122.32499900029016,48.25808000020401],[-122.32498900024443,48.259156000263495],[-122.32498500004648,48.25960500005337],[-122.32498500004648,48.25966800018128],[-122.32496499995497,48.25991400022196],[-122.32495599973416,48.259965999942885],[-122.32493599964266,48.26008899999223],[-122.32491599955115,48.260160000274986],[-122.32785800007298,48.260164999996384],[-122.32819799983157,48.2601659999406],[-122.32820399967937,48.2598820000454],[-122.32821000042547,48.259307999942585],[-122.33496200040899,48.259336000038786],[-122.33610600043174,48.259340999840774],[-122.33873099986279,48.259219999711306],[-122.3387350000608,48.25911399996554],[-122.33873099986279,48.258352000187955],[-122.33871199959624,48.25781799987145],[-122.33869700042592,48.25758499984473],[-122.33881600025161,48.25757999987105],[-122.33916299968293,48.25758999981797],[-122.33992900031222,48.25759499979066],[-122.34073400040128,48.25761800025703],[-122.34083300013548,48.25761800025703],[-122.34124700041227,48.25762300022704],[-122.34138700015433,48.25761300028653],[-122.34138700015433,48.25695699991878],[-122.34139300000211,48.25613800020528],[-122.34143800020796,48.256135000136226],[-122.34235899974964,48.25614499976767],[-122.34250199986478,48.25614599979051],[-122.34272600017077,48.25614899985897],[-122.34272600017077,48.25616899971254],[-122.3427289996455,48.25661900003204],[-122.34273399966835,48.257091000079875],[-122.34276200015577,48.25707600001234],[-122.34284499999646,48.25706599996488],[-122.34300599965492,48.257045999864104],[-122.34324900022749,48.25695799992573],[-122.34338399994668,48.256880999930154],[-122.3436440002377,48.256735000280415],[-122.34382099978968,48.25660399982603],[-122.34388600008704,48.256546000184244],[-122.34400099971478,48.25650400013441],[-122.34447299971787,48.25649700002311],[-122.34474999972731,48.25645399991623],[-122.34490000041346,48.256392000032314],[-122.3449599997896,48.25634699979937],[-122.34508399963815,48.25625999987468],[-122.34512800001907,48.25622899982449],[-122.34519599979113,48.256182000001964],[-122.345312999967,48.256126999951164],[-122.345537000273,48.25606400024434],[-122.34598699963648,48.25602099977335],[-122.34643500024843,48.25603300007532],[-122.34661299962536,48.256022999823855],[-122.34671800010567,48.255999999836156],[-122.34674999989272,48.255984000020646],[-122.34675300026575,48.255866999834396],[-122.3467569995654,48.2557039997471],[-122.34675599974048,48.2556849997435],[-122.346847999802,48.255576999777595],[-122.34712599963635,48.255192000202946],[-122.34714200042816,48.25516999988335],[-122.34725100020813,48.25501999995319],[-122.34743799980588,48.25496299975668],[-122.34746499957006,48.25495499998635],[-122.34769100042418,48.254885000297726],[-122.34831900006292,48.25469299978831],[-122.34852599975214,48.25462900005641],[-122.34854099982074,48.2546239997936],[-122.34857199978288,48.254612999811876],[-122.34878000019535,48.25453699992763],[-122.34906700025053,48.254432000098475],[-122.3491490002663,48.25440200019315],[-122.3491929997489,48.254384999820246],[-122.34942000042794,48.254301999783415],[-122.34957100004067,48.25424700010269],[-122.34964899985849,48.25424199980256],[-122.34966599957693,48.25424099974248],[-122.35006399996017,48.2542129998464],[-122.35010400014318,48.254169000149595],[-122.35013699975512,48.25413299971703],[-122.35022100031902,48.25404300002001],[-122.35065099959102,48.25403800029803],[-122.35100499959334,48.254035000105745],[-122.35104099957834,48.25403400004162],[-122.35129400019666,48.25402999978484],[-122.35204800023207,48.25402399999725],[-122.35206400012561,48.25518399987033],[-122.35206599977542,48.25550100013007],[-122.35206199957744,48.255561999863986],[-122.35237600029514,48.255576999777595],[-122.35252000023517,48.25559100025125],[-122.35255700004512,48.255592000284935],[-122.35277399978008,48.25550899981497],[-122.35345500002055,48.25524900014412],[-122.35343400010416,48.25516899984141],[-122.35437700028547,48.25514199989789],[-122.35457399992895,48.25513400015557],[-122.35501599979483,48.25511700002607],[-122.35516399993283,48.255135000198194],[-122.35520099974276,48.255139999812904],[-122.35536099957632,48.25515399980806],[-122.3553089996978,48.25501400028177],[-122.35528699995648,48.25495499998635],[-122.35512999959765,48.25460299988075],[-122.35507900044233,48.25448900028882],[-122.3550690003966,48.254467999722394],[-122.35501199959685,48.25435100025382],[-122.35498300018284,48.25428900021219],[-122.35487699987766,48.25409599979432],[-122.35482900019707,48.25400800016152],[-122.3547680000977,48.253894999907956],[-122.35460300024127,48.25365800025885],[-122.35458300014976,48.2536279998994],[-122.35442199959296,48.25341300009775],[-122.3542530004369,48.2532029997944],[-122.35406000009304,48.252985999830926],[-122.35389400041169,48.252797999721686],[-122.35386900029735,48.25277099972237],[-122.35385099985567,48.25275099973587],[-122.35379700032732,48.252692999910224],[-122.35377999971058,48.25267399998397],[-122.35363800031864,48.25251799994477],[-122.35321399999611,48.2520510000652],[-122.35307300042913,48.251896000025795],[-122.35279899989443,48.25159500014294],[-122.35242700034874,48.2511860000144],[-122.35224300022573,48.25099000007446],[-122.35206599977542,48.25079299985393],[-122.35198100028492,48.250688000112554],[-122.35192100001046,48.25061500017098],[-122.35183800016978,48.25052500026351],[-122.3518180000783,48.250507000262964],[-122.35169699970447,48.25039900012689],[-122.35181700025338,48.25036300003086],[-122.35205400007985,48.2503619998949],[-122.35207800036929,48.25036400016678],[-122.35208300039218,48.25019299996594],[-122.35206599977542,48.24965200011892],[-122.35201999974468,48.24670099975994],[-122.35204300020919,48.24670099975994],[-122.35244700044024,48.24670099975994],[-122.3531629999425,48.246701999967485],[-122.35325199963096,48.246701999967485],[-122.3533749996546,48.246701999967485],[-122.35358399989198,48.24670300017501],[-122.35366000005996,48.24670300017501],[-122.35385000003076,48.24670300017501],[-122.35397399987933,48.24670300017501],[-122.3546969999526,48.24670300017501],[-122.35742600003906,48.246726999766096],[-122.35744100010768,48.24676300002891],[-122.35752599959817,48.24678700019006],[-122.35761199981191,48.246799000266385],[-122.35771999976694,48.24680100007941],[-122.35775199955397,48.24680200028505],[-122.35789100036945,48.246804999705276],[-122.35892400006414,48.2468130001525],[-122.3603579996168,48.24682500022273],[-122.36296000037996,48.246854000181465],[-122.3630959999241,48.24685599999235],[-122.36336299988777,48.24685599999235],[-122.36358600036887,48.24685799980319],[-122.36514100029532,48.24687400008153],[-122.36543199965016,48.2468770000958],[-122.3654469997188,48.2468770000958],[-122.3657429999948,48.246880000109854],[-122.36583099985835,48.246880000109854],[-122.36627500027235,48.246884999933506],[-122.36738400013502,48.24689399997379],[-122.36778099979504,48.24689699998688],[-122.36790299999376,48.2468980001906],[-122.36859400028,48.2469040002161],[-122.36902399955197,48.2469070002286],[-122.37018900038943,48.246916999870145],[-122.37031400006292,48.24691999988184],[-122.37074400023323,48.24693099972391],[-122.37092900018116,48.2469229998934],[-122.37096699981599,48.2469229998934],[-122.37163899983564,48.246927000107945],[-122.3718630001416,48.246928999915966],[-122.37218000033403,48.246854000181465],[-122.37245399997042,48.24682400001759],[-122.37252900031346,48.2468160001703],[-122.37326800028029,48.24678799979771],[-122.37425900014215,48.24678299996457],[-122.37486099984162,48.24677999994479],[-122.37506300040629,48.24678499977822],[-122.37508799962231,48.246785999984134],[-122.37511199991177,48.246785999984134],[-122.37510299969095,48.24676400023525],[-122.37506000003323,48.246726999766096],[-122.37503099972092,48.24604300012751],[-122.37493299981165,48.24574000003756],[-122.37485800036687,48.24560700026834],[-122.37468599993942,48.24530299975345],[-122.37452600010585,48.24473899995539],[-122.37449900034167,48.24464399983457],[-122.37449400031879,48.24458300023698],[-122.37449099994575,48.24452500012066],[-122.37448599992287,48.24441199984949],[-122.37449400031879,48.24439000027589],[-122.37454799984717,48.24425100024958],[-122.37457399978643,48.24418500009622],[-122.37460599957346,48.24411399976361],[-122.37466900022096,48.24397900003057],[-122.37473399961999,48.243840000083836],[-122.37476299993232,48.24377599992966],[-122.37478899987158,48.24370099975933],[-122.37480800013816,48.24364200017021],[-122.37482800022964,48.243584000183304],[-122.37487300043549,48.24344900024789],[-122.37492000029114,48.24331099973296],[-122.37495299990312,48.243213999997884],[-122.37496399977378,48.24317300004223],[-122.37500099958368,48.24303199973957],[-122.37503800029194,48.24289500017639],[-122.37507400027692,48.242758000246226],[-122.37510600006398,48.24262200023652],[-122.37513899967595,48.24248399988344],[-122.37517100036132,48.24234700004904],[-122.37520399997327,48.24221100014312],[-122.37527299957024,48.24191899980969],[-122.37529400038495,48.24183100016091],[-122.37534200006554,48.24163599997147],[-122.37534999956313,48.24160300001313],[-122.37537300002768,48.24151000007041],[-122.37540200033999,48.24139300026898],[-122.37540599963965,48.2413759997591],[-122.37543900014992,48.24123899994855],[-122.37546199971614,48.24114500022438],[-122.37546799956392,48.24112200012557],[-122.3754800001578,48.24108899983565],[-122.3754940004015,48.24104300017557],[-122.37550699992198,48.241015999952616],[-122.37566799958046,48.24101700027133],[-122.37578499975633,48.24101399991339],[-122.37594999961277,48.241011999874054],[-122.37643300038486,48.24100799979518],[-122.37729799985,48.2409969998758],[-122.3778030003634,48.24099200007485],[-122.37832600042013,48.240985999954106],[-122.37879000002732,48.240979999832604],[-122.3791130000675,48.24097700007078],[-122.37923799974098,48.24110500012392],[-122.37930700023625,48.241169999747804],[-122.37940000012269,48.241217000206824],[-122.37946299987188,48.24123400017126],[-122.37985700005716,48.24123800023246],[-122.38074199961383,48.24120399970231],[-122.38102399964615,48.24116400024622],[-122.38144700014375,48.241090000152944],[-122.38267800020513,48.240804000144315],[-122.38290400016096,48.24071599977397],[-122.38316600010177,48.240616000121136],[-122.38337000031626,48.24055400017841],[-122.38358299985327,48.240488999771756]]],[[[-122.31811300041234,48.248322000061336],[-122.31831500007873,48.24805299990209],[-122.3179829998177,48.247930999792665],[-122.3177769999534,48.2481919997652],[-122.31811300041234,48.248322000061336]]],[[[-122.32152600021404,48.20650200003384],[-122.32149299970375,48.206463000187775],[-122.32146599993959,48.206431000092365],[-122.3211649996407,48.206070999886364],[-122.32061399999486,48.206300000110716],[-122.32100999983,48.206785000222126],[-122.32122400009025,48.206665999859595],[-122.32152600021404,48.20650200003384]]],[[[-122.32884800010994,48.20526099975017],[-122.32893500014858,48.205080000218615],[-122.32850699962808,48.204850999927785],[-122.32778600010295,48.20446500007451],[-122.32698299966376,48.204288999920365],[-122.32649700031524,48.20418200023863],[-122.3261159996504,48.20423699986793],[-122.32530899991158,48.20435199993617],[-122.32489100033513,48.204411999765156],[-122.32485299980199,48.205663000186085],[-122.32845899994751,48.20607399989856],[-122.32884800010994,48.20526099975017]]]]},"properties":{"AREALAND":"7709621","AREAWATER":"30667","BASENAME":"Stanwood","CBSAPCI":"N","CENTLAT":"+48.2450068","CENTLON":"-122.3424589","FUNCSTAT":"A","GEOID":"5367455","INTPTLAT":"+48.2451443","INTPTLON":"-122.3422320","LSADC":"25","MTFCC":"G4110","NAME":"Stanwood city","NECTAPCI":"N","OBJECTID":20779,"OID":"27890921610450","PLACE":"67455","PLACECC":"C1","PLACENS":"02411971","STATE":"53","DISP_CLR":2,"slug":"stanwood","jurisdiction_key":"stanwood_city","county_fips":["53061"]}}]}
