{"type":"FeatureCollection","features":[{"type":"Feature","geometry":{"type":"Polygon","coordinates":[[[-117.98614799982204,47.303391000255814],[-117.98606499998135,47.30269800009009],[-117.98596200004918,47.301858999889916],[-117.98592500023926,47.30155899992951],[-117.98399399967083,47.30146099992284],[-117.98376699989011,47.30056600000396],[-117.98370699961565,47.30033300019405],[-117.98367700037673,47.30016200004631],[-117.98366300013302,47.30008399993418],[-117.98549599989386,47.2998919997771],[-117.98565900010048,47.29987400027868],[-117.98561300006973,47.29952600004018],[-117.985562999841,47.29951999996347],[-117.98539899980949,47.299528999773706],[-117.98535299977871,47.29936000010337],[-117.98533299968724,47.29926000024952],[-117.98527300031111,47.298962000209265],[-117.9852530002196,47.29886299993255],[-117.98522200025747,47.29865800014248],[-117.98513000019597,47.298043000268],[-117.98511500012737,47.29793900018934],[-117.98510699973144,47.297837999735556],[-117.98509300038604,47.29765700017692],[-117.98505099965493,47.297117000090665],[-117.98503700030953,47.29693700025797],[-117.98504700035528,47.296758000182244],[-117.98505099965493,47.29668799984483],[-117.98504399998222,47.29662000015944],[-117.98500100032453,47.29623900010745],[-117.98499899977641,47.29622399989573],[-117.98499399975351,47.296186000071415],[-117.98493000017942,47.296106999804145],[-117.98490800043814,47.295960999878716],[-117.98477000034586,47.295113999836545],[-117.98470000002567,47.29472600008996],[-117.98484999981348,47.294714999864055],[-117.98482399987421,47.29450699981457],[-117.98481999967626,47.294478999839136],[-117.9847879998892,47.29448100005547],[-117.97382300003785,47.29523400027467],[-117.9732270001862,47.29527500014873],[-117.97310800036051,47.294986000165736],[-117.97307499985024,47.29490600013798],[-117.9730220001468,47.294777000165745],[-117.97302299997169,47.29467400016509],[-117.97302600034475,47.294567999948995],[-117.97304100041337,47.294092999929234],[-117.97304999973588,47.29375599984451],[-117.9726000003724,47.29375800008818],[-117.97246099955692,47.29375800008818],[-117.97190999991108,47.2937589999054],[-117.96766100005824,47.29376800008689],[-117.96755800012608,47.29742900029872],[-117.96854099959202,47.297432000151176],[-117.9711299999364,47.29742900029872],[-117.97147899991586,47.297427999941696],[-117.97147899991586,47.2974519999756],[-117.97147700026605,47.29748700025943],[-117.97145600034965,47.29815299976537],[-117.97144999960355,47.298375999700234],[-117.97144600030391,47.29844999976306],[-117.97143399971002,47.298671000215194],[-117.97143000041036,47.2987460001973],[-117.9714250003875,47.298829000280904],[-117.97141899964141,47.298925000244424],[-117.97141100014377,47.29907900007576],[-117.97140899959565,47.29912099973035],[-117.97135199969425,47.2991390000943],[-117.97115400022584,47.29919900004479],[-117.96997099984505,47.29956799994895],[-117.96934200038139,47.29976099976792],[-117.96922500020554,47.30001199972851],[-117.96926799986326,47.30013400001927],[-117.96932099956668,47.30027999999723],[-117.96936699959747,47.3004999998117],[-117.96936800032069,47.300509000064274],[-117.96939599990976,47.3006360000809],[-117.96935599972682,47.300638999751406],[-117.96935599972682,47.300700000122376],[-117.96934800022919,47.30091499978008],[-117.9693339999855,47.30126499997365],[-117.96932700031282,47.301431000021196],[-117.96931999974178,47.30159399993136],[-117.9692929999776,47.30218399995653],[-117.96417999958618,47.302513999938654],[-117.96204600042478,47.302267000125624],[-117.96200899971655,47.30365000012697],[-117.96199000034828,47.30435899995788],[-117.96198799980014,47.304430999725895],[-117.96198100012747,47.304729000007114],[-117.96199799984588,47.30866799969943],[-117.9620149995643,47.312886999961755],[-117.96202499961007,47.31299899976071],[-117.95982000030357,47.3140169998829],[-117.95417299998473,47.31663799982761],[-117.953613999943,47.31689499997719],[-117.95303499980979,47.31715999996464],[-117.95325900011578,47.31739199992661],[-117.95491199995155,47.319099000295424],[-117.95509400042472,47.31928699973313],[-117.95507699980799,47.31937400021832],[-117.95524900023544,47.31935799992983],[-117.95537499973382,47.31935300021933],[-117.95564599989547,47.31935300021933],[-117.95606799966984,47.319365000132784],[-117.95663000008464,47.319380999810164],[-117.95683099992611,47.319381999751734],[-117.95688899965243,47.31938300030232],[-117.9574369998235,47.319379999868524],[-117.95763900038817,47.319379999868524],[-117.96043100022385,47.31936799995848],[-117.96209099973231,47.31936199969792],[-117.96204200022683,47.319269000139876],[-117.96202299996025,47.31475000022928],[-117.96319399974718,47.31390200027852],[-117.97282700015312,47.313688999942336],[-117.97278199994727,47.30988399983701],[-117.97273900028956,47.30988799971316],[-117.97271800037316,47.309804999936965],[-117.97266700031956,47.30955699995393],[-117.9726499997028,47.309474999787035],[-117.97263999965703,47.30942899992],[-117.97261000041813,47.30929100007858],[-117.97260100019732,47.30924600018484],[-117.97255599999144,47.30903599976796],[-117.97249300024228,47.308744000261164],[-117.97245399988422,47.30849799985862],[-117.9724389998156,47.30840500006183],[-117.9724320001429,47.30835399973051],[-117.97239899963265,47.308196000111415],[-117.97236900039371,47.308024999814165],[-117.97229499987556,47.30758499976901],[-117.97228300017997,47.30751199986688],[-117.97226499973834,47.30739199988376],[-117.97225999971545,47.30734099979322],[-117.97225600041581,47.30731000001273],[-117.97228900002777,47.30730899984266],[-117.97232900021075,47.3073070001116],[-117.97244399983846,47.3073040002103],[-117.97286999981081,47.30729000026259],[-117.97318899965305,47.30727299979899],[-117.97340000043856,47.30726199974692],[-117.97359600025712,47.307243999712135],[-117.97379500044877,47.307215999781214],[-117.973994999567,47.3071769997657],[-117.97419499958353,47.30712700025036],[-117.97455699998177,47.307021000025],[-117.97510000013,47.307009999920474],[-117.97592500031053,47.30700199973228],[-117.97621499984042,47.30699899981367],[-117.97681400006515,47.30699400015195],[-117.97848600016748,47.30697799976954],[-117.97848199996953,47.306444999945924],[-117.97848199996953,47.30612999997936],[-117.97848199996953,47.30583599986012],[-117.97847500029683,47.304727999788206],[-117.9785129999317,47.304727999788206],[-117.9815349999211,47.304705000230655],[-117.98258199985946,47.3046970003027],[-117.98263799993597,47.30479700022834],[-117.9828799997853,47.304744999852026],[-117.98352699969058,47.30460599974307],[-117.98349300025372,47.30447600006412],[-117.98350699959911,47.303801999733324],[-117.98351099979706,47.303605000303946],[-117.98614799982204,47.303391000255814]]]},"properties":{"AREALAND":"2723878","AREAWATER":"0","BASENAME":"Sprague","CBSAPCI":"N","CENTLAT":"+47.3048891","CENTLON":"-117.9712903","FUNCSTAT":"A","GEOID":"5367175","INTPTLAT":"+47.3048891","INTPTLON":"-117.9712903","LSADC":"25","MTFCC":"G4110","NAME":"Sprague city","NECTAPCI":"N","OBJECTID":12298,"OID":"27890480264308","PLACE":"67175","PLACECC":"C1","PLACENS":"02411958","STATE":"53","DISP_CLR":2,"slug":"sprague","jurisdiction_key":"sprague_city","county_fips":["53043"]}}]}
