{
  "type": "FeatureCollection",
  "features": [
    {
      "type": "Feature",
      "geometry": {
        "type": "Polygon",
        "coordinates": [
          [
            [
              -118.13303000030085,
              46.524168000045506
            ],
            [
              -118.1330060000114,
              46.52376500002486
            ],
            [
              -118.1329149997748,
              46.52371799989065
            ],
            [
              -118.13290700027719,
              46.523143999876545
            ],
            [
              -118.13288399981266,
              46.5218159996913
            ],
            [
              -118.13287700013997,
              46.521415999865
            ],
            [
              -118.13205899963212,
              46.52123499979482
            ],
            [
              -118.13173499976702,
              46.521163000138856
            ],
            [
              -118.13170899982778,
              46.52113999993674
            ],
            [
              -118.1313659996961,
              46.520828999902996
            ],
            [
              -118.1313570003736,
              46.52081700028934
            ],
            [
              -118.13108299983887,
              46.520449999854215
            ],
            [
              -118.13084400036259,
              46.5201369999279
            ],
            [
              -118.13068299980579,
              46.51995199998859
            ],
            [
              -118.13017300016786,
              46.5193650002812
            ],
            [
              -118.1290769998257,
              46.51796199973834
            ],
            [
              -118.12900599968059,
              46.51747900022859
            ],
            [
              -118.12886699976339,
              46.51650599989879
            ],
            [
              -118.12757299995283,
              46.515747999903034
            ],
            [
              -118.12718999963819,
              46.515735999785434
            ],
            [
              -118.12689699973522,
              46.51575800020502
            ],
            [
              -118.12659600033464,
              46.515661000226956
            ],
            [
              -118.12630699973134,
              46.51552299973029
            ],
            [
              -118.12609500001925,
              46.51540800028504
            ],
            [
              -118.12593500018565,
              46.515203999740486
            ],
            [
              -118.12590199967539,
              46.51516599980292
            ],
            [
              -118.1257050000319,
              46.51493700000701
            ],
            [
              -118.12543600041838,
              46.51490500003429
            ],
            [
              -118.1253240002654,
              46.514842999878965
            ],
            [
              -118.12474199975912,
              46.514789000284274
            ],
            [
              -118.12461999956038,
              46.51479499982975
            ],
            [
              -118.12390099968506,
              46.51483300002675
            ],
            [
              -118.1237760000116,
              46.51483900018558
            ],
            [
              -118.12364499959202,
              46.51482699986725
            ],
            [
              -118.12335199968905,
              46.514841000032305
            ],
            [
              -118.12291099964808,
              46.514842999878965
            ],
            [
              -118.12222199991001,
              46.51483799995307
            ],
            [
              -118.12225399969707,
              46.51618100010585
            ],
            [
              -118.11865400029765,
              46.51624799976764
            ],
            [
              -118.11826699978504,
              46.515667000294314
            ],
            [
              -118.11744300032774,
              46.51443399972404
            ],
            [
              -118.1172580003798,
              46.51415800018501
            ],
            [
              -118.11707400025679,
              46.513888999758095
            ],
            [
              -118.11647099983412,
              46.51390600029561
            ],
            [
              -118.1164130001078,
              46.515672000143944
            ],
            [
              -118.11781700042157,
              46.516349000135016
            ],
            [
              -118.11725900020471,
              46.51628199997957
            ],
            [
              -118.11725400018186,
              46.51641900019989
            ],
            [
              -118.1172509998088,
              46.516535000179566
            ],
            [
              -118.11725199963374,
              46.51809399980571
            ],
            [
              -118.12015999982033,
              46.51804900005757
            ],
            [
              -118.12123199987305,
              46.518029999850555
            ],
            [
              -118.12231099959847,
              46.51856799979275
            ],
            [
              -118.12230800012374,
              46.51844300018588
            ],
            [
              -118.12255499999593,
              46.51847899997357
            ],
            [
              -118.1228810004092,
              46.5185100001494
            ],
            [
              -118.1230439997175,
              46.5185180002318
            ],
            [
              -118.12321199994697,
              46.518517000067
            ],
            [
              -118.12356099992643,
              46.51849299981586
            ],
            [
              -118.12374300039963,
              46.51846900017228
            ],
            [
              -118.1239740003783,
              46.5184250002831
            ],
            [
              -118.12421299985458,
              46.518362000267274
            ],
            [
              -118.12576399958311,
              46.51835199982634
            ],
            [
              -118.12570699968171,
              46.51865700008433
            ],
            [
              -118.12569699963598,
              46.51883699992981
            ],
            [
              -118.12570199965882,
              46.51901399994847
            ],
            [
              -118.12575899956028,
              46.51929300000156
            ],
            [
              -118.12585999984259,
              46.519545000253814
            ],
            [
              -118.12599399973689,
              46.51979800009666
            ],
            [
              -118.12616600016433,
              46.520024000013116
            ],
            [
              -118.1263100001044,
              46.520176000232325
            ],
            [
              -118.12655199995372,
              46.52038399994077
            ],
            [
              -118.12663800016746,
              46.52044200005631
            ],
            [
              -118.12664499984012,
              46.52075899995602
            ],
            [
              -118.12665200041116,
              46.52103399984696
            ],
            [
              -118.12666499993163,
              46.52132500015781
            ],
            [
              -118.12666599975655,
              46.52150900025735
            ],
            [
              -118.12666599975655,
              46.52157000011585
            ],
            [
              -118.12650000007517,
              46.52157399993193
            ],
            [
              -118.1257050000319,
              46.52158999981137
            ],
            [
              -118.12562899986389,
              46.52159200002777
            ],
            [
              -118.12559299987889,
              46.52159300013593
            ],
            [
              -118.12234499993369,
              46.52003000021691
            ],
            [
              -118.12235199960637,
              46.520350999954005
            ],
            [
              -118.1223829995685,
              46.52168000020442
            ],
            [
              -118.1250649997993,
              46.521607999901924
            ],
            [
              -118.12605999985914,
              46.522266000147994
            ],
            [
              -118.12766599983925,
              46.52336300018074
            ],
            [
              -118.12769699980139,
              46.52336699986481
            ],
            [
              -118.12818100039837,
              46.52337700000083
            ],
            [
              -118.1282059996144,
              46.522841999719354
            ],
            [
              -118.12765599979349,
              46.52282700029409
            ],
            [
              -118.12763700042525,
              46.52157799974771
            ],
            [
              -118.12793199997802,
              46.521698999753234
            ],
            [
              -118.1280299998873,
              46.52173999976551
            ],
            [
              -118.12839999978316,
              46.521919999905506
            ],
            [
              -118.1289999998328,
              46.522199999968116
            ],
            [
              -118.13191999971495,
              46.52361999983515
            ],
            [
              -118.13303000030085,
              46.524168000045506
            ]
          ]
        ]
      },
      "properties": {
        "AREALAND": "510565",
        "AREAWATER": "0",
        "BASENAME": "Starbuck",
        "CBSAPCI": "N",
        "CENTLAT": "+46.5186367",
        "CENTLON": "-118.1254645",
        "FUNCSTAT": "A",
        "GEOID": "5367490",
        "INTPTLAT": "+46.5215985",
        "INTPTLON": "-118.1288760",
        "LSADC": "43",
        "MTFCC": "G4110",
        "NAME": "Starbuck town",
        "NECTAPCI": "N",
        "OBJECTID": 1187,
        "OID": "27890245511703",
        "PLACE": "67490",
        "PLACECC": "C1",
        "PLACENS": "02413330",
        "STATE": "53",
        "DISP_CLR": 1,
        "slug": "starbuck",
        "jurisdiction_key": "starbuck_city",
        "county_fips": [
          "53013"
        ]
      }
    }
  ]
}
