{
  "type": "FeatureCollection",
  "features": [
    {
      "type": "Feature",
      "geometry": {
        "type": "MultiPolygon",
        "coordinates": [
          [
            [
              [
                -122.2619779996549,
                47.22661200024423
              ],
              [
                -122.26185299998143,
                47.2211329998521
              ],
              [
                -122.26171999991205,
                47.2211329998521
              ],
              [
                -122.2609640002268,
                47.221143000153624
              ],
              [
                -122.25991200026557,
                47.22115800029731
              ],
              [
                -122.25865799973964,
                47.221174999763534
              ],
              [
                -122.25823299959221,
                47.22118100018399
              ],
              [
                -122.25741800035576,
                47.22118999989821
              ],
              [
                -122.25733999963963,
                47.221193999770676
              ],
              [
                -122.2561420000885,
                47.221210999835485
              ],
              [
                -122.25565500001679,
                47.22121700025187
              ],
              [
                -122.25502700037808,
                47.22122599995993
              ],
              [
                -122.25484999992776,
                47.221231999764484
              ],
              [
                -122.25484400008,
                47.221204000060695
              ],
              [
                -122.25482399998852,
                47.22113399982135
              ],
              [
                -122.25481300011786,
                47.22109599975725
              ],
              [
                -122.2546979995918,
                47.22083300030136
              ],
              [
                -122.25466699962966,
                47.22076300018225
              ],
              [
                -122.25430099993177,
                47.22019400029144
              ],
              [
                -122.25418899977876,
                47.22001399989517
              ],
              [
                -122.25319600026708,
                47.21841499977095
              ],
              [
                -122.25309800035778,
                47.21823500004662
              ],
              [
                -122.25304200028128,
                47.218114000068155
              ],
              [
                -122.25298299983173,
                47.21789800007568
              ],
              [
                -122.25297899963378,
                47.21750400011674
              ],
              [
                -122.25299700007544,
                47.216814000135344
              ],
              [
                -122.25300600029628,
                47.2159460002822
              ],
              [
                -122.25302399983963,
                47.21427599988707
              ],
              [
                -122.2529860002048,
                47.2140380003034
              ],
              [
                -122.25297699998396,
                47.21399299991852
              ],
              [
                -122.25295600006757,
                47.21388799988885
              ],
              [
                -122.25292500010544,
                47.213665999717094
              ],
              [
                -122.25273900033258,
                47.21268200005354
              ],
              [
                -122.25259200001949,
                47.211935000007564
              ],
              [
                -122.25255400038466,
                47.211812000008116
              ],
              [
                -122.25249699958495,
                47.21166899982381
              ],
              [
                -122.25234000012442,
                47.21138000027985
              ],
              [
                -122.2522339998192,
                47.211221000095726
              ],
              [
                -122.25216199984919,
                47.211120000091924
              ],
              [
                -122.25209499990203,
                47.211025999794785
              ],
              [
                -122.25156500017259,
                47.210346000239596
              ],
              [
                -122.25117500018526,
                47.20984700021213
              ],
              [
                -122.25100899960559,
                47.20963500024207
              ],
              [
                -122.25081500033515,
                47.20922799983589
              ],
              [
                -122.2507629995583,
                47.20904600026453
              ],
              [
                -122.25073800034227,
                47.20893599981844
              ],
              [
                -122.2506629999992,
                47.20871900007251
              ],
              [
                -122.25050700036357,
                47.20845600025063
              ],
              [
                -122.25042399962459,
                47.20833600013766
              ],
              [
                -122.2503819997918,
                47.20828400014676
              ],
              [
                -122.25030300014909,
                47.20820000000688
              ],
              [
                -122.25016699970665,
                47.20808700021184
              ],
              [
                -122.24915300027855,
                47.207313000036855
              ],
              [
                -122.24880099992605,
                47.20704999995644
              ],
              [
                -122.24851100039614,
                47.206832999817806
              ],
              [
                -122.24828799991504,
                47.20668400001575
              ],
              [
                -122.2481289999064,
                47.20659700027362
              ],
              [
                -122.24817400011224,
                47.20653100003736
              ],
              [
                -122.2483260004482,
                47.20652799991371
              ],
              [
                -122.2494329997627,
                47.20654499979843
              ],
              [
                -122.24999799965225,
                47.20655400016598
              ],
              [
                -122.25030999982177,
                47.206557999922
              ],
              [
                -122.25095300042742,
                47.20656900016492
              ],
              [
                -122.25094500003149,
                47.20618999974615
              ],
              [
                -122.25094400020657,
                47.206121000077395
              ],
              [
                -122.25094000000863,
                47.20591000011774
              ],
              [
                -122.25092999996289,
                47.20559099977956
              ],
              [
                -122.25092199956697,
                47.20500500026639
              ],
              [
                -122.2509099998714,
                47.20439799989808
              ],
              [
                -122.25090800022157,
                47.20428299997374
              ],
              [
                -122.25090599967342,
                47.20419299969981
              ],
              [
                -122.25090499984852,
                47.204108999794656
              ],
              [
                -122.2509030001987,
                47.20401899983587
              ],
              [
                -122.25090599967342,
                47.20396099995779
              ],
              [
                -122.25089800017584,
                47.20377700003023
              ],
              [
                -122.25130900007954,
                47.20378200029212
              ],
              [
                -122.25146200024044,
                47.20371899988762
              ],
              [
                -122.25183899980898,
                47.20357399986391
              ],
              [
                -122.25225100043596,
                47.20343900003276
              ],
              [
                -122.25274600000526,
                47.203285000154
              ],
              [
                -122.25290699966378,
                47.20323399979047
              ],
              [
                -122.25351900030726,
                47.20302200024289
              ],
              [
                -122.25417899973303,
                47.2027570002274
              ],
              [
                -122.25457399974326,
                47.20258600027245
              ],
              [
                -122.25472500025427,
                47.202496000171145
              ],
              [
                -122.25478800000349,
                47.20245099975807
              ],
              [
                -122.25484499990489,
                47.2023999998134
              ],
              [
                -122.25492199989779,
                47.20230399989227
              ],
              [
                -122.25497700014937,
                47.20217799977033
              ],
              [
                -122.25497999962411,
                47.202118000275505
              ],
              [
                -122.25499200021798,
                47.20204599981566
              ],
              [
                -122.25498100034731,
                47.20198299979086
              ],
              [
                -122.25495799988282,
                47.20190199982345
              ],
              [
                -122.25491600005002,
                47.20182499984527
              ],
              [
                -122.25486900019433,
                47.20176799973391
              ],
              [
                -122.25483300020933,
                47.201715000292886
              ],
              [
                -122.25475200001848,
                47.20164900008579
              ],
              [
                -122.25418999960368,
                47.20126200021538
              ],
              [
                -122.2541210000067,
                47.201223000213815
              ],
              [
                -122.25402200027251,
                47.2011479999424
              ],
              [
                -122.25382200025597,
                47.201019000301756
              ],
              [
                -122.25368199961557,
                47.20088400007227
              ],
              [
                -122.25383899997442,
                47.200806999837305
              ],
              [
                -122.25398100026462,
                47.20073599978313
              ],
              [
                -122.2541989998245,
                47.20059199989735
              ],
              [
                -122.25427199961945,
                47.2005430001014
              ],
              [
                -122.25428699968806,
                47.20053800014457
              ],
              [
                -122.25440800006189,
                47.200492000153616
              ],
              [
                -122.25463400001769,
                47.200422999787186
              ],
              [
                -122.25486499999636,
                47.200331000176256
              ],
              [
                -122.25521300015092,
                47.200208999875635
              ],
              [
                -122.25543499990877,
                47.20014399999115
              ],
              [
                -122.25601599969181,
                47.20014399999115
              ],
              [
                -122.25666000012237,
                47.20014399999115
              ],
              [
                -122.25666000012237,
                47.20013300024698
              ],
              [
                -122.25666099994729,
                47.20009800026896
              ],
              [
                -122.25666400032034,
                47.199933000061456
              ],
              [
                -122.25666599997015,
                47.19986599970864
              ],
              [
                -122.25666599997015,
                47.19983499981742
              ],
              [
                -122.25667000016813,
                47.1997709998468
              ],
              [
                -122.25679999986446,
                47.19975599975671
              ],
              [
                -122.25683199965151,
                47.19974900020147
              ],
              [
                -122.2569220000632,
                47.19972699993669
              ],
              [
                -122.25703400021618,
                47.19971300020732
              ],
              [
                -122.25717800015622,
                47.19970100000038
              ],
              [
                -122.25732799994407,
                47.199685999890505
              ],
              [
                -122.25740099973899,
                47.199677000188736
              ],
              [
                -122.25745699981547,
                47.19967000001276
              ],
              [
                -122.2575830002122,
                47.19966400020993
              ],
              [
                -122.25768199994639,
                47.19965700003223
              ],
              [
                -122.25782199968847,
                47.19966299983581
              ],
              [
                -122.25790600025238,
                47.19967299991389
              ],
              [
                -122.25798900009306,
                47.19968800002745
              ],
              [
                -122.25806400043612,
                47.19970000023733
              ],
              [
                -122.2581470002768,
                47.19971900000461
              ],
              [
                -122.2582519998588,
                47.199739000137754
              ],
              [
                -122.25830600028546,
                47.19975499999469
              ],
              [
                -122.25834499974519,
                47.19976599981727
              ],
              [
                -122.25836499983667,
                47.19977200021889
              ],
              [
                -122.25839300032409,
                47.199783000037904
              ],
              [
                -122.25843400033196,
                47.199796999748806
              ],
              [
                -122.25849500043134,
                47.199814999720466
              ],
              [
                -122.25857200042424,
                47.19981699985255
              ],
              [
                -122.25863400034851,
                47.199806999801645
              ],
              [
                -122.25867399963316,
                47.19977800000951
              ],
              [
                -122.25868000037927,
                47.19976099978722
              ],
              [
                -122.25868799987688,
                47.199739000137754
              ],
              [
                -122.25864600004407,
                47.199703000136815
              ],
              [
                -122.25858499994472,
                47.199654000130145
              ],
              [
                -122.25851499962452,
                47.19961599993194
              ],
              [
                -122.25850100027913,
                47.199608999747866
              ],
              [
                -122.25844699985247,
                47.1995860002702
              ],
              [
                -122.25843500015688,
                47.19958100022319
              ],
              [
                -122.25837800025546,
                47.199560000264796
              ],
              [
                -122.25831200013324,
                47.19953400024664
              ],
              [
                -122.25828700001888,
                47.199524999908775
              ],
              [
                -122.25825100003387,
                47.19951199989273
              ],
              [
                -122.25823299959221,
                47.199506999838746
              ],
              [
                -122.25814800010171,
                47.19948099979462
              ],
              [
                -122.25806799973576,
                47.19945100005654
              ],
              [
                -122.25801800040539,
                47.199438000022404
              ],
              [
                -122.25793899986432,
                47.19942200006982
              ],
              [
                -122.25784500015303,
                47.199393000067246
              ],
              [
                -122.25774300004576,
                47.19937900024979
              ],
              [
                -122.25762000002211,
                47.19936600019796
              ],
              [
                -122.25759499990777,
                47.199361999899665
              ],
              [
                -122.2575050003944,
                47.19934800007398
              ],
              [
                -122.25741300033289,
                47.19932600025326
              ],
              [
                -122.25734899986047,
                47.199314999729125
              ],
              [
                -122.25732899976896,
                47.199310000266955
              ],
              [
                -122.25726900039282,
                47.19929599981722
              ],
              [
                -122.25716599956235,
                47.19927699989846
              ],
              [
                -122.25714700019408,
                47.199273000203824
              ],
              [
                -122.25702099979739,
                47.199255000048296
              ],
              [
                -122.25692899973588,
                47.199255000048296
              ],
              [
                -122.25687799968227,
                47.19924299973778
              ],
              [
                -122.25684199969724,
                47.19923900004058
              ],
              [
                -122.25672100022173,
                47.19920299970038
              ],
              [
                -122.25667799966571,
                47.19919000021581
              ],
              [
                -122.25667900038894,
                47.199177000117665
              ],
              [
                -122.25667900038894,
                47.19915599999937
              ],
              [
                -122.25667900038894,
                47.19912600007753
              ],
              [
                -122.25667900038894,
                47.19899399985373
              ],
              [
                -122.25645300043314,
                47.19892499998062
              ],
              [
                -122.25621900008142,
                47.19885300007041
              ],
              [
                -122.25493500031658,
                47.198460000008275
              ],
              [
                -122.25302999968741,
                47.19768700016302
              ],
              [
                -122.2513740003769,
                47.197019000105406
              ],
              [
                -122.25078600002283,
                47.19678099999201
              ],
              [
                -122.25064200008279,
                47.19671300011233
              ],
              [
                -122.2504589997847,
                47.19662699970884
              ],
              [
                -122.2503480003549,
                47.196574999837324
              ],
              [
                -122.25024100022482,
                47.196523999737735
              ],
              [
                -122.25021000026268,
                47.19655300008764
              ],
              [
                -122.25015300036125,
                47.19660700023384
              ],
              [
                -122.25007999966802,
                47.196662000145416
              ],
              [
                -122.2499109996136,
                47.19679000018499
              ],
              [
                -122.24974400010733,
                47.1966960001288
              ],
              [
                -122.24950599955766,
                47.196561999708884
              ],
              [
                -122.24822799964059,
                47.19622899988748
              ],
              [
                -122.24781199971397,
                47.196087000250124
              ],
              [
                -122.24619599968815,
                47.195536000092474
              ],
              [
                -122.24593700012036,
                47.195435999975594
              ],
              [
                -122.24567099998158,
                47.19518699992775
              ],
              [
                -122.2455670002245,
                47.19512600000262
              ],
              [
                -122.24551699999579,
                47.19509600024386
              ],
              [
                -122.2455019999272,
                47.195086999763554
              ],
              [
                -122.24550500030023,
                47.194670000252216
              ],
              [
                -122.24551100014803,
                47.19381000017407
              ],
              [
                -122.24551299979784,
                47.19365700030185
              ],
              [
                -122.24426800039106,
                47.19364999994207
              ],
              [
                -122.24391900041162,
                47.19364099982695
              ],
              [
                -122.2438700000078,
                47.193548000175696
              ],
              [
                -122.24375500038008,
                47.193328000095974
              ],
              [
                -122.2432630002855,
                47.1923869997919
              ],
              [
                -122.24294899956782,
                47.192119999953896
              ],
              [
                -122.24276000032025,
                47.19195900021171
              ],
              [
                -122.24231799955605,
                47.19142800013679
              ],
              [
                -122.24200499956162,
                47.191052999914575
              ],
              [
                -122.24172000005456,
                47.19082100009621
              ],
              [
                -122.24118500030227,
                47.190385999916224
              ],
              [
                -122.24105600043083,
                47.190072999912104
              ],
              [
                -122.24091199959248,
                47.18998800029248
              ],
              [
                -122.2406399996059,
                47.189590000126024
              ],
              [
                -122.24043100026687,
                47.18948100019334
              ],
              [
                -122.2402300004254,
                47.18925699989777
              ],
              [
                -122.2400119999672,
                47.18914999981539
              ],
              [
                -122.23955099983475,
                47.188923000056064
              ],
              [
                -122.23888100036325,
                47.188593999805825
              ],
              [
                -122.23804100011411,
                47.18818099986518
              ],
              [
                -122.2377239999217,
                47.187981999790125
              ],
              [
                -122.23767399969297,
                47.18795100028189
              ],
              [
                -122.23728500042887,
                47.187538000222034
              ],
              [
                -122.23686600012921,
                47.18734100017017
              ],
              [
                -122.23657499987608,
                47.187202999943146
              ],
              [
                -122.23627000027756,
                47.18705999996203
              ],
              [
                -122.23604900034462,
                47.186924000233084
              ],
              [
                -122.23536200025636,
                47.18650200001421
              ],
              [
                -122.23524799955524,
                47.18643199975762
              ],
              [
                -122.23427599995993,
                47.186058000276475
              ],
              [
                -122.23425699969336,
                47.18605300017579
              ],
              [
                -122.23366300038981,
                47.18590800010333
              ],
              [
                -122.2323949996202,
                47.185598000030375
              ],
              [
                -122.23135799972759,
                47.18519899987737
              ],
              [
                -122.22975799959524,
                47.185022999917074
              ],
              [
                -122.2296830001505,
                47.18502199987746
              ],
              [
                -122.22931999992734,
                47.18501500021028
              ],
              [
                -122.22932199957715,
                47.185245999729915
              ],
              [
                -122.2293259997751,
                47.18561099979211
              ],
              [
                -122.22933699964577,
                47.186632000158525
              ],
              [
                -122.22934099984374,
                47.18700099985756
              ],
              [
                -122.22935099988948,
                47.18802199973936
              ],
              [
                -122.2293469996915,
                47.18858899994402
              ],
              [
                -122.22936400030827,
                47.19015199973816
              ],
              [
                -122.22936199976013,
                47.19027799972745
              ],
              [
                -122.22936599995808,
                47.19167299985199
              ],
              [
                -122.22938699987448,
                47.19243599979463
              ],
              [
                -122.22940600014105,
                47.192625000079005
              ],
              [
                -122.22939799974513,
                47.19339500015854
              ],
              [
                -122.22784799984153,
                47.19341500023371
              ],
              [
                -122.22701199979036,
                47.19344399984102
              ],
              [
                -122.22590999960039,
                47.19365700030185
              ],
              [
                -122.22554100042775,
                47.193757999983696
              ],
              [
                -122.22528699998458,
                47.19375100024768
              ],
              [
                -122.2242359998482,
                47.194030999956766
              ],
              [
                -122.22408500023549,
                47.194080000272834
              ],
              [
                -122.21878000022345,
                47.195536000092474
              ],
              [
                -122.21606399965742,
                47.19628400019086
              ],
              [
                -122.21599699971028,
                47.196302999960565
              ],
              [
                -122.21587700005968,
                47.19633599973718
              ],
              [
                -122.2158079995644,
                47.19635500009867
              ],
              [
                -122.21580599991456,
                47.19616199974057
              ],
              [
                -122.21579900024189,
                47.195404999937686
              ],
              [
                -122.21225699967047,
                47.19542099988075
              ],
              [
                -122.21223599975404,
                47.19542199972444
              ],
              [
                -122.21192199993473,
                47.19542300017847
              ],
              [
                -122.2118240000254,
                47.19542300017847
              ],
              [
                -122.21079899982836,
                47.19542700016338
              ],
              [
                -122.21020299997669,
                47.19542899985046
              ],
              [
                -122.21008099977797,
                47.195430000304405
              ],
              [
                -122.20992000011948,
                47.19543100014792
              ],
              [
                -122.20949699962188,
                47.19543199999143
              ],
              [
                -122.20949800034508,
                47.19549199972246
              ],
              [
                -122.20951400023861,
                47.19617999972458
              ],
              [
                -122.20947700042869,
                47.19617999972458
              ],
              [
                -122.20837799971348,
                47.196185000092086
              ],
              [
                -122.20827800015437,
                47.19618599992137
              ],
              [
                -122.2081889995676,
                47.19618599992137
              ],
              [
                -122.20816000015358,
                47.19618599992137
              ],
              [
                -122.20816099997849,
                47.196217000113386
              ],
              [
                -122.20750300020256,
                47.196221000038385
              ],
              [
                -122.20750999987526,
                47.19607400000213
              ],
              [
                -122.20750700040051,
                47.1949419999538
              ],
              [
                -122.2035999999561,
                47.19494999999572
              ],
              [
                -122.20280300026299,
                47.19496200005633
              ],
              [
                -122.20216800005328,
                47.195298999887946
              ],
              [
                -122.20214299993891,
                47.19531300017155
              ],
              [
                -122.20203400015899,
                47.19537099973751
              ],
              [
                -122.20216999970307,
                47.19559099989336
              ],
              [
                -122.20225699974173,
                47.19573199979942
              ],
              [
                -122.20240099968177,
                47.19592599972446
              ],
              [
                -122.20259099965257,
                47.196146000020924
              ],
              [
                -122.20294399982997,
                47.19651999983557
              ],
              [
                -122.2032750002661,
                47.19679499988461
              ],
              [
                -122.20348799980312,
                47.196950999920375
              ],
              [
                -122.20295999972352,
                47.19728400009384
              ],
              [
                -122.20280900011078,
                47.197376999911945
              ],
              [
                -122.20280999993567,
                47.19761099997368
              ],
              [
                -122.20309399961782,
                47.197602999722555
              ],
              [
                -122.20317599963357,
                47.1977319997339
              ],
              [
                -122.20329899965724,
                47.197693999990236
              ],
              [
                -122.20336899997743,
                47.19777999988517
              ],
              [
                -122.20388100016352,
                47.19841300025948
              ],
              [
                -122.20455700038112,
                47.199086999726525
              ],
              [
                -122.20460400023677,
                47.19913900018817
              ],
              [
                -122.20280599973772,
                47.19916900010266
              ],
              [
                -122.20290399964702,
                47.2064150002183
              ],
              [
                -122.20824800001712,
                47.206355000022995
              ],
              [
                -122.20822600027583,
                47.209628999735486
              ],
              [
                -122.20822000042804,
                47.21119400014377
              ],
              [
                -122.20821500040518,
                47.21288600027106
              ],
              [
                -122.20819799978841,
                47.21353700000674
              ],
              [
                -122.20834900029946,
                47.21353900023168
              ],
              [
                -122.20925399994762,
                47.213551999861465
              ],
              [
                -122.20934000016133,
                47.213551999861465
              ],
              [
                -122.20960299992709,
                47.213552999973636
              ],
              [
                -122.21012299961076,
                47.213551999861465
              ],
              [
                -122.21086999997347,
                47.213551999861465
              ],
              [
                -122.21131900041034,
                47.213551999861465
              ],
              [
                -122.21172100009325,
                47.213551999861465
              ],
              [
                -122.21215799993628,
                47.213551999861465
              ],
              [
                -122.21227199973907,
                47.213551999861465
              ],
              [
                -122.21273899971932,
                47.213551999861465
              ],
              [
                -122.21290600012388,
                47.21355599969999
              ],
              [
                -122.21297100042123,
                47.21363399984659
              ],
              [
                -122.21302400012465,
                47.21369800017849
              ],
              [
                -122.21324500005761,
                47.21396199973959
              ],
              [
                -122.21349799977759,
                47.21426199972573
              ],
              [
                -122.2135050003486,
                47.21589900016021
              ],
              [
                -122.21351000037149,
                47.217166999770825
              ],
              [
                -122.21372899975628,
                47.2171659997268
              ],
              [
                -122.21617499998551,
                47.2171659997268
              ],
              [
                -122.21816599993011,
                47.217170999946845
              ],
              [
                -122.21883100027705,
                47.21717300003472
              ],
              [
                -122.2188339997518,
                47.21807400022633
              ],
              [
                -122.2188339997518,
                47.21811800017272
              ],
              [
                -122.21883499957669,
                47.21843400015703
              ],
              [
                -122.21883600029992,
                47.21863900022866
              ],
              [
                -122.21883700012482,
                47.218797000124006
              ],
              [
                -122.21883799994974,
                47.21911399972979
              ],
              [
                -122.21883799994974,
                47.21915800003341
              ],
              [
                -122.21883799994974,
                47.21928000007414
              ],
              [
                -122.21883999959958,
                47.21988099979285
              ],
              [
                -122.21884100032281,
                47.21992400007803
              ],
              [
                -122.2188420001477,
                47.22041699996195
              ],
              [
                -122.21884299997261,
                47.220785000264534
              ],
              [
                -122.21884399979753,
                47.22130499977251
              ],
              [
                -122.21884499962245,
                47.22216099974664
              ],
              [
                -122.21884499962245,
                47.22262999977382
              ],
              [
                -122.21884600034568,
                47.223076000257855
              ],
              [
                -122.21884600034568,
                47.22339800014625
              ],
              [
                -122.21884600034568,
                47.22352299996434
              ],
              [
                -122.21884700017058,
                47.22434899982131
              ],
              [
                -122.21884700017058,
                47.22443900005777
              ],
              [
                -122.21884799999548,
                47.225021999908634
              ],
              [
                -122.21884799999548,
                47.225362000021875
              ],
              [
                -122.2188489998204,
                47.22582999991249
              ],
              [
                -122.2188489998204,
                47.226268999990836
              ],
              [
                -122.2188489998204,
                47.226554000060275
              ],
              [
                -122.21884999964531,
                47.22666899988989
              ],
              [
                -122.21884999964531,
                47.22709200019317
              ],
              [
                -122.21884999964531,
                47.22717200027042
              ],
              [
                -122.21885100036855,
                47.22766599970459
              ],
              [
                -122.21885100036855,
                47.228088000144
              ],
              [
                -122.2188849998054,
                47.228088000144
              ],
              [
                -122.2189409998819,
                47.22808899998201
              ],
              [
                -122.21897100001911,
                47.22857299990221
              ],
              [
                -122.2189950003086,
                47.22898099989556
              ],
              [
                -122.219012000027,
                47.22925299997638
              ],
              [
                -122.21902899974546,
                47.22954000009342
              ],
              [
                -122.21903499959325,
                47.22962900024764
              ],
              [
                -122.21898799973756,
                47.22963399990232
              ],
              [
                -122.21888800017848,
                47.22964500023891
              ],
              [
                -122.21886499971392,
                47.22964800027489
              ],
              [
                -122.21886600043716,
                47.22972999976865
              ],
              [
                -122.21886700026205,
                47.22988800016136
              ],
              [
                -122.21887200028495,
                47.23042000002063
              ],
              [
                -122.21887800013272,
                47.23104799994888
              ],
              [
                -122.21887899995764,
                47.231100999969506
              ],
              [
                -122.21887899995764,
                47.23114400030407
              ],
              [
                -122.21888200033068,
                47.231465999984096
              ],
              [
                -122.2188839999805,
                47.2316829999778
              ],
              [
                -122.21887399993476,
                47.23204699988065
              ],
              [
                -122.21886399988902,
                47.23236799980689
              ],
              [
                -122.21885999969105,
                47.23243299985166
              ],
              [
                -122.21885800004124,
                47.232556999959954
              ],
              [
                -122.21885700021632,
                47.232586999883544
              ],
              [
                -122.21877400037565,
                47.2354530000351
              ],
              [
                -122.21874000004047,
                47.23819899987032
              ],
              [
                -122.21873900021555,
                47.238393000012536
              ],
              [
                -122.21873099981963,
                47.23901200026032
              ],
              [
                -122.21872800034488,
                47.23926100013041
              ],
              [
                -122.21872499997183,
                47.23954599986816
              ],
              [
                -122.21871599975101,
                47.24027799980913
              ],
              [
                -122.2187090000783,
                47.24081099986696
              ],
              [
                -122.21869800020767,
                47.24173299996078
              ],
              [
                -122.21869599965952,
                47.24186300017162
              ],
              [
                -122.21868700033701,
                47.242664999766006
              ],
              [
                -122.22322200042011,
                47.242709000037266
              ],
              [
                -122.2238400000131,
                47.242714999849674
              ],
              [
                -122.22395999966369,
                47.24271600002161
              ],
              [
                -122.22395800001387,
                47.24292800006769
              ],
              [
                -122.22395700018895,
                47.243112999711
              ],
              [
                -122.22393600027259,
                47.24386999986791
              ],
              [
                -122.22392600022681,
                47.24636100004828
              ],
              [
                -122.22602000010357,
                47.24636999975601
              ],
              [
                -122.22764600017517,
                47.24637699986643
              ],
              [
                -122.2277830004425,
                47.246377999969226
              ],
              [
                -122.22816800040697,
                47.24638000017481
              ],
              [
                -122.22891099967342,
                47.2463829998732
              ],
              [
                -122.22907700025308,
                47.24959600009287
              ],
              [
                -122.22908700029882,
                47.24973500026697
              ],
              [
                -122.22910900004011,
                47.2500340002342
              ],
              [
                -122.22930599968363,
                47.25004499999485
              ],
              [
                -122.23078399961724,
                47.25004499999485
              ],
              [
                -122.23312799973922,
                47.25004499999485
              ],
              [
                -122.23352299974944,
                47.25005699978655
              ],
              [
                -122.2335980000925,
                47.250068000152154
              ],
              [
                -122.23364099975021,
                47.25008300003727
              ],
              [
                -122.23368500013113,
                47.25012100005243
              ],
              [
                -122.23370600004753,
                47.25015399988305
              ],
              [
                -122.2337179997431,
                47.25020899975826
              ],
              [
                -122.2337319999868,
                47.25032900023013
              ],
              [
                -122.2345489997714,
                47.25025299986123
              ],
              [
                -122.23494600032976,
                47.25020600027655
              ],
              [
                -122.23500400005607,
                47.25035100023634
              ],
              [
                -122.23514499962309,
                47.25071199989209
              ],
              [
                -122.2294150003619,
                47.251773999934144
              ],
              [
                -122.22920000027673,
                47.251814999956096
              ],
              [
                -122.22928499976723,
                47.253713999726834
              ],
              [
                -122.22929999983586,
                47.25404299976089
              ],
              [
                -122.22947300008819,
                47.25704999990118
              ],
              [
                -122.22949400000459,
                47.25753800008984
              ],
              [
                -122.22949499982951,
                47.25755599997334
              ],
              [
                -122.22953400018757,
                47.25756199993313
              ],
              [
                -122.22979199993043,
                47.257559000258134
              ],
              [
                -122.23166700042238,
                47.25754400005167
              ],
              [
                -122.2383850000707,
                47.25748500029578
              ],
              [
                -122.23876099981435,
                47.25748200000676
              ],
              [
                -122.23982299982131,
                47.256103000157474
              ],
              [
                -122.24018199984653,
                47.255639000262434
              ],
              [
                -122.24090200044506,
                47.254710999859704
              ],
              [
                -122.24123800000571,
                47.25425099977864
              ],
              [
                -122.24158500033535,
                47.25368500014469
              ],
              [
                -122.24168900009242,
                47.25347900028027
              ],
              [
                -122.24181399976588,
                47.253235000031665
              ],
              [
                -122.24194900038341,
                47.25292800001099
              ],
              [
                -122.24205499979033,
                47.25265900006325
              ],
              [
                -122.24258799989278,
                47.25128100023354
              ],
              [
                -122.24308500001027,
                47.25008900023402
              ],
              [
                -122.2435820001277,
                47.25009299975506
              ],
              [
                -122.24368400023496,
                47.250094999820355
              ],
              [
                -122.24377499957323,
                47.250094999820355
              ],
              [
                -122.24387199965761,
                47.25009599985295
              ],
              [
                -122.24398499963554,
                47.25009699988558
              ],
              [
                -122.24404800028304,
                47.25009799991814
              ],
              [
                -122.24452100011105,
                47.25009299975506
              ],
              [
                -122.24518700028293,
                47.25012400014879
              ],
              [
                -122.24618300016765,
                47.250154999914535
              ],
              [
                -122.2464259998419,
                47.25015900004036
              ],
              [
                -122.24638099963606,
                47.24292500017362
              ],
              [
                -122.24654700021573,
                47.24292400000563
              ],
              [
                -122.24885199997966,
                47.242921000111316
              ],
              [
                -122.25312900031992,
                47.24291899977517
              ],
              [
                -122.25399700015817,
                47.242914999712426
              ],
              [
                -122.25448099985684,
                47.242889999770895
              ],
              [
                -122.25482900001136,
                47.24287000005307
              ],
              [
                -122.25528799959568,
                47.24288500014705
              ],
              [
                -122.25567299956013,
                47.242896999731315
              ],
              [
                -122.25575600029914,
                47.242900000236794
              ],
              [
                -122.25605199967684,
                47.242899000068334
              ],
              [
                -122.25672600024463,
                47.24288900021207
              ],
              [
                -122.25627799963264,
                47.24205900007411
              ],
              [
                -122.25576499962163,
                47.24112500018191
              ],
              [
                -122.25574100023053,
                47.2410809998148
              ],
              [
                -122.25477999960756,
                47.239326999885044
              ],
              [
                -122.25477100028506,
                47.23930800027831
              ],
              [
                -122.25469000009419,
                47.239149999914
              ],
              [
                -122.2546120002764,
                47.238971999718956
              ],
              [
                -122.25454399960603,
                47.23879100001755
              ],
              [
                -122.25448599987968,
                47.2386090000583
              ],
              [
                -122.25443999984894,
                47.2384250001878
              ],
              [
                -122.25440399986394,
                47.23824000003184
              ],
              [
                -122.25438299994751,
                47.23808200014222
              ],
              [
                -122.25437000042706,
                47.23792500004387
              ],
              [
                -122.25434399958945,
                47.23776400024843
              ],
              [
                -122.25434000028983,
                47.23772900009559
              ],
              [
                -122.25426400012185,
                47.23709799982217
              ],
              [
                -122.25411500015892,
                47.23574299981586
              ],
              [
                -122.25410299956505,
                47.23563299985452
              ],
              [
                -122.25400100035608,
                47.234693999734304
              ],
              [
                -122.25391599996729,
                47.23396499990498
              ],
              [
                -122.25390699974645,
                47.23381100021764
              ],
              [
                -122.25389000002802,
                47.23365799981578
              ],
              [
                -122.25389000002802,
                47.23354499998088
              ],
              [
                -122.25390699974645,
                47.233340000210525
              ],
              [
                -122.25394299973148,
                47.23314799996235
              ],
              [
                -122.25400700020388,
                47.232809999881226
              ],
              [
                -122.25401200022675,
                47.23278200019288
              ],
              [
                -122.254070999778,
                47.232522999782034
              ],
              [
                -122.25409400024252,
                47.23242299984997
              ],
              [
                -122.25412199983163,
                47.23229699991085
              ],
              [
                -122.25426699959655,
                47.23157300012857
              ],
              [
                -122.2543529998103,
                47.2311929998909
              ],
              [
                -122.25439700019122,
                47.23102500007308
              ],
              [
                -122.25444800024486,
                47.23090999993431
              ],
              [
                -122.25449000007765,
                47.23075800009471
              ],
              [
                -122.25489400030871,
                47.22974499992269
              ],
              [
                -122.25496100025585,
                47.22951499994096
              ],
              [
                -122.25501700033234,
                47.22928299994021
              ],
              [
                -122.25505999999007,
                47.22904999971403
              ],
              [
                -122.25514100018091,
                47.22850300024258
              ],
              [
                -122.25642699959556,
                47.22847299983731
              ],
              [
                -122.2586689996103,
                47.22845700010223
              ],
              [
                -122.25919900023804,
                47.22845399999883
              ],
              [
                -122.25917800032165,
                47.22667200009426
              ],
              [
                -122.2619779996549,
                47.22661200024423
              ]
            ]
          ],
          [
            [
              [
                -122.20028099986578,
                47.19192199990619
              ],
              [
                -122.20024400005585,
                47.191742999911725
              ],
              [
                -122.20015700001721,
                47.1912009997425
              ],
              [
                -122.2001079996134,
                47.1908949997748
              ],
              [
                -122.20007400017653,
                47.1906320001024
              ],
              [
                -122.2000449998642,
                47.19041400001973
              ],
              [
                -122.20000800005428,
                47.19013300020805
              ],
              [
                -122.19984099964972,
                47.188865000158195
              ],
              [
                -122.19982200028143,
                47.18872800020029
              ],
              [
                -122.19979499961896,
                47.188525999813386
              ],
              [
                -122.19909699966003,
                47.188540000052384
              ],
              [
                -122.19882200019875,
                47.18820599997218
              ],
              [
                -122.19891799955988,
                47.18820599997218
              ],
              [
                -122.19894799969713,
                47.18828900004764
              ],
              [
                -122.19908300031466,
                47.188480999761545
              ],
              [
                -122.19938799991316,
                47.18839000017764
              ],
              [
                -122.19944499981462,
                47.188231000067404
              ],
              [
                -122.19956399964028,
                47.188215999767515
              ],
              [
                -122.19975199996124,
                47.188204000012924
              ],
              [
                -122.19969000003697,
                47.18773300017626
              ],
              [
                -122.19895100007015,
                47.18773800011869
              ],
              [
                -122.19881800000077,
                47.18793299994862
              ],
              [
                -122.19888099974996,
                47.188105000102546
              ],
              [
                -122.19749200040316,
                47.18809400030457
              ],
              [
                -122.19749300022808,
                47.18820200005354
              ],
              [
                -122.1966730000704,
                47.18821299982909
              ],
              [
                -122.19492399997517,
                47.188238999900044
              ],
              [
                -122.19493900004379,
                47.191943999744495
              ],
              [
                -122.19598699980708,
                47.19194299983528
              ],
              [
                -122.19658900040483,
                47.19193900019827
              ],
              [
                -122.20004200038947,
                47.19192000008692
              ],
              [
                -122.20028099986578,
                47.19192199990619
              ]
            ]
          ],
          [
            [
              [
                -122.20030599998012,
                47.18455600013221
              ],
              [
                -122.20030699980502,
                47.18453400028418
              ],
              [
                -122.2002900000866,
                47.18453400028418
              ],
              [
                -122.2002569995763,
                47.18453300023537
              ],
              [
                -122.20016600023803,
                47.18453200018653
              ],
              [
                -122.2001639996899,
                47.18478400029597
              ],
              [
                -122.20015100016943,
                47.186328000130516
              ],
              [
                -122.20015000034451,
                47.18647400028896
              ],
              [
                -122.20015000034451,
                47.18658000026111
              ],
              [
                -122.20015700001721,
                47.18812199978577
              ],
              [
                -122.19999800000855,
                47.18811799986081
              ],
              [
                -122.1998619995661,
                47.18811699987951
              ],
              [
                -122.19987300033509,
                47.18819800013462
              ],
              [
                -122.1999169998177,
                47.188523999866185
              ],
              [
                -122.20007699965126,
                47.189719000082
              ],
              [
                -122.20013799975064,
                47.19017900002272
              ],
              [
                -122.20028400023881,
                47.19017500025272
              ],
              [
                -122.20028199969067,
                47.18982700018735
              ],
              [
                -122.20028099986578,
                47.18970500015403
              ],
              [
                -122.20028099986578,
                47.1896229998039
              ],
              [
                -122.20028000004086,
                47.18949800004635
              ],
              [
                -122.20027800039101,
                47.18907400021924
              ],
              [
                -122.20027900021593,
                47.18882400026577
              ],
              [
                -122.20028000004086,
                47.188602000194244
              ],
              [
                -122.20028099986578,
                47.18838099978099
              ],
              [
                -122.20028099986578,
                47.18816200023996
              ],
              [
                -122.20028199969067,
                47.18794599974902
              ],
              [
                -122.2002830004139,
                47.187671000240286
              ],
              [
                -122.20028400023881,
                47.18734700014535
              ],
              [
                -122.20028800043677,
                47.18679600020582
              ],
              [
                -122.20029199973644,
                47.186315999949066
              ],
              [
                -122.20029900030744,
                47.18542799975348
              ],
              [
                -122.2003040003303,
                47.184783000251855
              ],
              [
                -122.20030500015523,
                47.18475699970914
              ],
              [
                -122.20030599998012,
                47.18455600013221
              ]
            ]
          ],
          [
            [
              [
                -122.20295300005084,
                47.18456800010096
              ],
              [
                -122.20294499965489,
                47.184538999917415
              ],
              [
                -122.20280099971485,
                47.184538999917415
              ],
              [
                -122.20277300012577,
                47.184538999917415
              ],
              [
                -122.20273200011788,
                47.18453799986868
              ],
              [
                -122.20247000017704,
                47.184534999722445
              ],
              [
                -122.20241999994833,
                47.18453400028418
              ],
              [
                -122.20220499986321,
                47.18453100013768
              ],
              [
                -122.20219099961949,
                47.18453100013768
              ],
              [
                -122.20220700041133,
                47.18405900000978
              ],
              [
                -122.20216300003038,
                47.18405900000978
              ],
              [
                -122.2021489997867,
                47.18405900000978
              ],
              [
                -122.2019799997323,
                47.184055999836474
              ],
              [
                -122.20132199995635,
                47.18404599986798
              ],
              [
                -122.20120800015353,
                47.18404499980998
              ],
              [
                -122.20118800006206,
                47.18454699969595
              ],
              [
                -122.20130500023791,
                47.18454699969595
              ],
              [
                -122.20131799975837,
                47.18454899979303
              ],
              [
                -122.20247000017704,
                47.18456299985992
              ],
              [
                -122.20280099971485,
                47.18456700005277
              ],
              [
                -122.20295300005084,
                47.18456800010096
              ]
            ]
          ],
          [
            [
              [
                -122.26907100012026,
                47.20562899997022
              ],
              [
                -122.26907600014313,
                47.20440800030427
              ],
              [
                -122.26904400035608,
                47.204171999736
              ],
              [
                -122.26901800041682,
                47.20355999992905
              ],
              [
                -122.26897099966284,
                47.202405000205076
              ],
              [
                -122.26896599963997,
                47.20227300020488
              ],
              [
                -122.26763900021743,
                47.20227799999819
              ],
              [
                -122.2676319996464,
                47.20110399995355
              ],
              [
                -122.267574999745,
                47.201096000229086
              ],
              [
                -122.26704599984049,
                47.201013999779484
              ],
              [
                -122.26674000041707,
                47.20096699985166
              ],
              [
                -122.26612799977356,
                47.200886999904775
              ],
              [
                -122.26593299977988,
                47.20086500011188
              ],
              [
                -122.26572600009065,
                47.20084199995797
              ],
              [
                -122.2652590001104,
                47.200806000095085
              ],
              [
                -122.26496700003236,
                47.20079699997295
              ],
              [
                -122.26463499977133,
                47.200818000052095
              ],
              [
                -122.26420600032425,
                47.20086500011188
              ],
              [
                -122.26382700020757,
                47.20092499980305
              ],
              [
                -122.26364999975723,
                47.200963000284425
              ],
              [
                -122.26348800027387,
                47.201010000215796
              ],
              [
                -122.26321499956407,
                47.201112000287154
              ],
              [
                -122.262858000087,
                47.20128199976687
              ],
              [
                -122.2622999998702,
                47.20160099977261
              ],
              [
                -122.26190300021014,
                47.20182400012223
              ],
              [
                -122.2636160003204,
                47.20181300011602
              ],
              [
                -122.26360100025177,
                47.20246499998561
              ],
              [
                -122.26359399968077,
                47.20252800004835
              ],
              [
                -122.26357299976436,
                47.20321100005325
              ],
              [
                -122.26355500022102,
                47.204610999720366
              ],
              [
                -122.26201000034028,
                47.20432400012924
              ],
              [
                -122.26149899997911,
                47.20423199995934
              ],
              [
                -122.26055900017086,
                47.20405600025102
              ],
              [
                -122.26026799991773,
                47.204001000069916
              ],
              [
                -122.2599220003113,
                47.20393700024227
              ],
              [
                -122.25980099993748,
                47.203914000199525
              ],
              [
                -122.2598160000061,
                47.20530399999783
              ],
              [
                -122.25987799993038,
                47.205312999965685
              ],
              [
                -122.26083799983012,
                47.20544700025544
              ],
              [
                -122.26139000019916,
                47.20552399985888
              ],
              [
                -122.26248599964302,
                47.205646999794084
              ],
              [
                -122.26378200000175,
                47.205811000281216
              ],
              [
                -122.2643779998534,
                47.205889000223294
              ],
              [
                -122.26469800041885,
                47.20482399990804
              ],
              [
                -122.2655679999069,
                47.204985999950935
              ],
              [
                -122.26720900004713,
                47.20529199983495
              ],
              [
                -122.26717600043516,
                47.20349800017301
              ],
              [
                -122.26794999966374,
                47.20350200015946
              ],
              [
                -122.26799200039484,
                47.20543500012485
              ],
              [
                -122.26843400026073,
                47.20551499992687
              ],
              [
                -122.26907100012026,
                47.20562899997022
              ]
            ]
          ]
        ]
      },
      "properties": {
        "AREALAND": "19563879",
        "AREAWATER": "316619",
        "BASENAME": "Sumner",
        "CBSAPCI": "N",
        "CENTLAT": "+47.2188147",
        "CENTLON": "-122.2337926",
        "FUNCSTAT": "A",
        "GEOID": "5368435",
        "INTPTLAT": "+47.2323555",
        "INTPTLON": "-122.2377757",
        "LSADC": "25",
        "MTFCC": "G4110",
        "NAME": "Sumner city",
        "NECTAPCI": "N",
        "OBJECTID": 27611,
        "OID": "278901445839843",
        "PLACE": "68435",
        "PLACECC": "C1",
        "PLACENS": "02412001",
        "STATE": "53",
        "DISP_CLR": 3,
        "slug": "sumner",
        "jurisdiction_key": "sumner_city",
        "county_fips": [
          "53053"
        ]
      }
    }
  ]
}
