{"type":"FeatureCollection","features":[{"type":"Feature","geometry":{"type":"Polygon","coordinates":[[[-122.29114399993809,49.002390999886615],[-122.29097800025673,49.00079599981416],[-122.29088299982217,49.000012000260796],[-122.28860900002037,48.99998899978237],[-122.28732899955517,48.99998800024816],[-122.28688900023747,48.99998499987745],[-122.28671900035816,48.99996700000664],[-122.28559999955142,48.9999809999722],[-122.28554900039613,48.99996999978909],[-122.28545399996156,48.99993100024551],[-122.28546099963425,48.99992199971182],[-122.28549099977147,48.99985500014051],[-122.28546700038035,48.99964599984311],[-122.28539899970995,48.999039000081154],[-122.28529599977782,48.998124000283354],[-122.28489099972187,48.993808999889495],[-122.28477500026922,48.99265399992867],[-122.28492800043011,48.99265199997646],[-122.28506300014932,48.99264299989574],[-122.28519799986852,48.9926270002722],[-122.28537699996866,48.99257999987472],[-122.28556399956642,48.992497999877784],[-122.28562200019105,48.99246200002336],[-122.2856880003133,48.99241300009785],[-122.28579799991817,48.99231500010225],[-122.28589500000253,48.99217299997111],[-122.2859229995916,48.99205099979256],[-122.28595600010189,48.99191199976619],[-122.28611500011056,48.990201999985814],[-122.28615299974538,48.989824000186154],[-122.28622300006559,48.98911600016234],[-122.27930899970038,48.98918399978208],[-122.27595299980011,48.98920400010334],[-122.27134800029509,48.98922599991696],[-122.27008000042379,48.98923200018595],[-122.26831500043502,48.98923599977544],[-122.26744699969849,48.98924100029337],[-122.26706799958181,48.98924299979307],[-122.26639999976013,48.98924499988214],[-122.26624099975146,48.98924600022136],[-122.26607199969705,48.98924499988214],[-122.26595899971915,48.989192999898165],[-122.26666800044704,48.987411000028466],[-122.2669260001899,48.98676700008621],[-122.26730100010863,48.98562399980449],[-122.26728699986492,48.98562399980449],[-122.26720599967405,48.9856220001596],[-122.26707799962755,48.98562399980449],[-122.26699599961178,48.98562500021645],[-122.26641700037686,48.98561800028006],[-122.2661930000709,48.9856150002228],[-122.2645119997477,48.98558900011197],[-122.26399500043705,48.98558800028886],[-122.26377100013109,48.98558800028886],[-122.26297500026287,48.985586999876155],[-122.26294799960037,48.9855569998663],[-122.25860300038637,48.98561200016534],[-122.25859300034064,48.98579499980158],[-122.2584779998146,48.98772499981585],[-122.25839999999678,48.98904400025573],[-122.25838999995104,48.98918099993951],[-122.2571689999354,48.98920400010334],[-122.25676399987945,48.98920299976327],[-122.25602999993552,48.989206000193974],[-122.25602099971468,48.98929899989873],[-122.25598100043005,48.989718000123545],[-122.2558679995538,48.99089799976906],[-122.25574999955303,48.99082000000268],[-122.25528000009808,48.99057399975834],[-122.25523700044036,48.99054999991386],[-122.25519499970927,48.990504999953295],[-122.25509599997504,48.990395999801706],[-122.25506900021088,48.990371000144336],[-122.25504999994432,48.99034599988496],[-122.25498600037018,48.9902760000351],[-122.25490799965408,48.990190000270154],[-122.25475200001848,48.990030999786036],[-122.25451000016912,48.98980400011372],[-122.25447300035923,48.98976899982037],[-122.25442700032846,48.98972500007346],[-122.25404499983873,48.98971699979381],[-122.25389800042394,48.98968899998374],[-122.25355899959193,48.98961500024158],[-122.2534299997205,48.98967700014454],[-122.25318399967318,48.98966600004379],[-122.25293599997606,48.989544000210365],[-122.25294299964878,48.98997200011872],[-122.25295699989246,48.99053000013291],[-122.25296399956517,48.99083800023166],[-122.2529450001969,48.99273399971996],[-122.25408900021968,48.99273499998913],[-122.254479000207,48.99273499998913],[-122.2544010003892,48.992832000070194],[-122.25413100005247,48.99325899976736],[-122.25395299977721,48.9935420002542],[-122.25383200030171,48.99373499978295],[-122.2536270002623,48.994058999866716],[-122.25354699989634,48.99418599986498],[-122.25308699958882,48.99491400013771],[-122.25273000011175,48.995480999775445],[-122.25262399980654,48.99561699981941],[-122.25222100029872,48.99619200012703],[-122.25207900000851,48.99639500018793],[-122.25246800017092,48.996387999996394],[-122.2562969998992,48.99632199999416],[-122.25677999977297,48.99632199999416],[-122.25678399997092,48.996598000010955],[-122.25676300005453,48.996982000206636],[-122.25677599957503,48.997033000129655],[-122.25678899999379,48.99708699995658],[-122.25680999991022,48.997172000013045],[-122.25678999981871,48.997186000174835],[-122.25661099971857,48.997312999863084],[-122.2565279998779,48.99736400003659],[-122.25623400015002,48.99751799982756],[-122.25616800002777,48.99757299989011],[-122.25615999963185,48.997640000173604],[-122.25615499960898,48.9976899998426],[-122.2561489997612,48.99770799994691],[-122.25612199999703,48.997794000290035],[-122.25612100017212,48.997879999895254],[-122.25612100017212,48.997913000053885],[-122.25611399960111,48.997935000147486],[-122.25612500037009,48.99807200013662],[-122.2561010000806,48.998246999893055],[-122.25607299959324,48.99844500023666],[-122.25571699994106,48.99853399976562],[-122.25472100005635,48.99834200012635],[-122.25427800036556,48.99821699984373],[-122.25405800025754,48.9981279997484],[-122.2535910002773,48.99793900021703],[-122.25338100021499,48.99797100017252],[-122.25327499990978,48.9979869998479],[-122.25317399962745,48.998001999944044],[-122.25304099955807,48.99818799993611],[-122.25303300006047,48.998200000082846],[-122.25289499996819,48.99820800017907],[-122.25252599989724,48.99842900011906],[-122.25231900020802,48.99847299984072],[-122.25217500026798,48.99850299973582],[-122.2521769999178,48.99885100002744],[-122.25215400035158,48.99896699978075],[-122.25178299973248,48.998936000020485],[-122.25175699979322,48.9989339997311],[-122.25157600004326,48.998918999915624],[-122.25124700015529,48.99889200011846],[-122.25128300014032,48.99998999990587],[-122.2511070004132,48.99998999990587],[-122.25117500018526,49.00242000029375],[-122.25138400042263,49.00241900021901],[-122.25180799984685,49.00241900021901],[-122.2627650002006,49.00241200028472],[-122.26374299964367,49.00241100020986],[-122.26480899984861,49.00241100020986],[-122.26496000035968,49.00241100020986],[-122.2663140004447,49.00241100020986],[-122.26669799968596,49.00241000013494],[-122.2668919998547,49.00241000013494],[-122.26731199997927,49.002409000060034],[-122.26956300021486,49.00240799998507],[-122.27007500040092,49.00239899989901],[-122.272627999862,49.002391999961915],[-122.28508200041588,49.00239300003716],[-122.28563700025965,49.00239300003716],[-122.2857169997273,49.00239300003716],[-122.29069200002645,49.00238999981133],[-122.29114399993809,49.002390999886615]]]},"properties":{"AREALAND":"3800455","AREAWATER":"5272","BASENAME":"Sumas","CBSAPCI":"N","CENTLAT":"+48.9954937","CENTLON":"-122.2694059","FUNCSTAT":"A","GEOID":"5368330","INTPTLAT":"+48.9957548","INTPTLON":"-122.2689954","LSADC":"25","MTFCC":"G4110","NAME":"Sumas city","NECTAPCI":"N","OBJECTID":14995,"OID":"27890482591103","PLACE":"68330","PLACECC":"C1","PLACENS":"02412000","STATE":"53","DISP_CLR":3,"slug":"sumas","jurisdiction_key":"sumas_city","county_fips":["53073"]}}]}
