{"type":"FeatureCollection","features":[{"type":"Feature","geometry":{"type":"Polygon","coordinates":[[[-121.83426400041985,47.85844100004459],[-121.83419499992456,47.857346000179916],[-121.8341840000539,47.857144999974786],[-121.83416899998532,47.85687700029747],[-121.83380400011232,47.85697699982631],[-121.83371100022589,47.85700200028111],[-121.83188599996268,47.85747799996269],[-121.83099499965992,47.85771099989156],[-121.8289230004228,47.85827199993103],[-121.8227070000165,47.85995800013255],[-121.82072600011766,47.86049599980743],[-121.82063599970598,47.86051999986898],[-121.8205739997817,47.860460000296975],[-121.82038899983378,47.860280999865466],[-121.82032799973442,47.86022199992454],[-121.8200669996185,47.860121000114965],[-121.8192370003134,47.86027900005245],[-121.81868699959419,47.860383999775145],[-121.81828800028434,47.86031600019714],[-121.8178420002205,47.86039400002463],[-121.81657900037206,47.86046300000604],[-121.81496599982094,47.86036800009518],[-121.81389700014127,47.86020800001041],[-121.81124400022277,47.859868000074265],[-121.8108159997023,47.859812999928266],[-121.80897500044385,47.85963899987104],[-121.80688200039201,47.859454000084185],[-121.80575199971467,47.85942200014529],[-121.80525200012247,47.859391000110335],[-121.80437599988834,47.85941199970829],[-121.80363600009659,47.85944299973069],[-121.80328899976699,47.85944799994648],[-121.80209200004079,47.859450999714056],[-121.80048299968763,47.859476000181395],[-121.79906300037865,47.85944400025607],[-121.79872500026987,47.85936600020474],[-121.7984039998795,47.859389000262986],[-121.79807699964134,47.85926300008075],[-121.79687400006736,47.859547000020456],[-121.79506200022294,47.859204000186736],[-121.79428100042335,47.85923499973081],[-121.79396699970567,47.859271000091844],[-121.79388800006294,47.85928700011037],[-121.79377699973485,47.85931000020366],[-121.79360400038084,47.85937300027595],[-121.7932169998682,47.859635000195404],[-121.7922789997098,47.8604079998885],[-121.79114499973278,47.86116099991281],[-121.78964400023297,47.861761000064966],[-121.78942499994987,47.86183099991162],[-121.78859800011952,47.86196000010466],[-121.78872899964077,47.86195699987956],[-121.79005799961145,47.86192700002976],[-121.7902869999403,47.861922999927934],[-121.79093600039371,47.86191100022334],[-121.79094700026438,47.86203500025155],[-121.79094399989133,47.862220999737744],[-121.79093999969335,47.862517999779286],[-121.79093700021863,47.86271900024816],[-121.79064400031567,47.86272199982647],[-121.7906390002928,47.8630399999475],[-121.78917800007767,47.863051999993466],[-121.78742700033257,47.863061999728345],[-121.78722599959282,47.863064999889495],[-121.78712100001083,47.86319300017488],[-121.78708599985073,47.86323499989833],[-121.78693699988781,47.86335499978162],[-121.78636500032562,47.86381899973001],[-121.78629900020336,47.86387399984473],[-121.78619299989813,47.863994000056806],[-121.78612900032405,47.86406399990156],[-121.78606499985163,47.864135000086584],[-121.78644899999118,47.86413100015515],[-121.78858499970073,47.864109000225355],[-121.78858399987581,47.864124999956054],[-121.78857499965497,47.86448000009377],[-121.78857200018022,47.86460600025238],[-121.788542000043,47.865782999821164],[-121.78854100021809,47.865824000057145],[-121.78853799984506,47.86592000001244],[-121.78833199998074,47.86603200013733],[-121.78791100003126,47.86622399970231],[-121.78774500034989,47.866303999863526],[-121.78772799973314,47.866309999810376],[-121.78758999964087,47.86636500029525],[-121.78753699993742,47.866417999940246],[-121.78744800024899,47.866659000144026],[-121.78717999956207,47.86668700010004],[-121.7866759997719,47.866742000184864],[-121.78645400001405,47.86676200003688],[-121.78637700002118,47.86677300004259],[-121.78626200039345,47.866789000156274],[-121.78611099988237,47.86681199993443],[-121.78556899955906,47.86689699989071],[-121.78441799986363,47.86704899980525],[-121.78372499992759,47.86714100020306],[-121.7836489997596,47.86715099975173],[-121.78314800034249,47.867216999858314],[-121.78181500017386,47.86716099990112],[-121.78074700031911,47.867117000193666],[-121.78070999961083,47.86711599981638],[-121.77997999986489,47.86720800009527],[-121.77908000023962,47.86704500009867],[-121.7776430003139,47.86679700021128],[-121.77757299999372,47.866775000207696],[-121.77690900037001,47.866642000206376],[-121.77664999990388,47.86660399997116],[-121.7763400002825,47.86657200022722],[-121.77618600029672,47.86656100017885],[-121.77592199980775,47.86655800022004],[-121.77529400016905,47.86657000005424],[-121.77487300021954,47.86657399979747],[-121.77445700029297,47.86659399971431],[-121.77424800005558,47.866614000226086],[-121.77404499966602,47.86664399977398],[-121.77374599991525,47.86670400002293],[-121.77344999963923,47.866770000096054],[-121.77305600035226,47.866863999945515],[-121.77181600007003,47.86716000012733],[-121.77118000003541,47.867313000246725],[-121.77103400044555,47.86735199973229],[-121.77075999991082,47.867447000102445],[-121.7705950000544,47.86752299991161],[-121.77046000033518,47.86760500000891],[-121.77092800014034,47.86863800029427],[-121.77097499999597,47.86881099993298],[-121.77080599994159,47.86883300027757],[-121.77002799961674,47.868936000068445],[-121.76909799985422,47.86905699974848],[-121.7689120000814,47.869081000064796],[-121.76835499968946,47.869154000079874],[-121.76816999974156,47.869179000086135],[-121.76774600031735,47.86923399993699],[-121.76766500012647,47.86924500002065],[-121.76753100023217,47.86950000015586],[-121.7674540002393,47.869600000043604],[-121.7672450000019,47.86988100023198],[-121.76725599987257,47.86989999975437],[-121.76728000016199,47.86992599972389],[-121.76729600005555,47.86994200006944],[-121.7673150003221,47.86996800001785],[-121.76732899966753,47.869995000274955],[-121.76734100026137,47.87001799983566],[-121.7673499995839,47.87003299983183],[-121.76736200017778,47.87005100018312],[-121.76737499969823,47.870073000001334],[-121.76738800011705,47.870088999698936],[-121.76739800016279,47.87010900006722],[-121.76740900003345,47.870126000072865],[-121.76742099972903,47.8701459998243],[-121.7674280003,47.87017799977207],[-121.76743800034575,47.87020000013897],[-121.76744699966827,47.8702179998296],[-121.76745699971403,47.87023600011664],[-121.76746599993484,47.87025900017296],[-121.76747400033076,47.87033199973394],[-121.76748199982838,47.8703510002962],[-121.76748699985124,47.87036800022247],[-121.76749500024717,47.87038500014322],[-121.76750100009495,47.87040499979465],[-121.76750699994274,47.87042000028146],[-121.76751500033866,47.870448000013475],[-121.76751799981338,47.87045899983946],[-121.76752500038441,47.870485000131104],[-121.76753200005709,47.87050200001347],[-121.76753600025503,47.87051499984881],[-121.76753899972978,47.870537000072694],[-121.76754399975268,47.87055599995719],[-121.76754499957757,47.87057600014524],[-121.76753999955467,47.870592000290166],[-121.76753200005709,47.87061700020537],[-121.76752799985911,47.87064200010851],[-121.76753000040725,47.870732000142084],[-121.76752600020933,47.87081500028893],[-121.76752600020933,47.870854000152285],[-121.76752100018643,47.87090999973479],[-121.76751799981338,47.87092999978628],[-121.76751600016357,47.870949999829996],[-121.76752100018643,47.87096399985599],[-121.76752100018643,47.87099799990345],[-121.76751699998846,47.871035000231004],[-121.7675110001407,47.87106799993087],[-121.7675039995697,47.871097999913694],[-121.76750199991986,47.871123999884745],[-121.76749400042225,47.8711550001345],[-121.76748500020143,47.871183000071994],[-121.76748000017854,47.87120300001808],[-121.76748000017854,47.87122699994319],[-121.76746799958467,47.87130999989985],[-121.76745099986624,47.87137499983841],[-121.76745199969116,47.871407000232495],[-121.76745500006419,47.87142799978362],[-121.76745599988911,47.87147299974001],[-121.76745699971403,47.87149999981561],[-121.76745599988911,47.87152000024195],[-121.7674540002393,47.87154400002025],[-121.76745000004132,47.87156399982701],[-121.76746099991198,47.8716270000718],[-121.76746099991198,47.87167999975922],[-121.76745800043724,47.87169699985219],[-121.76745900026216,47.87172599978513],[-121.7688640004008,47.87167999975922],[-121.76888699996704,47.87166300026334],[-121.7689070000585,47.87164899982358],[-121.76904099995284,47.871636000272645],[-121.77098500004173,47.87157800028978],[-121.77116699961663,47.87154099974727],[-121.77147899978614,47.871470999756156],[-121.77176800038946,47.871454000191704],[-121.77200799969066,47.871454000191704],[-121.77225600028609,47.871538999766045],[-121.77226799998165,47.87159200014612],[-121.77228300005028,47.87166300026334],[-121.77230999981444,47.87161300022486],[-121.77237299956363,47.87158400022865],[-121.77242299979234,47.87157300003885],[-121.77249899996035,47.87157399972752],[-121.77264999957306,47.87156999976755],[-121.77381700006036,47.87154200003915],[-121.77386499974095,47.87154000005796],[-121.77427099962182,47.87153000015094],[-121.77429099971329,47.87153000015094],[-121.7749100000295,47.87150799974604],[-121.7752289998717,47.87149799983281],[-121.7755429996911,47.871495000159754],[-121.77683099965385,47.87146000014497],[-121.77717100031082,47.871450999913506],[-121.77727400024298,47.871446999944034],[-121.77743999992431,47.87144099998926],[-121.77747099988645,47.87144099998926],[-121.77750400039673,47.87144000029803],[-121.77760499978075,47.87143799971036],[-121.77763900011595,47.87143799971036],[-121.77762999989511,47.87180399991913],[-121.77762900007019,47.87185100012088],[-121.7776209996743,47.872902000100254],[-121.77761900002446,47.87318600003701],[-121.77762499987224,47.873268999868905],[-121.77761900002446,47.87350000002241],[-121.77761900002446,47.873541000179436],[-121.77762900007019,47.87423700005572],[-121.77762599969716,47.8743580000127],[-121.77762499987224,47.874415000263085],[-121.77763200044325,47.87463100026219],[-121.77763200044325,47.87470699977993],[-121.77763099972003,47.874808999718624],[-121.77762999989511,47.87499299991546],[-121.77944699976243,47.87497800014984],[-121.78019300030023,47.87497200000133],[-121.78253300022426,47.87495400015429],[-121.78296099984645,47.87494999985265],[-121.78429400001508,47.874940000001104],[-121.78563700022946,47.874928999921096],[-121.78562800000861,47.87539100006432],[-121.7855700002823,47.87847100018302],[-121.78556899955906,47.878551000117405],[-121.78554000014506,47.878551000117405],[-121.784627000101,47.87855500014103],[-121.78455400030607,47.87855500014103],[-121.78422399969486,47.87855699985147],[-121.7832549995743,47.8785630001873],[-121.78301600009803,47.878562000030946],[-121.78261400041511,47.878560999874615],[-121.78199199972588,47.87855900016434],[-121.7814939997835,47.87855800000791],[-121.78086299977173,47.878559999718235],[-121.78084799970314,47.879032000289634],[-121.78085000025128,47.8792130001212],[-121.78085199990109,47.87929599993902],[-121.78146199999645,47.879297000081195],[-121.78156800030166,47.87930200018926],[-121.78155999990574,47.881382000284255],[-121.78157300032453,47.88215699996858],[-121.78291800018874,47.882151000049],[-121.78359000020839,47.88214799978769],[-121.78518500031785,47.8821409997798],[-121.78543200019006,47.882140000295],[-121.78815700007854,47.882126999761205],[-121.78815899972835,47.88204499974829],[-121.78824599976701,47.88204499974829],[-121.78942900014782,47.88203600015041],[-121.78995300002946,47.88203600015041],[-121.7899990000602,47.88203600015041],[-121.79010100016745,47.88203600015041],[-121.79097599967838,47.882005999872966],[-121.79097700040161,47.88209800022699],[-121.7937080001379,47.8820679999854],[-121.79918200020437,47.88200200011578],[-121.79918300002926,47.881140999863845],[-121.79918600040229,47.88104599989505],[-121.79919200025009,47.880903999972006],[-121.79918600040229,47.88021500014827],[-121.79953600020669,47.88020900000371],[-121.79975700013959,47.88020299985852],[-121.80032899970182,47.88020000008688],[-121.80058800016792,47.880196999712616],[-121.8007410003288,47.88019600019031],[-121.80093899979721,47.88019100016848],[-121.80538400036693,47.88011000023006],[-121.8055299999568,47.88010699985055],[-121.80549499979672,47.878283000242504],[-121.80570300020919,47.878289000007555],[-121.80572099975254,47.87645999987992],[-121.80605899986132,47.87645299970601],[-121.80636500018308,47.87643499977086],[-121.80669099969799,47.87641800002721],[-121.8071970000363,47.87641800002721],[-121.8075490003888,47.87640799985643],[-121.80770000000155,47.87641800002721],[-121.8078670004061,47.876416000234215],[-121.8082180000354,47.87641000025228],[-121.80964900011332,47.87638699991327],[-121.8096480002884,47.87644099974991],[-121.80966900020479,47.87680899995006],[-121.80964300026555,47.877327000079504],[-121.80963800024266,47.87760200009902],[-121.80963300021979,47.87787900020309],[-121.80962599964876,47.878231999801315],[-121.80964099971742,47.87899900023886],[-121.80966400018193,47.880035999855714],[-121.80967300040277,47.88063199975378],[-121.80967900025055,47.88093099995339],[-121.8096969997939,47.881831000117174],[-121.80970299964169,47.882105999726164],[-121.8097329997789,47.88363199998457],[-121.80974399964957,47.88415300011786],[-121.80976799993901,47.88539900027673],[-121.80971000021269,47.88540099972299],[-121.80955399967876,47.88540399979585],[-121.80946900018826,47.88540499982011],[-121.8087479997648,47.88541400003756],[-121.80850799956531,47.88541800013367],[-121.80838399971672,47.88542000018164],[-121.80664399984234,47.88545499980342],[-121.80605999968624,47.88546099994276],[-121.80489100044744,47.88549300007174],[-121.80445999955391,47.88550200027385],[-121.80449300006418,47.8891499998067],[-121.80820999963947,47.88905699997606],[-121.81395300021777,47.88891299981163],[-121.81405600014993,47.888909999942015],[-121.81523600015767,47.88888099998848],[-121.81584299987998,47.88886600002688],[-121.81809599976538,47.888814999763625],[-121.82063499988107,47.888756999733914],[-121.82062599966022,47.886746999912134],[-121.82062099963736,47.88556899992227],[-121.82062300018549,47.88518900015692],[-121.81640299974666,47.88531599999549],[-121.81521699989109,47.88532000009917],[-121.8152110000433,47.8841339997969],[-121.81518400027915,47.8827680000909],[-121.81516500001258,47.8817319998283],[-121.81531800017345,47.881726999954715],[-121.81617099994305,47.88171100023561],[-121.81619799970724,47.88171000014003],[-121.81707800013933,47.881693999813194],[-121.817201000163,47.88169200022384],[-121.81719799978995,47.88139999970568],[-121.8171960001401,47.88105699988134],[-121.81719500031521,47.88097000003554],[-121.81719399959198,47.88081400013317],[-121.81719399959198,47.88078899971509],[-121.81719199994215,47.88061000020087],[-121.81719100011723,47.880432000188485],[-121.81718899956911,47.88025500029061],[-121.81718799974419,47.880078999915135],[-121.81718600009437,47.87976899996316],[-121.81718400044456,47.87951999997415],[-121.81717699987352,47.87872200009773],[-121.81717500022374,47.87844899971245],[-121.81717500022374,47.878427999993995],[-121.8171729996756,47.87815399970282],[-121.8192590000547,47.87811600007575],[-121.8192590000547,47.87808899983231],[-121.81925999987962,47.8779129999311],[-121.81925999987962,47.87789700023911],[-121.81926099970454,47.87758100003726],[-121.81926099970454,47.877540000064336],[-121.81926099970454,47.87744500011988],[-121.81926099970454,47.8773650002852],[-121.8192640000776,47.87664100026155],[-121.8192649999025,47.87627900007109],[-121.81954100008704,47.876273000073226],[-121.81953600006415,47.875821999853976],[-121.82004099967924,47.875813999987024],[-121.82004200040245,47.875361999772196],[-121.82047000002461,47.87535500005245],[-121.82061300013974,47.875353000218425],[-121.82083499989761,47.87535399983417],[-121.82084699959316,47.875109000005025],[-121.82085900018706,47.874879000021174],[-121.82086800040787,47.8747049999209],[-121.82086599985975,47.874561999858194],[-121.82086199966177,47.874535000172884],[-121.82085800036214,47.87450700023888],[-121.82085300033927,47.874471999848154],[-121.82084599976827,47.87445099972287],[-121.82210799979178,47.87443899990571],[-121.82523199988846,47.874417999767104],[-121.82534499986639,47.874417999767104],[-121.82530999970625,47.874333000094566],[-121.8250810002757,47.873991000123524],[-121.82501299960533,47.87369099999243],[-121.82510200019213,47.87319800014437],[-121.82521000014717,47.872671999961334],[-121.82522100001779,47.87261799981219],[-121.82553300018735,47.87212300004092],[-121.8259740002283,47.87173400028327],[-121.82654099976763,47.87125899982607],[-121.8273890004127,47.87076500003489],[-121.82762299986614,47.870592999997754],[-121.82783600030146,47.870462000175074],[-121.82820199999935,47.870242999925274],[-121.8283469997643,47.87012499975366],[-121.82860100020751,47.86991699982862],[-121.82888200041491,47.869703999842706],[-121.82971300044323,47.86911300006757],[-121.82977399964426,47.86839599990045],[-121.82977100016953,47.868320999917614],[-121.82956500030522,47.86717699989506],[-121.82979899975861,47.867179000044615],[-121.83154799985387,47.86717199982215],[-121.83156200009758,47.86679700021128],[-121.83159300005971,47.866002000235234],[-121.83162400002186,47.865192999742675],[-121.8316559998089,47.86437099971426],[-121.83167800044853,47.864056999861035],[-121.83170100001475,47.86386900005587],[-121.83175299989327,47.86359400007761],[-121.83172000028132,47.86332500013816],[-121.83165199961095,47.86277699989977],[-121.83163900009045,47.86267300006269],[-121.83159300005971,47.86261200010757],[-121.83155899972452,47.862546000164166],[-121.83153500033339,47.86248000013676],[-121.83150600002107,47.862342000027034],[-121.83149599997533,47.86222899989509],[-121.83147500005893,47.86199200028508],[-121.83138399982235,47.860575999768464],[-121.83136200008103,47.86043600020765],[-121.83129900033182,47.86015500004298],[-121.831254000126,47.860018000285535],[-121.8312120002932,47.859853000149855],[-121.83118399980582,47.859741999850755],[-121.83115799986655,47.859487999846934],[-121.8311489996457,47.8593929999576],[-121.8311410001481,47.859307999750456],[-121.83113799977504,47.859280999953334],[-121.83160099955731,47.85916300013912],[-121.83235299994293,47.858955000221314],[-121.83239300012588,47.858943999762],[-121.83343300039155,47.858663999886346],[-121.83382800040177,47.858557999754126],[-121.83426400041985,47.85844100004459]]]},"properties":{"AREALAND":"8644676","AREAWATER":"0","BASENAME":"Sultan","CBSAPCI":"N","CENTLAT":"+47.8711319","CENTLON":"-121.8041059","FUNCSTAT":"A","GEOID":"5368260","INTPTLAT":"+47.8711319","INTPTLON":"-121.8041059","LSADC":"25","MTFCC":"G4110","NAME":"Sultan city","NECTAPCI":"N","OBJECTID":22294,"OID":"27890921610451","PLACE":"68260","PLACECC":"C1","PLACENS":"02411999","STATE":"53","DISP_CLR":4,"slug":"sultan","jurisdiction_key":"sultan_city","county_fips":["53061"]}}]}
