{
  "type": "FeatureCollection",
  "features": [
    {
      "type": "Feature",
      "geometry": {
        "type": "Polygon",
        "coordinates": [
          [
            [
              -122.89494799976794,
              46.84603899988794
            ],
            [
              -122.89496899968432,
              46.84597599981169
            ],
            [
              -122.89476199999508,
              46.84561100011036
            ],
            [
              -122.89449599985632,
              46.84505500026826
            ],
            [
              -122.89446999991704,
              46.8450000000761
            ],
            [
              -122.89445200037369,
              46.84496300002681
            ],
            [
              -122.89335199983356,
              46.84263999977994
            ],
            [
              -122.8932260003352,
              46.84266799971842
            ],
            [
              -122.88531000023744,
              46.844409999890644
            ],
            [
              -122.87683500009796,
              46.84627399995928
            ],
            [
              -122.876281999904,
              46.84639600015304
            ],
            [
              -122.87618499981961,
              46.8464170000225
            ],
            [
              -122.87532600020224,
              46.84360599997674
            ],
            [
              -122.87369900030572,
              46.84380699970081
            ],
            [
              -122.87370199978047,
              46.84511100007092
            ],
            [
              -122.87178500035401,
              46.84510900012289
            ],
            [
              -122.8717839996308,
              46.84521900022772
            ],
            [
              -122.87178299980587,
              46.84589799996605
            ],
            [
              -122.87178299980587,
              46.84601400004206
            ],
            [
              -122.87199700006613,
              46.84601400004206
            ],
            [
              -122.87199100021834,
              46.84743199989808
            ],
            [
              -122.87155799967499,
              46.84756800014587
            ],
            [
              -122.87138000029807,
              46.84762800010956
            ],
            [
              -122.87055699976739,
              46.847907000258466
            ],
            [
              -122.8700799997414,
              46.848085000204044
            ],
            [
              -122.86937699975962,
              46.848363999822375
            ],
            [
              -122.86911300016897,
              46.848475999842904
            ],
            [
              -122.86872900002942,
              46.84864500026557
            ],
            [
              -122.86847299993637,
              46.84875999972567
            ],
            [
              -122.86803600009338,
              46.84896399983968
            ],
            [
              -122.86761099994594,
              46.849181000008
            ],
            [
              -122.86757400013602,
              46.849200000221664
            ],
            [
              -122.86756800028823,
              46.848948000171966
            ],
            [
              -122.86757499996091,
              46.8468420000042
            ],
            [
              -122.86633200020398,
              46.84684599977121
            ],
            [
              -122.86625799968581,
              46.84684800026899
            ],
            [
              -122.86625799968581,
              46.84692200020299
            ],
            [
              -122.86625799968581,
              46.846977000270506
            ],
            [
              -122.86625799968581,
              46.84713700014681
            ],
            [
              -122.86625199983803,
              46.84988099978784
            ],
            [
              -122.86537999980186,
              46.850336000005385
            ],
            [
              -122.86448400037453,
              46.85078500023027
            ],
            [
              -122.86421300021287,
              46.85090599983492
            ],
            [
              -122.86414500044081,
              46.85093600011105
            ],
            [
              -122.86410199988478,
              46.850954999703845
            ],
            [
              -122.86400200032567,
              46.8509959999987
            ],
            [
              -122.86400700034855,
              46.85056099975535
            ],
            [
              -122.86400700034855,
              46.85015400001229
            ],
            [
              -122.8640109996482,
              46.84950900003664
            ],
            [
              -122.86401400002123,
              46.84859699973426
            ],
            [
              -122.86400800017347,
              46.84784000022279
            ],
            [
              -122.8639970003028,
              46.84636799969996
            ],
            [
              -122.8623629998353,
              46.84636700005655
            ],
            [
              -122.86237399970595,
              46.84633099997853
            ],
            [
              -122.86263300017202,
              46.845223999780266
            ],
            [
              -122.86174699989215,
              46.845232999833904
            ],
            [
              -122.86172400032594,
              46.84533299998699
            ],
            [
              -122.8616310004395,
              46.84567200007313
            ],
            [
              -122.8614079999584,
              46.84633200023706
            ],
            [
              -122.86139899973759,
              46.84636300025388
            ],
            [
              -122.86111099985752,
              46.84636300025388
            ],
            [
              -122.86092099988669,
              46.84636199999597
            ],
            [
              -122.86074299961146,
              46.84635899983653
            ],
            [
              -122.86052000002871,
              46.84635500003326
            ],
            [
              -122.86050999998297,
              46.84639199973816
            ],
            [
              -122.86039799982998,
              46.84671500018123
            ],
            [
              -122.86023200014864,
              46.84715000023867
            ],
            [
              -122.86017100004926,
              46.84729599992037
            ],
            [
              -122.85963499957373,
              46.848435000081885
            ],
            [
              -122.85949999985453,
              46.84867699977679
            ],
            [
              -122.85941700001383,
              46.848811000134006
            ],
            [
              -122.85924600030962,
              46.84905799978809
            ],
            [
              -122.85905100031594,
              46.849302999743124
            ],
            [
              -122.85892400009433,
              46.849566999893234
            ],
            [
              -122.85887899988852,
              46.84965900023638
            ],
            [
              -122.85881500031441,
              46.84979100021314
            ],
            [
              -122.85841299973319,
              46.850334000251884
            ],
            [
              -122.85816400021115,
              46.85054900005463
            ],
            [
              -122.85789899989729,
              46.85078100014225
            ],
            [
              -122.85782100007948,
              46.850947000167146
            ],
            [
              -122.8578000001631,
              46.85111300029333
            ],
            [
              -122.85780099998799,
              46.85113100026877
            ],
            [
              -122.8578029996378,
              46.85114299983952
            ],
            [
              -122.85780799966066,
              46.85116000025065
            ],
            [
              -122.85781100003375,
              46.85117000009249
            ],
            [
              -122.8578150002317,
              46.85118100010067
            ],
            [
              -122.85782000025456,
              46.85119399982818
            ],
            [
              -122.85782699992725,
              46.851211999776474
            ],
            [
              -122.85783799979791,
              46.85123499994055
            ],
            [
              -122.85784899966856,
              46.8512550002088
            ],
            [
              -122.85785899971431,
              46.85127099980366
            ],
            [
              -122.8578649995621,
              46.85128000007282
            ],
            [
              -122.85787600033107,
              46.851296999826275
            ],
            [
              -122.8578920002246,
              46.851317000071425
            ],
            [
              -122.85790300009523,
              46.8513309999314
            ],
            [
              -122.85791899998875,
              46.85134800028307
            ],
            [
              -122.85794400010313,
              46.851371999939225
            ],
            [
              -122.85791700033897,
              46.85140499983286
            ],
            [
              -122.85788200017883,
              46.85144699994739
            ],
            [
              -122.85779900033818,
              46.85155199978291
            ],
            [
              -122.85769700023093,
              46.85148600015601
            ],
            [
              -122.85764700000222,
              46.85145500002402
            ],
            [
              -122.85761299966703,
              46.85143400028115
            ],
            [
              -122.85756400016155,
              46.85140300011911
            ],
            [
              -122.85748999964338,
              46.85148499999349
            ],
            [
              -122.85728999962681,
              46.85170500028157
            ],
            [
              -122.8570000000969,
              46.852009000280106
            ],
            [
              -122.85628899971921,
              46.85269100000222
            ],
            [
              -122.85589500043221,
              46.85301799996349
            ],
            [
              -122.8555339998589,
              46.853305000175034
            ],
            [
              -122.85538300024615,
              46.85342100022776
            ],
            [
              -122.85521300036685,
              46.85354700004344
            ],
            [
              -122.85470500037871,
              46.8539080000239
            ],
            [
              -122.85467799971623,
              46.8539080000239
            ],
            [
              -122.85108400016458,
              46.853890999868284
            ],
            [
              -122.85061100033657,
              46.85388800012934
            ],
            [
              -122.85038899968042,
              46.85389400022135
            ],
            [
              -122.84686999957353,
              46.85399599984018
            ],
            [
              -122.8467690001895,
              46.853999000187386
            ],
            [
              -122.84642500023293,
              46.85315400019712
            ],
            [
              -122.8464109999892,
              46.853154999714256
            ],
            [
              -122.84605600016197,
              46.85315400019712
            ],
            [
              -122.84429500037116,
              46.85315099980271
            ],
            [
              -122.84428799980016,
              46.854685000237424
            ],
            [
              -122.84428399960218,
              46.85545799991225
            ],
            [
              -122.84428299977729,
              46.855673000089006
            ],
            [
              -122.83851599980787,
              46.856037000140255
            ],
            [
              -122.83385299967824,
              46.8562890001007
            ],
            [
              -122.83385299967824,
              46.856564999899824
            ],
            [
              -122.83170199990008,
              46.856678000084884
            ],
            [
              -122.83082499984101,
              46.856724000021465
            ],
            [
              -122.83082499984101,
              46.85686100014659
            ],
            [
              -122.83082499984101,
              46.85701000002489
            ],
            [
              -122.83072899958157,
              46.857015999768095
            ],
            [
              -122.82985099969761,
              46.85706799976676
            ],
            [
              -122.8264589998123,
              46.857268000048485
            ],
            [
              -122.82646700020825,
              46.85748299973551
            ],
            [
              -122.82642200000238,
              46.85748499983711
            ],
            [
              -122.82632400009308,
              46.857490000090856
            ],
            [
              -122.82612800027452,
              46.85750100003309
            ],
            [
              -122.82612200042674,
              46.85752600006105
            ],
            [
              -122.82597099991567,
              46.85781799974641
            ],
            [
              -122.82596099986995,
              46.85788200010484
            ],
            [
              -122.82594199960337,
              46.858013000101465
            ],
            [
              -122.82596099986995,
              46.85816499996902
            ],
            [
              -122.8260420000608,
              46.85832500030231
            ],
            [
              -122.82609800013728,
              46.858475999868574
            ],
            [
              -122.8261759999551,
              46.8585670002767
            ],
            [
              -122.82608700026663,
              46.85880300023187
            ],
            [
              -122.82613999997007,
              46.85893099975284
            ],
            [
              -122.8261349999472,
              46.85896099984598
            ],
            [
              -122.82613099974925,
              46.85898499978556
            ],
            [
              -122.82612999992433,
              46.85900700028386
            ],
            [
              -122.82613099974925,
              46.85903400026878
            ],
            [
              -122.82613699959704,
              46.85905400008963
            ],
            [
              -122.82615000001583,
              46.85909100026063
            ],
            [
              -122.82615800041175,
              46.8591150001421
            ],
            [
              -122.82616900028242,
              46.859162999872915
            ],
            [
              -122.82617699978,
              46.859196999912186
            ],
            [
              -122.82617900032812,
              46.85923299996642
            ],
            [
              -122.82614099979499,
              46.8593279997719
            ],
            [
              -122.82625799997086,
              46.859410999845885
            ],
            [
              -122.82644899976657,
              46.85950699996379
            ],
            [
              -122.82656599994242,
              46.8595760002113
            ],
            [
              -122.82660299975234,
              46.859716999853724
            ],
            [
              -122.82675799956307,
              46.85988299989917
            ],
            [
              -122.82751900016946,
              46.86032900016587
            ],
            [
              -122.82780000037688,
              46.86049300017242
            ],
            [
              -122.827971999906,
              46.860436999822014
            ],
            [
              -122.82845800015282,
              46.860390999995055
            ],
            [
              -122.82865499979629,
              46.86037500004599
            ],
            [
              -122.82885599963774,
              46.8604169999021
            ],
            [
              -122.82892199975998,
              46.86044599978355
            ],
            [
              -122.8290079999737,
              46.86044599978355
            ],
            [
              -122.82910900025605,
              46.86048800019838
            ],
            [
              -122.82926200041693,
              46.86048500021373
            ],
            [
              -122.82927300028759,
              46.860478000248854
            ],
            [
              -122.82931199974733,
              46.86047400026849
            ],
            [
              -122.82955100012192,
              46.860469000292674
            ],
            [
              -122.82979899981905,
              46.860448999770384
            ],
            [
              -122.83008699969915,
              46.86040099996078
            ],
            [
              -122.83034199996725,
              46.860296000227606
            ],
            [
              -122.83050900037183,
              46.86029200023373
            ],
            [
              -122.83067400022827,
              46.86028900023813
            ],
            [
              -122.83080999977241,
              46.860284000245045
            ],
            [
              -122.83100499976608,
              46.86027700025396
            ],
            [
              -122.83100399994116,
              46.8602390002865
            ],
            [
              -122.8310340000784,
              46.860121000216054
            ],
            [
              -122.83104999997192,
              46.860057000069354
            ],
            [
              -122.8310680004136,
              46.8599839998089
            ],
            [
              -122.8310969998276,
              46.859932000177125
            ],
            [
              -122.83113799983546,
              46.8598879999296
            ],
            [
              -122.8311679999727,
              46.85986599979229
            ],
            [
              -122.831189999714,
              46.85985199970026
            ],
            [
              -122.83125400018642,
              46.85982700014102
            ],
            [
              -122.8313300003544,
              46.859811000023875
            ],
            [
              -122.83141900004286,
              46.859804999978756
            ],
            [
              -122.83151799977706,
              46.859811000023875
            ],
            [
              -122.83172500036461,
              46.859806999993864
            ],
            [
              -122.83193100022895,
              46.8597939998942
            ],
            [
              -122.83197300006174,
              46.85978599983136
            ],
            [
              -122.83197100041191,
              46.859819000083036
            ],
            [
              -122.83197100041191,
              46.8598380002188
            ],
            [
              -122.83197100041191,
              46.85990600003521
            ],
            [
              -122.83265599995202,
              46.85989899999485
            ],
            [
              -122.83274800001352,
              46.859897999989016
            ],
            [
              -122.83326600004739,
              46.85989199995357
            ],
            [
              -122.83380400017276,
              46.85988699992355
            ],
            [
              -122.83380400017276,
              46.86000499989402
            ],
            [
              -122.83381900024135,
              46.86000299988627
            ],
            [
              -122.83457599975151,
              46.859974999769925
            ],
            [
              -122.83457699957643,
              46.86001599993529
            ],
            [
              -122.83494800019551,
              46.860001999882385
            ],
            [
              -122.83697099992712,
              46.86019300028986
            ],
            [
              -122.83821700005714,
              46.86031100020206
            ],
            [
              -122.83887999985595,
              46.8603310001615
            ],
            [
              -122.83888200040408,
              46.86046600030693
            ],
            [
              -122.83888499987879,
              46.860657000292285
            ],
            [
              -122.8388859997037,
              46.86075300002518
            ],
            [
              -122.8388919995515,
              46.861197999839966
            ],
            [
              -122.83898899963587,
              46.86119899982158
            ],
            [
              -122.83916400043638,
              46.861222999989316
            ],
            [
              -122.84037000038343,
              46.8612249999516
            ],
            [
              -122.84142999984223,
              46.86120900025107
            ],
            [
              -122.84425400036329,
              46.86116799976826
            ],
            [
              -122.84426299968578,
              46.862287000123814
            ],
            [
              -122.84427899957932,
              46.86346200020726
            ],
            [
              -122.84435800012035,
              46.86345699989548
            ],
            [
              -122.84440999999887,
              46.863379000253545
            ],
            [
              -122.84476800019917,
              46.86332600028258
            ],
            [
              -122.84509299988919,
              46.863333999817996
            ],
            [
              -122.84552300005949,
              46.86334599973309
            ],
            [
              -122.84585600014543,
              46.863415999900965
            ],
            [
              -122.84646799989063,
              46.8635399997286
            ],
            [
              -122.84664500034094,
              46.86361300006774
            ],
            [
              -122.84749100043787,
              46.8639730000109
            ],
            [
              -122.8485509998967,
              46.864197999747546
            ],
            [
              -122.84914400027364,
              46.86425499978498
            ],
            [
              -122.84972800042974,
              46.8642350000589
            ],
            [
              -122.84978899963077,
              46.86422700004352
            ],
            [
              -122.8506060003137,
              46.86412099988104
            ],
            [
              -122.85149300041853,
              46.86396799974673
            ],
            [
              -122.8518680003372,
              46.86397200008094
            ],
            [
              -122.85212299970705,
              46.86397399994083
            ],
            [
              -122.85218100033168,
              46.86397499987075
            ],
            [
              -122.85258800003744,
              46.863895999821665
            ],
            [
              -122.85283999993251,
              46.86370399975417
            ],
            [
              -122.85290199985678,
              46.86368700024293
            ],
            [
              -122.85311699994196,
              46.86360400002287
            ],
            [
              -122.85320599963042,
              46.86348799985552
            ],
            [
              -122.85331500030868,
              46.86337100011061
            ],
            [
              -122.85343400013436,
              46.86323300006799
            ],
            [
              -122.85351199995218,
              46.863110000091524
            ],
            [
              -122.85356600037883,
              46.86290499970924
            ],
            [
              -122.85409799975811,
              46.86239100030344
            ],
            [
              -122.85427900040636,
              46.86227400001044
            ],
            [
              -122.85461599979196,
              46.86210799998671
            ],
            [
              -122.8547659995798,
              46.86203799995601
            ],
            [
              -122.8547809996484,
              46.86202699971475
            ],
            [
              -122.85477899999856,
              46.861149000103154
            ],
            [
              -122.85477499980061,
              46.85957100015182
            ],
            [
              -122.85872999992559,
              46.859551999921614
            ],
            [
              -122.85931300025678,
              46.85956200004361
            ],
            [
              -122.86058399960282,
              46.85958400030548
            ],
            [
              -122.86116799975892,
              46.859569000127905
            ],
            [
              -122.86131800044505,
              46.85956500007983
            ],
            [
              -122.8614079999584,
              46.85956200004361
            ],
            [
              -122.86140899978332,
              46.85951800010714
            ],
            [
              -122.86141899982907,
              46.857793999899485
            ],
            [
              -122.86142200020214,
              46.85724700012148
            ],
            [
              -122.86142600040009,
              46.85668299979947
            ],
            [
              -122.86147599973049,
              46.85668199973374
            ],
            [
              -122.8614769995554,
              46.85666200025798
            ],
            [
              -122.86147800027862,
              46.856632000108895
            ],
            [
              -122.86147599973049,
              46.85658999974926
            ],
            [
              -122.8614699998827,
              46.85642600010709
            ],
            [
              -122.86173699984639,
              46.85643299998593
            ],
            [
              -122.86192400034247,
              46.8564340000563
            ],
            [
              -122.86431299977198,
              46.85644799981098
            ],
            [
              -122.86538999984757,
              46.856465999841255
            ],
            [
              -122.86573299997924,
              46.856478000062815
            ],
            [
              -122.86630399971658,
              46.85651400009722
            ],
            [
              -122.86638499990742,
              46.85652300010203
            ],
            [
              -122.86646400044846,
              46.85653799990194
            ],
            [
              -122.86657599970313,
              46.85657199976054
            ],
            [
              -122.86688500039794,
              46.8567150000503
            ],
            [
              -122.86717499992785,
              46.85682699985667
            ],
            [
              -122.86732100041603,
              46.85687799997635
            ],
            [
              -122.8681020002156,
              46.85708700026172
            ],
            [
              -122.86857099984567,
              46.85719899990649
            ],
            [
              -122.86871899998367,
              46.85724900023188
            ],
            [
              -122.8689109996043,
              46.8572979998422
            ],
            [
              -122.86915099980381,
              46.8573380001554
            ],
            [
              -122.86953400011848,
              46.85743999998983
            ],
            [
              -122.86976000007425,
              46.85751500012388
            ],
            [
              -122.86993099977848,
              46.85759300029963
            ],
            [
              -122.87005499962704,
              46.857666000125185
            ],
            [
              -122.87019199989439,
              46.85772799995797
            ],
            [
              -122.87030200039759,
              46.857765999859744
            ],
            [
              -122.87045600038336,
              46.857803999734664
            ],
            [
              -122.8706570002248,
              46.85783199975455
            ],
            [
              -122.87073800041564,
              46.85783599993173
            ],
            [
              -122.87077900042354,
              46.85783099971021
            ],
            [
              -122.87085300004338,
              46.85780799991388
            ],
            [
              -122.87088499983044,
              46.857789999719216
            ],
            [
              -122.8709119995946,
              46.85776899999636
            ],
            [
              -122.87093400023426,
              46.857745000127494
            ],
            [
              -122.87094799957963,
              46.85771900015513
            ],
            [
              -122.87095599997552,
              46.85769100007627
            ],
            [
              -122.87095099995268,
              46.857634999874804
            ],
            [
              -122.8709390002571,
              46.85760799980065
            ],
            [
              -122.8708970004243,
              46.85755999990832
            ],
            [
              -122.87012999997012,
              46.85708300002874
            ],
            [
              -122.87003600025878,
              46.85702699980747
            ],
            [
              -122.86975800042444,
              46.856862000208984
            ],
            [
              -122.86958599999697,
              46.85675600024786
            ],
            [
              -122.86958000014918,
              46.85542500005178
            ],
            [
              -122.87080600018773,
              46.85543099997208
            ],
            [
              -122.87175000019396,
              46.855434999713765
            ],
            [
              -122.87252000012285,
              46.855437999980616
            ],
            [
              -122.87294799974504,
              46.85545099990631
            ],
            [
              -122.87309599988305,
              46.855440000158396
            ],
            [
              -122.87338299993823,
              46.8548559997523
            ],
            [
              -122.87409799961557,
              46.853387999729826
            ],
            [
              -122.87428000008876,
              46.85271400014726
            ],
            [
              -122.8769709996421,
              46.850513999888186
            ],
            [
              -122.87724199980374,
              46.85050999977999
            ],
            [
              -122.87785799974687,
              46.85049599970596
            ],
            [
              -122.8778379996554,
              46.85037000010454
            ],
            [
              -122.87779800037073,
              46.85012800005068
            ],
            [
              -122.87782599995984,
              46.849881999980234
            ],
            [
              -122.87792600041728,
              46.84958899994955
            ],
            [
              -122.87806199996139,
              46.84934299986791
            ],
            [
              -122.87820799955124,
              46.849111999919316
            ],
            [
              -122.87834700036674,
              46.848925000257246
            ],
            [
              -122.87905199999835,
              46.84892800027341
            ],
            [
              -122.88139199992237,
              46.84893900012637
            ],
            [
              -122.8820410003758,
              46.84872599983613
            ],
            [
              -122.88263999970222,
              46.84873300010429
            ],
            [
              -122.88323399990405,
              46.84894599975239
            ],
            [
              -122.88543200043615,
              46.84895600000639
            ],
            [
              -122.88635200015294,
              46.848966000258585
            ],
            [
              -122.89085299990087,
              46.84897899990784
            ],
            [
              -122.8912279998196,
              46.84898099971179
            ],
            [
              -122.89122600016977,
              46.84782600006726
            ],
            [
              -122.89122299979671,
              46.84763199981805
            ],
            [
              -122.8916799997312,
              46.847425000074765
            ],
            [
              -122.89399000041634,
              46.84650100003251
            ],
            [
              -122.89489300041467,
              46.846113999970115
            ],
            [
              -122.89494799976794,
              46.84603899988794
            ]
          ]
        ]
      },
      "properties": {
        "AREALAND": "3770246",
        "AREAWATER": "0",
        "BASENAME": "Tenino",
        "CBSAPCI": "N",
        "CENTLAT": "+46.8538171",
        "CENTLON": "-122.8604505",
        "FUNCSTAT": "A",
        "GEOID": "5370630",
        "INTPTLAT": "+46.8538171",
        "INTPTLON": "-122.8604505",
        "LSADC": "25",
        "MTFCC": "G4110",
        "NAME": "Tenino city",
        "NECTAPCI": "N",
        "OBJECTID": 15225,
        "OID": "27890482056966",
        "PLACE": "70630",
        "PLACECC": "C1",
        "PLACENS": "02412048",
        "STATE": "53",
        "DISP_CLR": 4,
        "slug": "tenino",
        "jurisdiction_key": "tenino_city",
        "county_fips": [
          "53067"
        ]
      }
    }
  ]
}
