{"type":"FeatureCollection","features":[{"type":"Feature","geometry":{"type":"MultiPolygon","coordinates":[[[[-122.56310700016616,47.25056799972475],[-122.56543700004445,47.24682000026808],[-122.5619339998311,47.24593000019356],[-122.56208000031927,47.24563199973897],[-122.56142400019317,47.24580000020548],[-122.56008600000165,47.246143999788615],[-122.56005500003951,47.24555999981154],[-122.56003400012311,47.242688000078665],[-122.55927099986685,47.24274399994975],[-122.55816700002708,47.24272899981583],[-122.55817100022503,47.24269900014513],[-122.55781100037493,47.24268599973372],[-122.55696199990497,47.24269699980061],[-122.55669099974332,47.24269600023813],[-122.55621600026547,47.24269399989344],[-122.55450900000302,47.24268100009063],[-122.55375199959458,47.2427079998652],[-122.55366899975388,47.24270700030294],[-122.55342699990456,47.24270499995867],[-122.55327799994164,47.24270399978653],[-122.5528650003881,47.24270300022418],[-122.55271300005211,47.24270200005201],[-122.55239400020987,47.24269999970755],[-122.55220599988891,47.24269999970755],[-122.5522119997367,47.24154400021114],[-122.55239599985971,47.24154899996149],[-122.55281799963409,47.241559000070694],[-122.55281599998428,47.2413639997356],[-122.5532620000481,47.24136499993308],[-122.5532620000481,47.24143400009486],[-122.55344299979808,47.241435000290984],[-122.55344199997319,47.24158500022378],[-122.55406600031223,47.24158800019368],[-122.55407299998494,47.24031199989054],[-122.55771299956734,47.240392000139515],[-122.55960099957974,47.23878799988927],[-122.55964099976272,47.23874099988997],[-122.55989100000798,47.23843999971061],[-122.55982800025879,47.237965999807535],[-122.5599639998029,47.23788600016481],[-122.56004900019173,47.23784799991105],[-122.5600559998644,47.23776499990395],[-122.56080700042509,47.237320000081155],[-122.56083699966402,47.23730099975473],[-122.56085000008281,47.23729499993913],[-122.56087900039512,47.23725800014638],[-122.56105599994711,47.23703699990682],[-122.56115600040454,47.23691200024085],[-122.56121300030597,47.23684099972348],[-122.56137800016239,47.23663399993137],[-122.56140300027674,47.23649199988633],[-122.56148799976725,47.236407999903896],[-122.5615470002168,47.23633800022339],[-122.56053500043852,47.236336999931055],[-122.56053200006546,47.23645799979331],[-122.56010799974297,47.23645300017243],[-122.55834699995215,47.23643200017383],[-122.55837799991428,47.235349000118326],[-122.55736299976297,47.23533199970782],[-122.55739299990019,47.23539899978708],[-122.55740299994592,47.235426000222965],[-122.55742999971011,47.23550300021572],[-122.5574280000603,47.235548999730234],[-122.55741700018963,47.235580999793264],[-122.55728699959496,47.235507999926185],[-122.55717100014233,47.23545599974231],[-122.5570830002788,47.23542699992255],[-122.55696299972986,47.23538699972449],[-122.55679000037583,47.23535300014236],[-122.55671199965971,47.235349000118326],[-122.55651800038927,47.235339999758146],[-122.55588800020242,47.23531800022679],[-122.55508200028846,47.23530800015954],[-122.55478400036263,47.23530499983399],[-122.55304699996297,47.2352830002881],[-122.5523580002249,47.23527300021425],[-122.55235400002692,47.235552000041956],[-122.552353000202,47.23583399991629],[-122.55302000019879,47.235843999884295],[-122.55302000019879,47.23591899988906],[-122.55301799965063,47.23626100022413],[-122.55301699982573,47.23654600024036],[-122.55301500017592,47.237071000238274],[-122.55301500017592,47.237088000090836],[-122.55301299962777,47.237540999750316],[-122.55301099997794,47.23799699997968],[-122.55301099997794,47.23821299981001],[-122.55301000015305,47.23830300029267],[-122.55301000015305,47.23833800006635],[-122.55301000015305,47.23844400011124],[-122.55300900032813,47.23866999999363],[-122.55300799960492,47.238891999765436],[-122.55300699978,47.238994999805215],[-122.55300599995508,47.239328000121],[-122.55300500013016,47.23946499993811],[-122.55300400030526,47.23980899979621],[-122.55299799955915,47.240288000158195],[-122.55096099958382,47.240243000097145],[-122.5509959997439,47.24157200014883],[-122.55152299999862,47.24157500011948],[-122.55150799993,47.242675999837246],[-122.55102699970607,47.242678000182615],[-122.5509079998804,47.24267899974537],[-122.55030899965567,47.24268100009063],[-122.54940200035769,47.242683999998526],[-122.54899899995155,47.24268500017104],[-122.5490020003246,47.24215099987784],[-122.5490020003246,47.24213300024702],[-122.54900300014953,47.241926999970566],[-122.54900399997445,47.24162300023688],[-122.54900399997445,47.24160300004078],[-122.54900499979934,47.24156799998438],[-122.54900499979934,47.2415340000991],[-122.54900599962426,47.24136799991545],[-122.54900599962426,47.241180000284416],[-122.54900599962426,47.24115399993257],[-122.54901099964712,47.240197999997875],[-122.54854700003993,47.24018800024167],[-122.54837399978759,47.24018399997273],[-122.54777100026323,47.24016999994389],[-122.54768900024747,47.240168999723885],[-122.54768900024747,47.240187000021976],[-122.54768800042255,47.240282000070934],[-122.54640700013243,47.240293000027116],[-122.54640600030754,47.24074000030496],[-122.54692699981614,47.240734000268894],[-122.54693100001408,47.242678000182615],[-122.54663899993604,47.242678000182615],[-122.546354000429,47.242678000182615],[-122.54573900031076,47.24267899974537],[-122.54502000043547,47.242678000182615],[-122.54235999994596,47.24267999991804],[-122.54157599977333,47.24268100009063],[-122.5415449998112,47.241777999976],[-122.54185600015582,47.24177699978636],[-122.5418550003309,47.24169500002654],[-122.54185100013292,47.24127599997175],[-122.5417370003301,47.24127499977263],[-122.54154099961322,47.24127700017089],[-122.54151499967395,47.24127700017089],[-122.54122799961877,47.24127700017089],[-122.54092899986804,47.24127700017089],[-122.54064699983573,47.24127700017089],[-122.5403919995676,47.24127700017089],[-122.54034700026007,47.24127700017089],[-122.53989899964812,47.2412789999592],[-122.53980300028695,47.24127799976009],[-122.53979499989103,47.241471000020844],[-122.5397799998224,47.24179800010607],[-122.53977499979953,47.241902999750074],[-122.53977300014972,47.24197300000701],[-122.53976599957872,47.24212300024615],[-122.53705800030697,47.24211399981688],[-122.53705699958373,47.24227300006059],[-122.53705699958373,47.24268100009063],[-122.5368709998109,47.24268100009063],[-122.53572900033629,47.24268500017104],[-122.53570599987174,47.24247999977793],[-122.53568699960518,47.24230899983091],[-122.53434000009113,47.24230000004311],[-122.53424499965658,47.24230000004311],[-122.534265999573,47.242690999986166],[-122.53416500018896,47.242690999986166],[-122.53328700030498,47.242692000158556],[-122.53296099989174,47.242692000158556],[-122.53246499959921,47.24269299972109],[-122.53134800023895,47.24269500006582],[-122.53120400029891,47.24269600023813],[-122.5301270002233,47.24269799997288],[-122.52999599980375,47.24269799997288],[-122.52640800009988,47.242709000037266],[-122.52636999956674,47.242709000037266],[-122.5257970001796,47.24271300011557],[-122.5238189997555,47.24272499973874],[-122.52271499991573,47.24273199972101],[-122.52119799962408,47.2427410000453],[-122.52013899999012,47.24275099992946],[-122.51959199964398,47.24275600017577],[-122.51707400034302,47.24278400008277],[-122.51595299988648,47.242771999863095],[-122.51482499975727,47.24278899971615],[-122.51431400029442,47.242796000299776],[-122.51369800035124,47.24280399983302],[-122.51295099998855,47.24281399970534],[-122.51176799960773,47.24282899981519],[-122.5116189996448,47.24283100015477],[-122.51064000037681,47.242842999751225],[-122.51030599956768,47.242847999988854],[-122.50951200024758,47.242857999852866],[-122.50909600032098,47.24286599998666],[-122.50882099996139,47.24287000005307],[-122.50614499957834,47.24290099979542],[-122.5056890003671,47.24290300013225],[-122.5053999997638,47.24290499985918],[-122.50526900024252,47.24290099979542],[-122.50495000040029,47.24291199981766],[-122.50496999959347,47.24199799977144],[-122.5049849996621,47.241709000262254],[-122.50501499979931,47.24111000019948],[-122.50501700034745,47.240833000167186],[-122.50502200037032,47.240563000175236],[-122.50502200037032,47.24049799973447],[-122.5050280002181,47.23971200027151],[-122.50502999986792,47.23928400009121],[-122.50500599957847,47.237527000242956],[-122.50503700043895,47.2360059997128],[-122.50505499998229,47.23595099972865],[-122.50508000009664,47.234413000221444],[-122.50506699967785,47.23361100014581],[-122.50508900031748,47.23327399970808],[-122.5050909999673,47.233246000264884],[-122.50509199979219,47.2327670002884],[-122.50510699986081,47.23200000000192],[-122.5051119998837,47.23083699973267],[-122.50511299970862,47.23067199998436],[-122.50512899960214,47.22988899996547],[-122.50513899964787,47.22947100030283],[-122.50515000041685,47.228417999965174],[-122.50515100024177,47.22830599977188],[-122.50512199992943,47.226504999844884],[-122.5051260001274,47.22598400021914],[-122.50513000032535,47.22538900008097],[-122.50514899969362,47.222890000268634],[-122.50514899969362,47.22282099975242],[-122.50515000041685,47.222284000146054],[-122.50515200006667,47.22106999992255],[-122.50517999965577,47.21930500017284],[-122.5051830000288,47.21911399972979],[-122.50518499967862,47.21901200010577],[-122.50518600040182,47.218882999977296],[-122.50520300012028,47.217497999890305],[-122.5052039999452,47.217435999951476],[-122.505205999595,47.2172809997872],[-122.50522700040972,47.21568100015312],[-122.50523200043261,47.21529400014121],[-122.50523300025752,47.21523900001913],[-122.50523499990736,47.215048000183785],[-122.50523900010528,47.214004999943484],[-122.5052399999302,47.21379900015427],[-122.50524199958004,47.21305400021991],[-122.50524400012817,47.21265699988316],[-122.50524499995306,47.21245999971489],[-122.50524800032612,47.211630000150386],[-122.50524999997593,47.211278999968656],[-122.50525099980086,47.21096599993346],[-122.50525499999883,47.20991400016461],[-122.50525699964865,47.20944099979176],[-122.5052600000217,47.209207000034596],[-122.50526900024252,47.208389999886435],[-122.50527500009031,47.207991000207585],[-122.50527099989236,47.20727400021172],[-122.50528199976299,47.20708299976192],[-122.50530400040263,47.20689300008276],[-122.50533899966442,47.20670299972296],[-122.50538499969515,47.20651400014813],[-122.50541700038053,47.206279000044326],[-122.5054990003963,47.206064999952986],[-122.50561800022199,47.205818999905006],[-122.50571399958312,47.20565800022592],[-122.50596399982838,47.20530200007261],[-122.50617600043881,47.20505899974454],[-122.50653799993874,47.20470200017453],[-122.50691799988034,47.20433300026336],[-122.50747000024938,47.203796999854276],[-122.50774200023594,47.2035209997858],[-122.50798099971225,47.20325100012056],[-122.50819800034552,47.20293200027093],[-122.50822099991176,47.202889999946926],[-122.50830799995038,47.20272600019441],[-122.50629000024165,47.20274500009867],[-122.50617100041592,47.2027470001203],[-122.50617399989069,47.20182899995786],[-122.5056209996967,47.201841000293825],[-122.50536499960369,47.20183500012616],[-122.50523499990736,47.201833000070145],[-122.50523400008244,47.20166099985212],[-122.50522900005954,47.199276000127405],[-122.50545699966518,47.19927800027986],[-122.50596800002636,47.19928299974506],[-122.50729899964685,47.19927699989846],[-122.50809500041335,47.19927199982234],[-122.50853499973113,47.19926899989852],[-122.50867100017355,47.19924499989147],[-122.50881199974054,47.19920999993798],[-122.51006100024358,47.19920999993798],[-122.51324899991437,47.1992060002383],[-122.51480999968864,47.19918899983274],[-122.51504599969017,47.199185999904245],[-122.51528300041495,47.19918800006003],[-122.51587900026664,47.19919300014408],[-122.51788899957947,47.19918200020275],[-122.51806500020487,47.19918200020275],[-122.518060000182,47.19906400002258],[-122.51871899978286,47.19884200005855],[-122.51894899993664,47.19881299973896],[-122.51916099964875,47.19887800003335],[-122.51951499965105,47.19898700019801],[-122.51954300013848,47.19908500017729],[-122.51955400000911,47.199120000213185],[-122.51956999990266,47.199174000188485],[-122.51991200020943,47.199172000032114],[-122.52032700031111,47.199169999875714],[-122.52127399979206,47.19916600017297],[-122.52127799999002,47.199207000010674],[-122.52132200037094,47.19916400001634],[-122.5214179997321,47.19907200005343],[-122.52144200002154,47.19904899973256],[-122.52146700013589,47.19902500023636],[-122.52150599959565,47.19889799987314],[-122.52150899996867,47.19888800025935],[-122.52138000009727,47.198750000147676],[-122.52129700025658,47.19869200000247],[-122.52127100031731,47.198674000260205],[-122.52126999959408,47.198417999806175],[-122.52126899976918,47.19838200012965],[-122.52126700011937,47.19823100020311],[-122.52123399960908,47.19628599984569],[-122.52147899983146,47.19628599984569],[-122.52140900040959,47.196069000234566],[-122.52129200023371,47.19576099997172],[-122.52122000026371,47.19562700024265],[-122.52115199959333,47.19552100002595],[-122.52088399980474,47.19553100027423],[-122.51789199995251,47.19557199986871],[-122.51593000032027,47.195598999837436],[-122.51591799972637,47.19538500000208],[-122.51579700025087,47.19303599984679],[-122.51579499970273,47.19265300022212],[-122.51473199987083,47.1919699998191],[-122.50877199955758,47.19200600018313],[-122.50877199955758,47.19179000007447],[-122.50877099973266,47.19065499979847],[-122.50877900012858,47.19056999988997],[-122.50861799957178,47.190568000019745],[-122.5054499999925,47.190537000190425],[-122.50507699972361,47.190536000254745],[-122.50506800040108,47.190062999856195],[-122.50506900022597,47.19000899976586],[-122.50506900022597,47.18997099998593],[-122.50506599985295,47.18979799982454],[-122.50506500002803,47.189756000091975],[-122.50506300037819,47.1896229998039],[-122.50506000000516,47.18944599990424],[-122.5050569996321,47.18926500018625],[-122.50505400015737,47.18908199992478],[-122.50505099978432,47.188906000018896],[-122.50504699958637,47.188672000031026],[-122.50504599976148,47.18860999997097],[-122.50504499993656,47.18854699986525],[-122.50502599966997,47.18736300007589],[-122.5050139999744,47.18664800030459],[-122.5050130001495,47.18662700011191],[-122.50499399988291,47.185460000156034],[-122.50498300001226,47.18477499989835],[-122.50498200018734,47.18469700005179],[-122.50488199972993,47.18469600000605],[-122.50466900019289,47.18469900014318],[-122.50102700006236,47.184742000259014],[-122.50051599970122,47.18474899996225],[-122.49830399982369,47.184708999988665],[-122.49752399984901,47.184708999988665],[-122.497347000297,47.184708999988665],[-122.4945450004156,47.1847240000586],[-122.49366499998351,47.18472900028448],[-122.49275399958927,47.18473399989937],[-122.49184100044349,47.18472999971906],[-122.4888350003476,47.184719999877586],[-122.48861299969144,47.18471899983226],[-122.48716099969711,47.18471400021595],[-122.48629200003397,47.18474000016924],[-122.48603699976586,47.18474000016924],[-122.48439700034886,47.184746999872694],[-122.4836740002756,47.184747999917484],[-122.48006599958191,47.18476199993189],[-122.47998399956617,47.18476099988737],[-122.4796560004014,47.184764000020884],[-122.47893099978002,47.184766000109754],[-122.47826499960816,47.18477000028735],[-122.47782000026754,47.1847719997655],[-122.47662400036624,47.18477800003107],[-122.47624600007448,47.18477900007523],[-122.47562299956033,47.184825000256325],[-122.47517300019682,47.184821000082906],[-122.47490500040823,47.18481799995262],[-122.47404800044066,47.18482600029965],[-122.47395100035628,47.1848200000395],[-122.47393600028768,47.18480499999669],[-122.47389399955657,47.184789999949636],[-122.46861200000906,47.18472900028448],[-122.46726600031995,47.184720999922824],[-122.4648150000678,47.18468800024997],[-122.46451600031708,47.184684000066184],[-122.46406400040546,47.184652999852965],[-122.4637940000687,47.18469199982286],[-122.46318300014842,47.18466599984611],[-122.46323199965393,47.18285100014671],[-122.46320999991264,47.18114599974187],[-122.46320900008772,47.18104700010047],[-122.463202000415,47.180766000155835],[-122.46423299956155,47.180772999772735],[-122.4645249996396,47.18077500001197],[-122.46489299988562,47.17944100014384],[-122.46381599981002,47.1794460002567],[-122.46381599981002,47.179363999933365],[-122.46317200027777,47.179374000173176],[-122.46316899990474,47.179202999965135],[-122.46403000007025,47.179242000275295],[-122.4643149995773,47.179194999991914],[-122.46450700009625,47.17912799971088],[-122.46469000039434,47.17903500027425],[-122.46484900040302,47.178915000169525],[-122.4649690000536,47.17880200028095],[-122.46505100006938,47.17867899978307],[-122.46506799978779,47.17864300014936],[-122.46539000000308,47.177964999843354],[-122.46562900037767,47.177490000023006],[-122.46567100021048,47.177424000215666],[-122.46549299993525,47.177421000277974],[-122.46561299958583,47.17715000011969],[-122.46567799988316,47.177015000227726],[-122.46574700037846,47.1768810001855],[-122.465827999671,47.17673099972798],[-122.46590399983896,47.1765989999763],[-122.46598400020491,47.1764680000972],[-122.46606600022068,47.17633699989497],[-122.46608600031219,47.1763020000985],[-122.4663209995905,47.17598199984315],[-122.46652200033027,47.175708999848865],[-122.46648799999508,47.17569699970955],[-122.46656400016306,47.17560699979953],[-122.46658400025456,47.175583000082696],[-122.46660299962281,47.175559999962275],[-122.46662299971428,47.175536000224234],[-122.46664299980579,47.17551300008341],[-122.46677300040045,47.17536400025751],[-122.4668830000053,47.17524399979462],[-122.46733599974183,47.174783999884205],[-122.46762899964477,47.174492000204665],[-122.46815000005168,47.173971000073614],[-122.4684129998174,47.1737100001022],[-122.46841000034267,47.17337499988517],[-122.46840600014472,47.17293799970685],[-122.46840500031983,47.172552999849934],[-122.46840100012186,47.172015999960884],[-122.46840000029694,47.17180100001494],[-122.4683979997488,47.171483999779426],[-122.46839699992388,47.1713350002518],[-122.46839600009896,47.17107600014365],[-122.46839399955083,47.170857999747994],[-122.46839299972594,47.170655999759234],[-122.46839100007611,47.17029999988608],[-122.46839100007611,47.170272999872125],[-122.46839199990104,47.17018999972061],[-122.4683480004184,47.17018999972061],[-122.4672789998404,47.170184999957506],[-122.46718000010621,47.170184999957506],[-122.4660679998705,47.1701809999024],[-122.46581500015051,47.17017899987473],[-122.46564899957086,47.17017899987473],[-122.46570299999753,47.17006799974808],[-122.46574700037846,47.16995499996405],[-122.46578199964024,47.169839999899125],[-122.46580500010477,47.16972399986819],[-122.46581900034849,47.169606999864655],[-122.46585100013552,47.16882499989361],[-122.46592999977825,47.16689599981587],[-122.46593800017418,47.16680799980274],[-122.4641949999267,47.166834999745895],[-122.46405699983445,47.17017200008266],[-122.46347400040158,47.17017499981917],[-122.46308000021625,47.17017699984699],[-122.4615260001147,47.17017899987473],[-122.46125900015099,47.17017899987473],[-122.45941600034443,47.17018000019393],[-122.45838100010162,47.17018299992999],[-122.45784299997626,47.170184999957506],[-122.45715400023819,47.17018600027659],[-122.45663500037945,47.17018699998495],[-122.45657500010496,47.17018699998495],[-122.4552119997991,47.17018999972061],[-122.45257599959906,47.1701809999024],[-122.45144099979714,47.170172999791276],[-122.4498680003273,47.17016100023309],[-122.44860700012867,47.17014200026541],[-122.44727899998291,47.17012499971005],[-122.44592599972279,47.170128000059925],[-122.44560000020788,47.17013099979893],[-122.44488200015748,47.170115999880814],[-122.44335300017026,47.17008499971098],[-122.44198700038966,47.170094999866265],[-122.44003900010279,47.17008499971098],[-122.4379839996858,47.17007300013291],[-122.43713000009129,47.17006900006937],[-122.43672400021042,47.17006700003748],[-122.43594500006064,47.170064000294865],[-122.43557699981461,47.17006099994137],[-122.43541699998103,47.17006000023065],[-122.43541100013327,47.16996599985628],[-122.43541500033122,47.16968299984934],[-122.43541699998103,47.16953000005052],[-122.43541699998103,47.169512999909976],[-122.43541799980595,47.16939699977554],[-122.43541899963087,47.16932500011221],[-122.43542000035409,47.16924199970067],[-122.435421000179,47.16916099983617],[-122.43542200000392,47.169108999925896],[-122.43542399965374,47.168936999907054],[-122.43542600020187,47.1688240001596],[-122.43542600020187,47.168783000056685],[-122.4354289996766,47.16861600011483],[-122.43543000039982,47.168532999816755],[-122.43543000039982,47.168492000099924],[-122.43543100022474,47.16844099988663],[-122.43543299987458,47.168248000013314],[-122.43554800040062,47.168248000013314],[-122.43564999960955,47.168248000013314],[-122.43565700018054,47.167950000094145],[-122.43567999974678,47.16698299991459],[-122.43556799959377,47.166982000145914],[-122.43429200022487,47.16696999986676],[-122.43421199985892,47.16696999986676],[-122.43412399999538,47.16697299978412],[-122.43412200034554,47.167158000060574],[-122.432816999766,47.167148999728646],[-122.43145799965811,47.16715700029521],[-122.43145600000827,47.16742000023445],[-122.43145199981032,47.16782599974589],[-122.43411300012473,47.16784400017884],[-122.43410399990388,47.16841999982052],[-122.43407899978953,47.17005099977973],[-122.43313399995841,47.170046999714536],[-122.4314200000233,47.170033000094676],[-122.42883400005195,47.170026999994725],[-122.42870799965524,47.170033999805916],[-122.42819800001729,47.170033000094676],[-122.42809099988717,47.17003199977271],[-122.42758600027211,47.170031000061435],[-122.42754600008914,47.170031000061435],[-122.42635600003563,47.17003900019394],[-122.42622600033931,47.17004500029253],[-122.42583999965161,47.170054000133746],[-122.42527800013514,47.17008499971098],[-122.42488200030002,47.17008699974218],[-122.4235519996061,47.170086000031944],[-122.42224299972693,47.17008699974218],[-122.42152999969939,47.17008199996938],[-122.42096599963476,47.17009800021783],[-122.42096599963476,47.171010999996064],[-122.42096599963476,47.17138299985017],[-122.42095399993921,47.17299099979851],[-122.4209530001143,47.173159999944986],[-122.42095200028938,47.17325600007413],[-122.42094999974124,47.17344200009764],[-122.42083500011351,47.173440999839876],[-122.42046199984462,47.17344599990714],[-122.42042199966164,47.17344599990714],[-122.42042000001183,47.17367600004892],[-122.42041800036199,47.17383799992794],[-122.42041499998894,47.174090000114404],[-122.42041300033914,47.174291999865716],[-122.42041199961591,47.17431900027909],[-122.42041199961591,47.174420000120534],[-122.42039300024764,47.174420000120534],[-122.42035100041485,47.174420000120534],[-122.42034899986672,47.17447400019278],[-122.42034899986672,47.17509700027771],[-122.42034899986672,47.175210000112834],[-122.42094100041874,47.175210000112834],[-122.42094100041874,47.17584700003482],[-122.42094100041874,47.17624500004917],[-122.42094100041874,47.17628299988532],[-122.42034499966874,47.17628100008745],[-122.42034499966874,47.17635000009263],[-122.42034399984385,47.17642000020978],[-122.42034399984385,47.176489000034344],[-122.42034300001893,47.17655799976921],[-122.42034300001893,47.17662800022283],[-122.42034200019401,47.176696999777064],[-122.4203410003691,47.176746999805125],[-122.42034200019401,47.17677499977586],[-122.4203410003691,47.17683600003169],[-122.42094100041874,47.17683900000244],[-122.42094200024366,47.17722600030136],[-122.4209460004416,47.17846200023033],[-122.42094700026652,47.1786630002881],[-122.42088899964186,47.178662000128675],[-122.42082699971759,47.178662000128675],[-122.42042199966164,47.178662000128675],[-122.41971500038022,47.178662000128675],[-122.41971700003005,47.17875500021864],[-122.41971200000717,47.17886199988428],[-122.42030600020901,47.17886499974056],[-122.42030600020901,47.17893400005151],[-122.42030700003393,47.179075000248865],[-122.42083000009065,47.179075000248865],[-122.42094999974124,47.179064999952736],[-122.4209549997641,47.179987000042416],[-122.4209820004266,47.18036000003838],[-122.4209809997034,47.180889000092996],[-122.42097400003068,47.18123700014365],[-122.42097400003068,47.181255999805295],[-122.42096099961189,47.18209300026102],[-122.42096900000782,47.18270200015305],[-122.42097800022866,47.184438999836686],[-122.42097800022866,47.18451700006234],[-122.42095200028938,47.18813600013134],[-122.4209530001143,47.18904400009165],[-122.42093600039587,47.19021800020594],[-122.42092799999995,47.19123400025007],[-122.42092700017503,47.191397000199316],[-122.420959999787,47.191799999804985],[-122.4191010000869,47.19174600026108],[-122.41777399976606,47.191747000174004],[-122.41564300007937,47.191747000174004],[-122.41542200014644,47.191747000174004],[-122.41358299963952,47.19174600026108],[-122.41296400022163,47.19174600026108],[-122.41296400022163,47.19089100005876],[-122.41296400022163,47.19084700011051],[-122.4128999997492,47.19084500025072],[-122.41285999956625,47.19084500025072],[-122.41244899966249,47.19084600018063],[-122.41229300002686,47.19084700011051],[-122.41228600035419,47.19125499984092],[-122.41228100033132,47.19164200005767],[-122.41228100033132,47.19174000017271],[-122.41208700016256,47.191739000259645],[-122.41204399960657,47.191739000259645],[-122.41144799975488,47.1917349999968],[-122.41123400039295,47.1917349999968],[-122.41113499976042,47.1917349999968],[-122.4111389999584,47.19087799975877],[-122.41114499980618,47.19002500011488],[-122.41045799971792,47.19001500004993],[-122.41046000026606,47.18981600013581],[-122.41046100009098,47.189606999944175],[-122.41046100009098,47.189566999968434],[-122.41043299960354,47.18956999983032],[-122.41038099972502,47.18956799992242],[-122.40857100042872,47.18957500021019],[-122.40792500034837,47.189577000117836],[-122.40787699976944,47.189578000071634],[-122.40774299987514,47.189578000071634],[-122.40773399965433,47.191737999736105],[-122.4058790001522,47.191739000259645],[-122.40519799991169,47.19174800008687],[-122.40391099977384,47.19174499973767],[-122.40247600039626,47.19174100008574],[-122.3998529997167,47.19174100008574],[-122.39872100028781,47.191739000259645],[-122.39783199963486,47.19173699982306],[-122.39625599979202,47.19175300026154],[-122.39590799963744,47.19175199973832],[-122.39459600028353,47.19175500008712],[-122.39445200034349,47.19175500008712],[-122.39442800005402,47.19493399991064],[-122.394424999681,47.19533200028893],[-122.39442300003117,47.19559099989336],[-122.3943979999168,47.198927000146256],[-122.3944180000083,47.199519000089545],[-122.39441299998543,47.2000690000255],[-122.39442399985609,47.20027000006101],[-122.39444399994757,47.20064600020547],[-122.39445900001617,47.2009299997234],[-122.394460999666,47.20097000028985],[-122.39446200038923,47.20099600021461],[-122.39446499986396,47.20104000029303],[-122.39450000002404,47.20170999983617],[-122.39452500013842,47.20216899988094],[-122.39454199985684,47.202494000140014],[-122.39454900042786,47.20263099996071],[-122.39454900042786,47.20264500014074],[-122.39453600000907,47.203093999988475],[-122.39452299959028,47.20354799998192],[-122.39451000006981,47.20400800028478],[-122.39449599982609,47.204472999847084],[-122.39449400017628,47.204565000209385],[-122.39447699955952,47.20516099996504],[-122.39445599964311,47.20589600018902],[-122.39444399994757,47.20629400012098],[-122.39444599959738,47.20646700021064],[-122.394460999666,47.20810499981184],[-122.39446400003904,47.20838399984927],[-122.39446700041209,47.20875500005804],[-122.39446999988681,47.20901700003037],[-122.3944740000848,47.20947599970841],[-122.39447900010768,47.20993400011577],[-122.39447999993257,47.21007100024996],[-122.39448400013055,47.210557999808636],[-122.39448599978036,47.210844000290884],[-122.39448699960525,47.21094800008388],[-122.39449300035136,47.21176099990982],[-122.39450699969676,47.213453999757554],[-122.39450800041996,47.213592000063514],[-122.39450599987184,47.2136729998769],[-122.39447800028276,47.214883000101196],[-122.39446599968889,47.21541599992007],[-122.39444499977246,47.21633499992637],[-122.39442399985609,47.21725399986971],[-122.39441200016051,47.21816100005731],[-122.39439899974172,47.21906699997525],[-122.39438700004614,47.2199740002665],[-122.39437500035059,47.22080099987491],[-122.39437399962738,47.22088300024271],[-122.39437299980246,47.22096599984592],[-122.39437199997754,47.22113699972887],[-122.39431000005327,47.223054999839114],[-122.39431000005327,47.22819200027979],[-122.39431099987816,47.22895799973275],[-122.39430099983242,47.230367999724066],[-122.39427999991602,47.23202800010342],[-122.39427800026621,47.23222200026961],[-122.39426800022048,47.233066000267044],[-122.39426800022048,47.233338999861594],[-122.39426700039556,47.233791000122444],[-122.39426700039556,47.234204000038645],[-122.39426700039556,47.234313000195975],[-122.39426700039556,47.2343280002728],[-122.39426599967231,47.23459799971012],[-122.39426599967231,47.23487900007184],[-122.39426499984742,47.23547900013493],[-122.39426700039556,47.23640300027831],[-122.39426800022048,47.23673900005075],[-122.39426900004537,47.23696800011791],[-122.39426800022048,47.237012000241165],[-122.39426999987029,47.237058999944395],[-122.39427099969521,47.23736099970303],[-122.39426999987029,47.237581000152176],[-122.39426999987029,47.237748000268596],[-122.39426999987029,47.237814000078174],[-122.39513699988362,47.23838799996436],[-122.39518399973927,47.2384189998896],[-122.395305999938,47.23850000019892],[-122.3954599999238,47.238602999780895],[-122.39558899979522,47.23868800019112],[-122.39567699965879,47.23874700015174],[-122.3958900000941,47.23888999988703],[-122.39594799982041,47.238929000246884],[-122.3960950001335,47.23902700022682],[-122.39627500005857,47.23914699980604],[-122.39694000040554,47.23951999993425],[-122.39698899991102,47.23954700009997],[-122.39704099978954,47.23957600010447],[-122.39716700018624,47.239647000006514],[-122.39724500000403,47.23969099973489],[-122.3973689998526,47.23976000024713],[-122.39780400004578,47.23991199988301],[-122.39851299987534,47.24015899996221],[-122.39871700008987,47.24023099991176],[-122.39927000028382,47.24035999993243],[-122.39948500036898,47.24040999975198],[-122.39963400033187,47.2404449999635],[-122.39963299960866,47.24046399977242],[-122.39963299960866,47.240543999791925],[-122.39963099995884,47.24084299980164],[-122.39963099995884,47.24099099978177],[-122.39963099995884,47.24102000021572],[-122.39963000013393,47.241165999908915],[-122.39963000013393,47.24120799980463],[-122.39962699976087,47.241671999892596],[-122.39962599993598,47.24185499988636],[-122.39962099991308,47.24284399992079],[-122.3996130004155,47.243198000204075],[-122.39960800039263,47.24340799983314],[-122.39960300036974,47.24356200029239],[-122.3996009998216,47.24371200030146],[-122.39957900008028,47.244618999707036],[-122.39957400005744,47.24484899999942],[-122.39831500040695,47.24484500008241],[-122.39824099988878,47.24484399995065],[-122.39824500008675,47.24469500023232],[-122.39824699973659,47.24461099983801],[-122.3969110000932,47.24460599976679],[-122.39690900044337,47.2446919998285],[-122.3969040004205,47.24501900015701],[-122.39647800044817,47.24501599977154],[-122.39554100011465,47.24501199986714],[-122.39481200019357,47.24500900009106],[-122.39433900036559,47.245006999833755],[-122.39423999973305,47.245005000186175],[-122.39423999973305,47.2446919998285],[-122.39423999973305,47.24467899990612],[-122.39423999973305,47.2445950000963],[-122.39366700034593,47.24459399995978],[-122.39326499976472,47.2445929998233],[-122.39302299991539,47.2445929998233],[-122.39262200005739,47.244592000296606],[-122.39221899965128,47.24459100016009],[-122.39209800017574,47.24459100016009],[-122.39197699980191,47.244590000023514],[-122.39114699959853,47.24458899988695],[-122.391026000123,47.24458799975038],[-122.39063100011282,47.244587000223596],[-122.39050700026422,47.244587000223596],[-122.390108999881,47.244586000086976],[-122.38998900023037,47.244586000086976],[-122.38987200005452,47.244586000086976],[-122.38967200003798,47.244584999950305],[-122.3894629998006,47.244584999950305],[-122.3893139998377,47.244584999950305],[-122.38905199989688,47.244583999813656],[-122.38890299993395,47.244583999813656],[-122.38881599989534,47.244578999739886],[-122.38874300010039,47.24457599993931],[-122.3886250000996,47.24457499980249],[-122.38831499957989,47.24457200000172],[-122.38793999966117,47.244569999727865],[-122.38774800004055,47.244568000063786],[-122.38750600019122,47.24456599978978],[-122.38722800035688,47.24456400012555],[-122.38689799974567,47.2445619998514],[-122.38682999997361,47.24456099971431],[-122.38677800009509,47.24456099971431],[-122.38665699972124,47.244560000187015],[-122.38649699988767,47.24455900004989],[-122.38624800036565,47.24455699977555],[-122.38563900009521,47.244551999699226],[-122.38563900009521,47.244668000250776],[-122.38563900009521,47.244795999702426],[-122.38561999982863,47.244971000067345],[-122.38560399993509,47.24526799984786],[-122.38559800008731,47.24597300008184],[-122.38559800008731,47.24599799978813],[-122.38559499971426,47.24638799977673],[-122.38559800008731,47.2466189998044],[-122.38560099956206,47.24693199975259],[-122.38560099956206,47.246958999799766],[-122.38437700007168,47.24695399995018],[-122.38249900010499,47.246965999832355],[-122.38233599989837,47.246968000015734],[-122.38149999984721,47.246965999832355],[-122.38080799973608,47.24696400025872],[-122.38079699986541,47.24679599982499],[-122.38074400016197,47.24679499973009],[-122.38074099978891,47.24665199998746],[-122.38074800035993,47.24640500029884],[-122.38074900018486,47.246355000038974],[-122.3807950002156,47.246355000038974],[-122.38081799978181,47.246355000038974],[-122.38082799982757,47.245984000076035],[-122.38082700000265,47.24585599983605],[-122.37824000020639,47.24584800015379],[-122.37818800032785,47.245847000040996],[-122.3780209999233,47.245847000040996],[-122.37762099989021,47.24584499981528],[-122.37762300043833,47.24571799996451],[-122.37762799956289,47.245366999811246],[-122.37298299987492,47.2453229999181],[-122.37303200027871,47.24633800011064],[-122.37266700040574,47.24631799986509],[-122.36953200043841,47.24630400023757],[-122.36740800042443,47.24629399980442],[-122.36611700008861,47.24629399980442],[-122.36479700033877,47.24629299970004],[-122.36418600041847,47.246294999908784],[-122.3594560003417,47.246270999837705],[-122.35945299996865,47.24630200002912],[-122.35945100031883,47.24637300006479],[-122.35944700012085,47.24650600016749],[-122.35941500033383,47.24976200010492],[-122.35941199996077,47.24998599981073],[-122.35952800031173,47.25001899972541],[-122.35950900004515,47.250857999704344],[-122.359654999635,47.250857999704344],[-122.35969499981798,47.250857999704344],[-122.35967100042684,47.25174299989644],[-122.35966899987872,47.25181099995534],[-122.35963000041897,47.25181099995534],[-122.35945100031883,47.25181099995534],[-122.3594429999229,47.25210599980953],[-122.35943100022733,47.252550999829005],[-122.35941899963346,47.25299699974563],[-122.35941600015872,47.25304499987921],[-122.35940100009012,47.25365499997159],[-122.35961199997732,47.25365499997159],[-122.3599569997588,47.25365499997159],[-122.36062399975557,47.25365400000619],[-122.36068700040308,47.25365400000619],[-122.36068499985495,47.253690999933404],[-122.36066800013653,47.25451199997303],[-122.35974800041974,47.25475399993612],[-122.35854499994745,47.25506899985643],[-122.35760799961393,47.25531599999305],[-122.35760199976615,47.25556999970213],[-122.35760299959107,47.25570499973343],[-122.35864799987961,47.25632500004107],[-122.35881500028418,47.25642400006813],[-122.35891900004127,47.25648600013243],[-122.35856000001606,47.25648399969883],[-122.35758199967466,47.256480000050715],[-122.356661000133,47.256476999704745],[-122.35666000030808,47.25650700010828],[-122.35663099999579,47.25744000021048],[-122.35594100043276,47.25743299973308],[-122.35467100001333,47.25742200028755],[-122.35453499957089,47.25743799981287],[-122.35342499988332,47.25744199999827],[-122.35333600019486,47.257424000076064],[-122.35326900024772,47.25742200028755],[-122.35311600008684,47.25741800010063],[-122.35302800022329,47.25741599970219],[-122.35292299974299,47.25741399991342],[-122.35289699980375,47.25741300001896],[-122.35282999985655,47.25741100023003],[-122.35261700031957,47.25740899983136],[-122.35252500025804,47.25740899983136],[-122.35161800006176,47.25740199995957],[-122.35093900036942,47.25739799977114],[-122.35025200028116,47.257393000297284],[-122.34842399964487,47.25737899993887],[-122.34837799961413,47.258307999798674],[-122.34965100040662,47.25832000015685],[-122.34954199972837,47.261041000017904],[-122.35034599999248,47.26104899984405],[-122.35033699977164,47.26149599994402],[-122.35033299957372,47.26219799996273],[-122.35048200043494,47.26219799996273],[-122.35072099991122,47.26219700015866],[-122.35375899979415,47.26219100011445],[-122.35375700014437,47.26106900001371],[-122.35430100011746,47.26107200009949],[-122.35520599976563,47.26107699983563],[-122.35540699960707,47.261078000270516],[-122.35560800034683,47.26107900009576],[-122.3558090001883,47.26107999992095],[-122.35598099971742,47.2610839998312],[-122.35596900002187,47.26136800000371],[-122.35594100043276,47.261367000183974],[-122.35592100034128,47.26256199994302],[-122.3558379996023,47.26458499972476],[-122.35583400030265,47.266977000151904],[-122.35583299957943,47.267622999700464],[-122.35583199975451,47.267985999868024],[-122.35582300043198,47.26809900000154],[-122.35551100026247,47.26811299996352],[-122.35454200014189,47.268134000204306],[-122.35325800037707,47.268152999834484],[-122.35323200043777,47.26890099977799],[-122.35320300012548,47.26987700028993],[-122.35320200030056,47.269897999830874],[-122.35320099957735,47.26992000024078],[-122.35297799999456,47.26992200016679],[-122.35063100039784,47.269947999807286],[-122.35051300039707,47.269949000074526],[-122.35051199967384,47.26996399981414],[-122.3504940001305,47.27031099987779],[-122.35061499960601,47.27031000022695],[-122.35158000042692,47.27031799987149],[-122.35151099993165,47.27165800007055],[-122.35172500019188,47.271663000025946],[-122.35185900008618,47.27165800007055],[-122.35209199971469,47.27165899969594],[-122.35251199983925,47.271661000165736],[-122.35263200038817,47.2716619997911],[-122.35308699977452,47.271663000025946],[-122.3541060001238,47.27166699974612],[-122.3542020003833,47.27166799998087],[-122.35490299981691,47.271671000075514],[-122.35510399965835,47.271671000075514],[-122.3553039996749,47.27167199970065],[-122.35542400022382,47.27167299993531],[-122.35550399969146,47.27167299993531],[-122.3557179999517,47.27167499979508],[-122.35576599963227,47.271674000169995],[-122.3557609996094,47.27191200001139],[-122.3557330000203,47.27348899993827],[-122.35567100009602,47.27640999982204],[-122.3556839996165,47.27746599991972],[-122.35716400009822,47.27848799973281],[-122.35793900005004,47.27902300002492],[-122.35826700011312,47.27931200008761],[-122.35830399992301,47.279368999717455],[-122.35835599980156,47.279416999710996],[-122.35843199996954,47.27947800018588],[-122.35879699984253,47.27974099989942],[-122.35905700013352,47.27992299991374],[-122.35910800018715,47.27995000020406],[-122.35994199969021,47.28045799971263],[-122.36142999966953,47.28144699981968],[-122.36148099972314,47.281500000000996],[-122.36156199991402,47.28157700005487],[-122.36208199959768,47.281938000111076],[-122.36326300032869,47.28275900028779],[-122.36477100039949,47.28380499976392],[-122.36481900008006,47.28383899993463],[-122.3660049999356,47.28465999986014],[-122.36617599963982,47.284778000279914],[-122.36727600017998,47.285541000054295],[-122.36735300017286,47.2855939997904],[-122.36827399971453,47.28623300028144],[-122.36858000003629,47.28644399983444],[-122.3693680004069,47.286991000061604],[-122.37128700038143,47.28831900007837],[-122.37132400019138,47.28834299998116],[-122.3715789995612,47.288519000154295],[-122.37185899994365,47.28871399991153],[-122.37352299965009,47.28986199977819],[-122.37636100041483,47.29179900024704],[-122.37641400011827,47.29184200005393],[-122.37680199955747,47.29215799970221],[-122.37888899976151,47.29355799971703],[-122.3815480004261,47.295341999948775],[-122.38178400042764,47.295501999782545],[-122.3821609999962,47.295765000254725],[-122.38399799995499,47.297042999989934],[-122.38430500010165,47.2972339997752],[-122.38440499966076,47.29728799972973],[-122.38466499995175,47.29750799980933],[-122.38467800037057,47.29751200001275],[-122.38484200040207,47.2975570001483],[-122.38515299984839,47.29767800026855],[-122.38529900033659,47.297750999738916],[-122.38557100032313,47.297909000116924],[-122.38650899958326,47.29855800017937],[-122.38702099976932,47.298925999963934],[-122.38791799991985,47.2994940002324],[-122.38919099981403,47.300365000103284],[-122.38941000009714,47.300509000064274],[-122.38956699955769,47.30059700008425],[-122.38965000029667,47.300663000155424],[-122.39128499969078,47.302019999767765],[-122.39137299955435,47.30208099976367],[-122.3914899997302,47.302162000168764],[-122.39174499999834,47.302338000042106],[-122.39176300043998,47.30235799983835],[-122.3920959996276,47.30263500028912],[-122.39342399977336,47.30359299985736],[-122.39377500030096,47.30385000009531],[-122.39455500027563,47.304401000291335],[-122.39506800028661,47.30476199991042],[-122.39572500023766,47.304761000301305],[-122.39631100004357,47.304744999852026],[-122.39662499986294,47.30473699993018],[-122.39741499988337,47.30471699981567],[-122.39789000025952,47.3047040000113],[-122.39797099955206,47.30470299979193],[-122.39801199955993,47.30470099996228],[-122.39813299993375,47.30469799991309],[-122.39818200033757,47.30469799991309],[-122.40031999969692,47.30470299979193],[-122.40040000006287,47.3047040000113],[-122.40068700011803,47.304705000230655],[-122.40093300016532,47.304705000230655],[-122.40117800038772,47.30470599984084],[-122.40142299971178,47.304707000060155],[-122.4016689997591,47.304708000279454],[-122.40488900011522,47.30471499998655],[-122.40513500016253,47.3047160002057],[-122.40537799983676,47.30471499998655],[-122.40562100040933,47.3047160002057],[-122.4058669995583,47.30471699981567],[-122.40610599993289,47.30471699981567],[-122.40639100033826,47.30471699981567],[-122.4080490001969,47.30472100008284],[-122.40806500009043,47.30471999986379],[-122.40845599990267,47.30472200030188],[-122.4086390002008,47.30472200030188],[-122.40877399992,47.30472200030188],[-122.40895899986793,47.304722999911725],[-122.40898399998228,47.304722999911725],[-122.40900200042397,47.304722999911725],[-122.4091339997701,47.30472700017845],[-122.40912600027251,47.305330000222476],[-122.40912999957214,47.305475000265844],[-122.40913899979299,47.30578900028201],[-122.4090059997236,47.30578500009566],[-122.40900700044682,47.306460999880585],[-122.40900700044682,47.30663800024333],[-122.40900800027174,47.306953000228184],[-122.40900800027174,47.30702999977656],[-122.40900900009666,47.30729399972592],[-122.40901099974647,47.30841099973927],[-122.40901099974647,47.30873800001245],[-122.40900900009666,47.30912999980824],[-122.4090059997236,47.30947200000878],[-122.40900400007376,47.30981499994627],[-122.40900200042397,47.310085000091064],[-122.40900200042397,47.31014400029325],[-122.4089990000509,47.31058300024553],[-122.40899499985295,47.311077000185186],[-122.4089930002031,47.311383999771785],[-122.40898999983007,47.31169800001188],[-122.40899099965497,47.311772999785454],[-122.40898800018026,47.31212999990403],[-122.40907400039397,47.31212899982518],[-122.41437100001012,47.3121020001252],[-122.41437299965992,47.31223899985893],[-122.41437900040602,47.312732000087735],[-122.41438299970568,47.31306099993884],[-122.41438600007871,47.31328200021793],[-122.41438899955347,47.31352500012218],[-122.41439299975141,47.31387500026626],[-122.41439399957633,47.31391699973798],[-122.41439799977428,47.314234999701334],[-122.41440199997226,47.31453100006589],[-122.41440799982003,47.31507999972078],[-122.41441200001799,47.315365000031626],[-122.41441500039105,47.315638999887646],[-122.4152940000999,47.315649000011085],[-122.4161450002197,47.31565900013268],[-122.41654799972753,47.31566400019273],[-122.41667599977403,47.31566600021664],[-122.41667499994914,47.315621000269665],[-122.41667400012422,47.31531799979128],[-122.41667099975116,47.31456900010371],[-122.4170740001573,47.31457300023428],[-122.41706999995935,47.31387300017457],[-122.41840899997577,47.31387400022042],[-122.41840899997577,47.3135460000013],[-122.41840800015085,47.313323000104724],[-122.41840800015085,47.31302999985889],[-122.41840800015085,47.31277900019185],[-122.41840800015085,47.3125330002981],[-122.41840800015085,47.31237699992072],[-122.41840700032591,47.31228400024967],[-122.41841800019658,47.312061999980344],[-122.41892799983454,47.31205600010832],[-122.41926299957028,47.31205299986748],[-122.4194760000056,47.312050999706834],[-122.41963699966412,47.312049000155184],[-122.41975800003792,47.31204800007479],[-122.41975899986284,47.31201700000965],[-122.41975899986284,47.31199099972486],[-122.41975899986284,47.31195499982479],[-122.42020900012463,47.31196299987239],[-122.42040499994322,47.31195499982479],[-122.42060699960957,47.31199899976701],[-122.42072700015848,47.31201200021355],[-122.42076899999128,47.31201599992865],[-122.42114800010796,47.312014999847634],[-122.42190899981607,47.31201599992865],[-122.42190899981607,47.31204599991396],[-122.42204100006053,47.31204599991396],[-122.42248700012438,47.31204499983351],[-122.42347600033645,47.31204100012061],[-122.42347200013847,47.31209500017816],[-122.42487399990411,47.31208499999123],[-122.42505700020219,47.312083999911515],[-122.42505800002712,47.31223199993004],[-122.42505899985201,47.312407999774706],[-122.4250599996769,47.31253800004492],[-122.4250599996769,47.3125930002738],[-122.42506100040015,47.312701999882776],[-122.42506200022507,47.3127999997584],[-122.42502000039227,47.31317999978235],[-122.4250139996462,47.31357899988151],[-122.42502399969193,47.3140169998829],[-122.42502100021719,47.31439600025546],[-122.42502100021719,47.31443000024927],[-122.42543499959564,47.31443000024927],[-122.42579600016899,47.31443000024927],[-122.42588800023049,47.31443000024927],[-122.42626999982191,47.31443000024927],[-122.42640500043944,47.31443000024927],[-122.42641899978481,47.31448999989828],[-122.42641299993706,47.314829000046025],[-122.42641100028725,47.31495300029886],[-122.42641600031011,47.315229999915715],[-122.4264220001579,47.31526099992319],[-122.42660100025802,47.315261999942784],[-122.42705900001742,47.3152639999819],[-122.42711900029187,47.3152639999819],[-122.42718000039125,47.3152639999819],[-122.42746800027135,47.31526500000143],[-122.42768199963328,47.31526600002094],[-122.42767999998344,47.31437600014144],[-122.42767699961038,47.3132070001497],[-122.42767300031075,47.312050999706834],[-122.42905499998486,47.31205700018855],[-122.42998200027263,47.312059999820086],[-122.43033999957463,47.312061999980344],[-122.43036100038934,47.31168700027164],[-122.43038399995555,47.31127599997572],[-122.43041800029074,47.31127599997572],[-122.43085099993577,47.31127300029969],[-122.43113600034114,47.31127100010953],[-122.43127299971017,47.31127000001441],[-122.4312810001061,47.311236999910534],[-122.43130799987026,47.31112299983607],[-122.43131799991602,47.311083000168416],[-122.43137700036557,47.310832999884624],[-122.4314429995895,47.3105590000815],[-122.4315070000619,47.310240999925014],[-122.43157999985682,47.309474999787035],[-122.43160699962101,47.309300000052744],[-122.43163599993333,47.3091529998769],[-122.43171999959891,47.30888600026453],[-122.43177800022356,47.30878500001393],[-122.43193999970693,47.3085580001515],[-122.43216599966274,47.30824299998578],[-122.43226199992222,47.30811099980486],[-122.4324150000831,47.30790999996214],[-122.43219800034811,47.307647999762054],[-122.43189500039944,47.30728200011677],[-122.43172100032216,47.30707199981517],[-122.43111799989948,47.30661700005577],[-122.43087000020236,47.30640100025287],[-122.43080200043029,47.30631900006274],[-122.43075300002648,47.30623999970721],[-122.43071399966844,47.30616200003455],[-122.43070000032303,47.3061159997207],[-122.43068899955408,47.30595899969876],[-122.43071000036879,47.30448500024899],[-122.43068699990424,47.30358700024216],[-122.43065699976702,47.302837999988206],[-122.43064900026941,47.30219200026474],[-122.43061699958405,47.301824000063455],[-122.43070699999573,47.30182200012489],[-122.43200400017936,47.30182299978959],[-122.43205400040807,47.30204600008422],[-122.43216700038597,47.30204699974468],[-122.43219900017303,47.30204699974468],[-122.432239000356,47.30204800001431],[-122.4329709997518,47.30205199987426],[-122.43327100022577,47.302053999804116],[-122.43370300004591,47.302057000003366],[-122.43374099968072,47.3020580002728],[-122.43400699981953,47.30205899993308],[-122.43455300034078,47.30206599999092],[-122.4345549999906,47.30201399997409],[-122.43404199997961,47.30200699990936],[-122.43381600002381,47.30200499997767],[-122.43377599984083,47.30200499997767],[-122.43334999986848,47.302001999775484],[-122.43335300024154,47.3017519997907],[-122.43335499989135,47.301619000179606],[-122.4333309996019,47.30160400027574],[-122.43327399970048,47.30160400027574],[-122.43327600024864,47.30113899992725],[-122.43185100001851,47.30113699996272],[-122.43186100006425,47.30010300027665],[-122.43201500005001,47.29993699971464],[-122.43212399982997,47.29983100030148],[-122.43233300006733,47.2996759999092],[-122.43254200030471,47.29954699999876],[-122.43278800035199,47.29937799977674],[-122.43286600016981,47.29931399996258],[-122.4329210004214,47.29924100021327],[-122.43293999978967,47.299196000292575],[-122.43298800036854,47.29906899986296],[-122.4330069997368,47.2989860001561],[-122.43300400026209,47.29890499975871],[-122.43287799986537,47.29858799988356],[-122.43271200018404,47.29823999970979],[-122.43271700020688,47.298190000270395],[-122.43276900008541,47.29814500006439],[-122.43262199977232,47.29802599987664],[-122.43257400009176,47.29799200029596],[-122.4325769995665,47.29792399985064],[-122.43266000030549,47.29621299998146],[-122.43233499971714,47.29602099978002],[-122.44203500007025,47.28712100007907],[-122.4433349997286,47.28612099983017],[-122.46623600009998,47.29761999990811],[-122.47265599982248,47.30078799982449],[-122.47699799956175,47.30293200008597],[-122.48413799988279,47.306456000168026],[-122.4894909995754,47.309084999777426],[-122.48982399966134,47.30924899997592],[-122.49135000017382,47.31001599985363],[-122.49363900004423,47.31114600025556],[-122.49397999962774,47.31131399991786],[-122.50533700001458,47.31692000029705],[-122.5074280004166,47.31769200016266],[-122.51013499986345,47.319619999932975],[-122.51098199978527,47.31981899982956],[-122.51388099975107,47.32053700006498],[-122.51733700010874,47.321578000043964],[-122.51786600001326,47.32178299985938],[-122.52041699982449,47.322775000195044],[-122.5235719998833,47.32417499997561],[-122.52565200041464,47.32539999979399],[-122.52730299970229,47.32648200018327],[-122.52805900028584,47.32701400028642],[-122.5295070000822,47.328215999740905],[-122.52964400034953,47.32833599993233],[-122.53135499991166,47.32988099973611],[-122.5324370000101,47.33100399983385],[-122.53347399990275,47.332081999867476],[-122.55362899957093,47.320106000012935],[-122.56033899972164,47.31611900002503],[-122.54665900002753,47.30007599991614],[-122.54123799966453,47.293719999710326],[-122.54073800007231,47.29032000020106],[-122.5429940003308,47.282095000163686],[-122.54326299994429,47.28111199971021],[-122.54413800035351,47.277919999945404],[-122.55132800000493,47.269392000069296],[-122.55152899984641,47.26915399986751],[-122.55184100001594,47.26867199999147],[-122.55487100040126,47.263801999754754],[-122.56310700016616,47.25056799972475]],[[-122.51570799966409,47.29442899988973],[-122.51568900029584,47.29486599977405],[-122.51567900025009,47.2953550002275],[-122.51567500005211,47.29622999973726],[-122.51567500005211,47.29627600012412],[-122.51567199967909,47.297311000077194],[-122.51566900020435,47.29810300024375],[-122.51564699956472,47.29933599971707],[-122.51564499991488,47.30059399980216],[-122.51563999989203,47.30178200011934],[-122.51428800035512,47.301769999868064],[-122.51290400013286,47.301758000223295],[-122.51151700043587,47.30174400002506],[-122.51053700044466,47.301742999749685],[-122.51042699994147,47.30173499998272],[-122.5103509997735,47.30170799984647],[-122.50930499966005,47.30177100014292],[-122.50867799984624,47.30203900002372],[-122.5086390003865,47.30209800006958],[-122.50861300044724,47.30210799970947],[-122.50833700026271,47.30222899977081],[-122.50740900015002,47.302634000030594],[-122.50739699955615,47.30264600008575],[-122.50728399957822,47.30263999975396],[-122.5069859996524,47.302767999780926],[-122.50696499973601,47.30277700025659],[-122.50682400016902,47.30283699973353],[-122.50674700017612,47.302781999707946],[-122.50616800004289,47.302375999709376],[-122.50602699957757,47.30227600007744],[-122.5056190000469,47.301988999912645],[-122.50573299984971,47.30170999978934],[-122.50587900033788,47.30135400023645],[-122.50583599978188,47.30130299980302],[-122.50583400013205,47.30123800020657],[-122.50576399981185,47.30117000028077],[-122.50565000000904,47.301136000285055],[-122.5055279998103,47.30107099987412],[-122.50524999997593,47.30092300028036],[-122.50512899960214,47.30091299980714],[-122.50512899960214,47.30085400026638],[-122.50512899960214,47.30082499970392],[-122.50512799977722,47.300517999706166],[-122.50512799977722,47.30014299972499],[-122.50512799977722,47.30003999982012],[-122.50512899960214,47.299829999989896],[-122.50510699986081,47.29981300017312],[-122.50513699999803,47.29916000020654],[-122.50514500039395,47.29898699987442],[-122.50515700008954,47.29872999975515],[-122.50515999956427,47.298676000054826],[-122.50512500030248,47.298133999940546],[-122.50512500030248,47.298041999922596],[-122.50512500030248,47.297839000084814],[-122.5051260001274,47.29761700006631],[-122.5051260001274,47.297591999753344],[-122.50512899960214,47.297206999777245],[-122.50513000032535,47.29581099982763],[-122.50516399976222,47.2957279998805],[-122.505177000181,47.29484799978323],[-122.5051679999602,47.29435600009798],[-122.50651100017456,47.29435600009798],[-122.50809799988812,47.2943620001514],[-122.50955099970733,47.29436900000983],[-122.51039400032953,47.29436900000983],[-122.5112730000384,47.29437899989299],[-122.51570799966409,47.29442899988973]]],[[[-122.51390400021556,47.22827599986509],[-122.51390599986541,47.228266000299065],[-122.51387599972817,47.22713100008578],[-122.51387400007833,47.227053000271866],[-122.51386900005548,47.22684699992987],[-122.51386700040564,47.226784999942666],[-122.51386200038277,47.2265739998364],[-122.51373000013832,47.22657499970296],[-122.51372599994035,47.22646600010175],[-122.51323999969354,47.22647000018621],[-122.51323899986862,47.22641599993547],[-122.51323700021881,47.22633299971385],[-122.51323600039389,47.22625099984506],[-122.51323399984575,47.22618200004321],[-122.51323300002083,47.22613999982806],[-122.51323300002083,47.226113000151486],[-122.51323200019594,47.22604400017],[-122.5132299996478,47.225975999976576],[-122.51322899982289,47.225906999816715],[-122.51322700017307,47.2258380001771],[-122.51322600034815,47.225768999837655],[-122.51322499962491,47.225700000018406],[-122.51322399980002,47.22567599976845],[-122.5132229999751,47.22563100010935],[-122.51322200015018,47.22556200011052],[-122.51261700007768,47.225564999767485],[-122.51247300013765,47.22556899991998],[-122.51246999976459,47.22543399994551],[-122.51198600006593,47.2254440000458],[-122.51198299969288,47.22536700007905],[-122.51198199986798,47.22529799973653],[-122.51198000021814,47.22522899991428],[-122.51197900039324,47.225182000090044],[-122.51197799967001,47.22516000000221],[-122.51197699984512,47.225091000000326],[-122.51197500019526,47.225021999908634],[-122.51197400037034,47.22499399976624],[-122.51197299964714,47.224951999829955],[-122.51197199982222,47.22488300016736],[-122.5119700001724,47.22481399980492],[-122.51196799962428,47.224743000160515],[-122.51196699979934,47.22470199992727],[-122.51196599997445,47.224661000272384],[-122.51171300025443,47.22466300007771],[-122.51103000036414,47.22466700029828],[-122.5107380002861,47.22466900010338],[-122.51052999987364,47.22467099990842],[-122.51043699998723,47.22467099990842],[-122.51014800028221,47.22467299971338],[-122.50985700002911,47.22467500012833],[-122.50981699984611,47.22467500012833],[-122.50979799957953,47.22467500012833],[-122.5097669996174,47.22467600003076],[-122.50953300016398,47.22467699993318],[-122.50929899981226,47.224678999737904],[-122.50903400039668,47.2246800002503],[-122.50887700003788,47.22468100015264],[-122.50877099973266,47.22468200005497],[-122.50844000019488,47.22468399985951],[-122.50808100016967,47.22468700017623],[-122.50791899978795,47.224688000078444],[-122.50760900016655,47.224689999882756],[-122.5075129999071,47.224689999882756],[-122.5071470002092,47.22469300019919],[-122.50703500005619,47.22469300019919],[-122.50648000021242,47.224696999807364],[-122.50645500009807,47.224696999807364],[-122.50641400009017,47.224696999807364],[-122.50641699956492,47.22481000020557],[-122.50644300040253,47.2265189998239],[-122.50767199991574,47.22651200013988],[-122.50768399961133,47.22725399993452],[-122.50953499981382,47.22724400017574],[-122.5095470004077,47.22818299992415],[-122.5095470004077,47.22820400014156],[-122.5095470004077,47.228256999955995],[-122.50954800023261,47.228314000272825],[-122.51064500039969,47.228308999883595],[-122.51140100008492,47.22830099999194],[-122.51241700006115,47.22828999998638],[-122.51264600039,47.22828799970784],[-122.51305999976847,47.22828399976053],[-122.51390400021556,47.22827599986509]]]]},"properties":{"AREALAND":"128946153","AREAWATER":"32899544","BASENAME":"Tacoma","CBSAPCI":"Y","CENTLAT":"+47.2517695","CENTLON":"-122.4596870","FUNCSTAT":"A","GEOID":"5370000","INTPTLAT":"+47.2521991","INTPTLON":"-122.4598318","LSADC":"25","MTFCC":"G4110","NAME":"Tacoma city","NECTAPCI":"N","OBJECTID":32393,"OID":"278901445839844","PLACE":"70000","PLACECC":"C1","PLACENS":"02412025","STATE":"53","DISP_CLR":5,"slug":"tacoma","jurisdiction_key":"tacoma_city","county_fips":["53053"]}}]}
