{
  "type": "FeatureCollection",
  "features": [
    {
      "type": "Feature",
      "geometry": {
        "type": "MultiPolygon",
        "coordinates": [
          [
            [
              [
                -117.08591000029593,
                47.230289999793584
              ],
              [
                -117.08591000029593,
                47.22991000011691
              ],
              [
                -117.08589000020444,
                47.22985000027212
              ],
              [
                -117.08586000006721,
                47.229820000019195
              ],
              [
                -117.08582999993,
                47.22980000024784
              ],
              [
                -117.08570000023364,
                47.229760000072474
              ],
              [
                -117.08553000035434,
                47.22972999976865
              ],
              [
                -117.0853100002463,
                47.22968000024123
              ],
              [
                -117.08528000010907,
                47.22965999980703
              ],
              [
                -117.08527000006332,
                47.22963000005658
              ],
              [
                -117.08528000010907,
                47.22958999975292
              ],
              [
                -117.0853100002463,
                47.22955999996289
              ],
              [
                -117.0853599995767,
                47.22955000002908
              ],
              [
                -117.08539300008697,
                47.229546000177045
              ],
              [
                -117.08555999959324,
                47.22953000015584
              ],
              [
                -117.08561999986769,
                47.229510000275056
              ],
              [
                -117.08573000037086,
                47.22945999993007
              ],
              [
                -117.08579999979275,
                47.2294100001479
              ],
              [
                -117.08582999993,
                47.229380000256
              ],
              [
                -117.08582800028016,
                47.229200999754894
              ],
              [
                -117.08582800028016,
                47.22902000022838
              ],
              [
                -117.0858240000822,
                47.22851400020393
              ],
              [
                -117.08581200038665,
                47.22364100003466
              ],
              [
                -117.0858230002573,
                47.220625000234605
              ],
              [
                -117.08582900010508,
                47.218631000097865
              ],
              [
                -117.08582900010508,
                47.21837400013492
              ],
              [
                -117.07761000005863,
                47.2183700000497
              ],
              [
                -117.07742000008783,
                47.2183700000497
              ],
              [
                -117.07699999996328,
                47.21838000026222
              ],
              [
                -117.07688899963519,
                47.21838999986271
              ],
              [
                -117.07677999985526,
                47.21840000007151
              ],
              [
                -117.07671000043335,
                47.21840000007151
              ],
              [
                -117.07663900028822,
                47.218403000133776
              ],
              [
                -117.07648000027957,
                47.218410000278375
              ],
              [
                -117.07642599985292,
                47.218410000278375
              ],
              [
                -117.07635600043103,
                47.218410000278375
              ],
              [
                -117.07625000012582,
                47.218410000278375
              ],
              [
                -117.07614999966837,
                47.218410000278375
              ],
              [
                -117.07600999992628,
                47.21838999986271
              ],
              [
                -117.07594999965185,
                47.21838999986271
              ],
              [
                -117.07593600030646,
                47.21838299971547
              ],
              [
                -117.07584000004698,
                47.218340000010926
              ],
              [
                -117.07580400006198,
                47.21835399970572
              ],
              [
                -117.07573999958954,
                47.21838000026222
              ],
              [
                -117.07570100012981,
                47.21840700021651
              ],
              [
                -117.07567000016768,
                47.21843000007629
              ],
              [
                -117.07564000003043,
                47.2184199998732
              ],
              [
                -117.07557999975602,
                47.218410000278375
              ],
              [
                -117.07555700018978,
                47.21840700021651
              ],
              [
                -117.07547000015113,
                47.21840000007151
              ],
              [
                -117.07521400005808,
                47.218385999778704
              ],
              [
                -117.07510000025526,
                47.21838000026222
              ],
              [
                -117.07510000025526,
                47.2182890000891
              ],
              [
                -117.07510000025526,
                47.218240000165856
              ],
              [
                -117.07509000020953,
                47.21810999996332
              ],
              [
                -117.07509000020953,
                47.218018999936916
              ],
              [
                -117.07509000020953,
                47.21798000005216
              ],
              [
                -117.0750800001638,
                47.217929999813705
              ],
              [
                -117.07505400022453,
                47.21736600022864
              ],
              [
                -117.07397999962366,
                47.21735299970337
              ],
              [
                -117.0729040002713,
                47.217350000191814
              ],
              [
                -117.07234600005444,
                47.21734700007001
              ],
              [
                -117.07235199990225,
                47.21798300013819
              ],
              [
                -117.07234900042751,
                47.2183230002458
              ],
              [
                -117.0723140002674,
                47.21832200022359
              ],
              [
                -117.07226200038887,
                47.21832100020131
              ],
              [
                -117.07210900022797,
                47.21832000017901
              ],
              [
                -117.07205800017437,
                47.21832000017901
              ],
              [
                -117.07148200041418,
                47.21833399987909
              ],
              [
                -117.06872499984033,
                47.218334999901124
              ],
              [
                -117.06768600029788,
                47.21832999979086
              ],
              [
                -117.06752999976395,
                47.21812000022488
              ],
              [
                -117.06751300004552,
                47.21809800025708
              ],
              [
                -117.06708000040044,
                47.21754000024073
              ],
              [
                -117.06686399959209,
                47.2172409999271
              ],
              [
                -117.06682000010947,
                47.21717999973158
              ],
              [
                -117.06667000032165,
                47.216940000271514
              ],
              [
                -117.06657599971199,
                47.21681300008467
              ],
              [
                -117.06629399967967,
                47.21643499970318
              ],
              [
                -117.06620099979325,
                47.21630900019755
              ],
              [
                -117.0660900003635,
                47.21616000016822
              ],
              [
                -117.06586000020972,
                47.21580000005255
              ],
              [
                -117.06538599965847,
                47.21516299995622
              ],
              [
                -117.06525000011436,
                47.21497999991981
              ],
              [
                -117.06498999982337,
                47.21463999973265
              ],
              [
                -117.06481900011914,
                47.214398000177354
              ],
              [
                -117.06425699970434,
                47.21434700012516
              ],
              [
                -117.06292699990877,
                47.21424200018626
              ],
              [
                -117.06256600023374,
                47.214213999842016
              ],
              [
                -117.0614230000359,
                47.2141790000011
              ],
              [
                -117.06086700036722,
                47.21432700000755
              ],
              [
                -117.0610060002844,
                47.21479799995076
              ],
              [
                -117.06032199967088,
                47.21553000003985
              ],
              [
                -117.05974300043593,
                47.21585600027175
              ],
              [
                -117.0590069999439,
                47.21598599989884
              ],
              [
                -117.05882399964578,
                47.21603899972575
              ],
              [
                -117.05834800034302,
                47.216199000171315
              ],
              [
                -117.05703899956552,
                47.21663700001951
              ],
              [
                -117.05687799990704,
                47.2166359999655
              ],
              [
                -117.05579300033385,
                47.21759000023675
              ],
              [
                -117.0568739997091,
                47.2175919996987
              ],
              [
                -117.05685500034083,
                47.2202159999997
              ],
              [
                -117.05986899993431,
                47.22022799983669
              ],
              [
                -117.0642940004126,
                47.220247000183214
              ],
              [
                -117.06430000026037,
                47.22114999993647
              ],
              [
                -117.06430500028327,
                47.222202000114876
              ],
              [
                -117.06431799980372,
                47.225736999950314
              ],
              [
                -117.06433399969727,
                47.227216999841396
              ],
              [
                -117.06433399969727,
                47.22731199996259
              ],
              [
                -117.0643370000703,
                47.22760000006641
              ],
              [
                -117.06433799989519,
                47.22769599995664
              ],
              [
                -117.06433799989519,
                47.227722000202014
              ],
              [
                -117.06433799989519,
                47.22780000025152
              ],
              [
                -117.06433799989519,
                47.22782700028888
              ],
              [
                -117.06433799989519,
                47.22800800022917
              ],
              [
                -117.06434100026824,
                47.228553000270345
              ],
              [
                -117.06434200009316,
                47.228734999997414
              ],
              [
                -117.0643520001389,
                47.22989199998763
              ],
              [
                -117.06438099955291,
                47.23288900012029
              ],
              [
                -117.06619999996835,
                47.232894999824765
              ],
              [
                -117.0734750000086,
                47.232923999810204
              ],
              [
                -117.07515799998158,
                47.23292700027055
              ],
              [
                -117.07515999963142,
                47.23301999981708
              ],
              [
                -117.0751570001567,
                47.233136
              ],
              [
                -117.07514999958566,
                47.23341000019153
              ],
              [
                -117.07514999958566,
                47.23348499998141
              ],
              [
                -117.07514999958566,
                47.23360200010046
              ],
              [
                -117.07514999958566,
                47.23372700025504
              ],
              [
                -117.07514999958566,
                47.23387000011906
              ],
              [
                -117.07515600033179,
                47.234104000228704
              ],
              [
                -117.07515999963142,
                47.23423000014129
              ],
              [
                -117.07516700020243,
                47.234365000281535
              ],
              [
                -117.0751799997229,
                47.234637999893835
              ],
              [
                -117.0772850003686,
                47.23464699976323
              ],
              [
                -117.07728100017066,
                47.23362599981141
              ],
              [
                -117.07727899962252,
                47.23355800019547
              ],
              [
                -117.07639700043892,
                47.233554000035944
              ],
              [
                -117.07639599971567,
                47.23299500008621
              ],
              [
                -117.07720400017776,
                47.232959999833156
              ],
              [
                -117.07744699985199,
                47.23293500007398
              ],
              [
                -117.07933099966647,
                47.232942999876194
              ],
              [
                -117.08588400035666,
                47.232975000292996
              ],
              [
                -117.08588000015868,
                47.23276000020952
              ],
              [
                -117.08587000011295,
                47.23263000023241
              ],
              [
                -117.08587299958768,
                47.23251900015436
              ],
              [
                -117.08587699978565,
                47.232400999717576
              ],
              [
                -117.08589000020444,
                47.232069999922956
              ],
              [
                -117.08589000020444,
                47.231798000269215
              ],
              [
                -117.08589000020444,
                47.23155799988189
              ],
              [
                -117.08589000020444,
                47.23153000014207
              ],
              [
                -117.08588299963344,
                47.23107899989832
              ],
              [
                -117.08588000015868,
                47.23086999998666
              ],
              [
                -117.08590000025018,
                47.230619999935
              ],
              [
                -117.08591000029593,
                47.230289999793584
              ]
            ]
          ],
          [
            [
              [
                -117.04807100040487,
                47.23355199995607
              ],
              [
                -117.04859600011142,
                47.232812999738
              ],
              [
                -117.04713700044438,
                47.232819000061085
              ],
              [
                -117.0441969995724,
                47.234584999750695
              ],
              [
                -117.04290899960962,
                47.23535900017784
              ],
              [
                -117.04290899960962,
                47.23578800003924
              ],
              [
                -117.04291000033287,
                47.235902000271366
              ],
              [
                -117.04291899965538,
                47.2365719998039
              ],
              [
                -117.04308100003706,
                47.23648099975097
              ],
              [
                -117.04562099997764,
                47.235059999717706
              ],
              [
                -117.04646799989949,
                47.23458699979158
              ],
              [
                -117.04754499997507,
                47.233982999870896
              ],
              [
                -117.04790999984805,
                47.23378000003635
              ],
              [
                -117.04807100040487,
                47.23355199995607
              ]
            ]
          ],
          [
            [
              [
                -117.07773100043245,
                47.21233600018773
              ],
              [
                -117.07777800028809,
                47.21104999996438
              ],
              [
                -117.0762989996313,
                47.2110550001509
              ],
              [
                -117.07583800039716,
                47.21105699985926
              ],
              [
                -117.07490699991143,
                47.21104599993686
              ],
              [
                -117.07490899956125,
                47.211235999995296
              ],
              [
                -117.07491699995717,
                47.21180500021289
              ],
              [
                -117.07492000033022,
                47.21199600013464
              ],
              [
                -117.07492000033022,
                47.212058999862094
              ],
              [
                -117.07492299980497,
                47.21224899995273
              ],
              [
                -117.07492399962986,
                47.21231300012542
              ],
              [
                -117.07582699962819,
                47.2123180001929
              ],
              [
                -117.07631600024804,
                47.21232200012445
              ],
              [
                -117.07773100043245,
                47.21233600018773
              ]
            ]
          ],
          [
            [
              [
                -117.09695200014018,
                47.23156099980959
              ],
              [
                -117.09695200014018,
                47.231546999942296
              ],
              [
                -117.09682599974346,
                47.231541999858074
              ],
              [
                -117.09644999999982,
                47.23153000014207
              ],
              [
                -117.09632500032636,
                47.23152599982947
              ],
              [
                -117.09628099994542,
                47.231522999899795
              ],
              [
                -117.09622900006691,
                47.231520999743275
              ],
              [
                -117.0961510002491,
                47.23150800024897
              ],
              [
                -117.09610900041629,
                47.23150100000379
              ],
              [
                -117.09610699986817,
                47.23158199990854
              ],
              [
                -117.09610400039342,
                47.23182700024494
              ],
              [
                -117.0961029996702,
                47.231909000027386
              ],
              [
                -117.09609500017261,
                47.23288099969994
              ],
              [
                -117.09608699977666,
                47.234027999759
              ],
              [
                -117.09684199963701,
                47.23408299990916
              ],
              [
                -117.09689000021588,
                47.23307100020744
              ],
              [
                -117.09693799989644,
                47.23210000012219
              ],
              [
                -117.09694000044459,
                47.23200400027874
              ],
              [
                -117.0969489997671,
                47.231715999705024
              ],
              [
                -117.09695200014018,
                47.23162100015737
              ],
              [
                -117.09695200014018,
                47.23160599992433
              ],
              [
                -117.09695200014018,
                47.23156099980959
              ]
            ]
          ]
        ]
      },
      "properties": {
        "AREALAND": "3175226",
        "AREAWATER": "0",
        "BASENAME": "Tekoa",
        "CBSAPCI": "N",
        "CENTLAT": "+47.2247315",
        "CENTLON": "-117.0730567",
        "FUNCSTAT": "A",
        "GEOID": "5370560",
        "INTPTLAT": "+47.2247315",
        "INTPTLON": "-117.0730567",
        "LSADC": "25",
        "MTFCC": "G4110",
        "NAME": "Tekoa city",
        "NECTAPCI": "N",
        "OBJECTID": 13312,
        "OID": "27890256943258",
        "PLACE": "70560",
        "PLACECC": "C1",
        "PLACENS": "02412043",
        "STATE": "53",
        "DISP_CLR": 5,
        "slug": "tekoa",
        "jurisdiction_key": "tekoa_city",
        "county_fips": [
          "53075"
        ]
      }
    }
  ]
}
