{
  "type": "FeatureCollection",
  "features": [
    {
      "type": "Feature",
      "geometry": {
        "type": "Polygon",
        "coordinates": [
          [
            [
              -122.86556899994774,
              46.44728700019483
            ],
            [
              -122.86549699997771,
              46.44548999984012
            ],
            [
              -122.85490000037238,
              46.445423000264384
            ],
            [
              -122.85427400038351,
              46.44466999988251
            ],
            [
              -122.85053799964332,
              46.446154000040224
            ],
            [
              -122.85053799964332,
              46.445968000011625
            ],
            [
              -122.85158999960456,
              46.44554400016806
            ],
            [
              -122.85415800003254,
              46.44452200017252
            ],
            [
              -122.85434899982826,
              46.44444599989754
            ],
            [
              -122.85434600035353,
              46.44394899989171
            ],
            [
              -122.85434499963031,
              46.4437810002419
            ],
            [
              -122.85434200015557,
              46.443133000276674
            ],
            [
              -122.85173000024497,
              46.4430689999842
            ],
            [
              -122.85174199994054,
              46.44375099985195
            ],
            [
              -122.85073500018513,
              46.443729000009455
            ],
            [
              -122.85053599999351,
              46.44372999969299
            ],
            [
              -122.85053500016859,
              46.44181100001802
            ],
            [
              -122.85574999976895,
              46.441830000241914
            ],
            [
              -122.85574999976895,
              46.44124399993076
            ],
            [
              -122.85227500004301,
              46.44124699973713
            ],
            [
              -122.85224999992863,
              46.439993000041554
            ],
            [
              -122.85232100007377,
              46.43998500016706
            ],
            [
              -122.85238399982293,
              46.43996899979555
            ],
            [
              -122.8524440000974,
              46.439948000035876
            ],
            [
              -122.85300300013917,
              46.439723000068966
            ],
            [
              -122.85367299961065,
              46.439484999799845
            ],
            [
              -122.85383499999236,
              46.4394190000301
            ],
            [
              -122.8539930001761,
              46.43934899988679
            ],
            [
              -122.85427400038351,
              46.43920899994944
            ],
            [
              -122.8544159997754,
              46.439131000155534
            ],
            [
              -122.8545489998448,
              46.43904699977639
            ],
            [
              -122.85467299969334,
              46.43895600025129
            ],
            [
              -122.85485900036451,
              46.43879499971917
            ],
            [
              -122.85474300001358,
              46.43876199973595
            ],
            [
              -122.85359099959489,
              46.438440000144844
            ],
            [
              -122.85358100044746,
              46.437644999771216
            ],
            [
              -122.8543370001327,
              46.437836999727764
            ],
            [
              -122.85431899969102,
              46.43636100000622
            ],
            [
              -122.85351100012726,
              46.43611500008651
            ],
            [
              -122.85216299989003,
              46.43570499981619
            ],
            [
              -122.85213500030092,
              46.43430799977979
            ],
            [
              -122.85351000030235,
              46.43431500001238
            ],
            [
              -122.85350500027947,
              46.43238099972915
            ],
            [
              -122.8505080004044,
              46.43236500022037
            ],
            [
              -122.85050900022932,
              46.432330000272515
            ],
            [
              -122.85024999976325,
              46.432336000247474
            ],
            [
              -122.8502320002199,
              46.43317399975611
            ],
            [
              -122.85022800002193,
              46.43340199976269
            ],
            [
              -122.8517119998033,
              46.433390999920064
            ],
            [
              -122.85116899965509,
              46.434298999833196
            ],
            [
              -122.85072299959126,
              46.43417199994672
            ],
            [
              -122.85052500012284,
              46.43450399976165
            ],
            [
              -122.85068199958336,
              46.43454999978161
            ],
            [
              -122.85070599987283,
              46.43455699998313
            ],
            [
              -122.85068599978133,
              46.43459700023296
            ],
            [
              -122.85050900022932,
              46.43495600007743
            ],
            [
              -122.85046999987127,
              46.435063999893856
            ],
            [
              -122.85043700025929,
              46.43528099996131
            ],
            [
              -122.8499800003248,
              46.43515499972776
            ],
            [
              -122.8495519998043,
              46.435036999805064
            ],
            [
              -122.8495009997507,
              46.43502300014352
            ],
            [
              -122.84987300019469,
              46.43425000002905
            ],
            [
              -122.84925300005358,
              46.43408099970953
            ],
            [
              -122.84912800038009,
              46.43404700010578
            ],
            [
              -122.84878799972317,
              46.43472299989934
            ],
            [
              -122.84815400023668,
              46.43453500014273
            ],
            [
              -122.84788700027298,
              46.43445100010775
            ],
            [
              -122.84787600040234,
              46.43446800009578
            ],
            [
              -122.84782399962548,
              46.43456800020952
            ],
            [
              -122.84773099973904,
              46.43454300019832
            ],
            [
              -122.84772200041651,
              46.43454999978161
            ],
            [
              -122.8476909995561,
              46.434573000086566
            ],
            [
              -122.84759900039288,
              46.43464199970505
            ],
            [
              -122.84753599974538,
              46.43468699975904
            ],
            [
              -122.84731700036059,
              46.43486899991492
            ],
            [
              -122.84713400006247,
              46.435047000091735
            ],
            [
              -122.84701900043476,
              46.435176999936964
            ],
            [
              -122.84688399981722,
              46.43534900008422
            ],
            [
              -122.84666700008222,
              46.43563799996951
            ],
            [
              -122.84657400019583,
              46.43579700026609
            ],
            [
              -122.84646899971553,
              46.43597400006221
            ],
            [
              -122.84645600019505,
              46.43599800021065
            ],
            [
              -122.8463959999206,
              46.43611199999759
            ],
            [
              -122.84630999970689,
              46.436281000209526
            ],
            [
              -122.84623799973686,
              46.436395999841615
            ],
            [
              -122.84617699963748,
              46.436493000063955
            ],
            [
              -122.84605000031421,
              46.43666799983049
            ],
            [
              -122.84600699975817,
              46.43672799972719
            ],
            [
              -122.84592599956733,
              46.43686799984837
            ],
            [
              -122.84584500027478,
              46.43700900003575
            ],
            [
              -122.845727000274,
              46.43720399978591
            ],
            [
              -122.84564000023536,
              46.43731599992376
            ],
            [
              -122.84563000018963,
              46.4373310000353
            ],
            [
              -122.84553200028033,
              46.43748100030445
            ],
            [
              -122.84544299969356,
              46.43763100016064
            ],
            [
              -122.84529600027878,
              46.43786899986106
            ],
            [
              -122.84528899970776,
              46.437882000238744
            ],
            [
              -122.84517699955478,
              46.43806899980434
            ],
            [
              -122.84515999983635,
              46.43810999973919
            ],
            [
              -122.84511100033085,
              46.43822700003288
            ],
            [
              -122.84508399966835,
              46.43829200022509
            ],
            [
              -122.84505400042943,
              46.438457999906845
            ],
            [
              -122.84503599998779,
              46.43852400022161
            ],
            [
              -122.84497999991126,
              46.438717999727174
            ],
            [
              -122.84496200036794,
              46.43879999982745
            ],
            [
              -122.84483900034431,
              46.43938599980574
            ],
            [
              -122.84476800019917,
              46.4396579997267
            ],
            [
              -122.84471600032063,
              46.43985400027552
            ],
            [
              -122.8446779997875,
              46.44001899978031
            ],
            [
              -122.84463400030486,
              46.44033899983432
            ],
            [
              -122.84461099984034,
              46.44049500018517
            ],
            [
              -122.84455800013689,
              46.44075899976138
            ],
            [
              -122.84452899982458,
              46.44087100002049
            ],
            [
              -122.84452600034983,
              46.440885000036715
            ],
            [
              -122.8444950003877,
              46.44100400002919
            ],
            [
              -122.84448399961873,
              46.441061000287235
            ],
            [
              -122.84447100009825,
              46.44114000014448
            ],
            [
              -122.84447000027333,
              46.441200999799136
            ],
            [
              -122.84446000022761,
              46.44140799983326
            ],
            [
              -122.84445799967949,
              46.441452999871146
            ],
            [
              -122.84445600002964,
              46.4414779998074
            ],
            [
              -122.8444319997402,
              46.441676999782025
            ],
            [
              -122.84443000009038,
              46.44178999973023
            ],
            [
              -122.84442500006752,
              46.44182899990449
            ],
            [
              -122.84440900017395,
              46.44196299976664
            ],
            [
              -122.84435300009748,
              46.44215799973944
            ],
            [
              -122.84432200013535,
              46.442230999740225
            ],
            [
              -122.8442350000967,
              46.44239299973168
            ],
            [
              -122.84420099976153,
              46.442449999774595
            ],
            [
              -122.84412100029388,
              46.44258599999449
            ],
            [
              -122.84407600008807,
              46.44267799996896
            ],
            [
              -122.84400599976782,
              46.4428339998128
            ],
            [
              -122.84394499966848,
              46.442956000212675
            ],
            [
              -122.84385699980494,
              46.44310300014896
            ],
            [
              -122.8436850002758,
              46.443349999780345
            ],
            [
              -122.84364199971976,
              46.44340199975548
            ],
            [
              -122.84362400017642,
              46.443433000026594
            ],
            [
              -122.84355100038147,
              46.44351299984598
            ],
            [
              -122.8434180003121,
              46.44368200000665
            ],
            [
              -122.84332899972533,
              46.443801999762194
            ],
            [
              -122.8431710004399,
              46.44403799976894
            ],
            [
              -122.84298399994383,
              46.44423799997106
            ],
            [
              -122.84274100026957,
              46.44450300026846
            ],
            [
              -122.84235999960475,
              46.444854000065384
            ],
            [
              -122.84228699980983,
              46.444922000002634
            ],
            [
              -122.84223499993129,
              46.44497199977487
            ],
            [
              -122.84215999958822,
              46.445064000052966
            ],
            [
              -122.84207900029571,
              46.44513899980812
            ],
            [
              -122.84206500005197,
              46.44515800010936
            ],
            [
              -122.84196100029492,
              46.4452950000328
            ],
            [
              -122.84192500030989,
              46.445368999816495
            ],
            [
              -122.84199499973178,
              46.445368999816495
            ],
            [
              -122.84366299963617,
              46.44537500021275
            ],
            [
              -122.84465199984824,
              46.44537900006393
            ],
            [
              -122.84463000010692,
              46.445414000296594
            ],
            [
              -122.84448699999177,
              46.445549999926115
            ],
            [
              -122.8444319997402,
              46.44560100000912
            ],
            [
              -122.84439800030333,
              46.44565999970577
            ],
            [
              -122.84431799993737,
              46.44579799986923
            ],
            [
              -122.84432200013535,
              46.445980000052586
            ],
            [
              -122.84432200013535,
              46.445988999926826
            ],
            [
              -122.84439400010538,
              46.44604599992124
            ],
            [
              -122.84453300002255,
              46.44615700019523
            ],
            [
              -122.84456999983247,
              46.446186000240694
            ],
            [
              -122.844585999726,
              46.44635800029982
            ],
            [
              -122.8446140002134,
              46.446653999864104
            ],
            [
              -122.84462300043421,
              46.446748000271704
            ],
            [
              -122.84463000010692,
              46.44681899982017
            ],
            [
              -122.8446429996274,
              46.446891000139516
            ],
            [
              -122.8448350001463,
              46.44720100015244
            ],
            [
              -122.84484799966681,
              46.44724200002409
            ],
            [
              -122.84516599968411,
              46.44713499982631
            ],
            [
              -122.84538099976926,
              46.447062000207104
            ],
            [
              -122.8457359995965,
              46.4469700002085
            ],
            [
              -122.84572300007602,
              46.44699699995507
            ],
            [
              -122.84561199974794,
              46.44722900002281
            ],
            [
              -122.8456019997022,
              46.44727199972943
            ],
            [
              -122.84594099963591,
              46.447268000017246
            ],
            [
              -122.84575099966513,
              46.448053999713515
            ],
            [
              -122.84464500017553,
              46.452612999849
            ],
            [
              -122.84463699977961,
              46.45264600010722
            ],
            [
              -122.84457499985534,
              46.45287499984772
            ],
            [
              -122.84482099990262,
              46.45287200006273
            ],
            [
              -122.84672999983144,
              46.45274699979793
            ],
            [
              -122.85026200035712,
              46.44933200001488
            ],
            [
              -122.85048400011495,
              46.449118000192875
            ],
            [
              -122.84958000029172,
              46.447569000129825
            ],
            [
              -122.84938399957484,
              46.447232000118596
            ],
            [
              -122.848620000392,
              46.44708200007857
            ],
            [
              -122.8484460003147,
              46.446978999919175
            ],
            [
              -122.84748100039212,
              46.4469590000099
            ],
            [
              -122.84762799980687,
              46.44632399969063
            ],
            [
              -122.84782899964834,
              46.4454520000816
            ],
            [
              -122.8478389996941,
              46.44540700025189
            ],
            [
              -122.84803399968774,
              46.44540499970837
            ],
            [
              -122.84812400009943,
              46.445404000055575
            ],
            [
              -122.84821699998587,
              46.445404000055575
            ],
            [
              -122.84837000014674,
              46.445402999783774
            ],
            [
              -122.84869099963879,
              46.44540099985911
            ],
            [
              -122.84873400019482,
              46.44540099985911
            ],
            [
              -122.84898400044005,
              46.44540200013095
            ],
            [
              -122.84912199963401,
              46.445510000288785
            ],
            [
              -122.84952099984217,
              46.44585399979993
            ],
            [
              -122.8499510000125,
              46.44624899971002
            ],
            [
              -122.85005499976958,
              46.44634399983308
            ],
            [
              -122.85098000040752,
              46.44719000000048
            ],
            [
              -122.85114699991377,
              46.447342999832806
            ],
            [
              -122.85128900020399,
              46.44745599978904
            ],
            [
              -122.85143899999184,
              46.44756400020732
            ],
            [
              -122.85159700017559,
              46.44766600026824
            ],
            [
              -122.85176200003202,
              46.44776200000543
            ],
            [
              -122.85193500028437,
              46.44785200006964
            ],
            [
              -122.85211400038455,
              46.44793599987159
            ],
            [
              -122.85551200011759,
              46.44932799983505
            ],
            [
              -122.85522599988732,
              46.449561000073146
            ],
            [
              -122.85413399974311,
              46.450389999824715
            ],
            [
              -122.8522540001266,
              46.451781000048
            ],
            [
              -122.85504599996226,
              46.45357499982715
            ],
            [
              -122.85623400036593,
              46.454341999920096
            ],
            [
              -122.85742799971909,
              46.453484999935974
            ],
            [
              -122.85905799998864,
              46.45231400004911
            ],
            [
              -122.86007999981265,
              46.45158300000544
            ],
            [
              -122.85913800035459,
              46.45044400024657
            ],
            [
              -122.85935400026466,
              46.45043300013059
            ],
            [
              -122.85967599958163,
              46.45039399992654
            ],
            [
              -122.85988700036711,
              46.450352999951754
            ],
            [
              -122.86450600011584,
              46.449204999886476
            ],
            [
              -122.86474299994231,
              46.44916100026512
            ],
            [
              -122.86498499979164,
              46.44913199994664
            ],
            [
              -122.86523000001402,
              46.44911699998932
            ],
            [
              -122.86530600018199,
              46.44911699998932
            ],
            [
              -122.86539300022062,
              46.44911699998932
            ],
            [
              -122.86556899994774,
              46.44728700019483
            ]
          ]
        ]
      },
      "properties": {
        "AREALAND": "1728100",
        "AREAWATER": "6742",
        "BASENAME": "Toledo",
        "CBSAPCI": "N",
        "CENTLAT": "+46.4445743",
        "CENTLON": "-122.8523351",
        "FUNCSTAT": "A",
        "GEOID": "5371785",
        "INTPTLAT": "+46.4447207",
        "INTPTLON": "-122.8522304",
        "LSADC": "25",
        "MTFCC": "G4110",
        "NAME": "Toledo city",
        "NECTAPCI": "N",
        "OBJECTID": 7746,
        "OID": "27890932748908",
        "PLACE": "71785",
        "PLACECC": "C1",
        "PLACENS": "02412077",
        "STATE": "53",
        "DISP_CLR": 5,
        "slug": "toledo",
        "jurisdiction_key": "toledo_city",
        "county_fips": [
          "53041"
        ]
      }
    }
  ]
}
