{"type":"FeatureCollection","features":[{"type":"Feature","geometry":{"type":"MultiPolygon","coordinates":[[[[-119.45119200009381,48.69811499997545],[-119.45119600029182,48.69790500026147],[-119.45083800009151,48.69790599991491],[-119.45046099962465,48.69790799981461],[-119.45035000019489,48.69787699987764],[-119.45039299985257,48.69627099986758],[-119.45008900007898,48.696268000216904],[-119.45003999967516,48.69632300010935],[-119.4498589999252,48.69626400028708],[-119.44829700032602,48.69625100021643],[-119.44720299963369,48.696950000209846],[-119.4470570000438,48.69704999996242],[-119.44645699999418,48.69744499985954],[-119.44675699956983,48.69744800003307],[-119.44881100016191,48.697467000139476],[-119.44896699979752,48.69752599973771],[-119.44898100004123,48.69753099982107],[-119.44791900003426,48.69870000010727],[-119.44414800003227,48.70291899976306],[-119.44401199958985,48.70307600002585],[-119.44394299999287,48.7031539999026],[-119.44392700009934,48.70314000028324],[-119.44378900000709,48.70302199994919],[-119.44347400036283,48.7028220002584],[-119.4434030002177,48.70275199988242],[-119.44334499959308,48.702663000085344],[-119.4433329998975,48.70264499972089],[-119.44326500012545,48.70253900007905],[-119.4432400000111,48.70250599971993],[-119.44318300010968,48.70242999974473],[-119.44301400005527,48.70220500020633],[-119.44295799997877,48.70213100010141],[-119.44293799988729,48.702106000185616],[-119.44286500009237,48.702034999835284],[-119.44357499974684,48.70114199993706],[-119.44331500035416,48.70104499997212],[-119.44331799982888,48.700998999788936],[-119.44334600031632,48.700927000062265],[-119.44350299977684,48.700689999814486],[-119.44359599966323,48.70057899983253],[-119.44361400010492,48.700557999920605],[-119.44371399966401,48.7004400000548],[-119.44358999981544,48.70035000012193],[-119.44351799984544,48.700321999912376],[-119.44325900027766,48.70022200013782],[-119.4433329998975,48.70013700023258],[-119.4433670002327,48.700087999796516],[-119.44345300044641,48.699971000219975],[-119.44344000002762,48.69984500028067],[-119.44343599982967,48.699638999738205],[-119.44343400017983,48.699510999724765],[-119.44342599978394,48.698934000153685],[-119.44325599990461,48.69893600001259],[-119.44286199971931,48.698934000153685],[-119.44244900016575,48.69893299992775],[-119.4424469996176,48.699283999743514],[-119.4424469996176,48.6994250001814],[-119.44273799987076,48.6994270000208],[-119.44273700004585,48.69951000010321],[-119.44273299984788,48.69985600019384],[-119.44273200002296,48.69997499985526],[-119.44274799991652,48.70001499974804],[-119.44263400011369,48.70014500006937],[-119.4425239996105,48.700014000136484],[-119.44244199959476,48.699982000105614],[-119.44228099993627,48.69991999980259],[-119.44157499958143,48.699646000035244],[-119.44137000044034,48.699288000026286],[-119.44060299998613,48.69795199996017],[-119.43907900002178,48.69795899989889],[-119.43739299967574,48.69796700008183],[-119.4363409997145,48.69673900010971],[-119.43558900022722,48.69654700017182],[-119.43558400020434,48.69728099978769],[-119.43517499995043,48.69706000022321],[-119.43484900043552,48.69693200017397],[-119.43456999987795,48.696874999820345],[-119.43434700029519,48.69689000026294],[-119.43381300036779,48.6969619998349],[-119.43353600035837,48.696810000222456],[-119.43319400005161,48.696941000192695],[-119.43310500036316,48.6969749997219],[-119.43305099993647,48.69699599994281],[-119.4325189996589,48.69780100002793],[-119.43322400018882,48.697809999891284],[-119.43350000037334,48.697813000043006],[-119.43341300033471,48.697946000265986],[-119.43334399983941,48.697946000265986],[-119.43299400003507,48.69794699991861],[-119.43001200022861,48.69794800016409],[-119.42976899965605,48.69795399985803],[-119.4296459996324,48.69795399985803],[-119.42904700030599,48.69795500010341],[-119.42877299977128,48.698006000140076],[-119.42599099998138,48.69800199975542],[-119.42600299967695,48.69913000017638],[-119.42602600014148,48.701225999743464],[-119.42602199994353,48.70150699984144],[-119.42606600032445,48.701515000053334],[-119.42616000003578,48.70156799979473],[-119.42673499997106,48.70156099976496],[-119.42881299995426,48.70155900001035],[-119.42882100035018,48.702306999916175],[-119.42865200029578,48.70252899972102],[-119.42774699974932,48.70372000005379],[-119.42700799978253,48.70469400006162],[-119.42659500022897,48.70523200023657],[-119.42602799979132,48.70597699983734],[-119.42646100033467,48.7060689999548],[-119.42675500006253,48.706131999880206],[-119.42678400037485,48.706139999949784],[-119.42733599984558,48.70628200023204],[-119.42787499979583,48.70642099988233],[-119.42869800032655,48.70661899994523],[-119.42889499997003,48.70666900002353],[-119.42893000013011,48.70887500010251],[-119.42893099995504,48.708984000112494],[-119.4289779998107,48.70900800014282],[-119.4305250002396,48.709783999893816],[-119.43125499998554,48.709965000247315],[-119.43162999990429,48.71005900019694],[-119.43194600027178,48.71002900004289],[-119.43206000007459,48.71001099994192],[-119.43208699983876,48.71007300026271],[-119.43214200009038,48.710157999985576],[-119.43216700020471,48.710197000082346],[-119.4321799997252,48.71025900017395],[-119.43226000009112,48.710402000093936],[-119.43226799958875,48.710427000038216],[-119.43264699970544,48.71055800013592],[-119.43273299991915,48.71058799997453],[-119.4333079998544,48.71078400025843],[-119.4334829997566,48.71083399975493],[-119.43375200026841,48.71094600022516],[-119.4338560000255,48.7110159998738],[-119.43424099998998,48.71120499980204],[-119.43444900040244,48.711263999894555],[-119.4349049996137,48.71133500026579],[-119.4353480002028,48.71142500011647],[-119.43576499995433,48.711479000068174],[-119.43580900033524,48.71148999980975],[-119.4358000001144,48.71152400018126],[-119.43570100038022,48.71181999982972],[-119.4356720000679,48.71192899998053],[-119.43566799986995,48.71194600002079],[-119.43564100010573,48.71201899995424],[-119.43563400043305,48.71204099979158],[-119.43552700030294,48.71228299973868],[-119.43548899976977,48.7123709997542],[-119.43547100022643,48.7124060000813],[-119.43586000038886,48.71240700003949],[-119.43607600029895,48.71240700003949],[-119.43622000023896,48.71240700003949],[-119.43632099962299,48.7124060000813],[-119.43661100005126,48.712405000123084],[-119.4383259998113,48.712397999822414],[-119.43918899962662,48.71239699986403],[-119.4396630001779,48.71194699998812],[-119.44022399986943,48.71140000007529],[-119.44074299972822,48.71106199979314],[-119.44160800009169,48.71048699985377],[-119.44240800015788,48.70966200026744],[-119.44275399976428,48.70911000029207],[-119.44298200026824,48.70874699986553],[-119.44368600007493,48.707921000157526],[-119.44447100007248,48.707224000283475],[-119.4451899999478,48.70665799982087],[-119.4454519998886,48.70643100005986],[-119.44666000038377,48.70542599984745],[-119.44961500042605,48.702967999814554],[-119.449760000191,48.70279300008902],[-119.44984899987945,48.7026809998505],[-119.45078299983992,48.70150999977282],[-119.45068999995351,48.70045600022362],[-119.45077000031944,48.70009500003111],[-119.45094000019877,48.69932799987209],[-119.45117799985013,48.698180999907954],[-119.45119200009381,48.69811499997545]]],[[[-119.43940999955959,48.729015000180944],[-119.43940100023705,48.72737700027635],[-119.436869999619,48.727232999758414],[-119.43689200025864,48.72720900012577],[-119.43704399969629,48.72705300016064],[-119.43333100031896,48.72704499986067],[-119.43333799999165,48.72697699992634],[-119.43334600038754,48.72689099991251],[-119.43263099981188,48.72689299984559],[-119.43141900001709,48.729229999746835],[-119.43128599994768,48.72986199976229],[-119.43275300001063,48.729823999708316],[-119.43292600026298,48.72968500012376],[-119.43307900042386,48.72952100023064],[-119.43316599956418,48.729379999974384],[-119.43321099977003,48.7293079999684],[-119.43329699998375,48.7288799998459],[-119.43329699998375,48.7286489998804],[-119.43379300027631,48.728674999873036],[-119.43551899990702,48.72877999993466],[-119.43940999955959,48.729015000180944]]],[[[-119.46911499979302,48.730514999992465],[-119.46921199987739,48.726896999711556],[-119.46778699964723,48.726896999711556],[-119.46785799979237,48.72329400014038],[-119.46613499963641,48.72327300022508],[-119.466269000429,48.71957000015632],[-119.4653549996617,48.71957000015632],[-119.46261399987968,48.71957000015632],[-119.46170099983561,48.71957099997212],[-119.46087200035544,48.71962700029266],[-119.46086999980731,48.71965799987179],[-119.46087200035544,48.71973999996643],[-119.46085899993665,48.7207530000692],[-119.46085399991375,48.720906000059465],[-119.46088200040118,48.72095000024941],[-119.46125300012197,48.72152100003144],[-119.46139700006201,48.72177399987496],[-119.46140899975757,48.72179100014439],[-119.46154100000204,48.721984999918995],[-119.46177799982851,48.722351999886556],[-119.4619040002252,48.72254700021705],[-119.46206599970859,48.722798999889044],[-119.46220499962575,48.72300800028647],[-119.46228699964155,48.72313099989041],[-119.46235399958869,48.723230999775545],[-119.46247099976453,48.72323000003249],[-119.46364499992454,48.72324399998898],[-119.46359999971867,48.7249200002288],[-119.46360399991664,48.72508799973001],[-119.46378100036696,48.72535400026166],[-119.46386400020764,48.72548699999991],[-119.4639460002234,48.725617999995265],[-119.46404099975965,48.72574599997781],[-119.46441200037873,48.72618599987731],[-119.46535200018698,48.72720999978973],[-119.46566900037938,48.72758499976984],[-119.46572000043301,48.72764199971159],[-119.46606400038961,48.72802899994673],[-119.4661580001009,48.72812499980587],[-119.46623599991872,48.72822600007088],[-119.46626100003307,48.7282799997656],[-119.4662769999266,48.72835300029221],[-119.46628000029965,48.7283889998067],[-119.46628699997234,48.72846900001814],[-119.46628600014742,48.728536000075074],[-119.46628600014742,48.7285960002183],[-119.46625500018528,48.72883699970695],[-119.46624299959142,48.72897599985803],[-119.46623099989583,48.72912399981391],[-119.46622900024605,48.729148999935596],[-119.46622699969788,48.72916100017923],[-119.46621199962928,48.72927499998057],[-119.46620699960641,48.72931299985694],[-119.46620300030675,48.72934399998426],[-119.4661990001088,48.729362999899955],[-119.46616899997157,48.729513999941474],[-119.46615899992582,48.729564999994324],[-119.46613899983433,48.729662999706704],[-119.46613399981149,48.72969900006095],[-119.46610100019952,48.72992500011598],[-119.46608699995582,48.73010099989584],[-119.46607100006227,48.7302259997289],[-119.46607299971211,48.730267000066284],[-119.46608799978071,48.73030700017532],[-119.4661079998722,48.73033800028242],[-119.46616499977362,48.730395000066245],[-119.46621500000234,48.73042300013387],[-119.466333999828,48.730457999752126],[-119.46636999981303,48.730461999927016],[-119.46656300015688,48.730452999977445],[-119.46701400024358,48.73044299983409],[-119.46749299991937,48.730451000185944],[-119.46779199967013,48.73045700015273],[-119.46788799992959,48.73045499976886],[-119.46817599980969,48.73043699986559],[-119.46857500001785,48.730426000119046],[-119.4687330002016,48.730442000234405],[-119.46878900027808,48.73045199978545],[-119.46883799978357,48.73046799989254],[-119.46890899992869,48.73050799984167],[-119.46911499979302,48.730514999992465]]]]},"properties":{"AREALAND":"2444800","AREAWATER":"49653","BASENAME":"Tonasket","CBSAPCI":"N","CENTLAT":"+48.7078697","CENTLON":"-119.4413064","FUNCSTAT":"A","GEOID":"5371890","INTPTLAT":"+48.7075633","INTPTLON":"-119.4422970","LSADC":"25","MTFCC":"G4110","NAME":"Tonasket city","NECTAPCI":"N","OBJECTID":10887,"OID":"27890480662920","PLACE":"71890","PLACECC":"C1","PLACENS":"02412082","STATE":"53","DISP_CLR":3,"slug":"tonasket","jurisdiction_key":"tonasket_city","county_fips":["53047"]}}]}
