{"type":"FeatureCollection","features":[{"type":"Feature","geometry":{"type":"Polygon","coordinates":[[[-122.97114199993409,46.9930309998134],[-122.97115500035288,46.99262600003899],[-122.9684959996883,46.992614000253006],[-122.96851199958182,46.99141300007979],[-122.96852199962755,46.989009000166],[-122.9675940004132,46.98901399980162],[-122.9661159995813,46.989006000016715],[-122.96623199993226,46.98888399993165],[-122.96637500004738,46.98873800009664],[-122.96640400035969,46.98869300006291],[-122.9664329997737,46.98863299975472],[-122.96643899962149,46.9885619999669],[-122.96643399959859,46.98851300016186],[-122.9664319999488,46.98849200014413],[-122.96640299963646,46.98841699992593],[-122.96636400017672,46.98835799998261],[-122.96631499977292,46.98829400027168],[-122.96629300003163,46.988265000272094],[-122.96614800026667,46.98820199990188],[-122.96606299987783,46.988191999865485],[-122.96602299969487,46.98817999969674],[-122.96566700004271,46.988018999981044],[-122.96530100034485,46.98785300003665],[-122.96492800007593,46.98770599976253],[-122.96469700009726,46.98763000020431],[-122.964482999837,46.98757200008171],[-122.96396099960518,46.98745300002411],[-122.9638970000311,46.98744199976851],[-122.96384299960442,46.987436999985846],[-122.96377300018253,46.98743900014412],[-122.96354899987654,46.98739599978936],[-122.9647990002045,46.984748000205656],[-122.96432600037649,46.984639000079596],[-122.96619599994723,46.980860999812016],[-122.96710300014354,46.97886200018893],[-122.96741399958982,46.97822599971869],[-122.96763200004804,46.97778200022587],[-122.96769899999518,46.977643999748445],[-122.96770400001807,46.97763400018852],[-122.96773699963,46.97636500010389],[-122.96778500020892,46.97450200004931],[-122.96704100021927,46.97450299975751],[-122.963312999875,46.97450499978671],[-122.95800000036535,46.974508000136886],[-122.95666299999873,46.97450899984498],[-122.95532700035537,46.97451000016595],[-122.95533900005094,46.97366600026694],[-122.95534099970075,46.97349599975187],[-122.95508899980568,46.97344300009734],[-122.95492800014718,46.97340900014099],[-122.95414800017251,46.973245999995825],[-122.94941800009572,46.97229300021059],[-122.94751500001469,46.97372000003622],[-122.94614000001327,46.974725999797556],[-122.9455640002531,46.9751480000962],[-122.94467600032337,46.97578799975113],[-122.94418900025165,46.97614899973748],[-122.94346100015552,46.976679999865965],[-122.94323199982666,46.976846000182796],[-122.94121699959264,46.97830999993683],[-122.94015600030886,46.979081000108984],[-122.93993399965271,46.97924799994618],[-122.93876500041392,46.980124999781076],[-122.93807699960242,46.980641000234854],[-122.93797000037063,46.980721999722],[-122.93780999963874,46.98085100024088],[-122.93765499982804,46.980963000111124],[-122.93749099979651,46.981108000147294],[-122.93743399989508,46.98115500021833],[-122.93735299970423,46.981221000287476],[-122.93710900020508,46.98145399996354],[-122.93685200028715,46.981692000170426],[-122.93668499988256,46.981860000003024],[-122.93628999987234,46.98179599986639],[-122.93562299987558,46.98179500029454],[-122.93458900035601,46.98180899981417],[-122.93418500012497,46.98179500029454],[-122.93412700039863,46.981792999925126],[-122.93412599967539,46.98172100005884],[-122.93409700026142,46.97908900015348],[-122.9342160000871,46.979087999918114],[-122.93508700029838,46.97844799992122],[-122.93540100011772,46.97820600020183],[-122.9356520001879,46.97810100001071],[-122.93557699984481,46.97799899976773],[-122.93554400023287,46.97790300026263],[-122.93552599979121,46.9778030001607],[-122.93552599979121,46.977727000007214],[-122.9355269996161,46.97730600010359],[-122.93551999994342,46.97615099970516],[-122.93550200040008,46.9761219998602],[-122.93264899956674,46.97612700008819],[-122.93228299986883,46.97583399991206],[-122.93229700011253,46.97468500027223],[-122.93139999996198,46.97468399995452],[-122.93122099986184,46.974687999999354],[-122.93122500005981,46.974665000043906],[-122.93133800003771,46.97424100018527],[-122.93244100005259,46.97046699987093],[-122.93230799998318,46.97041599984874],[-122.93217400008888,46.9703660001764],[-122.93308600030805,46.96724199977612],[-122.93412700039863,46.963681000060845],[-122.93422100010996,46.96341699975327],[-122.93429200025507,46.96315900011676],[-122.93520399957592,46.960037999936496],[-122.93550999989765,46.960037999936496],[-122.93568200032514,46.96003899991506],[-122.93708900011362,46.96003200006489],[-122.93765200035331,46.960033000043566],[-122.94483000030917,46.960026000192656],[-122.94483199995896,46.9591090001565],[-122.94469600041488,46.9591090001565],[-122.94469800006466,46.95820399988756],[-122.94483699998186,46.95820399988756],[-122.94484200000473,46.956382000079955],[-122.94738100012039,46.95638100003305],[-122.9473819999453,46.954546999722425],[-122.94798799984272,46.954546999722425],[-122.94799299986559,46.95278399989227],[-122.94800100026148,46.95273900025709],[-122.94844099957923,46.95274300010356],[-122.95012500027548,46.95274599983493],[-122.95013000029833,46.95241299980797],[-122.9501210000775,46.95232000012084],[-122.95014000034409,46.95139200016023],[-122.95014700001677,46.95126799981112],[-122.95015000038983,46.951037000135315],[-122.95015100021475,46.95094200021296],[-122.95016200008538,46.950235000295905],[-122.95019600042059,46.94883100008087],[-122.95020599956801,46.94858700026354],[-122.95020100044346,46.94821299992258],[-122.95020800011615,46.947746999966654],[-122.95021099959088,46.94642599987987],[-122.95021800016191,46.94585699985557],[-122.9502199998117,46.945690000011005],[-122.95021399996394,46.94559700029403],[-122.9502199998117,46.94552099975909],[-122.94977000044823,46.94552000012251],[-122.94760000040351,46.94552200000889],[-122.9475429996038,46.941881999699916],[-122.94492599967032,46.9418990001937],[-122.94490099955597,46.94041300024877],[-122.94489999973105,46.940321000298056],[-122.94481500024054,46.94028599979527],[-122.94476199963877,46.9402640001159],[-122.94443199992591,46.940120000095746],[-122.94431200027532,46.94008999999168],[-122.94419400027452,46.94012500000923],[-122.94408499959627,46.940115000181784],[-122.94397599981632,46.940082000247294],[-122.9438899996026,46.940024999810745],[-122.94365799979902,46.939918999752194],[-122.94343500021625,46.93987900027732],[-122.94308000038899,46.93984100025783],[-122.94279099978569,46.939789999866534],[-122.94246000024789,46.939743999988984],[-122.94222500007125,46.939695999968016],[-122.94197800019904,46.93967199994137],[-122.941722000106,46.93968600006044],[-122.9414960001502,46.93967400004622],[-122.94117899995777,46.93965799981865],[-122.94094600032929,46.940459999895886],[-122.94078599959741,46.9409909998159],[-122.94071100015266,46.941258000135214],[-122.940628000312,46.94151900024234],[-122.94006800044532,46.94343699969419],[-122.93948500011413,46.945435999920626],[-122.93945800034997,46.94552899991731],[-122.93915399967803,46.945527000031184],[-122.93228100021902,46.945530000167],[-122.92914299987864,46.94557099996175],[-122.92908000012945,46.94889000010093],[-122.92908000012945,46.94894199998152],[-122.92908000012945,46.94914700029234],[-122.92908199977929,46.949870000110366],[-122.92905400019018,46.95278399989227],[-122.92905699966492,46.95532199998745],[-122.92905699966492,46.95559000001809],[-122.92905699966492,46.958590999770195],[-122.92905099981714,46.959309000189975],[-122.92905300036529,46.960037999936496],[-122.92904599979425,46.96092299999075],[-122.92902499987784,46.96216999999737],[-122.92901800020515,46.96310099980854],[-122.9290070003345,46.96470800000745],[-122.9289939999157,46.96557999984398],[-122.92899999976349,46.96573499985547],[-122.92898999971779,46.9664029997259],[-122.9289939999157,46.9668860002193],[-122.92898899989287,46.96718299975849],[-122.92899300009081,46.96726599970233],[-122.92830099997965,46.967283000103286],[-122.9262670003774,46.96727900011763],[-122.92555199980171,46.96727699981815],[-122.9249810000644,46.96727900011763],[-122.9236570001166,46.96728399994643],[-122.92218300038097,46.9672719999887],[-122.92029299982042,46.967271000145374],[-122.91869500023624,46.967264999858884],[-122.9183610003254,46.96726899984559],[-122.91453199969878,46.96727299983205],[-122.91374199967838,46.967274000288356],[-122.91363000042371,46.967271000145374],[-122.91352599976831,46.96726000002831],[-122.91343899972968,46.967239000244376],[-122.91337299960743,46.967210999702246],[-122.91332599975178,46.9671819999135],[-122.91329800016267,46.96715799994962],[-122.91326100035275,46.967113000141566],[-122.91323700006329,46.96707200029709],[-122.91322600019267,46.96702500010778],[-122.91321299977386,46.966907000141816],[-122.91320299972813,46.96629500006991],[-122.91320699992608,46.96550499997385],[-122.913207999751,46.96541300023475],[-122.91323200004045,46.96445300015462],[-122.91323299986537,46.96320099981444],[-122.91323700006329,46.96058400014929],[-122.91321899962163,46.9604030000561],[-122.91321100012405,46.96016100022139],[-122.91317099994107,46.960044999785836],[-122.9120119998497,46.96004599976427],[-122.91067399965819,46.96003999989356],[-122.91050700015194,46.96003899991506],[-122.9104350001819,46.96003899991506],[-122.91046100012117,46.95852799999433],[-122.91046500031914,46.95817200008091],[-122.91311499986458,46.95817100006746],[-122.9131170004127,46.95782499981818],[-122.91313499995604,46.95503599977379],[-122.9150880002658,46.954795000268035],[-122.9158699998903,46.95469900019319],[-122.91586200039269,46.95467700030504],[-122.91586300021761,46.952796000033885],[-122.91572400030044,46.952796000033885],[-122.91558600020818,46.952796000033885],[-122.91440700002532,46.952794999919966],[-122.91421000038184,46.952798999762244],[-122.9134980001792,46.95279700014774],[-122.91334800039138,46.952800999989876],[-122.91180299961235,46.95280200010368],[-122.90934999971037,46.952799999876085],[-122.9078509998604,46.95280300021743],[-122.9066750000506,46.95280900028644],[-122.90403600037583,46.952800999989876],[-122.9035400000833,46.95279300030531],[-122.9027040000321,46.952789999963414],[-122.90206100032479,46.95278799973538],[-122.9020219999667,46.95278799973538],[-122.9020279998145,46.952994000142155],[-122.90200600007319,46.956402999833834],[-122.90194999999667,46.956404999926704],[-122.90125500041081,46.95640399988027],[-122.8926229999125,46.956392999981254],[-122.8919469996949,46.956392999981254],[-122.891953000441,46.952734000295315],[-122.89174800040159,46.95273300018023],[-122.89032499982125,46.95272499987235],[-122.88955499989233,46.95271999990922],[-122.88933099958633,46.95271899979392],[-122.88916599972991,46.95271899979392],[-122.88694600035477,46.952718000291775],[-122.88667099999515,46.95271499994566],[-122.88310300038277,46.95273300018023],[-122.88216000020148,46.95273800014215],[-122.8814999998774,46.952741999988696],[-122.88065899980336,46.95274599983493],[-122.88007899984524,46.952748000064545],[-122.8794369999628,46.952748000064545],[-122.87874800022472,46.952748000064545],[-122.87717800022963,46.95275000029408],[-122.87612799991821,46.95276099971556],[-122.87611200002469,46.95725000000016],[-122.87611100019977,46.95744600013],[-122.87611100019977,46.957560000019214],[-122.87611000037488,46.95756900024215],[-122.87611000037488,46.95769800020557],[-122.8759510003662,46.957817000271476],[-122.87611500039775,46.95794000014396],[-122.87627900042925,46.957817000271476],[-122.87641300032358,46.957818000291546],[-122.87859000004097,46.95782499981818],[-122.87859000004097,46.95796800002061],[-122.87858900021608,46.95827900018329],[-122.87858900021608,46.958379000005316],[-122.87858900021608,46.958823999951356],[-122.87858400019319,46.959222000187566],[-122.87858699966795,46.95953799974554],[-122.87853599961431,46.95974799985529],[-122.87861500015535,46.9597990002393],[-122.87871999973733,46.95987200017543],[-122.87880400030123,46.95993200026667],[-122.8788650004006,46.95997799996408],[-122.8786340004219,46.959978999943765],[-122.87606199979598,46.95999300027008],[-122.87517999971405,46.95999700018743],[-122.87517800006422,46.96082000012681],[-122.87609799978098,46.96081499969384],[-122.87609399958303,46.962225000275794],[-122.87626600001046,46.962215000285106],[-122.87640699957747,46.96222399972504],[-122.87670299985346,46.962242999763866],[-122.87707100009949,46.96242199989518],[-122.87743099994962,46.96274299981225],[-122.87762199974533,46.96299899976939],[-122.87783500018065,46.963213999991524],[-122.87787899966327,46.9632590000142],[-122.87794999980838,46.96333000030002],[-122.87801599993064,46.96342199994305],[-122.87819000000789,46.963661999919694],[-122.87855599970581,46.96386900006161],[-122.8787609997452,46.963956999769756],[-122.87894599969313,46.96407600001564],[-122.87916699962607,46.96453099995736],[-122.87931899996202,46.96492700026678],[-122.87933300020575,46.965232999807824],[-122.87927799995416,46.96552499994951],[-122.87917699967183,46.96575700010149],[-122.87880599995104,46.96599500029001],[-122.87834300016877,46.96615799985194],[-122.87772200020275,46.96629299973364],[-122.8772600002454,46.96647199980069],[-122.87642099982116,46.96666100026934],[-122.8760130002905,46.96665099988181],[-122.87550299975422,46.96675299970121],[-122.87509100002559,46.96696000014318],[-122.8747329998253,46.96707600029827],[-122.87446699968652,46.96712699982705],[-122.87428799958637,46.96713099982412],[-122.87418300000436,46.967228000120684],[-122.87413699997363,46.9672719999887],[-122.87386699963689,46.96724700022142],[-122.8735779999319,46.96728399994643],[-122.87337799991533,46.967379000282904],[-122.87330099992246,46.967526000051684],[-122.87312400037045,46.96766100015903],[-122.87294299972217,46.96790400022925],[-122.87311799962434,46.96802899986566],[-122.87321399988382,46.968180000218744],[-122.87306499992091,46.9683520001138],[-122.87291900033104,46.968499000273646],[-122.87284999983574,46.96857100016697],[-122.87259100026799,46.968790999751455],[-122.87248499996277,46.96882999987592],[-122.87223899991547,46.96892100005578],[-122.87199600024123,46.96900299994378],[-122.87186399999675,46.969032999781696],[-122.87166399998021,46.96908099985518],[-122.87177000028542,46.96926599985032],[-122.87179299985164,46.96930600004676],[-122.87201100030984,46.96934000015956],[-122.87225300015918,46.96925800017524],[-122.87256699997853,46.96926700026936],[-122.87283899996511,46.96932299979936],[-122.87313400041621,46.96942400023749],[-122.87325599971662,46.96957900014438],[-122.87332400038699,46.9696650000572],[-122.87335799982385,46.969924999779415],[-122.87329900027264,46.970126000240356],[-122.87312000017249,46.970205999930045],[-122.87301399986728,46.9702540001768],[-122.87265300019226,46.97029700022079],[-122.87243999975692,46.970435000042954],[-122.87231400025854,46.97069300014128],[-122.87212099991471,46.97082500028056],[-122.8718809997152,46.97096700028953],[-122.87161499957641,46.97103399983478],[-122.87145800011588,46.97098499990114],[-122.87130800032806,46.97094000024779],[-122.87112500002996,46.97088000024241],[-122.87102399974764,46.970847000272094],[-122.87068999983677,46.97088499973461],[-122.87037500019251,46.971390999747676],[-122.87008999978714,46.97151000000642],[-122.86998500020516,46.9716499998997],[-122.86981100012788,46.9717770001076],[-122.86928700024625,46.972094000044336],[-122.86896000000809,46.97230000029539],[-122.86845700004287,46.97246300025903],[-122.86822299969114,46.97260699969701],[-122.86799500008549,46.97274899987841],[-122.86757800033399,46.972957000145435],[-122.86713999976774,46.97319599990436],[-122.86701199972124,46.97332100004534],[-122.86712999972198,46.97347200016926],[-122.86722400033165,46.97349500002489],[-122.86750999966358,46.97356499987104],[-122.86755300021959,46.97361399989275],[-122.86765600015175,46.97373500016676],[-122.86779900026693,46.97391799994962],[-122.8677630002819,46.97411799978663],[-122.86770200018252,46.97425800020817],[-122.86743799969358,46.97435499983873],[-122.86721299956267,46.97436000023195],[-122.86712399987422,46.974362000266545],[-122.86667000031277,46.97436000023195],[-122.866552000312,46.974331999740016],[-122.8664049999989,46.97429999977282],[-122.86611100027103,46.974343000241525],[-122.86605500019454,46.974350999768994],[-122.865919999577,46.97447800030521],[-122.86569899964407,46.97454400003527],[-122.86527299967172,46.974537999951735],[-122.86520400007477,46.974485000104025],[-122.86495700020254,46.974294000274845],[-122.86467599999514,46.97421199991746],[-122.86461300024595,46.97421199991746],[-122.86431299977198,46.974213000243985],[-122.86355799991166,46.97445700029044],[-122.86306499999216,46.97522400023766],[-122.86300600044095,46.97596400025945],[-122.86323099967352,46.97612100018227],[-122.8636220003841,46.976227000259904],[-122.8639339996553,46.97617499992424],[-122.86408400034145,46.976018000159975],[-122.86441700042737,46.97596600023406],[-122.86458999978143,46.97599500016362],[-122.86482300030823,46.97603399993846],[-122.86537300012914,46.976314000189696],[-122.8655179998941,46.97635000009815],[-122.86571299988778,46.97639900001966],[-122.86592999962274,46.97656399970048],[-122.8659680001559,46.976592999918665],[-122.86595899993507,46.97689999980555],[-122.86594600041458,46.97711499993071],[-122.86586699987357,46.97734599980312],[-122.86527500021985,46.97748800027216],[-122.86509399957157,46.977606999835224],[-122.86498700033977,46.97771699984994],[-122.8655389998105,46.97788100010914],[-122.86572200010862,46.97793499991252],[-122.8660169996614,46.97802400002556],[-122.86621199965508,46.97807500014751],[-122.86620599980726,46.978184000173016],[-122.86619999995949,46.97830499991297],[-122.86599099972211,46.97866199970777],[-122.86571299988778,46.97894400015773],[-122.8655670002979,46.979207999830834],[-122.8652650001741,46.97936399980502],[-122.86485799957002,46.98004400000233],[-122.86465699972857,46.98040699986939],[-122.86462099974356,46.98045599975044],[-122.86450899959058,46.98060899975293],[-122.86438200026728,46.980796000114715],[-122.86431699996993,46.98103799975624],[-122.86426699974125,46.98122700023397],[-122.86440999985636,46.98142399973868],[-122.86474499959212,46.981388000182065],[-122.86498599961654,46.98128900005061],[-122.86525099993042,46.98131800015762],[-122.86532500044856,46.98132599986736],[-122.86540300026638,46.98136999978179],[-122.86541800033501,46.9813790002891],[-122.86559099968905,46.981475999872636],[-122.86550899967328,46.98181299993889],[-122.86547000021352,46.98197999982287],[-122.86543099985546,46.98200699980648],[-122.86524300043281,46.982108999757834],[-122.8651809996102,46.982143999876506],[-122.86482300030823,46.98216600011449],[-122.86442199955194,46.98220500029128],[-122.86413899969472,46.982187999730556],[-122.86391100008906,46.982152000075516],[-122.86349900036043,46.98210199973134],[-122.8629129996562,46.98183599988414],[-122.86270599996698,46.981904000090815],[-122.86266199958602,46.98191899976424],[-122.8624549998968,46.98202200006393],[-122.86224300018468,46.98264700010211],[-122.86241600043707,46.98295199983599],[-122.86256200002694,46.98322500013935],[-122.86253699991256,46.98368499972386],[-122.86250599995041,46.98375199988201],[-122.86238799994963,46.984011000224974],[-122.86245999991966,46.984190999965584],[-122.86264700041573,46.984664000296846],[-122.86270099994411,46.98489399990824],[-122.86318200016804,46.98529900005584],[-122.86324499991723,46.98535299972114],[-122.8635689997823,46.985505000301856],[-122.86381900002756,46.98554600011036],[-122.86411899960324,46.98552299992272],[-122.8644049998335,46.98541000029596],[-122.8647339997215,46.9852499997109],[-122.86488000020964,46.98516099998248],[-122.8649959996623,46.98509099999559],[-122.86511700003612,46.985003000127186],[-122.8652219996181,46.98496400015309],[-122.86538700037285,46.98490399994885],[-122.86555800007707,46.98489100014082],[-122.8656080003058,46.98490399994885],[-122.86603099990509,46.984926000276666],[-122.86628199997526,46.98499099985534],[-122.86693700027647,46.98513300024386],[-122.86722599998146,46.98519499982049],[-122.8676369998852,46.98538599993231],[-122.86778000000035,46.98545600014574],[-122.86788200010758,46.985506999919586],[-122.86798300038994,46.98555300029872],[-122.86813700037571,46.98562200018035],[-122.86859000011225,46.98597699993089],[-122.868784000281,46.986091000301826],[-122.86892099965003,46.98620599991904],[-122.86901699990952,46.98635799991268],[-122.86913900010823,46.98658499991693],[-122.86917099989529,46.98679900022598],[-122.86903399962793,46.98691799990117],[-122.86879199977861,46.98707600022433],[-122.86847299993637,46.98722700011227],[-122.86825500037648,46.987355000174226],[-122.8680589996596,46.98749699979823],[-122.86803600009338,46.98756899985182],[-122.86798000001689,46.98774400011392],[-122.86803400044354,46.988015999776195],[-122.86823699993482,46.988302000163145],[-122.86833599966901,46.98840599986872],[-122.86833300019431,46.98872199983023],[-122.8683130001028,46.98886400011212],[-122.86826799989696,46.988999999717684],[-122.86826600024715,46.9890700001007],[-122.86826299987409,46.98928699978625],[-122.86828700016353,46.98963900020663],[-122.86828499961541,46.98981899999236],[-122.86827999959254,46.990273000279146],[-122.86836599980626,46.99045899990389],[-122.86861199985357,46.990788000198336],[-122.86872999985434,46.990931999920946],[-122.86885500042611,46.99106499974561],[-122.86899699981804,46.99115600007999],[-122.8691630003977,46.99123500016381],[-122.86937099991184,46.99128899995998],[-122.86959600004275,46.99138099991831],[-122.86985799998355,46.991426000139946],[-122.87011699955133,46.991478999739634],[-122.87032599978869,46.99153299990207],[-122.87049900004105,46.99157099998366],[-122.87064700017905,46.99163200005808],[-122.87075799960883,46.99182399983804],[-122.87076500017986,46.99196999982174],[-122.87070999992824,46.99209500019177],[-122.87072400017196,46.992193999919486],[-122.87075400030919,46.99229900000596],[-122.87085999971609,46.99237900022513],[-122.87102600029577,46.99243999999012],[-122.87124300003073,46.99251200012532],[-122.8714179999329,46.99257900024916],[-122.8716000004061,46.99262800000304],[-122.87181100029332,46.99267199980627],[-122.87208900012763,46.99260199985163],[-122.87229300034215,46.99257900024916],[-122.87255000026009,46.99257900024916],[-122.87273000018516,46.99258700011203],[-122.87284399998798,46.99252199996623],[-122.8730370003318,46.99253900030424],[-122.8731849995715,46.99259599995631],[-122.87332400038699,46.99262800000304],[-122.87347800037276,46.9926250000569],[-122.8736420004043,46.99264499969459],[-122.87371699984907,46.99266799988135],[-122.87378100032147,46.992689000096526],[-122.87393199993421,46.99279099988639],[-122.87403700041452,46.99285399974945],[-122.87414600019447,46.992992000181985],[-122.87418600037745,46.99311500005406],[-122.87419999972282,46.99324400007904],[-122.87416200008799,46.99334999990924],[-122.87409199976778,46.99351599993762],[-122.87392699991135,46.993670999864094],[-122.8738039998877,46.99378599971665],[-122.87368900025996,46.993904999767146],[-122.87359100035069,46.993995000211115],[-122.87344999988537,46.994138999870984],[-122.87342599959591,46.99416299998078],[-122.87339700018191,46.99429299987776],[-122.87345300025842,46.994397000180356],[-122.87350199976389,46.99453099990661],[-122.87353000025132,46.994713000258635],[-122.87358700015271,46.9948410001619],[-122.87369500010774,46.99520200017122],[-122.87373600011564,46.99537500008866],[-122.87374299978833,46.99551799977825],[-122.87379999968974,46.99564600020411],[-122.87389799959902,46.99573199985853],[-122.87403800023944,46.99580000015696],[-122.8741060000115,46.99582099975411],[-122.87419499969994,46.995849000021046],[-122.87442700040185,46.99586200022751],[-122.87454700005244,46.995794000007976],[-122.87456600031902,46.99571799969622],[-122.87472899962732,46.99567800026268],[-122.87491699994831,46.995506000028925],[-122.8749949997661,46.995461000179205],[-122.8750640002614,46.99542199987032],[-122.87508900037577,46.9953959998528],[-122.87569500027315,46.9953959998528],[-122.87568699987723,46.99611099970724],[-122.87568600005231,46.99620900004548],[-122.8756769998315,46.99726700013059],[-122.87569000025032,46.99764199995509],[-122.87570399959566,46.999916999821785],[-122.87571100016669,47.00172899997156],[-122.87796800025006,47.001738000114116],[-122.87820300042668,47.00173899992564],[-122.87820300042668,47.00172100025202],[-122.87822699981781,47.00172100025202],[-122.87822900036598,47.00158299969401],[-122.8785349997894,47.00157800000892],[-122.87997799956287,47.001575999767184],[-122.8799919998066,47.001767999965615],[-122.8799850001339,47.00199800010541],[-122.87981799972933,47.001999999718706],[-122.87982100010235,47.00203799970899],[-122.87982100010235,47.00211400022114],[-122.87982000027746,47.002267000110066],[-122.88020100004398,47.00227199973064],[-122.88101600017876,47.00227399994635],[-122.8810210002016,47.00245199985101],[-122.88099000023946,47.003543000096556],[-122.88111999993582,47.00353099969898],[-122.88273699978657,47.00353799998228],[-122.88670399960712,47.003523000249274],[-122.88721900016624,47.00351399979484],[-122.88763000007,47.00351699974227],[-122.8886510000691,47.00353500003603],[-122.88865899956669,47.00540900001675],[-122.88866000028992,47.0055489999737],[-122.88866199993974,47.006288999864275],[-122.88866699996261,47.00778300019992],[-122.88778800025372,47.007799000272605],[-122.88768399959835,47.00777900018103],[-122.8871659995645,47.00778199988894],[-122.88717099958737,47.0085260000489],[-122.88717099958737,47.00908300027887],[-122.88716999976245,47.00926599973886],[-122.88683400020179,47.009257000252035],[-122.88678999982086,47.00925799992284],[-122.88674200014027,47.00926300011424],[-122.88668100004091,47.00927400016619],[-122.88662099976645,47.00929300002785],[-122.88656200021522,47.00932000030319],[-122.88653700010084,47.009333000294774],[-122.8861339996947,47.00933599991546],[-122.88506699966487,47.0093419997688],[-122.88506699966487,47.00936100021882],[-122.88506699966487,47.00941100017787],[-122.88458999963892,47.009411999845796],[-122.88458899981399,47.01006100028669],[-122.88452799971462,47.010061999942444],[-122.88452799971462,47.010175000125564],[-122.88453000026276,47.01087899972523],[-122.88455000035425,47.01097800017845],[-122.88452199986683,47.011071000177196],[-122.88452600006481,47.01163300017462],[-122.88452900043784,47.01300299991946],[-122.88664099985793,47.01299600026401],[-122.887193000227,47.012993999837335],[-122.88721300031847,47.012993999837335],[-122.88720999994543,47.01416400024888],[-122.88720800029557,47.014784000210994],[-122.88716100043995,47.014784000210994],[-122.88670500033035,47.014784000210994],[-122.88616800002993,47.014784000210994],[-122.88615499961114,47.015801000106144],[-122.8861510003115,47.01616300013125],[-122.88452299969175,47.01616999998402],[-122.88452299969175,47.01621500015322],[-122.88452299969175,47.0162280003039],[-122.88452199986683,47.01657600028775],[-122.88613600024287,47.01658099979407],[-122.8861389997176,47.01672899978995],[-122.88614200009063,47.01691700008709],[-122.88614499956537,47.01706599990133],[-122.88615399978622,47.017557000045926],[-122.88615499961114,47.01761100018917],[-122.88615700015926,47.017683000091026],[-122.88614299991555,47.017683000091026],[-122.88614299991555,47.01819000009609],[-122.88614100026574,47.0183749998112],[-122.88616100035722,47.0183749998112],[-122.88657899993363,47.01835899984463],[-122.88671600020102,47.01837300019842],[-122.8867150003761,47.0183190002134],[-122.88671399965286,47.018161999901324],[-122.88671299982794,47.01811800026548],[-122.88681099973726,47.01811600003062],[-122.88714700019621,47.01812200012251],[-122.88723800043282,47.01812300023984],[-122.88727900044071,47.01812300023984],[-122.88728799976325,47.017311999991755],[-122.88724799958024,47.01731099985929],[-122.88670299978223,47.01730500028869],[-122.88670299978223,47.01728100016227],[-122.88670199995731,47.01721700018078],[-122.88669399956139,47.016583000086435],[-122.8870469997388,47.016584000232584],[-122.88717999980818,47.016584999766245],[-122.88718300018124,47.01679899998444],[-122.88718400000616,47.01698800017375],[-122.88764299959045,47.01699499991838],[-122.88777599965985,47.01699300025392],[-122.88777599965985,47.016971999791515],[-122.88777499983496,47.01691700008709],[-122.88777099963698,47.01658599991236],[-122.88781800039096,47.01658700005845],[-122.88859699964242,47.01658899973811],[-122.88859800036563,47.01680800003781],[-122.88858999996972,47.0169710002651],[-122.88890700016212,47.016978000012],[-122.88947200005164,47.0169710002651],[-122.88947399970148,47.01703300026602],[-122.88949600034108,47.01750000007366],[-122.88906699999572,47.017492999782775],[-122.8889110003601,47.017491000136964],[-122.88891399983483,47.01769900026016],[-122.88891499965973,47.017783999815265],[-122.88848000036485,47.01777499992638],[-122.88836599966375,47.017773000291136],[-122.88837099968661,47.01764199982707],[-122.88789500038386,47.01763299991426],[-122.88778200040596,47.017631000273695],[-122.88778400005577,47.0178160000882],[-122.88778499988068,47.01794800024603],[-122.8877859997056,47.01799999975465],[-122.8883640000139,47.01801300008321],[-122.88891800003279,47.0180180000674],[-122.88955900009027,47.01802900015346],[-122.88956800031112,47.01782999997197],[-122.88957300033398,47.017646999846],[-122.88965500034976,47.01764900009843],[-122.89003600011625,47.01765599975641],[-122.89003600011625,47.017616000211],[-122.89003600011625,47.01751600029769],[-122.89003600011625,47.01745300011527],[-122.89046299991352,47.017459000281654],[-122.89046399973842,47.017446999948206],[-122.89046600028658,47.01740600011545],[-122.89047200013437,47.01724699991371],[-122.89031599960043,47.01724400012491],[-122.89025000037651,47.01724199985732],[-122.89003600011625,47.01723799993436],[-122.89003600011625,47.01721700018078],[-122.89003600011625,47.0171189997925],[-122.89003500029136,47.01703300026602],[-122.89003500029136,47.01699300025392],[-122.89031599960043,47.01699200011543],[-122.89049700024871,47.01699200011543],[-122.89050599957122,47.01682200018581],[-122.8905609998228,47.016822999715025],[-122.89073300025025,47.016823999856676],[-122.89072200037963,47.016595000001594],[-122.89092700041903,47.016596000147516],[-122.89108899990241,47.01659700029342],[-122.8911640002455,47.01659700029342],[-122.89116300042058,47.01682700028153],[-122.89115000000179,47.01701500023368],[-122.89132099970601,47.01701900017334],[-122.89174599985346,47.017027000051755],[-122.891833999717,47.017027000051755],[-122.89183600026513,47.016826000139936],[-122.89200600014445,47.01682700028153],[-122.8919969999236,47.016630999730936],[-122.89199600009871,47.016598999972715],[-122.89245600040623,47.016600000118565],[-122.892678999989,47.016601000264394],[-122.89267599961595,47.01667600012411],[-122.89265600042279,47.01725999981318],[-122.89245899988099,47.01726300021353],[-122.8920399995813,47.01725499975801],[-122.89179500025726,47.01725099983602],[-122.8917719997927,47.01784200021935],[-122.89161299978406,47.01784299972947],[-122.89152300027068,47.01784399985201],[-122.89135099984325,47.01784100009676],[-122.89135099984325,47.01792999990969],[-122.89135099984325,47.01802099981271],[-122.89135000001832,47.01803799999953],[-122.89091599965006,47.01803799999953],[-122.89068399984646,47.01803900011843],[-122.89067999964851,47.01801499970947],[-122.89068700021951,47.017872999723146],[-122.89031200030078,47.01786700021573],[-122.89003600011625,47.01788200020792],[-122.89003699994117,47.018212999698314],[-122.89003699994117,47.0183099998023],[-122.89003699994117,47.01834299987322],[-122.89003699994117,47.01839400010983],[-122.89003699994117,47.018445999796505],[-122.89019599994982,47.01843300018577],[-122.89068399984646,47.01844199996375],[-122.89068200019665,47.018556000285955],[-122.89067600034886,47.018631999957286],[-122.89067600034886,47.018665999936395],[-122.8909109996272,47.018665999936395],[-122.89126700017763,47.018665999936395],[-122.89135000001832,47.018663999722065],[-122.89135000001832,47.01878400020024],[-122.89134499999545,47.01888400018857],[-122.89090999980228,47.01888599978226],[-122.8906729999758,47.01888599978226],[-122.89067600034886,47.018665999936395],[-122.89058599993717,47.018665999936395],[-122.89023600013283,47.01866700004353],[-122.89003899959101,47.01866800015065],[-122.89004000031423,47.01883799971503],[-122.89004100013915,47.019022000146634],[-122.89004100013915,47.019047000202974],[-122.89004199996404,47.01907200024756],[-122.88964199993097,47.01906899994886],[-122.88959599990022,47.019067999849256],[-122.88954800021965,47.019067999849256],[-122.88949200014314,47.019067999849256],[-122.88949799999092,47.019705000097794],[-122.88952700030322,47.019705000097794],[-122.88964899960365,47.019705000097794],[-122.89004899963673,47.019705000097794],[-122.89004500033707,47.019376999726774],[-122.89004500033707,47.01933799972786],[-122.89004500033707,47.019287999876035],[-122.89123100019263,47.01928600029744],[-122.89134300034564,47.01928600029744],[-122.89199000025093,47.01928600029744],[-122.89199100007582,47.01923599978448],[-122.89202100021306,47.01843400029727],[-122.89202500041104,47.018330000237455],[-122.89202600023596,47.01830800018704],[-122.89203000043388,47.01817400007409],[-122.89203299990861,47.01809899986864],[-122.8926279999354,47.018107999702906],[-122.89261700006473,47.0184010002826],[-122.89260500036916,47.01875400010601],[-122.89260399964594,47.01878900011223],[-122.89294199975474,47.01879600023326],[-122.89313099990062,47.01879600023326],[-122.89324300005362,47.01880100014414],[-122.89324399987852,47.01876500004044],[-122.89326999981779,47.01804799996276],[-122.89327200036591,47.017999000247436],[-122.89327599966558,47.01789299970958],[-122.89293000005915,47.017886000082626],[-122.89263399978316,47.01788200020792],[-122.89263499960808,47.01785999997295],[-122.89264700020198,47.017529000131624],[-122.89264899985176,47.017468000223744],[-122.89269400005762,47.01746999987042],[-122.89292199966326,47.01747399977604],[-122.89297899956466,47.01747499990551],[-122.89348599972787,47.017482999715604],[-122.89348099970498,47.0177230001987],[-122.89360000042899,47.017725999960575],[-122.89392500011898,47.01772999984698],[-122.89392400029406,47.017768000284],[-122.89392099992104,47.01783700021868],[-122.89492299965359,47.017831000094766],[-122.89491599998088,47.01817599969432],[-122.89491500015596,47.01823200005459],[-122.89562700035859,47.01824199998149],[-122.89588299955332,47.01824599982923],[-122.89597899981277,47.018248000059224],[-122.89607400024732,47.018250000289136],[-122.89607400024732,47.018224999859626],[-122.89607400024732,47.01819700029565],[-122.89660599962657,47.01820499999759],[-122.89702699957603,47.018212000195135],[-122.89699200031427,47.019174999989424],[-122.89667699977169,47.019169000015864],[-122.89666699972595,47.019423999828945],[-122.89666500007611,47.019487000135534],[-122.8965010000446,47.019486000043756],[-122.89607699972207,47.019479000013234],[-122.89607699972207,47.01946399985721],[-122.89607699972207,47.019429999773855],[-122.89607699972207,47.01932900010096],[-122.89607599989715,47.019066999749626],[-122.89607500007224,47.018940999908295],[-122.89607500007224,47.01890800020692],[-122.89490199973717,47.018886999885275],[-122.89490199973717,47.01889999999787],[-122.89490099991227,47.01892899990787],[-122.89489400023959,47.01933100029037],[-122.89524599969377,47.01933000019567],[-122.89544599971029,47.01933000019567],[-122.8960790002702,47.02014199988128],[-122.8960790002702,47.02017299988701],[-122.89628500013453,47.02044699998483],[-122.8963470000588,47.02052999992025],[-122.89628099993655,47.02053200006467],[-122.89547699967244,47.02052500017129],[-122.89515299980734,47.02052199995423],[-122.89501800008811,47.02052099988184],[-122.89501899991302,47.02092399997864],[-122.89514899960939,47.02092399997864],[-122.89520200021113,47.02092399997864],[-122.89548300041852,47.02092399997864],[-122.89664300033482,47.02092399997864],[-122.89682999993256,47.02092399997864],[-122.89671500030485,47.02103400026226],[-122.89672299980244,47.02130800022829],[-122.89675299993966,47.02212299996652],[-122.89676299998543,47.022631000099615],[-122.89676499963522,47.02271399970174],[-122.89678599955164,47.02339000005952],[-122.89789199993955,47.02296100013006],[-122.90028700011516,47.02201999978772],[-122.9007390000268,47.02182900016697],[-122.90087899976886,47.021769999758014],[-122.90120000015924,47.02164799976431],[-122.90088999963952,47.02196399972603],[-122.90022400036598,47.022641999847714],[-122.90233699961097,47.023448999902904],[-122.90276900032943,47.02360900002191],[-122.90297000017088,47.02368599986237],[-122.90327999979228,47.02381400016254],[-122.90351499996892,47.023903999826246],[-122.90386099957534,47.02403100020945],[-122.90399500036793,47.02408099990613],[-122.90420799990495,47.02416299969927],[-122.90435600004297,47.02421999990694],[-122.9045490003868,47.02482000023779],[-122.90477500034262,47.02523900008583],[-122.9085479999944,47.025257999778866],[-122.90934399986261,47.02526299969696],[-122.90952200013784,47.02526299969696],[-122.90990000042963,47.02526199971338],[-122.90997999989723,47.02526099972978],[-122.91006000026319,47.02526199971338],[-122.9107449998033,47.02526099972978],[-122.91240100001212,47.02525899976253],[-122.9132639998275,47.0252559998115],[-122.91361299980694,47.0252559998115],[-122.91560899977439,47.02525299986031],[-122.91793500035305,47.025250999892755],[-122.91966799965647,47.02531000012886],[-122.92002000000895,47.02531400005948],[-122.92023400026919,47.02529599975698],[-122.9204040001485,47.025282999976994],[-122.92056099960904,47.025244999989624],[-122.92193499978556,47.02524300002177],[-122.92303899962532,47.02524100005384],[-122.9232899996955,47.02524100005384],[-122.92336800041161,47.02524000006985],[-122.92337500008429,47.02515700010842],[-122.92360299968995,47.025156000122855],[-122.92378400033822,47.02515500013726],[-122.92517400040826,47.02515000020906],[-122.92578299978042,47.025148000237635],[-122.92580799989476,47.025146000266155],[-122.92580100022208,47.02508499987504],[-122.92578500032855,47.02467899997319],[-122.92579000035141,47.02424699998404],[-122.92579600019921,47.02370200006974],[-122.92579799984902,47.02363299975346],[-122.92581499956745,47.02331399981225],[-122.92334199957403,47.02330800030382],[-122.92319699980906,47.02330800030382],[-122.92307200013562,47.02330800030382],[-122.92306899976256,47.02297699994238],[-122.92306799993764,47.02292200029955],[-122.92308600037933,47.02268600004222],[-122.92308899985403,47.02263999978233],[-122.92309399987691,47.02257800016811],[-122.92312099964109,47.02244299971207],[-122.92718200007128,47.02247400021898],[-122.92727300030786,47.02241900005795],[-122.92741600042301,47.022332999881904],[-122.92866699967757,47.0211740002954],[-122.93096599959371,47.021174999743195],[-122.93131999959603,47.021174999743195],[-122.93132600034217,47.02112000008115],[-122.93133499966467,47.021034999712626],[-122.93133800003771,47.0210120001012],[-122.93134600043363,47.02094400004706],[-122.93139099974117,47.020885999950494],[-122.9314429996197,47.02081999986951],[-122.93148100015286,47.02077000018071],[-122.93154700027507,47.02069499994726],[-122.93165100003216,47.02057700023226],[-122.93165299968197,47.02048300017928],[-122.9318150000637,47.020139000255135],[-122.93185500024667,47.01984100021337],[-122.93171399978135,47.01963700021632],[-122.93163199976559,47.019344000294865],[-122.93159300030584,47.019151000091135],[-122.93171299995646,47.01923599978448],[-122.93195700035392,47.01939300000074],[-122.93224199986096,47.019529999777134],[-122.9325680002742,47.01964699988009],[-122.93283500023787,47.01967900026143],[-122.93308600030805,47.019693000269115],[-122.93332399995941,47.01971200009868],[-122.93364399962657,47.019686000265736],[-122.93378199971885,47.019671000167904],[-122.93408999969039,47.01964900005758],[-122.93487700023609,47.019390999813645],[-122.9353929997218,47.01921099981668],[-122.93578799973201,47.01902100004615],[-122.93602399973358,47.018937000112615],[-122.93604100035033,47.01893100011227],[-122.93610400009952,47.01890800020692],[-122.93609999990154,47.02187599994785],[-122.93609599970361,47.02359199977181],[-122.93609400005377,47.02534800006995],[-122.93601399968782,47.02534800006995],[-122.93598799974856,47.02534800006995],[-122.93596799965708,47.02534800006995],[-122.93431999984418,47.02535499994335],[-122.9327380001535,47.025360999834064],[-122.92877800000566,47.02537700015181],[-122.92863499989052,47.02538200005876],[-122.92645399997515,47.02535799988881],[-122.9262399997149,47.02533900023136],[-122.92652500012026,47.02547899999787],[-122.92669400017463,47.02550200013439],[-122.92677700001533,47.02551399988218],[-122.92684200031265,47.02552300030357],[-122.9270130000169,47.02554799976526],[-122.92714899956098,47.02556699996064],[-122.92722100042937,47.02557699973847],[-122.92728300035363,47.02558600014929],[-122.9282759998653,47.02585600013296],[-122.92863300024071,47.025962000170544],[-122.92871299970831,47.02598400012889],[-122.92967799963094,47.02639199982797],[-122.93031899968844,47.026706999920755],[-122.93140199961182,47.027256000170794],[-122.93151299993991,47.02731200019236],[-122.9316970000629,47.02740300002553],[-122.93172999967487,47.02742000028669],[-122.93273499978048,47.027920000143865],[-122.93419199979766,47.028643999963606],[-122.93429700027797,47.02870200020426],[-122.93441799975346,47.028704999961626],[-122.93882700033821,47.028788999834774],[-122.93907000001244,47.028794000034466],[-122.93917600031766,47.0287780001286],[-122.93920499973163,47.02877299992746],[-122.93920800010471,47.027299000290974],[-122.9392089999296,47.026943000160244],[-122.93921099957943,47.025937000290426],[-122.9392089999296,47.025336000284845],[-122.94105799958398,47.02532799981423],[-122.94154200018096,47.025325999849485],[-122.94284299966424,47.025319999954796],[-122.94414999989357,47.02531500004204],[-122.94508700022712,47.02531100011154],[-122.94515300034935,47.02531100011154],[-122.94678000024584,47.025304000232374],[-122.95029099995683,47.025282999976994],[-122.95294100040059,47.02531899997228],[-122.9600619995567,47.025325999849485],[-122.96043200035086,47.025325999849485],[-122.96057799994072,47.02532999977891],[-122.96055600019943,47.018164000134455],[-122.96055600019943,47.018085000055464],[-122.96055600019943,47.0180400002373],[-122.96653800025399,47.01804900008147],[-122.96704700006703,47.01805000020016],[-122.9671640002429,47.01805000020016],[-122.96719600002994,47.01805500018089],[-122.96844299998484,47.01805199982503],[-122.96777500016316,47.016288000251706],[-122.96696099985331,47.015117999827105],[-122.96658099991171,47.01492400009533],[-122.96661600007181,47.01440399972481],[-122.96646499956076,47.01437700018217],[-122.96585600018861,47.014264999891815],[-122.96586299986129,47.01363400026476],[-122.96250000028836,47.01362200029671],[-122.96247299962586,47.01364900022107],[-122.9620759999658,47.01404600018753],[-122.96201400004153,47.014106000137126],[-122.96181099965195,47.0143020001559],[-122.9617160001157,47.014393000116975],[-122.9605250002373,47.01439000016786],[-122.96052299968916,47.01399800005687],[-122.96052199986424,47.01376200016489],[-122.96052000021443,47.01329599972379],[-122.96052000021443,47.01314300018536],[-122.96051600001645,47.01307600012139],[-122.96050500014579,47.0128689999687],[-122.9605040003209,47.01285199997377],[-122.96049400027516,47.01264200013047],[-122.96050000012295,47.011856999922536],[-122.96050900034376,47.0107500000101],[-122.95984700036988,47.010753000163696],[-122.9586539999433,47.01075800021515],[-122.95181900011913,47.010787000259405],[-122.9516989995702,47.01078799990158],[-122.95257900000232,47.008942999783294],[-122.95357400006215,47.00687000005952],[-122.95430100033339,47.00535600014295],[-122.95481900036725,47.004275000258815],[-122.95505799984353,47.003775000105534],[-122.9551189999429,47.00363699995228],[-122.95525700003517,47.00363600017623],[-122.9553299998301,47.003501000224844],[-122.95544799983087,47.00341399981674],[-122.95551599960292,47.00343700026937],[-122.95563100012899,47.00346099987877],[-122.9557600000004,47.003479000191355],[-122.9559070003135,47.00349199976671],[-122.95625700011787,47.003501000224844],[-122.95751900014139,47.003493000158024],[-122.9592740000844,47.00349699988529],[-122.95931199971926,47.00349800027652],[-122.9601879999534,47.0034939999367],[-122.96407199993327,47.003421999895394],[-122.96476700041744,47.003413000036566],[-122.96583000024937,47.00339199974742],[-122.96584100012002,47.00209099981156],[-122.9658639996862,46.99999700027714],[-122.96587299990705,46.99984099986025],[-122.96588100030297,46.999518999743],[-122.96589299999853,46.99899599989768],[-122.96589299999853,46.99885800026565],[-122.96589200017362,46.99825100007667],[-122.96588899980058,46.996365000038125],[-122.9658910003487,46.996252999963836],[-122.96589600037157,46.99611900026674],[-122.96590100039445,46.99537200029676],[-122.96590700024224,46.99399300029818],[-122.96590800006716,46.99384499979541],[-122.96590899989205,46.993530000064105],[-122.97113100006344,46.99356400009338],[-122.97114199993409,46.9930309998134]]]},"properties":{"AREALAND":"45956753","AREAWATER":"721072","BASENAME":"Tumwater","CBSAPCI":"Y","CENTLAT":"+46.9892745","CENTLON":"-122.9176777","FUNCSTAT":"A","GEOID":"5372905","INTPTLAT":"+46.9894629","INTPTLON":"-122.9172767","LSADC":"25","MTFCC":"G4110","NAME":"Tumwater city","NECTAPCI":"N","OBJECTID":31077,"OID":"27890482056967","PLACE":"72905","PLACECC":"C1","PLACENS":"02412111","STATE":"53","DISP_CLR":1,"slug":"tumwater","jurisdiction_key":"tumwater_city","county_fips":["53067"]}}]}
