{"type":"FeatureCollection","features":[{"type":"Feature","geometry":{"type":"Polygon","coordinates":[[[-122.58400199962605,47.187407999854614],[-122.58412499964969,47.18721099993072],[-122.58239399999611,47.18627499991929],[-122.5816409997856,47.185675999774105],[-122.58063700040324,47.18481899999606],[-122.57958999956656,47.18513499995932],[-122.57719399956605,47.18562999971992],[-122.5768110001497,47.18588300013504],[-122.5763109996592,47.186518000199406],[-122.57590200030359,47.18723599988408],[-122.57559900035488,47.18776799976345],[-122.57484500031948,47.18916499985138],[-122.57407899969019,47.190748000246195],[-122.57386100013031,47.191013999734466],[-122.57381000007668,47.191073000261895],[-122.57377300026677,47.19111500017322],[-122.57377499991657,47.19116799982487],[-122.57382299959714,47.19121399996341],[-122.57389399974228,47.19125499984092],[-122.5739809997809,47.19131099972672],[-122.57405899959872,47.19135599982104],[-122.57412300007111,47.191413000129906],[-122.5741709997517,47.19145399985372],[-122.57419699969098,47.19153699973365],[-122.5741919996681,47.191615999822375],[-122.57412600044417,47.191685000043215],[-122.5740290003598,47.19176000026114],[-122.5739389999481,47.19182500003869],[-122.57384799971149,47.19186299971212],[-122.57375700037322,47.19189599980807],[-122.57368299985505,47.19194999980981],[-122.5736500002431,47.19197300015558],[-122.5736000000144,47.19200899990715],[-122.57354099956487,47.19205699974138],[-122.57350399975493,47.192110000283684],[-122.57349999955697,47.19218900012992],[-122.57351799999863,47.19226699995545],[-122.5735380000901,47.192377000171994],[-122.57353300006726,47.19245499972121],[-122.57352800004436,47.19252400007214],[-122.57349399970917,47.192629000274756],[-122.5734450002037,47.19274999979715],[-122.5733880003023,47.192867000086984],[-122.57330799993635,47.19299400023486],[-122.57325000021002,47.19309400007017],[-122.57311700014064,47.19322800009117],[-122.57300400016274,47.19335499998557],[-122.57287299974315,47.1934799998156],[-122.5727899999025,47.1935609998217],[-122.57266000020614,47.19368099978435],[-122.57257700036546,47.193757999983696],[-122.5724889996036,47.19381799977621],[-122.5723530000595,47.19389899987684],[-122.57228399956419,47.19393400028149],[-122.57214899984497,47.19400200005985],[-122.5720099999278,47.19407399983794],[-122.57185799959184,47.19416800026597],[-122.57172100022281,47.194264000258464],[-122.57158300013053,47.194345000288784],[-122.57146400030487,47.19441400001359],[-122.57137200024336,47.19448000006449],[-122.57135499962659,47.19449300009258],[-122.57126400028832,47.19456800000469],[-122.57118999977017,47.194621999729286],[-122.57114000043977,47.19465099989781],[-122.57110299973152,47.194670000252216],[-122.57103800033252,47.194702999823534],[-122.57093899969999,47.194743000201285],[-122.57089500021738,47.19476100005621],[-122.57084800036169,47.19477099983734],[-122.57069199982779,47.19480499981157],[-122.57059200026868,47.19482000008053],[-122.57049900038224,47.194819000225515],[-122.57044300030577,47.19481699990502],[-122.57042599968901,47.194813999729284],[-122.57038899987909,47.194808999843005],[-122.57033700000055,47.19480499981157],[-122.57029799964246,47.19480499981157],[-122.57022900004552,47.194807999987766],[-122.57018499966459,47.194811000163845],[-122.57016000044854,47.19481600004993],[-122.57012600011335,47.194834999734844],[-122.57008799958021,47.194857000196805],[-122.57002099963306,47.19488799994443],[-122.56997999962516,47.194908999920656],[-122.56995500040912,47.19492199984369],[-122.56990099998247,47.19494900014314],[-122.56982300016465,47.194987000021335],[-122.56973100010313,47.19501900015467],[-122.56966900017888,47.195035000214126],[-122.56962399997302,47.19504499994362],[-122.56957799994225,47.195049999807665],[-122.5695310000866,47.19505200011936],[-122.56947800038314,47.19505500028165],[-122.56942800015443,47.19505399982062],[-122.56937299990285,47.195049999807665],[-122.56933600009293,47.195047000255514],[-122.56930299958266,47.195044000092835],[-122.56922899996282,47.19503900022823],[-122.56915500034296,47.19503699991603],[-122.56905700043367,47.195032999901784],[-122.56900899985477,47.19503200005076],[-122.56895799980116,47.195035000214126],[-122.56893900043289,47.195035000214126],[-122.56891900034142,47.19503900022823],[-122.56885800024205,47.195051000268755],[-122.56881100038639,47.19506400015696],[-122.56877100020341,47.19507899974229],[-122.56873199984535,47.19509899979323],[-122.56868900018765,47.19512600000262],[-122.56861700021764,47.19517099991417],[-122.568566000164,47.19519800008692],[-122.56851199973731,47.19522299994075],[-122.56843700029255,47.195251999780844],[-122.5683610001246,47.19528200006178],[-122.5682840001317,47.19531300017155],[-122.56820999961353,47.19534000027205],[-122.56816000028313,47.195350999789085],[-122.56811000005442,47.195353999934426],[-122.5680520003281,47.19534699979851],[-122.56799700007652,47.19533300013425],[-122.56797699998504,47.19533700012593],[-122.56796699993927,47.19531700016469],[-122.56795000022085,47.195298999887946],[-122.5679390003502,47.19527099992006],[-122.56793199977919,47.195238999938645],[-122.56793000012935,47.19518500023155],[-122.56793199977919,47.19513000000986],[-122.56792900030446,47.19507799989215],[-122.56792199973343,47.195047000255514],[-122.56790800038806,47.195014000287706],[-122.56788900012148,47.19498499970718],[-122.56783899989276,47.194945999974905],[-122.56776299972478,47.19490199972604],[-122.56770300034864,47.19486900027849],[-122.56764999974688,47.19484400025789],[-122.56761200011204,47.194824999965775],[-122.56757000027925,47.194798000213616],[-122.56751000000479,47.19476199991233],[-122.56747700039284,47.194747000237406],[-122.56744200023273,47.19473900016488],[-122.56739299982891,47.1947379996979],[-122.56735699984391,47.19474099987789],[-122.56732800042991,47.19474599977057],[-122.5672859996988,47.19476000020008],[-122.5672420002162,47.19477700019347],[-122.56721100025406,47.194790000148785],[-122.56717799974376,47.194807999987766],[-122.56713599991097,47.19483200017055],[-122.567103000299,47.19485599973205],[-122.56705499972013,47.194880999747],[-122.56701299988734,47.19489799970162],[-122.56697500025248,47.19490800006734],[-122.56694900031323,47.19490999977399],[-122.56689999990944,47.19491799982078],[-122.56683899981006,47.19492999988862],[-122.566807000023,47.19493799993235],[-122.56677500023595,47.19494900014314],[-122.56675500014447,47.194961000203975],[-122.56673400022808,47.19499100003906],[-122.56672500000724,47.1950159999904],[-122.56671699961132,47.19505500028165],[-122.56670599974065,47.19508100005291],[-122.56669499987002,47.19510500011222],[-122.56667899997649,47.19512900016067],[-122.566658999885,47.195149000192764],[-122.5666299995727,47.19517499991802],[-122.5665960001358,47.19519999978268],[-122.56655799960267,47.19522799978802],[-122.5665119995719,47.19525800008252],[-122.56648599963263,47.19527599976281],[-122.5664620002415,47.19529000005248],[-122.56642799990632,47.19529800004194],[-122.56640199996706,47.195299999733926],[-122.56637100000492,47.19529599973946],[-122.56633599984481,47.195286000057266],[-122.56627599957037,47.19526200007982],[-122.56621399964607,47.19523999978577],[-122.56617000016345,47.19522799978802],[-122.56608099957668,47.19520500024249],[-122.56601500035276,47.19518900023434],[-122.56599400043636,47.19518500023155],[-122.56596599994897,47.1951780000733],[-122.56585799999394,47.19513099985903],[-122.56579799971945,47.19511099982015],[-122.56577000013037,47.1951040002626],[-122.56573900016824,47.19509099977373],[-122.56569200031258,47.19507099971983],[-122.56565100030471,47.19506400015696],[-122.56561500031968,47.195068000168874],[-122.56559400040328,47.19507499973121],[-122.56556500009097,47.19508900007392],[-122.56554599982441,47.1951029998025],[-122.56551999988513,47.19511899983664],[-122.5654770002274,47.19515000004158],[-122.56543700004445,47.195177000225016],[-122.56539500021167,47.19520299993655],[-122.56534599980785,47.19522799978802],[-122.56530999982284,47.19524399978441],[-122.56528800008152,47.19525000008704],[-122.56526700016515,47.19525400008494],[-122.56523700002792,47.19525999977603],[-122.56518900034733,47.1952629999265],[-122.56511300017935,47.195270000073535],[-122.56505000043016,47.19527899991239],[-122.56500199985126,47.19528900020631],[-122.56496500004134,47.195294999893434],[-122.56492099966042,47.195298999887946],[-122.56487999965252,47.19529800004194],[-122.56483299979689,47.19529400004737],[-122.56478799959102,47.19528900020631],[-122.56472599966675,47.195278000066],[-122.56468100035922,47.19527400006992],[-122.56463899962812,47.19527499991637],[-122.56460699984106,47.19528100021546],[-122.5645690002062,47.19529199974473],[-122.5645330002212,47.195306000030186],[-122.56449100038841,47.195321000157534],[-122.56443799978668,47.19534199996246],[-122.56439000010609,47.19536100006945],[-122.56433400002959,47.195378999714755],[-122.56429999969437,47.195392000133026],[-122.5642710002804,47.19540700023607],[-122.56424000031824,47.19542700016338],[-122.56422000022677,47.19544499978629],[-122.56420500015815,47.195466000152514],[-122.56418900026463,47.19549300017522],[-122.564166999625,47.19552400016167],[-122.56415400010452,47.195536000092474],[-122.56413800021099,47.19554999970319],[-122.56411200027173,47.195564999761515],[-122.5640810003096,47.195581000266756],[-122.56404899962422,47.19559000005285],[-122.56400599996654,47.195601999968744],[-122.56394400004224,47.19562499995262],[-122.56389499963845,47.19564499979772],[-122.56385100015582,47.19566500024576],[-122.56379900027731,47.19569500029321],[-122.5637359996298,47.195724999713335],[-122.56367500042872,47.19574999992929],[-122.56364500029149,47.19576000013446],[-122.56361299960614,47.19576700021588],[-122.56355800025287,47.19576300025666],[-122.56350899984905,47.1957579998494],[-122.5634489995746,47.195757000012044],[-122.56338099980255,47.19575600017467],[-122.5633080000076,47.195759000297144],[-122.56324299971027,47.19576099997172],[-122.56319800040276,47.195759000297144],[-122.56313399993034,47.19574699980635],[-122.56304900043983,47.195733000247614],[-122.56295800020325,47.19573000012371],[-122.56291200017249,47.19573199979942],[-122.56282799960859,47.19574299984558],[-122.56275999983653,47.19575499972691],[-122.56270100028529,47.195768999890205],[-122.56263699981288,47.19577699980744],[-122.5625830002845,47.19578399988667],[-122.5625409995534,47.19578499972348],[-122.56248899967487,47.19578099976561],[-122.5623919995905,47.1957720000119],[-122.56228399963547,47.195768000053064],[-122.56217700040364,47.195768999890205],[-122.56209899968754,47.195771000174815],[-122.56198900008268,47.1957790000918],[-122.56187299973172,47.195790999964935],[-122.56176599960159,47.19580500011873],[-122.56167000024044,47.19581399986685],[-122.56152999960004,47.195814999703124],[-122.56132700010879,47.19580900007479],[-122.56122500000151,47.1958080002384],[-122.56104000005361,47.19580599995519],[-122.56101099974127,47.19580699979162],[-122.56090000031152,47.195816999986],[-122.56085699975549,47.195817999822225],[-122.56079099963326,47.1958080002384],[-122.56071899966322,47.19578799984431],[-122.56060700040852,47.19576199980899],[-122.56053200006546,47.19576099997172],[-122.56047900036202,47.19576099997172],[-122.56043900017906,47.1957640000939],[-122.56037399988172,47.19577400029644],[-122.56030500028477,47.19578700000753],[-122.56022300026898,47.195797000205715],[-122.56014100025322,47.19580500011873],[-122.56008000015386,47.19580599995519],[-122.56002499990227,47.19580500011873],[-122.55997999969645,47.195801999998906],[-122.55993100019094,47.19579499992205],[-122.5598809999622,47.195783000049815],[-122.55983300028166,47.19576599976829],[-122.55980200031952,47.195759000297144],[-122.55977800003006,47.195753000052065],[-122.55967099989995,47.19573000012371],[-122.55959399990705,47.19571199998706],[-122.5594909999749,47.195689000040936],[-122.55940899995912,47.19567400001761],[-122.55932100009557,47.195658999990044],[-122.55925999999619,47.19565400018339],[-122.5592380002549,47.19565000021564],[-122.55917700015553,47.19564399995824],[-122.55915799988897,47.19564399995824],[-122.5591260001019,47.19564799992648],[-122.55907599987317,47.19565800015082],[-122.5590209996216,47.19567000005138],[-122.55896700009325,47.19568800020228],[-122.558936999956,47.195696000131726],[-122.55890199979592,47.19571500011198],[-122.55887400020684,47.19572900028583],[-122.55885099974229,47.19574299984558],[-122.55881200028256,47.19576000013446],[-122.55876799990163,47.195768000053064],[-122.5587369999395,47.19576999972733],[-122.55869000008383,47.1957640000939],[-122.55865099972576,47.1957579998494],[-122.55860100039536,47.19575600017467],[-122.55853299972497,47.195757000012044],[-122.55845800028024,47.195759000297144],[-122.55835699999788,47.19576700021588],[-122.55833299970844,47.1957720000119],[-122.55830799959406,47.19577800025483],[-122.55826900013433,47.19578700000753],[-122.5582230001036,47.195804000282266],[-122.55819299996635,47.1958209999412],[-122.55816100017933,47.19583299980485],[-122.55811599997348,47.195847999783226],[-122.5580699999427,47.19586899998996],[-122.55796799983544,47.19589899992212],[-122.55789099984257,47.195913999881846],[-122.55778700008548,47.19592300022188],[-122.55766599971167,47.19592199977723],[-122.55760899981026,47.195913000047426],[-122.55755199990885,47.19589599980761],[-122.5574859997866,47.195865000038424],[-122.55708800030166,47.19574200000798],[-122.55695600005718,47.19569500029321],[-122.55687499986634,47.19565699970122],[-122.55679299985056,47.19563399973125],[-122.55673599994917,47.19562700024265],[-122.55659100018421,47.195617999852416],[-122.55653699975751,47.1956069997803],[-122.55637500027414,47.19556600021291],[-122.55629300025836,47.19553900022739],[-122.55618000028046,47.19549499985981],[-122.55610300028759,47.19545100006616],[-122.55603200014245,47.19541200006599],[-122.55597400041613,47.19538100001406],[-122.55590800029393,47.19535200024446],[-122.55583899979862,47.195328000296875],[-122.55576400035386,47.195302000036214],[-122.55568999983569,47.19528100021546],[-122.55562500043669,47.1952629999265],[-122.55556500016223,47.195251999780844],[-122.55549999986492,47.19524299993737],[-122.55544700016146,47.19524200009036],[-122.55541399965118,47.19524399978441],[-122.55534900025216,47.19525499993177],[-122.55529999984834,47.19525899992929],[-122.55525399981761,47.19525300023808],[-122.55521600018277,47.19524299993737],[-122.55518600004552,47.19522399978817],[-122.55515799955815,47.19520299993655],[-122.55509499980894,47.19513000000986],[-122.55506200019698,47.19509200023406],[-122.55500399957235,47.19503200005076],[-122.5549719997853,47.19499999992522],[-122.55493499997537,47.1949650002237],[-122.5548789998989,47.19492000013746],[-122.55483500041626,47.19489000026224],[-122.55479199986023,47.19486799981396],[-122.55474699965438,47.194851999704156],[-122.55472400008817,47.19484800028639],[-122.55471099966938,47.194845000112444],[-122.5546689998366,47.194841000083684],[-122.55460500026251,47.194837999909346],[-122.5545140000259,47.194837000054655],[-122.55446600034534,47.194833000025326],[-122.55441299974358,47.194824999965775],[-122.55434599979641,47.19480999969822],[-122.55425200008509,47.19478399979413],[-122.55408800005355,47.19474499991414],[-122.55398599994628,47.194723000016175],[-122.5539070003036,47.19471000004443],[-122.55384799985403,47.194702999823534],[-122.5537680003864,47.19469499974438],[-122.55366100025631,47.19468800013191],[-122.553551999578,47.19467799972472],[-122.55340599998816,47.19466499974195],[-122.5532329997358,47.1946570002675],[-122.55307299990221,47.1946620001681],[-122.552978000366,47.19466899978394],[-122.55292700031237,47.19467299982563],[-122.55289200015226,47.194679000192835],[-122.55282699985493,47.19469499974438],[-122.55278900022012,47.19470500014836],[-122.55275800025795,47.194718000121334],[-122.55273499979343,47.19473199994779],[-122.55265899962545,47.19479100000436],[-122.55261199976978,47.19482000008053],[-122.55257999998273,47.194833999880096],[-122.55253899997483,47.19484400025789],[-122.5524870000963,47.194854000023376],[-122.55244100006556,47.19486100022432],[-122.55235400002692,47.19487500001306],[-122.55226399961523,47.194899000165535],[-122.55221400028483,47.194908999920656],[-122.55211100035267,47.19491500026117],[-122.55201699974303,47.19492000013746],[-122.55195399999384,47.19492400016023],[-122.55187399962789,47.194937000079584],[-122.55184699986373,47.194945999974905],[-122.55180099983296,47.194954999868706],[-122.55175399997731,47.194961000203975],[-122.55172999968785,47.19496200005633],[-122.55168700003014,47.19495800003642],[-122.5515869995727,47.19493799993235],[-122.55152800002149,47.19492599986631],[-122.55148899966342,47.19492199984369],[-122.55143000011218,47.19492500001327],[-122.5514100000207,47.19492800018269],[-122.55134600044659,47.194942999806464],[-122.55125299966187,47.194977000280915],[-122.55121800040008,47.194990000187246],[-122.5511980003086,47.19499900007363],[-122.55117499984408,47.19501699984172],[-122.5511499997297,47.19504099992998],[-122.5511349996611,47.195062999696106],[-122.5511210003157,47.19509300008394],[-122.55111299991978,47.19513000000986],[-122.55111100026997,47.19514299987871],[-122.55111200009489,47.19519400008481],[-122.55110899972183,47.19522500024594],[-122.5510939996532,47.19529000005248],[-122.55108199995765,47.19533300013425],[-122.55107199991191,47.19535899976935],[-122.55106299969107,47.19537799987026],[-122.55104699979753,47.19539500027604],[-122.55101800038354,47.19541399975364],[-122.55099099972107,47.19542300017847],[-122.55094100039067,47.19542700016338],[-122.55087799974316,47.19542599970937],[-122.55076999978813,47.19542499986576],[-122.55068600012251,47.19542400002213],[-122.5506209998252,47.19542000003705],[-122.5505299995886,47.19541799973921],[-122.55045799961857,47.19542099988075],[-122.55033399977002,47.19543100014792],[-122.55027900041675,47.19543500013218],[-122.55021800031737,47.1954460002399],[-122.55012299988284,47.195466000152514],[-122.55003400019436,47.195485000215115],[-122.55000499988205,47.19548600005759],[-122.54995399982843,47.19547700025385],[-122.54990000030006,47.19547000013412],[-122.54987900038367,47.195466999995354],[-122.54980700041364,47.19545800018839],[-122.54966799959814,47.19544499978629],[-122.54962699959027,47.19544399994304],[-122.54953299987895,47.19544499978629],[-122.5494810000004,47.195450000223055],[-122.54943300031982,47.195451999909274],[-122.54940599965734,47.19544899976948],[-122.54935899980165,47.195436999819],[-122.54932299981668,47.19543500013218],[-122.54928699983165,47.195435999975594],[-122.54921099966367,47.19544700008311],[-122.54913799986875,47.19545100006616],[-122.5490580004011,47.19545999987435],[-122.54897100036247,47.19546900029138],[-122.54884199959272,47.195490999880086],[-122.54879599956197,47.195501999976244],[-122.54876600032306,47.195514999753954],[-122.54874000038379,47.195527000297226],[-122.54868199975915,47.195563999920566],[-122.54864900014718,47.19557899997495],[-122.54854299984196,47.19560299980902],[-122.54849199978835,47.195617000012426],[-122.54846099982622,47.195631000212124],[-122.54841999981832,47.19565999982925],[-122.54828500009913,47.195726999999636],[-122.54822399999975,47.195753000052065],[-122.54809000010546,47.195816000149804],[-122.54794600016542,47.19586899998996],[-122.54775700001952,47.19593199994998],[-122.54765699956211,47.19598300000815],[-122.54756200002583,47.19602699997104],[-122.54749099988075,47.196062000192974],[-122.54741999973564,47.196092999847025],[-122.54737399970487,47.19610699992115],[-122.54727199959763,47.19614200009027],[-122.54716399964259,47.19618999984871],[-122.5471140003122,47.196206000165446],[-122.5470309995732,47.19623599990709],[-122.54690199970179,47.19627899983273],[-122.54683599957953,47.19629500012263],[-122.54667400009615,47.1963270000776],[-122.54655600009536,47.19633899982687],[-122.54637699999522,47.19633800000046],[-122.54619899972,47.19633800000046],[-122.54589900014435,47.1963139998884],[-122.5457779997705,47.19629999986889],[-122.54565999976973,47.19627599973965],[-122.54551699965461,47.19623699973542],[-122.54540000037704,47.19620399989724],[-122.54522399975164,47.196170000208966],[-122.54507899998669,47.196150999781224],[-122.54500000034396,47.19614800029137],[-122.54496500018386,47.196150999781224],[-122.5449390002446,47.19615799981112],[-122.54490999993227,47.19617100003854],[-122.54484499963496,47.19621400001685],[-122.54481799987077,47.19623400025038],[-122.54479500030456,47.196245000192505],[-122.54474699972566,47.196253000037984],[-122.54468200032666,47.19623800017409],[-122.54459000026515,47.19621400001685],[-122.54450599970122,47.19620300006829],[-122.54442899970834,47.196196999873415],[-122.54423399971468,47.196178999895174],[-122.54411900008695,47.19618199999374],[-122.54403899972102,47.19618299982308],[-122.54387800006252,47.1961679999394],[-122.54367600039616,47.196143999750454],[-122.54361500029681,47.19614100026015],[-122.5435750001138,47.196146999850946],[-122.54351400001444,47.19615900025133],[-122.5434670001588,47.19617199986809],[-122.54341699993009,47.19618599992137],[-122.54337599992222,47.19620300006829],[-122.5433330002645,47.196229999715946],[-122.54326899979208,47.196281000098104],[-122.54324899970058,47.19629800021459],[-122.54320100002002,47.196345999831905],[-122.54315599981418,47.19638499975608],[-122.5430870002172,47.19644900014853],[-122.54305600025506,47.196469000293526],[-122.5430179997219,47.19648899982057],[-122.54299599998059,47.19650500004715],[-122.54297900026216,47.19651999983557],[-122.54297099986624,47.19653999995376],[-122.54297099986624,47.19656600021828],[-122.54297500006422,47.196584999887015],[-122.542976999714,47.196604000159304],[-122.54298000008706,47.19661800009861],[-122.54297300041438,47.196636999748726],[-122.54295800034576,47.19665299993073],[-122.5429399999041,47.19667099974818],[-122.54292099963753,47.19668699991988],[-122.54290599956892,47.19669499969873],[-122.54289300004842,47.19669799976811],[-122.54287600033,47.196693999879066],[-122.54285399969037,47.19667699988941],[-122.54283399959888,47.19665900007399],[-122.54280900038283,47.19663999982141],[-122.54276800037496,47.19661500002474],[-122.54272900001688,47.19660299972754],[-122.54268200016125,47.19659899983133],[-122.54261400038916,47.19659899983133],[-122.54253599967305,47.19660700023384],[-122.5424339995658,47.19661400020354],[-122.54237199964153,47.196622999814444],[-122.54231599956503,47.196632000034214],[-122.54227399973225,47.19664999985879],[-122.54224799979298,47.1966669998571],[-122.54221099998303,47.19670099983728],[-122.54218400021887,47.196730000090454],[-122.54213599963997,47.19677000016103],[-122.54210399985294,47.19680000019416],[-122.54205899964707,47.196833000272086],[-122.54198400020232,47.19685100002848],[-122.54193399997361,47.19686100002616],[-122.5418989998135,47.19686100002616],[-122.54184399956192,47.196850000211725],[-122.5418000000793,47.196835999723234],[-122.54173399995707,47.19680100001186],[-122.54168499955325,47.19678199981007],[-122.54163000020002,47.19676899973234],[-122.54159300039007,47.19675099994814],[-122.54152399989479,47.19668099977979],[-122.54149100028282,47.19665100028973],[-122.54146299979541,47.196639000000665],[-122.54140300041928,47.19662100017236],[-122.54132999972605,47.19660800005518],[-122.54126600015194,47.19660299972754],[-122.54119800037988,47.19660199990611],[-122.54112200021187,47.196594000113244],[-122.54099400016536,47.19657199976102],[-122.54092700021819,47.196554999732285],[-122.54082699976077,47.196543999854455],[-122.54075499979076,47.19653900013118],[-122.54068299982073,47.19654099977637],[-122.54059999998006,47.196549000187616],[-122.54050399972058,47.1965639999636],[-122.54043900032158,47.196574999837324],[-122.54034999973481,47.196597000188305],[-122.54025699984838,47.196625000066895],[-122.54018599970327,47.196652000110234],[-122.5401449996954,47.19667399981888],[-122.54010799988548,47.19668999998967],[-122.54009199999194,47.19669499969873],[-122.54007100007556,47.196703000086806],[-122.54001900019699,47.19671099986323],[-122.539975999641,47.196719000248855],[-122.53989899964812,47.196727000022875],[-122.53975999973093,47.19674899970047],[-122.53966400036978,47.19676199978309],[-122.53962199963865,47.19677099997929],[-122.53950199998806,47.19682799996565],[-122.5393990000559,47.1968530002723],[-122.53931500039032,47.19687700014057],[-122.53924199969707,47.19690199981379],[-122.53908400041163,47.19697600016907],[-122.53899900002281,47.197018000291855],[-122.53893100025076,47.19703099969818],[-122.53888600004491,47.197035000172214],[-122.53883499999131,47.19703299993521],[-122.53873299988403,47.19700399984769],[-122.53861900008121,47.19698499971858],[-122.53855200013408,47.19698399990435],[-122.53848799966165,47.1969969999294],[-122.5383980001483,47.19703099969818],[-122.53829799969087,47.19705999977094],[-122.53823800031473,47.197081999920826],[-122.53818700026108,47.197114000011595],[-122.53815299992591,47.19714300003904],[-122.5381029996972,47.19721099997807],[-122.53808400032891,47.19725699976169],[-122.5380740002832,47.19731200022032],[-122.53807199973507,47.19735799991644],[-122.53806500006236,47.19739400028768],[-122.53804599979577,47.19743999991271],[-122.53800200031317,47.19748799971774],[-122.53798300004658,47.19750500005792],[-122.5379560002824,47.19751499993234],[-122.53789199981,47.19751700015113],[-122.53783300025876,47.19751100010488],[-122.53771100006001,47.197493999766635],[-122.53759999973195,47.19749599998622],[-122.53743999989838,47.19749900001032],[-122.53738600037002,47.1974969997908],[-122.53731400040002,47.197504000253474],[-122.53722800018627,47.19751700015113],[-122.53709599994178,47.19754399974064],[-122.53701399992605,47.19756600030019],[-122.53676700005381,47.197631000291096],[-122.53665599972572,47.19765400000581],[-122.53653000022734,47.197675999909414],[-122.53644200036382,47.19769799980395],[-122.5363500003023,47.197722999700694],[-122.53619499959329,47.19776600025246],[-122.53612599999632,47.19777800028665],[-122.53605599967611,47.19777999988517],[-122.53598000040647,47.197770000060686],[-122.53589599984254,47.19774599998598],[-122.53585800020772,47.19771299986547],[-122.5357729998189,47.197665000263974],[-122.53570800041989,47.197616000206345],[-122.53564399994747,47.197592000061974],[-122.53557399962727,47.19758500022125],[-122.53549800035759,47.19758800024028],[-122.53537600015888,47.19760400013552],[-122.53527700042466,47.19762200024076],[-122.53520399973144,47.197629999878636],[-122.53515100002798,47.197645999761164],[-122.53508400008083,47.19767899992334],[-122.53503600040024,47.19769600020233],[-122.53499200001932,47.197705000240106],[-122.53496100005715,47.197705000240106],[-122.5349130003766,47.197699000215074],[-122.53487599966836,47.19768599975163],[-122.53482799998778,47.1976620002493],[-122.53472000003275,47.19758900004313],[-122.53458699996334,47.19748699991298],[-122.53453199971176,47.19744099971835],[-122.53449099970389,47.1974010001536],[-122.53445499971888,47.197370999849866],[-122.53441500043422,47.19734700020503],[-122.53436799968024,47.19732299993895],[-122.53427899999177,47.19727199994793],[-122.53418600010536,47.1972309998358],[-122.53408099962506,47.197201999856496],[-122.5339850002639,47.19720000023617],[-122.53394400025603,47.19720300027697],[-122.53383299992794,47.19722600017726],[-122.5337099999043,47.197262000027706],[-122.5335829996827,47.197301999697245],[-122.53346499968191,47.19734199994702],[-122.53339400043512,47.197360000141146],[-122.53324100027424,47.1973630001729],[-122.53308700028846,47.1973630001729],[-122.53296099989174,47.19735899972358],[-122.53291400003609,47.1973630001729],[-122.53287100037838,47.19737500029827],[-122.53282100014968,47.197392000064255],[-122.53278299961653,47.197405999795656],[-122.53267600038473,47.19746000029452],[-122.53258799962285,47.19751799995533],[-122.53252499987366,47.19758699982707],[-122.53245899975143,47.197668000278476],[-122.53241100007087,47.197749999795725],[-122.53239099997937,47.19777800028665],[-122.53237099988786,47.19779499992352],[-122.53231900000935,47.197816999768655],[-122.53223899964341,47.19783600021024],[-122.5321829995669,47.1978409998113],[-122.53210200027436,47.19785299982853],[-122.53198000007562,47.1978690002542],[-122.53179000010485,47.197894999867465],[-122.53161100000467,47.19791500007782],[-122.5313930004448,47.197938000279834],[-122.53133700036828,47.19794599987012],[-122.53121900036751,47.19795400006954],[-122.5310760002524,47.19795199986718],[-122.53093499978708,47.197938000279834],[-122.53074300016645,47.19792100007839],[-122.53057300028715,47.19790600007567],[-122.53024500022407,47.19787500026001],[-122.52991999963577,47.19784500022426],[-122.52976800019812,47.197834000003425],[-122.52957800022732,47.197830000200014],[-122.5294090001729,47.197827999993024],[-122.52931200008854,47.197815000171566],[-122.52916800014847,47.19778400030275],[-122.5290939996303,47.19777099986011],[-122.52892600029914,47.197736999955154],[-122.52880900012329,47.197714000276356],[-122.52878900003181,47.197709999853515],[-122.52821200044671,47.19761399999128],[-122.52788600003348,47.19749800020576],[-122.5277760004286,47.19751000030056],[-122.5276569997046,47.197523000196746],[-122.52756600036632,47.19753699989358],[-122.52753299985606,47.19753900011158],[-122.52748199980243,47.19753500028589],[-122.52741800022834,47.197537999697396],[-122.5273959995887,47.197540999719074],[-122.52736600034979,47.197558000042264],[-122.52733500038765,47.19758300000503],[-122.5272750001132,47.19761799981098],[-122.52723499993023,47.19764899977679],[-122.52722900008246,47.197668000278476],[-122.5272259997094,47.19769199977812],[-122.5272180002118,47.19770800025235],[-122.52720700034114,47.19772700012256],[-122.5272039999681,47.197737999755155],[-122.5272039999681,47.19775200000565],[-122.52720200031825,47.19776900026124],[-122.52717300000596,47.19780499974329],[-122.52714500041688,47.19783900021506],[-122.52710699988371,47.19788200006243],[-122.52707699974647,47.19791500007782],[-122.52704800033247,47.19791899987483],[-122.52701900002016,47.197933999873925],[-122.52697299998941,47.197936000076915],[-122.5269100002402,47.19794200007515],[-122.52679700026232,47.19794599987012],[-122.52665699962192,47.197960999861536],[-122.52653600014641,47.19797500005319],[-122.52643499986407,47.197992000237335],[-122.52631900041142,47.198044999735245],[-122.52625800031204,47.19806499988902],[-122.5262049997103,47.198073999864214],[-122.52605300027264,47.19807900005324],[-122.52589599991381,47.19808200004433],[-122.52575199997375,47.1980870002326],[-122.52570199974504,47.19810099978062],[-122.52564900004158,47.19815000000076],[-122.52562700030029,47.198191000013125],[-122.52556200000296,47.198220999853234],[-122.52542999975849,47.19826600019201],[-122.52535000029086,47.19831300007101],[-122.52532299962837,47.198331999724594],[-122.52527900014574,47.198339000077105],[-122.5252060003508,47.1983420000535],[-122.52512199978692,47.19833800028838],[-122.5249030004021,47.198380999731356],[-122.52486999989183,47.19838200012965],[-122.52483399990682,47.19836800004538],[-122.52476699995968,47.19832200000413],[-122.52471199970809,47.19828000030319],[-122.52464200028622,47.198196999982514],[-122.52459399970729,47.198168999712664],[-122.52455799972229,47.19815099979303],[-122.5244869995772,47.19814100003846],[-122.52435000020817,47.198132999867234],[-122.5242480001009,47.19813500006273],[-122.52401799994715,47.198138999843145],[-122.5238609995883,47.198138999843145],[-122.52370900015065,47.198138999843145],[-122.52349999991327,47.19814000024601],[-122.52343499961594,47.19812999987898],[-122.5233760000647,47.19813100028201],[-122.52330999994247,47.19814600022117],[-122.52325399986599,47.198138000050704],[-122.52284200013733,47.198238999749165],[-122.52265600036449,47.198289000241914],[-122.52258199984635,47.19830199994724],[-122.52253699964048,47.19831000009298],[-122.52243399970833,47.19835000019321],[-122.52227899989762,47.19842599993443],[-122.52219699988186,47.198459000221824],[-122.52206200016266,47.19850399974837],[-122.52197500012403,47.19851999997774],[-122.52190599962873,47.198528000090604],[-122.5218260001611,47.19853000027121],[-122.52166100030466,47.19851600022604],[-122.52158400031176,47.198502999962756],[-122.52149899992297,47.19847799982314],[-122.52145999956488,47.19845700003856],[-122.52140299966348,47.1984300003033],[-122.52133499989142,47.198394999812194],[-122.52131800017298,47.1983919998388],[-122.52126899976918,47.19838200012965],[-122.52126999959408,47.198417999806175],[-122.52127100031731,47.198674000260205],[-122.52129700025658,47.19869200000247],[-122.52138000009727,47.198750000147676],[-122.52150899996867,47.19888800025935],[-122.52150599959565,47.19889799987314],[-122.52146700013589,47.19902500023636],[-122.52144200002154,47.19904899973256],[-122.5214179997321,47.19907200005343],[-122.52132200037094,47.19916400001634],[-122.52127799999002,47.199207000010674],[-122.52127399979206,47.19916600017297],[-122.52032700031111,47.199169999875714],[-122.51991200020943,47.199172000032114],[-122.51956999990266,47.199174000188485],[-122.51955400000911,47.199120000213185],[-122.51954300013848,47.19908500017729],[-122.51951499965105,47.19898700019801],[-122.51916099964875,47.19887800003335],[-122.51894899993664,47.19881299973896],[-122.51871899978286,47.19884200005855],[-122.518060000182,47.19906400002258],[-122.51806500020487,47.19918200020275],[-122.51788899957947,47.19918200020275],[-122.51587900026664,47.19919300014408],[-122.51528300041495,47.19918800006003],[-122.51504599969017,47.199185999904245],[-122.51480999968864,47.19918899983274],[-122.51324899991437,47.1992060002383],[-122.51006100024358,47.19920999993798],[-122.50881199974054,47.19920999993798],[-122.50867100017355,47.19924499989147],[-122.50853499973113,47.19926899989852],[-122.50809500041335,47.19927199982234],[-122.50729899964685,47.19927699989846],[-122.50596800002636,47.19928299974506],[-122.50545699966518,47.19927800027986],[-122.50522900005954,47.199276000127405],[-122.50523400008244,47.20166099985212],[-122.50523499990736,47.201833000070145],[-122.50536499960369,47.20183500012616],[-122.5056209996967,47.201841000293825],[-122.50617399989069,47.20182899995786],[-122.50617100041592,47.2027470001203],[-122.50629000024165,47.20274500009867],[-122.50830799995038,47.20272600019441],[-122.50822099991176,47.202889999946926],[-122.50819800034552,47.20293200027093],[-122.50798099971225,47.20325100012056],[-122.50774200023594,47.2035209997858],[-122.50747000024938,47.203796999854276],[-122.50691799988034,47.20433300026336],[-122.50653799993874,47.20470200017453],[-122.50617600043881,47.20505899974454],[-122.50596399982838,47.20530200007261],[-122.50571399958312,47.20565800022592],[-122.50561800022199,47.205818999905006],[-122.5054990003963,47.206064999952986],[-122.50541700038053,47.206279000044326],[-122.50538499969515,47.20651400014813],[-122.50533899966442,47.20670299972296],[-122.50530400040263,47.20689300008276],[-122.50528199976299,47.20708299976192],[-122.50527099989236,47.20727400021172],[-122.50527500009031,47.207991000207585],[-122.50526900024252,47.208389999886435],[-122.5052600000217,47.209207000034596],[-122.50525699964865,47.20944099979176],[-122.50525499999883,47.20991400016461],[-122.50525099980086,47.21096599993346],[-122.50524999997593,47.211278999968656],[-122.50524800032612,47.211630000150386],[-122.50524499995306,47.21245999971489],[-122.50524400012817,47.21265699988316],[-122.50524199958004,47.21305400021991],[-122.5052399999302,47.21379900015427],[-122.50523900010528,47.214004999943484],[-122.50523499990736,47.215048000183785],[-122.50523300025752,47.21523900001913],[-122.50523200043261,47.21529400014121],[-122.50522700040972,47.21568100015312],[-122.505205999595,47.2172809997872],[-122.5052039999452,47.217435999951476],[-122.50529900037975,47.217434999912484],[-122.50536899980166,47.217434999912484],[-122.50551799976454,47.21743399987351],[-122.50563499994041,47.21743299983449],[-122.50574399972034,47.217431999795494],[-122.50577999970537,47.217431999795494],[-122.50586000007132,47.217430999756424],[-122.50596899985125,47.21742999971734],[-122.5060860000271,47.21742900028845],[-122.50619399998216,47.21742900028845],[-122.50631600018089,47.21742800024933],[-122.50641999993798,47.21742700021018],[-122.50653600028892,47.21742600017107],[-122.50664500006886,47.21742500013189],[-122.50674800000102,47.21742500013189],[-122.50687900042061,47.2174240000927],[-122.50755200026515,47.217417999857254],[-122.50763799958055,47.217417999857254],[-122.50793200020676,47.217415999778574],[-122.50821099986602,47.21741300027062],[-122.51008700018284,47.217398999717254],[-122.5118499996235,47.21738899992983],[-122.51184799997368,47.217480999855276],[-122.51185499964636,47.21762999983358],[-122.5118560003696,47.21765700016976],[-122.51185800001939,47.2177680002549],[-122.51186300004228,47.21801399979685],[-122.51186399986719,47.21804500004758],[-122.51186399986719,47.21806600001029],[-122.51186499969211,47.21812599977077],[-122.51186700024026,47.21819400027142],[-122.51186800006515,47.21826100005133],[-122.51186899989005,47.21833099981293],[-122.5118710004382,47.21840000007151],[-122.51187200026311,47.21846300012302],[-122.51187300008803,47.21853500026459],[-122.51187499973784,47.218606000291516],[-122.51187599956276,47.21867400017656],[-122.5118780001109,47.21874299998875],[-122.51187899993582,47.21881399973715],[-122.51187999976071,47.21887999994218],[-122.51188099958563,47.218914999731005],[-122.51188200030887,47.21894800008597],[-122.51188300013376,47.21901700015172],[-122.5118849997836,47.219099000228056],[-122.5118859996085,47.219140999920405],[-122.51188800015663,47.219211999745994],[-122.51191900011877,47.22079300007032],[-122.5119219995935,47.22103099984145],[-122.51200899963214,47.221029999870275],[-122.51252099981821,47.22102799992789],[-122.51378299984174,47.22102100012893],[-122.51499200016183,47.2210119997759],[-122.5158149997942,47.2210079998897],[-122.51581800016726,47.220759000277276],[-122.51583900008366,47.21920999973499],[-122.51585199960412,47.21825599993408],[-122.51586500002293,47.21735599982483],[-122.51785799961733,47.217349000151245],[-122.5195599998569,47.21734099982581],[-122.51982000014792,47.21733999978503],[-122.52007299986789,47.21733799970346],[-122.52061000016832,47.217336000231974],[-122.52177299955935,47.217332000068396],[-122.52525099965834,47.217305000176886],[-122.52645800032859,47.21729399971996],[-122.52645599978045,47.21963699975595],[-122.52645199958248,47.219853999979044],[-122.52641099957464,47.2209439998388],[-122.52639999970398,47.22259899976347],[-122.52638299998553,47.22347200014737],[-122.52636200006911,47.22458700010078],[-122.52506999990835,47.22459300013505],[-122.52441899980512,47.224595999846855],[-122.52372599986907,47.22459900016861],[-122.52236400028644,47.22460400029775],[-122.52189499975808,47.22460799991264],[-122.52173699957433,47.22460899981633],[-122.52171099963506,47.22460899981633],[-122.5217059996122,47.22496999980671],[-122.521642999863,47.22496999980671],[-122.52116699966192,47.22496899990987],[-122.52116800038515,47.224999999754445],[-122.52103699996559,47.22500200015706],[-122.52103600014067,47.22508500002246],[-122.52102199989699,47.226426999719855],[-122.52101100002632,47.22697100029678],[-122.52100199980548,47.22733500022961],[-122.52099000010993,47.22771500006682],[-122.52099099993482,47.22800500010036],[-122.52100699982837,47.22808299973345],[-122.52103600014067,47.228148000153375],[-122.52106700010283,47.228174000177034],[-122.52112999985202,47.228196000234],[-122.52125899972344,47.228207000259054],[-122.52363700018064,47.22820800009487],[-122.52497799984685,47.22818900016139],[-122.52573500025532,47.228196000234],[-122.52629799959671,47.22820199985977],[-122.5263319999319,47.232141999884675],[-122.52637600031282,47.235445000001825],[-122.52639200020634,47.23760600015927],[-122.52639499968109,47.238600000251836],[-122.52639600040432,47.23906400000408],[-122.52635700004626,47.24002099988709],[-122.52636999956674,47.242709000037266],[-122.52640800009988,47.242709000037266],[-122.52999599980375,47.24269799997288],[-122.5301270002233,47.24269799997288],[-122.53120400029891,47.24269600023813],[-122.53134800023895,47.24269500006582],[-122.53246499959921,47.24269299972109],[-122.53296099989174,47.242692000158556],[-122.53328700030498,47.242692000158556],[-122.53416500018896,47.242690999986166],[-122.534265999573,47.242690999986166],[-122.53424499965658,47.24230000004311],[-122.53434000009113,47.24230000004311],[-122.53568699960518,47.24230899983091],[-122.53570599987174,47.24247999977793],[-122.53572900033629,47.24268500017104],[-122.5368709998109,47.24268100009063],[-122.53705699958373,47.24268100009063],[-122.53705699958373,47.24227300006059],[-122.53705800030697,47.24211399981688],[-122.53976599957872,47.24212300024615],[-122.53977300014972,47.24197300000701],[-122.53977499979953,47.241902999750074],[-122.5397799998224,47.24179800010607],[-122.53979499989103,47.241471000020844],[-122.53980300028695,47.24127799976009],[-122.53989899964812,47.2412789999592],[-122.54034700026007,47.24127700017089],[-122.5403919995676,47.24127700017089],[-122.54064699983573,47.24127700017089],[-122.54092899986804,47.24127700017089],[-122.54122799961877,47.24127700017089],[-122.54151499967395,47.24127700017089],[-122.54154099961322,47.24127700017089],[-122.5417370003301,47.24127499977263],[-122.54185100013292,47.24127599997175],[-122.5418550003309,47.24169500002654],[-122.54185600015582,47.24177699978636],[-122.5415449998112,47.241777999976],[-122.54157599977333,47.24268100009063],[-122.54235999994596,47.24267999991804],[-122.54502000043547,47.242678000182615],[-122.54573900031076,47.24267899974537],[-122.546354000429,47.242678000182615],[-122.54663899993604,47.242678000182615],[-122.54693100001408,47.242678000182615],[-122.54692699981614,47.240734000268894],[-122.54640600030754,47.24074000030496],[-122.54640700013243,47.240293000027116],[-122.54768800042255,47.240282000070934],[-122.54768900024747,47.240187000021976],[-122.54768900024747,47.240168999723885],[-122.54777100026323,47.24016999994389],[-122.54837399978759,47.24018399997273],[-122.54854700003993,47.24018800024167],[-122.54901099964712,47.240197999997875],[-122.54900599962426,47.24115399993257],[-122.54900599962426,47.241180000284416],[-122.54900599962426,47.24136799991545],[-122.54900499979934,47.2415340000991],[-122.54900499979934,47.24156799998438],[-122.54900399997445,47.24160300004078],[-122.54900399997445,47.24162300023688],[-122.54900300014953,47.241926999970566],[-122.5490020003246,47.24213300024702],[-122.5490020003246,47.24215099987784],[-122.54899899995155,47.24268500017104],[-122.54940200035769,47.242683999998526],[-122.55030899965567,47.24268100009063],[-122.5509079998804,47.24267899974537],[-122.55102699970607,47.242678000182615],[-122.55150799993,47.242675999837246],[-122.55152299999862,47.24157500011948],[-122.5509959997439,47.24157200014883],[-122.55096099958382,47.240243000097145],[-122.55299799955915,47.240288000158195],[-122.55300400030526,47.23980899979621],[-122.55300500013016,47.23946499993811],[-122.55300599995508,47.239328000121],[-122.55300699978,47.238994999805215],[-122.55300799960492,47.238891999765436],[-122.55300900032813,47.23866999999363],[-122.55301000015305,47.23844400011124],[-122.55301000015305,47.23833800006635],[-122.55301000015305,47.23830300029267],[-122.55301099997794,47.23821299981001],[-122.55301099997794,47.23799699997968],[-122.55301299962777,47.237540999750316],[-122.55301500017592,47.237088000090836],[-122.55301500017592,47.237071000238274],[-122.55301699982573,47.23654600024036],[-122.55301799965063,47.23626100022413],[-122.55302000019879,47.23591899988906],[-122.55302000019879,47.235843999884295],[-122.552353000202,47.23583399991629],[-122.55235400002692,47.235552000041956],[-122.5523580002249,47.23527300021425],[-122.55304699996297,47.2352830002881],[-122.55478400036263,47.23530499983399],[-122.55508200028846,47.23530800015954],[-122.55588800020242,47.23531800022679],[-122.55651800038927,47.235339999758146],[-122.55671199965971,47.235349000118326],[-122.55679000037583,47.23535300014236],[-122.55696299972986,47.23538699972449],[-122.5570830002788,47.23542699992255],[-122.55717100014233,47.23545599974231],[-122.55728699959496,47.235507999926185],[-122.55741700018963,47.235580999793264],[-122.5574280000603,47.235548999730234],[-122.55742999971011,47.23550300021572],[-122.55740299994592,47.235426000222965],[-122.55739299990019,47.23539899978708],[-122.55736299976297,47.23533199970782],[-122.55837799991428,47.235349000118326],[-122.55834699995215,47.23643200017383],[-122.56010799974297,47.23645300017243],[-122.56053200006546,47.23645799979331],[-122.56053500043852,47.236336999931055],[-122.5615470002168,47.23633800022339],[-122.56148799976725,47.236407999903896],[-122.56140300027674,47.23649199988633],[-122.56137800016239,47.23663399993137],[-122.56121300030597,47.23684099972348],[-122.56115600040454,47.23691200024085],[-122.56105599994711,47.23703699990682],[-122.56087900039512,47.23725800014638],[-122.56085000008281,47.23729499993913],[-122.56083699966402,47.23730099975473],[-122.56080700042509,47.237320000081155],[-122.5600559998644,47.23776499990395],[-122.56004900019173,47.23784799991105],[-122.5599639998029,47.23788600016481],[-122.55982800025879,47.237965999807535],[-122.55989100000798,47.23843999971061],[-122.55964099976272,47.23874099988997],[-122.55960099957974,47.23878799988927],[-122.55771299956734,47.240392000139515],[-122.55407299998494,47.24031199989054],[-122.55406600031223,47.24158800019368],[-122.55344199997319,47.24158500022378],[-122.55344299979808,47.241435000290984],[-122.5532620000481,47.24143400009486],[-122.5532620000481,47.24136499993308],[-122.55281599998428,47.2413639997356],[-122.55281799963409,47.241559000070694],[-122.55239599985971,47.24154899996149],[-122.5522119997367,47.24154400021114],[-122.55220599988891,47.24269999970755],[-122.55239400020987,47.24269999970755],[-122.55271300005211,47.24270200005201],[-122.5528650003881,47.24270300022418],[-122.55327799994164,47.24270399978653],[-122.55342699990456,47.24270499995867],[-122.55366899975388,47.24270700030294],[-122.55375199959458,47.2427079998652],[-122.55450900000302,47.24268100009063],[-122.55621600026547,47.24269399989344],[-122.55669099974332,47.24269600023813],[-122.55696199990497,47.24269699980061],[-122.55781100037493,47.24268599973372],[-122.55817100022503,47.24269900014513],[-122.55816700002708,47.24272899981583],[-122.55927099986685,47.24274399994975],[-122.56003400012311,47.242688000078665],[-122.56005500003951,47.24555999981154],[-122.56008600000165,47.246143999788615],[-122.56142400019317,47.24580000020548],[-122.56208000031927,47.24563199973897],[-122.56341799961247,47.245289000003375],[-122.56511499982918,47.23549100017668],[-122.56557000011384,47.233480000080036],[-122.56553800032678,47.227939000274255],[-122.56523000035523,47.22794599976982],[-122.56475400015414,47.22795800029733],[-122.56443500031192,47.22796700008113],[-122.5642019997851,47.22800500010036],[-122.56430800009029,47.22735499971101],[-122.56449600041128,47.22661200024423],[-122.56478400029138,47.225800999705626],[-122.56483500034501,47.22573500018549],[-122.56485600026139,47.225603000288636],[-122.56527100036308,47.22475699999481],[-122.56565799997739,47.2240099998366],[-122.56620399960033,47.22311400012291],[-122.56692599984869,47.222193999911575],[-122.5676149995868,47.22140799983019],[-122.56814199984147,47.220892000007474],[-122.56933600009293,47.219870999863375],[-122.5695720000945,47.2197010001643],[-122.56968800044545,47.21970400015296],[-122.56976399971511,47.219573999879096],[-122.56985599977662,47.21951699992603],[-122.56997700015042,47.219550999905415],[-122.56998499964806,47.219501999928156],[-122.57004699957231,47.21945099990379],[-122.57012100009048,47.21949199992725],[-122.57026099983257,47.2193180002195],[-122.57042099966614,47.219222999804956],[-122.57074500042953,47.219069999999775],[-122.57097200021028,47.218928999884085],[-122.57128100000675,47.21880200019024],[-122.57133299988529,47.218757000187296],[-122.57137999974097,47.21876899974439],[-122.5719949998592,47.21835499972738],[-122.57207699987497,47.21832400026805],[-122.57263699974162,47.21812000022488],[-122.57367299980932,47.21722799998134],[-122.57393200027542,47.216464000152364],[-122.57479400026588,47.2158419999174],[-122.57522600008599,47.215471999934614],[-122.57538300044484,47.21537200017222],[-122.5765650001024,47.21429299972928],[-122.57702600023485,47.213833000139054],[-122.5771779996725,47.21366900004721],[-122.57768400001079,47.21308199995621],[-122.57792500003524,47.21274900008591],[-122.57817199990741,47.21246700003385],[-122.5784580001377,47.21204999981843],[-122.57863499968971,47.21186700002328],[-122.5787820000028,47.21168999987076],[-122.57890400020155,47.21148400024225],[-122.57892799959268,47.21131100003975],[-122.5792049996021,47.21084600000717],[-122.57974500027558,47.209758999981986],[-122.57979299995615,47.20970700016571],[-122.57987900016988,47.20966899984525],[-122.58007199961541,47.20938399993038],[-122.58011500017142,47.20925699995467],[-122.58010500012571,47.20919500014437],[-122.58013699991274,47.20916100023734],[-122.58006900014068,47.209174999914495],[-122.58008000001134,47.20922799983589],[-122.58004300020141,47.20925699995467],[-122.58001200023928,47.209229000029644],[-122.58002399993484,47.20916300001707],[-122.58008599985914,47.20908600020376],[-122.58010099992774,47.2091360002379],[-122.580126999867,47.20912900008953],[-122.58018799996637,47.20888099981498],[-122.58024900006575,47.208831000150674],[-122.5802530002637,47.20873800027133],[-122.58034699997502,47.20856599986145],[-122.5802819996777,47.20853399996493],[-122.58033600010438,47.2085189999114],[-122.58037899976208,47.208444999788824],[-122.58041300009727,47.2082520000801],[-122.58072100006883,47.2077039999852],[-122.58085699961298,47.20726800004831],[-122.58089799962084,47.20705999986267],[-122.58094700002464,47.206992999966594],[-122.58085999998603,47.206953999906176],[-122.58085900016111,47.20693599991554],[-122.58091900043556,47.20692799984992],[-122.5808940003212,47.20690400025615],[-122.58082800019898,47.20689699981321],[-122.58080499973444,47.20683099995022],[-122.58087599987955,47.20681400015715],[-122.58087000003177,47.20679199977065],[-122.58092699993317,47.20680400020453],[-122.58095000039769,47.206768999745215],[-122.58104699958378,47.206781000184264],[-122.58114000036849,47.20661200026035],[-122.5811479998661,47.20641000020464],[-122.58119399989687,47.206331999808086],[-122.5811679999576,47.20626599985238],[-122.58120399994259,47.206199999814565],[-122.58120099956956,47.20567499977922],[-122.58137100034718,47.204929999848915],[-122.58146900025649,47.20445199999412],[-122.58153799985345,47.20438499985546],[-122.58152600015787,47.2042370001783],[-122.58156799999065,47.20402200010142],[-122.58171399958054,47.20361200027886],[-122.58182800028167,47.203425999755126],[-122.58187699978716,47.20340900009144],[-122.5819429999094,47.20332300016564],[-122.58199200031319,47.20325900013036],[-122.58213200005531,47.203223999773286],[-122.58213500042834,47.20319799971975],[-122.58218099956078,47.20318999970071],[-122.58222199956866,47.203102999720954],[-122.5822319996144,47.2029260002267],[-122.58219499980447,47.20271299974202],[-122.58222699959153,47.202647000166145],[-122.58220400002531,47.20258099989786],[-122.58222300029189,47.20243300007039],[-122.58232399967589,47.20193800016333],[-122.58237800010258,47.201795999935456],[-122.58245400027056,47.20175100014931],[-122.58242300030841,47.20173899979299],[-122.58244500004972,47.201633000189666],[-122.58251199999688,47.20150700030507],[-122.5825060001491,47.20145800013349],[-122.5825849997918,47.201344000281665],[-122.58257399992115,47.20129000007364],[-122.58264800043932,47.20106100027599],[-122.58275100037149,47.200992999777924],[-122.58273499957964,47.20096100019554],[-122.58280400007493,47.20082200024062],[-122.58283199966404,47.20083000000639],[-122.58295800006071,47.20070999973096],[-122.58301699961194,47.20069799974953],[-122.58301499996213,47.200646999950706],[-122.58304000007651,47.20066300014418],[-122.58316399992503,47.20046699973046],[-122.58316399992503,47.20039700019195],[-122.58325000013876,47.19998800018761],[-122.58324599994081,47.19996600002194],[-122.58310399965059,47.19968399975343],[-122.58304599992427,47.19962800015811],[-122.58296999975629,47.19948099979462],[-122.58295399986277,47.19937799987029],[-122.58287000019718,47.19924900019858],[-122.58285799960328,47.19911599989634],[-122.58292200007571,47.198999999732315],[-122.58288699991563,47.19884299983777],[-122.58282300034152,47.19855799974018],[-122.58287699986985,47.19839799978542],[-122.58287699986985,47.19806300030127],[-122.58293200012145,47.197854000236774],[-122.58291200002996,47.197332999847674],[-122.58288899956541,47.19719000030239],[-122.58276100041725,47.197028000258015],[-122.58266299960961,47.19679899976604],[-122.58251700001975,47.196604000159304],[-122.58245500009549,47.196456999963296],[-122.58237599955446,47.195801000162376],[-122.58225000005605,47.19466700006822],[-122.58221300024616,47.19383099996651],[-122.5822249999417,47.19379000024775],[-122.58237499972954,47.19374999976208],[-122.58238700032341,47.193660999809424],[-122.58235299998822,47.19359599983884],[-122.5822309997895,47.193548000175696],[-122.58224400020829,47.19334999996183],[-122.58234499959232,47.19274000024559],[-122.5823799997524,47.192690000018],[-122.5824219995852,47.19231099994735],[-122.58252399969244,47.1921029997198],[-122.58273100028,47.19190000005878],[-122.58289000028866,47.191832999940104],[-122.58295499968769,47.191822000304306],[-122.58303500005361,47.191809000232325],[-122.58322199965136,47.191649000071905],[-122.5832619998343,47.19157399969712],[-122.58331399971287,47.19155699989859],[-122.58339099970577,47.19136499971322],[-122.58344500013243,47.19122800010381],[-122.58340400012456,47.190624999954025],[-122.58343599991161,47.190116999891586],[-122.58356700033117,47.1895449997553],[-122.58366699989028,47.1894530002081],[-122.58363599992815,47.18903499980584],[-122.58354999971444,47.18867899982648],[-122.58352999962294,47.188624000187765],[-122.58355399991238,47.18860800002689],[-122.5834789995693,47.18857700027375],[-122.58350899970654,47.18854599989203],[-122.58349199998808,47.18842799986855],[-122.58370600024834,47.188060000304226],[-122.5839489999226,47.187762999823846],[-122.58410299990837,47.18751399979309],[-122.58407399959607,47.187447000242486],[-122.58400199962605,47.187407999854614]]]},"properties":{"AREALAND":"21599662","AREAWATER":"435319","BASENAME":"University Place","CBSAPCI":"N","CENTLAT":"+47.2148636","CENTLON":"-122.5458898","FUNCSTAT":"A","GEOID":"5373465","INTPTLAT":"+47.2153709","INTPTLON":"-122.5472592","LSADC":"25","MTFCC":"G4110","NAME":"University Place city","NECTAPCI":"N","OBJECTID":28137,"OID":"278901445839845","PLACE":"73465","PLACECC":"C1","PLACENS":"02412136","STATE":"53","DISP_CLR":3,"slug":"university_place","jurisdiction_key":"university_place_city","county_fips":["53053"]}}]}
