{
  "type": "FeatureCollection",
  "features": [
    {
      "type": "Feature",
      "geometry": {
        "type": "Polygon",
        "coordinates": [
          [
            [
              -117.09600599958581,
              46.54610499986883
            ],
            [
              -117.09600099956295,
              46.545878999719726
            ],
            [
              -117.09590699985162,
              46.539649999863066
            ],
            [
              -117.0957880000259,
              46.53169300029214
            ],
            [
              -117.09161399961783,
              46.531688999985064
            ],
            [
              -117.08802900028702,
              46.53168600021809
            ],
            [
              -117.08709600015148,
              46.531685000295745
            ],
            [
              -117.08544599979041,
              46.531681999910546
            ],
            [
              -117.08508199974233,
              46.531688999985064
            ],
            [
              -117.0843870001565,
              46.531681999910546
            ],
            [
              -117.08219299982234,
              46.53167599975766
            ],
            [
              -117.07715700032207,
              46.53167599975766
            ],
            [
              -117.07711799996405,
              46.538890000015826
            ],
            [
              -117.07709600022272,
              46.54244900004377
            ],
            [
              -117.07709299984967,
              46.5424780000696
            ],
            [
              -117.07581900013061,
              46.54247199987376
            ],
            [
              -117.07438499967961,
              46.54246400022951
            ],
            [
              -117.07443499990832,
              46.545403999874225
            ],
            [
              -117.07444199958103,
              46.54607799985951
            ],
            [
              -117.07648299975432,
              46.54608100006716
            ],
            [
              -117.07693700021406,
              46.546081999724436
            ],
            [
              -117.07776499986933,
              46.546081999724436
            ],
            [
              -117.08395600016125,
              46.5460880001391
            ],
            [
              -117.08542599969894,
              46.54609300027825
            ],
            [
              -117.08615499961999,
              46.54609300027825
            ],
            [
              -117.09203299991749,
              46.5461010000056
            ],
            [
              -117.09290499995367,
              46.5460939999353
            ],
            [
              -117.09399899974773,
              46.54610299993723
            ],
            [
              -117.09600599958581,
              46.54610499986883
            ]
          ]
        ]
      },
      "properties": {
        "AREALAND": "2389461",
        "AREAWATER": "0",
        "BASENAME": "Uniontown",
        "CBSAPCI": "N",
        "CENTLAT": "+46.5390914",
        "CENTLON": "-117.0861371",
        "FUNCSTAT": "A",
        "GEOID": "5373360",
        "INTPTLAT": "+46.5390914",
        "INTPTLON": "-117.0861371",
        "LSADC": "43",
        "MTFCC": "G4110",
        "NAME": "Uniontown town",
        "NECTAPCI": "N",
        "OBJECTID": 11004,
        "OID": "27890256943259",
        "PLACE": "73360",
        "PLACECC": "C1",
        "PLACENS": "02413413",
        "STATE": "53",
        "DISP_CLR": 5,
        "slug": "uniontown",
        "jurisdiction_key": "uniontown_city",
        "county_fips": [
          "53075"
        ]
      }
    }
  ]
}
