{
  "type": "FeatureCollection",
  "features": [
    {
      "type": "Feature",
      "geometry": {
        "type": "MultiPolygon",
        "coordinates": [
          [
            [
              [
                -120.13348999983091,
                48.367599000296224
              ],
              [
                -120.13349700040193,
                48.36705100002456
              ],
              [
                -120.13325999967714,
                48.36705100002456
              ],
              [
                -120.13326100040037,
                48.36694400000873
              ],
              [
                -120.13326200022526,
                48.36680499973616
              ],
              [
                -120.13326399987511,
                48.36672499986666
              ],
              [
                -120.13326800007306,
                48.36629899980321
              ],
              [
                -120.13327200027102,
                48.36589100029372
              ],
              [
                -120.13327399992085,
                48.3656389999644
              ],
              [
                -120.1332770002939,
                48.365317999892035
              ],
              [
                -120.13327800011882,
                48.365260999818275
              ],
              [
                -120.1332849997915,
                48.36454099970818
              ],
              [
                -120.13328700033964,
                48.36437899990707
              ],
              [
                -120.13328800016455,
                48.36425799971581
              ],
              [
                -120.13328800016455,
                48.36423799980451
              ],
              [
                -120.13329099963927,
                48.36387699975651
              ],
              [
                -120.13329400001231,
                48.363660999876565
              ],
              [
                -120.13329400001231,
                48.363592999945865
              ],
              [
                -120.13329499983723,
                48.36356300028105
              ],
              [
                -120.13329599966217,
                48.363387000180886
              ],
              [
                -120.1332970003854,
                48.3633039999735
              ],
              [
                -120.13329900003521,
                48.36311700027622
              ],
              [
                -120.13331699957855,
                48.36133000014026
              ],
              [
                -120.13333400019529,
                48.35956899987736
              ],
              [
                -120.12830199999475,
                48.35956899987736
              ],
              [
                -120.12794899981732,
                48.35956899987736
              ],
              [
                -120.12630299965423,
                48.35956899987736
              ],
              [
                -120.12558299995399,
                48.35956899987736
              ],
              [
                -120.12525999991381,
                48.35956899987736
              ],
              [
                -120.12501399986652,
                48.35956899987736
              ],
              [
                -120.12486300025378,
                48.35956899987736
              ],
              [
                -120.12348099968133,
                48.35956899987736
              ],
              [
                -120.12338699997002,
                48.35956899987736
              ],
              [
                -120.12330499995424,
                48.35956899987736
              ],
              [
                -120.1231800002808,
                48.35956899987736
              ],
              [
                -120.12257900040625,
                48.35956899987736
              ],
              [
                -120.12235000007739,
                48.35956899987736
              ],
              [
                -120.12199400042523,
                48.3594160002981
              ],
              [
                -120.1219719997856,
                48.35940699978187
              ],
              [
                -120.12113699955933,
                48.35936299995437
              ],
              [
                -120.12097199970289,
                48.35954399977465
              ],
              [
                -120.12098000009881,
                48.35956899987736
              ],
              [
                -120.12041400038439,
                48.35956899987736
              ],
              [
                -120.12040199979052,
                48.35954200019566
              ],
              [
                -120.12038099987411,
                48.3594970000975
              ],
              [
                -120.1202600003986,
                48.3592649998493
              ],
              [
                -120.12000400030558,
                48.35877500007736
              ],
              [
                -120.11969299996096,
                48.35818000007234
              ],
              [
                -120.118634000327,
                48.35676199975604
              ],
              [
                -120.11844500018113,
                48.3565079999287
              ],
              [
                -120.11814999973002,
                48.35615299974736
              ],
              [
                -120.11812600033888,
                48.35610800023716
              ],
              [
                -120.11808600015591,
                48.35603199971391
              ],
              [
                -120.11798700042172,
                48.35603199971391
              ],
              [
                -120.1172390002341,
                48.35603499988595
              ],
              [
                -120.11715499967019,
                48.35603499988595
              ],
              [
                -120.11611199992977,
                48.35603899991605
              ],
              [
                -120.11526500000795,
                48.35604200008772
              ],
              [
                -120.11500600044018,
                48.356042999945885
              ],
              [
                -120.11481700029428,
                48.356042999945885
              ],
              [
                -120.11449699972884,
                48.35599500016427
              ],
              [
                -120.11413900042687,
                48.355851999813176
              ],
              [
                -120.11364099958618,
                48.35565499977003
              ],
              [
                -120.11294199980233,
                48.3552499999824
              ],
              [
                -120.11209400005562,
                48.354915999868005
              ],
              [
                -120.11128099957065,
                48.35460799998822
              ],
              [
                -120.11119699990505,
                48.35457600003351
              ],
              [
                -120.11044899971745,
                48.354340999787475
              ],
              [
                -120.1103059996023,
                48.35425500008448
              ],
              [
                -120.11025999957155,
                48.354227999974235
              ],
              [
                -120.11012499985235,
                48.35414700015465
              ],
              [
                -120.11007999964649,
                48.354120999883065
              ],
              [
                -120.10970700027592,
                48.354284999858535
              ],
              [
                -120.10958900027512,
                48.35427499973682
              ],
              [
                -120.1093680003422,
                48.3542299997618
              ],
              [
                -120.10909800000545,
                48.35412400016763
              ],
              [
                -120.1089909998753,
                48.354044999977546
              ],
              [
                -120.10892099955512,
                48.35398699992624
              ],
              [
                -120.1088750004227,
                48.35394900018616
              ],
              [
                -120.10872599956147,
                48.35387999992595
              ],
              [
                -120.10858900019241,
                48.35381600027584
              ],
              [
                -120.1081720004409,
                48.35370899991643
              ],
              [
                -120.10794499976187,
                48.35364400014627
              ],
              [
                -120.10767699997326,
                48.353567000219435
              ],
              [
                -120.10724699980297,
                48.353451000156475
              ],
              [
                -120.10694700022732,
                48.35337900008751
              ],
              [
                -120.10658200035432,
                48.35329900002421
              ],
              [
                -120.10638700036064,
                48.35322800025084
              ],
              [
                -120.10628299970527,
                48.353195000112265
              ],
              [
                -120.10616499970448,
                48.353156999781554
              ],
              [
                -120.10585300043329,
                48.3530929998203
              ],
              [
                -120.10585099988513,
                48.35323799998107
              ],
              [
                -120.10584599986227,
                48.35359900021091
              ],
              [
                -120.10462999986949,
                48.35359099976721
              ],
              [
                -120.10462800021965,
                48.35371300012915
              ],
              [
                -120.10305900004948,
                48.353702999895184
              ],
              [
                -120.10307099974503,
                48.35289400001476
              ],
              [
                -120.10307900014095,
                48.35223899986376
              ],
              [
                -120.10218299981531,
                48.35222800000441
              ],
              [
                -120.10188900008747,
                48.35222500020519
              ],
              [
                -120.10188800026255,
                48.35290999992588
              ],
              [
                -120.10163499964422,
                48.352913000281745
              ],
              [
                -120.10073300036916,
                48.352923000073794
              ],
              [
                -120.10043299989519,
                48.35292699975129
              ],
              [
                -120.10031300024457,
                48.353386999967526
              ],
              [
                -120.10029700035105,
                48.35354300006343
              ],
              [
                -120.10031700044254,
                48.35376999999263
              ],
              [
                -120.10033499998589,
                48.35383799990346
              ],
              [
                -120.10036400029819,
                48.35394400009258
              ],
              [
                -120.10045800000952,
                48.35416199977721
              ],
              [
                -120.10062399969088,
                48.354442999968974
              ],
              [
                -120.10084499962382,
                48.35475100024925
              ],
              [
                -120.10101700005129,
                48.355008999992926
              ],
              [
                -120.10146599958983,
                48.355545000087204
              ],
              [
                -120.10164899988793,
                48.35575099992863
              ],
              [
                -120.10198699999674,
                48.35605400017549
              ],
              [
                -120.10204700027123,
                48.35610800023716
              ],
              [
                -120.10270300039733,
                48.35664999978613
              ],
              [
                -120.10285800020802,
                48.35677800024329
              ],
              [
                -120.10316000033181,
                48.35702799996619
              ],
              [
                -120.10329500005102,
                48.35716799989597
              ],
              [
                -120.10330500009677,
                48.35718100015129
              ],
              [
                -120.10335899962513,
                48.35725000011956
              ],
              [
                -120.1034540000597,
                48.357366999722444
              ],
              [
                -120.10337500041697,
                48.35744600013389
              ],
              [
                -120.10334699992956,
                48.35747299973262
              ],
              [
                -120.10326699956363,
                48.35755100015119
              ],
              [
                -120.10308599981364,
                48.35772799994623
              ],
              [
                -120.10316299980654,
                48.357768000098005
              ],
              [
                -120.10374699996264,
                48.35806500018288
              ],
              [
                -120.10357500043352,
                48.35834700015024
              ],
              [
                -120.10356600021268,
                48.35836199973014
              ],
              [
                -120.10311599995089,
                48.3584830001989
              ],
              [
                -120.10296299979,
                48.35873800013219
              ],
              [
                -120.10300899982077,
                48.35876099982703
              ],
              [
                -120.10347800034914,
                48.35895300019608
              ],
              [
                -120.1039469999792,
                48.35916700015257
              ],
              [
                -120.104425999655,
                48.35935799979524
              ],
              [
                -120.10455700007456,
                48.35935900018524
              ],
              [
                -120.10481099961945,
                48.359359999978324
              ],
              [
                -120.10480800014471,
                48.359582000116895
              ],
              [
                -120.10630100014693,
                48.359594999756254
              ],
              [
                -120.10630100014693,
                48.36080900008036
              ],
              [
                -120.10630000032201,
                48.362500999928635
              ],
              [
                -120.10630000032201,
                48.363238999910784
              ],
              [
                -120.10970100042812,
                48.36326899976639
              ],
              [
                -120.11017300043122,
                48.36327299982541
              ],
              [
                -120.11030399995248,
                48.36327400013852
              ],
              [
                -120.11035800037915,
                48.36327499985475
              ],
              [
                -120.11038799961807,
                48.36327499985475
              ],
              [
                -120.11063899968825,
                48.36327699988407
              ],
              [
                -120.11146999971655,
                48.363284000284416
              ],
              [
                -120.1117409998782,
                48.36328700002937
              ],
              [
                -120.1117409998782,
                48.36351800015396
              ],
              [
                -120.1117409998782,
                48.36405699995148
              ],
              [
                -120.1117400000533,
                48.36511599985612
              ],
              [
                -120.11509199975556,
                48.36514100020834
              ],
              [
                -120.1152039999086,
                48.36514199988793
              ],
              [
                -120.1154519996057,
                48.36514399984394
              ],
              [
                -120.11561200033758,
                48.36514599979982
              ],
              [
                -120.11615299993765,
                48.36485499971955
              ],
              [
                -120.11636499964976,
                48.365104999792734
              ],
              [
                -120.11638899993919,
                48.365132999786596
              ],
              [
                -120.11640700038087,
                48.365154000219526
              ],
              [
                -120.11646099990922,
                48.36521700027265
              ],
              [
                -120.11648500019867,
                48.365245999882475
              ],
              [
                -120.1165780000851,
                48.365356000104725
              ],
              [
                -120.11687500018601,
                48.366254999960674
              ],
              [
                -120.11732000042494,
                48.36675899984149
              ],
              [
                -120.1175990000842,
                48.366995999983146
              ],
              [
                -120.11662400011586,
                48.36698700020943
              ],
              [
                -120.11669500026098,
                48.36713700020898
              ],
              [
                -120.11670299975859,
                48.367160000289196
              ],
              [
                -120.11749600015203,
                48.368147000042335
              ],
              [
                -120.11763699971902,
                48.36803800009981
              ],
              [
                -120.11764699976479,
                48.368804999793944
              ],
              [
                -120.11766600003136,
                48.36882299989079
              ],
              [
                -120.11771100023718,
                48.36888900019147
              ],
              [
                -120.1177380000014,
                48.36895700021289
              ],
              [
                -120.11775499971982,
                48.36902800014708
              ],
              [
                -120.11775600044302,
                48.36909899998235
              ],
              [
                -120.11773999965118,
                48.369166000122725
              ],
              [
                -120.11765199978765,
                48.3693419999469
              ],
              [
                -120.11764400029004,
                48.369359000257134
              ],
              [
                -120.11754100035787,
                48.36954599971435
              ],
              [
                -120.11745900034214,
                48.36977100017759
              ],
              [
                -120.11744599992332,
                48.3698350000747
              ],
              [
                -120.11743300040284,
                48.370029000241146
              ],
              [
                -120.1174230003571,
                48.370859000021426
              ],
              [
                -120.11744400027351,
                48.37111800010251
              ],
              [
                -120.11750799984762,
                48.371433000296655
              ],
              [
                -120.11751600024351,
                48.371716999953115
              ],
              [
                -120.11749799980186,
                48.37197999981926
              ],
              [
                -120.11750199999982,
                48.372110999769916
              ],
              [
                -120.11752100026641,
                48.3722279998509
              ],
              [
                -120.1176269996733,
                48.372480999933096
              ],
              [
                -120.11770700003923,
                48.37261699983989
              ],
              [
                -120.11776700031369,
                48.37274000011846
              ],
              [
                -120.11785799965197,
                48.37299199992134
              ],
              [
                -120.11788100011651,
                48.373092000113154
              ],
              [
                -120.11788799978919,
                48.37319300022687
              ],
              [
                -120.11786400039806,
                48.373295999776126
              ],
              [
                -120.11779599972769,
                48.373457999856406
              ],
              [
                -120.11770399966618,
                48.37361500006494
              ],
              [
                -120.11770500038942,
                48.37373399988909
              ],
              [
                -120.11771100023718,
                48.374190999903185
              ],
              [
                -120.1212660003291,
                48.37421900027209
              ],
              [
                -120.12160400043788,
                48.37422500026388
              ],
              [
                -120.1217319995861,
                48.3742259997652
              ],
              [
                -120.12181600015,
                48.37422699986319
              ],
              [
                -120.12207499971777,
                48.37422900005911
              ],
              [
                -120.12225700019096,
                48.374230000157084
              ],
              [
                -120.12267300011757,
                48.37423399995192
              ],
              [
                -120.12266600044488,
                48.3738870000215
              ],
              [
                -120.1226620002469,
                48.373678999904655
              ],
              [
                -120.12265100037628,
                48.373079999861815
              ],
              [
                -120.12265100037628,
                48.37304099992053
              ],
              [
                -120.1226480000032,
                48.37289300025406
              ],
              [
                -120.12353699975782,
                48.37289899980539
              ],
              [
                -120.12437600018207,
                48.372903999828814
              ],
              [
                -120.1245279996197,
                48.37290499995277
              ],
              [
                -120.12464499979558,
                48.37290600007671
              ],
              [
                -120.12483499976638,
                48.37290700020063
              ],
              [
                -120.12504599965357,
                48.372907999727815
              ],
              [
                -120.12507099976793,
                48.372420000181606
              ],
              [
                -120.12508300036183,
                48.372244000254206
              ],
              [
                -120.12508400018672,
                48.37171800010038
              ],
              [
                -120.12508500001164,
                48.371543000284305
              ],
              [
                -120.12509000003449,
                48.37132700009459
              ],
              [
                -120.12510599992804,
                48.37067899999558
              ],
              [
                -120.1251119997758,
                48.370463999893424
              ],
              [
                -120.12529300042411,
                48.37045900022718
              ],
              [
                -120.12583800022215,
                48.37044800012429
              ],
              [
                -120.126019999797,
                48.37044500020431
              ],
              [
                -120.12613399959982,
                48.37044500020431
              ],
              [
                -120.12657600036401,
                48.37044500020431
              ],
              [
                -120.12818700036699,
                48.37044900029648
              ],
              [
                -120.1282440002684,
                48.37044900029648
              ],
              [
                -120.12880099976202,
                48.37045800005518
              ],
              [
                -120.1307220002847,
                48.37050000010149
              ],
              [
                -120.13204299985946,
                48.37050899985112
              ],
              [
                -120.13344999964794,
                48.37051700002514
              ],
              [
                -120.13346999973943,
                48.36899899970681
              ],
              [
                -120.13347700031044,
                48.36853999981998
              ],
              [
                -120.13348999983091,
                48.367599000296224
              ]
            ]
          ],
          [
            [
              [
                -120.09971499984476,
                48.350638999828114
              ],
              [
                -120.0997940003858,
                48.350612000189706
              ],
              [
                -120.09965499957032,
                48.35025400020482
              ],
              [
                -120.099560999859,
                48.35010200008765
              ],
              [
                -120.09953300026991,
                48.35005600003351
              ],
              [
                -120.09938900032985,
                48.349878999853246
              ],
              [
                -120.09910200027467,
                48.3495839997786
              ],
              [
                -120.09846600024004,
                48.34901499980168
              ],
              [
                -120.09835400008703,
                48.34893300005558
              ],
              [
                -120.0983159995539,
                48.348905000112026
              ],
              [
                -120.0981199997353,
                48.34880000018681
              ],
              [
                -120.09795900007684,
                48.34873500012467
              ],
              [
                -120.09784600009894,
                48.34869900005462
              ],
              [
                -120.09758300033319,
                48.348675999996495
              ],
              [
                -120.09703099996415,
                48.34866099995304
              ],
              [
                -120.09646299970159,
                48.34864999991835
              ],
              [
                -120.09608399958489,
                48.34864299989504
              ],
              [
                -120.09514999962443,
                48.34863299986009
              ],
              [
                -120.09351100003236,
                48.348622999823135
              ],
              [
                -120.09231099993312,
                48.34860699975996
              ],
              [
                -120.09183200025733,
                48.348601999739195
              ],
              [
                -120.09092699971086,
                48.348601999739195
              ],
              [
                -120.09080200003737,
                48.34860099973496
              ],
              [
                -120.09042799994356,
                48.34860099973496
              ],
              [
                -120.08986499970386,
                48.34860099973496
              ],
              [
                -120.08897000010145,
                48.34860099973496
              ],
              [
                -120.08863700001554,
                48.34860299974337
              ],
              [
                -120.08847800000686,
                48.348601999739195
              ],
              [
                -120.08800000015599,
                48.348601999739195
              ],
              [
                -120.08784199997224,
                48.348601999739195
              ],
              [
                -120.08772599962128,
                48.348601999739195
              ],
              [
                -120.0872489995953,
                48.34859599971361
              ],
              [
                -120.08710300000543,
                48.348593999704924
              ],
              [
                -120.08710200018051,
                48.34864399989841
              ],
              [
                -120.08710499965527,
                48.34907300013943
              ],
              [
                -120.0907950003647,
                48.3504429998949
              ],
              [
                -120.09195100008301,
                48.35087299987583
              ],
              [
                -120.09223899996309,
                48.35098000022087
              ],
              [
                -120.09266400011055,
                48.35113799983408
              ],
              [
                -120.0952390002112,
                48.35209399984495
              ],
              [
                -120.09537599958024,
                48.35214500012091
              ],
              [
                -120.09548299971036,
                48.35218499988026
              ],
              [
                -120.09561599977975,
                48.35223400019931
              ],
              [
                -120.09796099972667,
                48.35310500000571
              ],
              [
                -120.09956500005694,
                48.35311499976008
              ],
              [
                -120.09956599988186,
                48.3530820001453
              ],
              [
                -120.09956599988186,
                48.35305300017676
              ],
              [
                -120.0995779995774,
                48.352218000075965
              ],
              [
                -120.0989919997715,
                48.352220999875605
              ],
              [
                -120.09927399980381,
                48.35136700022883
              ],
              [
                -120.09950099958454,
                48.35124999998106
              ],
              [
                -120.09950700033062,
                48.35072399970183
              ],
              [
                -120.09961500028565,
                48.35067499972169
              ],
              [
                -120.09971499984476,
                48.350638999828114
              ]
            ]
          ]
        ]
      },
      "properties": {
        "AREALAND": "3028945",
        "AREAWATER": "15314",
        "BASENAME": "Twisp",
        "CBSAPCI": "N",
        "CENTLAT": "+48.3618720",
        "CENTLON": "-120.1168915",
        "FUNCSTAT": "A",
        "GEOID": "5373080",
        "INTPTLAT": "+48.3610045",
        "INTPTLON": "-120.1171352",
        "LSADC": "43",
        "MTFCC": "G4110",
        "NAME": "Twisp town",
        "NECTAPCI": "N",
        "OBJECTID": 12679,
        "OID": "27890480662921",
        "PLACE": "73080",
        "PLACECC": "C1",
        "PLACENS": "02413408",
        "STATE": "53",
        "DISP_CLR": 4,
        "slug": "twisp",
        "jurisdiction_key": "twisp_city",
        "county_fips": [
          "53047"
        ]
      }
    }
  ]
}
