{
  "type": "FeatureCollection",
  "features": [
    {
      "type": "Feature",
      "geometry": {
        "type": "Polygon",
        "coordinates": [
          [
            [
              -120.43288600014046,
              46.440560999889605
            ],
            [
              -120.43290200003398,
              46.43708200012553
            ],
            [
              -120.42767800021277,
              46.437037999998324
            ],
            [
              -120.42770800035,
              46.43378400006886
            ],
            [
              -120.42771099982474,
              46.4333840001879
            ],
            [
              -120.42603299987458,
              46.433372999722465
            ],
            [
              -120.4228069996707,
              46.43335100002327
            ],
            [
              -120.42258099971485,
              46.43334900027532
            ],
            [
              -120.42031399958574,
              46.43333400030587
            ],
            [
              -120.41858200010728,
              46.43332299983039
            ],
            [
              -120.4184089998549,
              46.43332199995591
            ],
            [
              -120.41739799990154,
              46.433317999838664
            ],
            [
              -120.41739799990154,
              46.43334400028598
            ],
            [
              -120.41739700007663,
              46.43335299977116
            ],
            [
              -120.41739700007663,
              46.433381999822025
            ],
            [
              -120.41739700007663,
              46.43339199979327
            ],
            [
              -120.41739600025174,
              46.43343099978748
            ],
            [
              -120.41739200005377,
              46.43358600023472
            ],
            [
              -120.41739100022885,
              46.43365899995709
            ],
            [
              -120.41737899963498,
              46.43434199983982
            ],
            [
              -120.41737600016025,
              46.434570999764325
            ],
            [
              -120.41737399961208,
              46.43468900007701
            ],
            [
              -120.41737299978719,
              46.43474600013128
            ],
            [
              -120.41736799976432,
              46.4350449997869
            ],
            [
              -120.4173669999394,
              46.43516400015209
            ],
            [
              -120.41632099982593,
              46.43516400015209
            ],
            [
              -120.41318599985863,
              46.43516400015209
            ],
            [
              -120.41214099957007,
              46.435164999992786
            ],
            [
              -120.41213899992026,
              46.435050000239286
            ],
            [
              -120.41213300007247,
              46.434708000308085
            ],
            [
              -120.41213200024754,
              46.4346609999525
            ],
            [
              -120.41213200024754,
              46.43459400006047
            ],
            [
              -120.41212700022467,
              46.43435999971732
            ],
            [
              -120.41211299998099,
              46.43365899995709
            ],
            [
              -120.41211100033118,
              46.43358700010436
            ],
            [
              -120.41210899978302,
              46.43342599980567
            ],
            [
              -120.4098530004229,
              46.43342400006046
            ],
            [
              -120.40953899970522,
              46.43342400006046
            ],
            [
              -120.40953399968235,
              46.433856000280485
            ],
            [
              -120.40951199994103,
              46.43689500026814
            ],
            [
              -120.40922499988586,
              46.4368939998401
            ],
            [
              -120.40707800030567,
              46.43688900017601
            ],
            [
              -120.40690000003045,
              46.43688900017601
            ],
            [
              -120.40689900020553,
              46.43708299993103
            ],
            [
              -120.406883000312,
              46.4396050001331
            ],
            [
              -120.4077849995871,
              46.43960700027055
            ],
            [
              -120.40811600002323,
              46.439579999956536
            ],
            [
              -120.4082290000011,
              46.43957200002139
            ],
            [
              -120.40848400026925,
              46.43957799981809
            ],
            [
              -120.40857600033075,
              46.43957799981809
            ],
            [
              -120.40866900021716,
              46.4395790001968
            ],
            [
              -120.4087639997534,
              46.439579999956536
            ],
            [
              -120.40885900018799,
              46.43958200009484
            ],
            [
              -120.4089539997242,
              46.439582999854515
            ],
            [
              -120.40904999998367,
              46.43958400023313
            ],
            [
              -120.40914700006806,
              46.43958400023313
            ],
            [
              -120.40924499997733,
              46.43958499999272
            ],
            [
              -120.40929600003096,
              46.43958499999272
            ],
            [
              -120.40934100023682,
              46.43958499999272
            ],
            [
              -120.40953200003251,
              46.43958400023313
            ],
            [
              -120.40971799980537,
              46.439582999854515
            ],
            [
              -120.40980800021705,
              46.439582999854515
            ],
            [
              -120.40989400043078,
              46.439579999956536
            ],
            [
              -120.4099820002943,
              46.43957799981809
            ],
            [
              -120.4101580000214,
              46.439576000298594
            ],
            [
              -120.41024500006004,
              46.43957499991983
            ],
            [
              -120.41041999996223,
              46.43957400016005
            ],
            [
              -120.41050700000088,
              46.439572999781205
            ],
            [
              -120.41059400003951,
              46.43957200002139
            ],
            [
              -120.41068100007816,
              46.439571000261566
            ],
            [
              -120.41076599956862,
              46.439569999882664
            ],
            [
              -120.41085099995745,
              46.4395690001228
            ],
            [
              -120.41093600034627,
              46.439567999743865
            ],
            [
              -120.41102099983678,
              46.43956699998396
            ],
            [
              -120.41110500040068,
              46.43956600022405
            ],
            [
              -120.41118999989116,
              46.43956600022405
            ],
            [
              -120.41127299973182,
              46.43956499984505
            ],
            [
              -120.41135499974762,
              46.439564000085085
            ],
            [
              -120.41143500011357,
              46.439561999946065
            ],
            [
              -120.41151299993138,
              46.439556999907715
            ],
            [
              -120.41157800022869,
              46.43955800028685
            ],
            [
              -120.41165900041953,
              46.439548999969205
            ],
            [
              -120.41172399981855,
              46.43954500030904
            ],
            [
              -120.41183799962137,
              46.43954000026913
            ],
            [
              -120.41192999968287,
              46.43953800012922
            ],
            [
              -120.41201900026964,
              46.43952300000617
            ],
            [
              -120.4120929998895,
              46.439538999889656
            ],
            [
              -120.41213100042265,
              46.439567999743865
            ],
            [
              -120.4121509996158,
              46.439595000063825
            ],
            [
              -120.41216599968445,
              46.43963300019349
            ],
            [
              -120.41216599968445,
              46.43975399995729
            ],
            [
              -120.4121559996387,
              46.43984299987805
            ],
            [
              -120.4121509996158,
              46.439890999851485
            ],
            [
              -120.41216300020967,
              46.44036200017207
            ],
            [
              -120.41213600044551,
              46.44044900023133
            ],
            [
              -120.41213200024754,
              46.44055700030373
            ],
            [
              -120.41212700022467,
              46.44099999985679
            ],
            [
              -120.41719200003723,
              46.441017000277895
            ],
            [
              -120.41731000003803,
              46.441017000277895
            ],
            [
              -120.41730900021311,
              46.44116199979443
            ],
            [
              -120.41730800038819,
              46.44132899974557
            ],
            [
              -120.41730599984002,
              46.441520999720346
            ],
            [
              -120.41730099981716,
              46.44209699991819
            ],
            [
              -120.41729999999227,
              46.44228999999159
            ],
            [
              -120.41729999999227,
              46.44230499997184
            ],
            [
              -120.41729999999227,
              46.44235300025242
            ],
            [
              -120.41729999999227,
              46.44236899992383
            ],
            [
              -120.41729800034244,
              46.442546000037915
            ],
            [
              -120.41729400014448,
              46.44307900003487
            ],
            [
              -120.41729400014448,
              46.44325700001045
            ],
            [
              -120.41729300031957,
              46.443363999778526
            ],
            [
              -120.41729099977145,
              46.443687999969775
            ],
            [
              -120.41729099977145,
              46.443795999811634
            ],
            [
              -120.41728999994653,
              46.443878999997445
            ],
            [
              -120.41728800029671,
              46.44412900009122
            ],
            [
              -120.41728800029671,
              46.444213000063314
            ],
            [
              -120.41728599974856,
              46.4443850001621
            ],
            [
              -120.41728099972569,
              46.44490100029506
            ],
            [
              -120.41727999990079,
              46.44507399973745
            ],
            [
              -120.41727200040316,
              46.44582599984177
            ],
            [
              -120.41726700038032,
              46.445858999879384
            ],
            [
              -120.41726599965708,
              46.445896999972966
            ],
            [
              -120.41727099967994,
              46.44594399992172
            ],
            [
              -120.41727900007587,
              46.44597899979137
            ],
            [
              -120.41724800011373,
              46.44683699990894
            ],
            [
              -120.41709999997572,
              46.44673800027558
            ],
            [
              -120.41665800010985,
              46.44644100029602
            ],
            [
              -120.41658899961456,
              46.44639400015709
            ],
            [
              -120.4165490003299,
              46.44642300007639
            ],
            [
              -120.41595400030316,
              46.446851000248955
            ],
            [
              -120.41581200001295,
              46.446954000031404
            ],
            [
              -120.41571499992854,
              46.44702300006518
            ],
            [
              -120.4152110001384,
              46.44738600006836
            ],
            [
              -120.41511599970384,
              46.44745500017388
            ],
            [
              -120.41502600019047,
              46.447519000265366
            ],
            [
              -120.41519500024485,
              46.447636999772755
            ],
            [
              -120.41527899991046,
              46.447687999758756
            ],
            [
              -120.415302000375,
              46.44770199988006
            ],
            [
              -120.4153810000177,
              46.447750999966765
            ],
            [
              -120.41521399961314,
              46.447749999738065
            ],
            [
              -120.41471300019602,
              46.4477490001283
            ],
            [
              -120.41454599979146,
              46.4477490001283
            ],
            [
              -120.41450899998154,
              46.4477490001283
            ],
            [
              -120.41439799965342,
              46.4477490001283
            ],
            [
              -120.41436199966844,
              46.4477490001283
            ],
            [
              -120.41403500032861,
              46.447747999899555
            ],
            [
              -120.41305399961414,
              46.44774600006102
            ],
            [
              -120.41272800009922,
              46.44774600006102
            ],
            [
              -120.41263900041073,
              46.44774600006102
            ],
            [
              -120.41237300027198,
              46.44774600006102
            ],
            [
              -120.41228500040843,
              46.44774600006102
            ],
            [
              -120.4120589995543,
              46.44774600006102
            ],
            [
              -120.41201500007169,
              46.44774600006102
            ],
            [
              -120.41200000000309,
              46.45033100029975
            ],
            [
              -120.4119740000638,
              46.45144100023807
            ],
            [
              -120.41228700005827,
              46.45139800010913
            ],
            [
              -120.41237300027198,
              46.45139800010913
            ],
            [
              -120.41263100001484,
              46.45139800010913
            ],
            [
              -120.41271800005349,
              46.45139800010913
            ],
            [
              -120.41303900044385,
              46.451400999975256
            ],
            [
              -120.41400500019137,
              46.451413000057194
            ],
            [
              -120.41432700040663,
              46.451417000083936
            ],
            [
              -120.41464200005092,
              46.451418999787734
            ],
            [
              -120.41559000025508,
              46.451426000297715
            ],
            [
              -120.41590599972425,
              46.451429000162356
            ],
            [
              -120.41603899979364,
              46.451426000297715
            ],
            [
              -120.41643999965164,
              46.45142100011034
            ],
            [
              -120.41657400044426,
              46.451419999949024
            ],
            [
              -120.41721399977855,
              46.451419999949024
            ],
            [
              -120.41720399973278,
              46.452282999880715
            ],
            [
              -120.41720100025807,
              46.452461000108265
            ],
            [
              -120.41719399968704,
              46.45299700004063
            ],
            [
              -120.41719299986212,
              46.45317599992033
            ],
            [
              -120.41718899966418,
              46.453357000082114
            ],
            [
              -120.41717799979352,
              46.45390200028404
            ],
            [
              -120.41717500031878,
              46.45408400000202
            ],
            [
              -120.4171689995727,
              46.45425599987692
            ],
            [
              -120.41715100002934,
              46.45477500025469
            ],
            [
              -120.41714600000648,
              46.45494799990036
            ],
            [
              -120.41981200034377,
              46.45497299983232
            ],
            [
              -120.42184699977093,
              46.45500499980273
            ],
            [
              -120.42196399994681,
              46.45500599989822
            ],
            [
              -120.42223500010847,
              46.45501099975641
            ],
            [
              -120.42229299983478,
              46.45500100003952
            ],
            [
              -120.42231399975118,
              46.45499099970196
            ],
            [
              -120.42233899986554,
              46.45497999988547
            ],
            [
              -120.42237599967545,
              46.454946999803816
            ],
            [
              -120.42239300029219,
              46.454909999932255
            ],
            [
              -120.42239099974405,
              46.45497799969353
            ],
            [
              -120.42238800026935,
              46.455113000105634
            ],
            [
              -120.42238800026935,
              46.45512299980195
            ],
            [
              -120.42682000042028,
              46.45515099993204
            ],
            [
              -120.42714000008743,
              46.45515300011761
            ],
            [
              -120.42722600030115,
              46.455219000011255
            ],
            [
              -120.42735799964731,
              46.45534099990414
            ],
            [
              -120.42789199957473,
              46.45534799990998
            ],
            [
              -120.42806999984994,
              46.455350000088316
            ],
            [
              -120.42824099955416,
              46.45535200026659
            ],
            [
              -120.42981999977007,
              46.45537000001097
            ],
            [
              -120.43001599958869,
              46.455372000188454
            ],
            [
              -120.430305000192,
              46.45537399974704
            ],
            [
              -120.43009099993175,
              46.45509099990086
            ],
            [
              -120.4299899996494,
              46.454820999870705
            ],
            [
              -120.42995700003745,
              46.454323999835935
            ],
            [
              -120.4299600004105,
              46.45366000020667
            ],
            [
              -120.42996700008317,
              46.45181599988066
            ],
            [
              -120.42994399961866,
              46.4501219997584
            ],
            [
              -120.42993699994595,
              46.448518999974986
            ],
            [
              -120.42975000034819,
              46.44830000019863
            ],
            [
              -120.42943300015581,
              46.44787299987755
            ],
            [
              -120.42943300015581,
              46.4477559998721
            ],
            [
              -120.42948500003433,
              46.44765200013769
            ],
            [
              -120.42957399972279,
              46.44758200004992
            ],
            [
              -120.4295960003624,
              46.447564999820486
            ],
            [
              -120.42974100012735,
              46.44748799984362
            ],
            [
              -120.42983300018886,
              46.44737999989356
            ],
            [
              -120.4298909999152,
              46.44728100000918
            ],
            [
              -120.4298909999152,
              46.44716399997009
            ],
            [
              -120.42990900035687,
              46.4468519998752
            ],
            [
              -120.42990900035687,
              46.44669000014474
            ],
            [
              -120.42991000018179,
              46.44634399983308
            ],
            [
              -120.42991699985447,
              46.44622499974392
            ],
            [
              -120.4299319999231,
              46.44618399972583
            ],
            [
              -120.43010699982527,
              46.44572900014064
            ],
            [
              -120.43016600027481,
              46.445578000026124
            ],
            [
              -120.43016399972667,
              46.445275000124184
            ],
            [
              -120.43016799992465,
              46.44469700015008
            ],
            [
              -120.43016899974957,
              46.44465800017192
            ],
            [
              -120.43015000038127,
              46.44432100010241
            ],
            [
              -120.43011199984812,
              46.44398500010303
            ],
            [
              -120.43005199957369,
              46.44363299997377
            ],
            [
              -120.42994399961866,
              46.44324400029624
            ],
            [
              -120.42980700024962,
              46.442860000052846
            ],
            [
              -120.42969900029456,
              46.44260699997546
            ],
            [
              -120.42957899974569,
              46.442356999706455
            ],
            [
              -120.42948000001147,
              46.44217600013034
            ],
            [
              -120.42940399984349,
              46.442036000028644
            ],
            [
              -120.42927199959901,
              46.44182299973664
            ],
            [
              -120.42912799965897,
              46.44161300025521
            ],
            [
              -120.42899799996262,
              46.44144199979656
            ],
            [
              -120.42889400020556,
              46.44130500008807
            ],
            [
              -120.42885999987037,
              46.44126499980997
            ],
            [
              -120.4286370002876,
              46.44100600011528
            ],
            [
              -120.42845300016461,
              46.44081200008954
            ],
            [
              -120.42840700013382,
              46.44076799987915
            ],
            [
              -120.42824700030027,
              46.44061199969089
            ],
            [
              -120.42832099992009,
              46.4405989999646
            ],
            [
              -120.42834400038466,
              46.44059499976247
            ],
            [
              -120.42842600040039,
              46.44058100029077
            ],
            [
              -120.428546000051,
              46.44056200025032
            ],
            [
              -120.42862100039406,
              46.44055000025397
            ],
            [
              -120.42873799967163,
              46.44053300030616
            ],
            [
              -120.42886900009118,
              46.44051599973403
            ],
            [
              -120.42909300039717,
              46.44049700028996
            ],
            [
              -120.42911799961321,
              46.44049500018517
            ],
            [
              -120.42921200022285,
              46.44049700028996
            ],
            [
              -120.42990000013603,
              46.44051200014481
            ],
            [
              -120.43065199962332,
              46.44052999984143
            ],
            [
              -120.43196700024859,
              46.44054800015114
            ],
            [
              -120.43265599998668,
              46.44055800004546
            ],
            [
              -120.4327000003676,
              46.44055800004546
            ],
            [
              -120.43279400007894,
              46.440560000147926
            ],
            [
              -120.43283199971377,
              46.440560000147926
            ],
            [
              -120.43288600014046,
              46.440560999889605
            ]
          ]
        ]
      },
      "properties": {
        "AREALAND": "2993863",
        "AREAWATER": "0",
        "BASENAME": "Wapato",
        "CBSAPCI": "N",
        "CENTLAT": "+46.4436321",
        "CENTLON": "-120.4215067",
        "FUNCSTAT": "A",
        "GEOID": "5376125",
        "INTPTLAT": "+46.4436321",
        "INTPTLON": "-120.4215067",
        "LSADC": "25",
        "MTFCC": "G4110",
        "NAME": "Wapato city",
        "NECTAPCI": "N",
        "OBJECTID": 12594,
        "OID": "27890483243455",
        "PLACE": "76125",
        "PLACECC": "C1",
        "PLACENS": "02412178",
        "STATE": "53",
        "DISP_CLR": 3,
        "slug": "wapato",
        "jurisdiction_key": "wapato_city",
        "county_fips": [
          "53077"
        ]
      }
    }
  ]
}
