{
  "type": "FeatureCollection",
  "features": [
    {
      "type": "Feature",
      "geometry": {
        "type": "Polygon",
        "coordinates": [
          [
            [
              -117.23837700027096,
              47.33447399997507
            ],
            [
              -117.2383799997457,
              47.33391500000628
            ],
            [
              -117.23804900020791,
              47.333478999922306
            ],
            [
              -117.23742499986884,
              47.33265700028408
            ],
            [
              -117.23741200034836,
              47.33263899976669
            ],
            [
              -117.23729900037046,
              47.33263899976669
            ],
            [
              -117.23717799999663,
              47.33263899976669
            ],
            [
              -117.23669400029797,
              47.33263899976669
            ],
            [
              -117.23617700008901,
              47.33263899976669
            ],
            [
              -117.23318500023682,
              47.332638000075995
            ],
            [
              -117.23311499991661,
              47.332638000075995
            ],
            [
              -117.23256199972266,
              47.332636999776454
            ],
            [
              -117.23234099978973,
              47.332636999776454
            ],
            [
              -117.23167600034108,
              47.33263400009537
            ],
            [
              -117.22878700042105,
              47.332624000142566
            ],
            [
              -117.22817899997551,
              47.3326260001333
            ],
            [
              -117.22635600026042,
              47.332630999805325
            ],
            [
              -117.22585900014295,
              47.332632999795784
            ],
            [
              -117.22576700008143,
              47.33263400009537
            ],
            [
              -117.22575200001286,
              47.33267199989883
            ],
            [
              -117.2257350002944,
              47.33271699993509
            ],
            [
              -117.22557000043797,
              47.33314600001968
            ],
            [
              -117.22534699995688,
              47.33346199996899
            ],
            [
              -117.2252709997889,
              47.333570000080684
            ],
            [
              -117.22526900013908,
              47.33362200010077
            ],
            [
              -117.22526900013908,
              47.333635000097814
            ],
            [
              -117.22525200042064,
              47.33419900011894
            ],
            [
              -117.22524900004758,
              47.33430399974597
            ],
            [
              -117.22546599978257,
              47.33444000009481
            ],
            [
              -117.22549300044507,
              47.33445600007701
            ],
            [
              -117.2254950000949,
              47.334533999996914
            ],
            [
              -117.2254979995696,
              47.334606999708306
            ],
            [
              -117.22544400004125,
              47.3346119998016
            ],
            [
              -117.2253479997818,
              47.33462199998677
            ],
            [
              -117.22531400034492,
              47.334625000163705
            ],
            [
              -117.22528000000972,
              47.33462899999352
            ],
            [
              -117.22526400011621,
              47.33463099990827
            ],
            [
              -117.22521300006258,
              47.33463700026098
            ],
            [
              -117.22507800034336,
              47.33465300018349
            ],
            [
              -117.2250599999017,
              47.33465500009738
            ],
            [
              -117.22502800011468,
              47.33465899992488
            ],
            [
              -117.22498999958151,
              47.334664000013255
            ],
            [
              -117.22478000041755,
              47.33469500018533
            ],
            [
              -117.22473199983865,
              47.3347020001824
            ],
            [
              -117.22471599994512,
              47.33470400009439
            ],
            [
              -117.22446599969987,
              47.33474499979609
            ],
            [
              -117.22419799991127,
              47.33479499996827
            ],
            [
              -117.22393099994758,
              47.33485099981269
            ],
            [
              -117.22366800018183,
              47.33491200027141
            ],
            [
              -117.22340700006595,
              47.334978000109516
            ],
            [
              -117.22314900032306,
              47.335050000170895
            ],
            [
              -117.22315400034593,
              47.33506099991797
            ],
            [
              -117.22316299966846,
              47.33508100011637
            ],
            [
              -117.22343999967786,
              47.33570699969658
            ],
            [
              -117.22432000010998,
              47.335512999995856
            ],
            [
              -117.2244260004152,
              47.33575099995004
            ],
            [
              -117.22463200027954,
              47.335709000179314
            ],
            [
              -117.22483999979369,
              47.335671000126055
            ],
            [
              -117.22504800020614,
              47.3356369997989
            ],
            [
              -117.2251929999711,
              47.33561499993364
            ],
            [
              -117.22534199993402,
              47.335596000181006
            ],
            [
              -117.22535899965246,
              47.3355930000592
            ],
            [
              -117.22545099971397,
              47.335669000250654
            ],
            [
              -117.22544300021636,
              47.33594899972372
            ],
            [
              -117.22544099966822,
              47.33601699995441
            ],
            [
              -117.22543700036857,
              47.33612700017792
            ],
            [
              -117.22543499982044,
              47.33614899982987
            ],
            [
              -117.22543599964533,
              47.33618200020376
            ],
            [
              -117.22542800014773,
              47.33645500023676
            ],
            [
              -117.22542399994978,
              47.33658199971985
            ],
            [
              -117.22542099957676,
              47.33666099976664
            ],
            [
              -117.22541999975184,
              47.336691999983934
            ],
            [
              -117.22541700027709,
              47.33678699975086
            ],
            [
              -117.22541599955386,
              47.3368009997982
            ],
            [
              -117.22541499972897,
              47.33684100008692
            ],
            [
              -117.22544999988905,
              47.33686999975982
            ],
            [
              -117.22549099989692,
              47.3369030002919
            ],
            [
              -117.22602599964922,
              47.3373409999215
            ],
            [
              -117.22616000044185,
              47.33745099982198
            ],
            [
              -117.22631500025253,
              47.33757699974737
            ],
            [
              -117.22670100004193,
              47.33789299996735
            ],
            [
              -117.22708799965622,
              47.338209999707615
            ],
            [
              -117.22716800002215,
              47.338276000293725
            ],
            [
              -117.22724199964202,
              47.3383369998397
            ],
            [
              -117.22750600013096,
              47.338554000178085
            ],
            [
              -117.2275880001467,
              47.33862300028399
            ],
            [
              -117.22767500018536,
              47.33869599982141
            ],
            [
              -117.22771299982018,
              47.338725999877234
            ],
            [
              -117.22771299982018,
              47.338767000108604
            ],
            [
              -117.22771299982018,
              47.338794000184194
            ],
            [
              -117.2277119999953,
              47.33975300009208
            ],
            [
              -117.22771100017037,
              47.339828000220116
            ],
            [
              -117.22771100017037,
              47.33987300024576
            ],
            [
              -117.22671699993542,
              47.339858999795496
            ],
            [
              -117.22661999985108,
              47.33985800024149
            ],
            [
              -117.22633000032116,
              47.33985800024149
            ],
            [
              -117.22623400006168,
              47.33985800024149
            ],
            [
              -117.22623300023679,
              47.340216000073966
            ],
            [
              -117.22623099968865,
              47.34129099975165
            ],
            [
              -117.22623099968865,
              47.34164999973567
            ],
            [
              -117.22623099968865,
              47.34173800004088
            ],
            [
              -117.22622800021392,
              47.34466099979676
            ],
            [
              -117.22644199957583,
              47.34466899976164
            ],
            [
              -117.2265589997517,
              47.34466700022703
            ],
            [
              -117.22691100010421,
              47.34466400001198
            ],
            [
              -117.22702900010498,
              47.34466299994024
            ],
            [
              -117.22718100044094,
              47.34466099979676
            ],
            [
              -117.22763800037544,
              47.34467899986818
            ],
            [
              -117.227790999638,
              47.34468599975908
            ],
            [
              -117.22779200036123,
              47.34484200030323
            ],
            [
              -117.22779599966087,
              47.345312999956725
            ],
            [
              -117.227798000209,
              47.3454699999218
            ],
            [
              -117.22779900003393,
              47.345611999833096
            ],
            [
              -117.22791299983672,
              47.345611999833096
            ],
            [
              -117.2279890000047,
              47.345611999833096
            ],
            [
              -117.22920400017259,
              47.345611999833096
            ],
            [
              -117.2292059998224,
              47.34688299989777
            ],
            [
              -117.2292059998224,
              47.347220000300986
            ],
            [
              -117.23004900044457,
              47.34722699985488
            ],
            [
              -117.23048100026473,
              47.347231999970454
            ],
            [
              -117.23060099991531,
              47.34722499980855
            ],
            [
              -117.23061599998394,
              47.34720199987869
            ],
            [
              -117.23092899997836,
              47.34670499979352
            ],
            [
              -117.23112300014714,
              47.346442000185654
            ],
            [
              -117.23248899992771,
              47.34459900018004
            ],
            [
              -117.2323879996454,
              47.3445650001237
            ],
            [
              -117.2321290000776,
              47.34447600019477
            ],
            [
              -117.23140799965417,
              47.344228999893204
            ],
            [
              -117.23142799974563,
              47.34420300024275
            ],
            [
              -117.23146299990577,
              47.34415500001157
            ],
            [
              -117.2315640001881,
              47.34401899972829
            ],
            [
              -117.23166600029533,
              47.34388200022553
            ],
            [
              -117.23176699967938,
              47.34374599984767
            ],
            [
              -117.23216099986466,
              47.34321499977536
            ],
            [
              -117.23215900021485,
              47.34319500022309
            ],
            [
              -117.23214400014625,
              47.343128000206846
            ],
            [
              -117.23213800029845,
              47.3431059998105
            ],
            [
              -117.23210999981103,
              47.34301799995949
            ],
            [
              -117.23210300013835,
              47.34300100003366
            ],
            [
              -117.23206999962808,
              47.34292000013266
            ],
            [
              -117.23205899975743,
              47.34289700015315
            ],
            [
              -117.23201399955157,
              47.342807999846876
            ],
            [
              -117.23200600005397,
              47.34279400017487
            ],
            [
              -117.2319509998024,
              47.34270599980379
            ],
            [
              -117.2319440001297,
              47.34269599993221
            ],
            [
              -117.23187999965728,
              47.34260800000648
            ],
            [
              -117.23187299998456,
              47.342599000227146
            ],
            [
              -117.23179699981661,
              47.34250899991466
            ],
            [
              -117.23170800012814,
              47.342416999828956
            ],
            [
              -117.23161199986865,
              47.34233100027873
            ],
            [
              -117.23150800011159,
              47.34224799972354
            ],
            [
              -117.23150800011159,
              47.34229900021215
            ],
            [
              -117.23107700011637,
              47.34201200007936
            ],
            [
              -117.23086200003122,
              47.34186900009895
            ],
            [
              -117.23086200003122,
              47.34181899992927
            ],
            [
              -117.23086200003122,
              47.34171600028268
            ],
            [
              -117.23086200003122,
              47.34163000019926
            ],
            [
              -117.23089899984113,
              47.34166200006262
            ],
            [
              -117.23124500034587,
              47.34186900009895
            ],
            [
              -117.23136599982136,
              47.34190699995276
            ],
            [
              -117.23148299999724,
              47.341944000264704
            ],
            [
              -117.23174800031111,
              47.34199200007135
            ],
            [
              -117.23203600019121,
              47.34200099995416
            ],
            [
              -117.23237900032287,
              47.341959000285044
            ],
            [
              -117.2327469996706,
              47.34185500017799
            ],
            [
              -117.23309499982513,
              47.341745999839986
            ],
            [
              -117.23362899975254,
              47.34146499993008
            ],
            [
              -117.23368400000409,
              47.34143699987013
            ],
            [
              -117.23420899971066,
              47.34093000008515
            ],
            [
              -117.23444999973506,
              47.34071200023446
            ],
            [
              -117.23452000005528,
              47.3406479999454
            ],
            [
              -117.23517399963325,
              47.3400620001783
            ],
            [
              -117.23534100003785,
              47.339913000033484
            ],
            [
              -117.23539200009145,
              47.33987300024576
            ],
            [
              -117.23578499955353,
              47.33987300024576
            ],
            [
              -117.23581100039114,
              47.33985199987331
            ],
            [
              -117.23589300040689,
              47.33981200003938
            ],
            [
              -117.23622999979246,
              47.33964899990054
            ],
            [
              -117.23654500033504,
              47.33953199974463
            ],
            [
              -117.23697200013231,
              47.339374000210015
            ],
            [
              -117.23733500035546,
              47.339177000062456
            ],
            [
              -117.23762400006046,
              47.33887599990073
            ],
            [
              -117.23798499973549,
              47.33852800016775
            ],
            [
              -117.23821900008721,
              47.33833099990743
            ],
            [
              -117.23835700017949,
              47.338215000068516
            ],
            [
              -117.23835700017949,
              47.338087000055495
            ],
            [
              -117.23835700017949,
              47.338035999759335
            ],
            [
              -117.23835700017949,
              47.337952000166844
            ],
            [
              -117.23835800000438,
              47.337753999989914
            ],
            [
              -117.23836899987504,
              47.335869000199715
            ],
            [
              -117.23837700027096,
              47.33447399997507
            ]
          ]
        ]
      },
      "properties": {
        "AREALAND": "1068682",
        "AREAWATER": "0",
        "BASENAME": "Waverly",
        "CBSAPCI": "N",
        "CENTLAT": "+47.3380868",
        "CENTLON": "-117.2312246",
        "FUNCSTAT": "A",
        "GEOID": "5376720",
        "INTPTLAT": "+47.3380868",
        "INTPTLON": "-117.2312246",
        "LSADC": "43",
        "MTFCC": "G4110",
        "NAME": "Waverly town",
        "NECTAPCI": "N",
        "OBJECTID": 4535,
        "OID": "27890481567811",
        "PLACE": "76720",
        "PLACECC": "C1",
        "PLACENS": "02413458",
        "STATE": "53",
        "DISP_CLR": 3,
        "slug": "waverly",
        "jurisdiction_key": "waverly_city",
        "county_fips": [
          "53063"
        ]
      }
    }
  ]
}
