{
  "type": "FeatureCollection",
  "features": [
    {
      "type": "Feature",
      "geometry": {
        "type": "Polygon",
        "coordinates": [
          [
            [
              -122.38639099958246,
              45.59560599984995
            ],
            [
              -122.38643900016135,
              45.595398000195715
            ],
            [
              -122.38637300003914,
              45.59527799980278
            ],
            [
              -122.3861119999232,
              45.59527899985951
            ],
            [
              -122.38607699976312,
              45.595280999972886
            ],
            [
              -122.38557499962279,
              45.595280999972886
            ],
            [
              -122.385576000346,
              45.59373699997519
            ],
            [
              -122.38557499962279,
              45.593672000122744
            ],
            [
              -122.38557799999585,
              45.59354200019201
            ],
            [
              -122.38563700044537,
              45.59354200019201
            ],
            [
              -122.38593299982305,
              45.59353899992893
            ],
            [
              -122.38614200006043,
              45.59315999997784
            ],
            [
              -122.38619499976389,
              45.593065999819395
            ],
            [
              -122.38624300034279,
              45.59300899996762
            ],
            [
              -122.3860750001133,
              45.59299399976543
            ],
            [
              -122.38603599975522,
              45.59299000000421
            ],
            [
              -122.38558300001871,
              45.59294999986158
            ],
            [
              -122.38558600039174,
              45.59264800019069
            ],
            [
              -122.38559600043747,
              45.59179699987182
            ],
            [
              -122.38489799958026,
              45.59165700004366
            ],
            [
              -122.37813499972609,
              45.59014700031131
            ],
            [
              -122.37779400014256,
              45.590075000284386
            ],
            [
              -122.37760400017176,
              45.59003200012818
            ],
            [
              -122.37733300001014,
              45.589966000233666
            ],
            [
              -122.37595399981072,
              45.58966300006503
            ],
            [
              -122.37542599973112,
              45.58954100029249
            ],
            [
              -122.37543699960179,
              45.58952299994288
            ],
            [
              -122.37547000011205,
              45.58941999978723
            ],
            [
              -122.37549699987622,
              45.58935799982214
            ],
            [
              -122.37439700023442,
              45.58933700018347
            ],
            [
              -122.37328300034889,
              45.58931700007122
            ],
            [
              -122.37323700031816,
              45.589131000257765
            ],
            [
              -122.37320499963278,
              45.589002000035336
            ],
            [
              -122.373050999647,
              45.58910999990551
            ],
            [
              -122.37288599979055,
              45.589204999939696
            ],
            [
              -122.37283700028505,
              45.58923399968649
            ],
            [
              -122.37272199975901,
              45.58928700020387
            ],
            [
              -122.37260299993335,
              45.589334999858245
            ],
            [
              -122.3724799999097,
              45.589376000224625
            ],
            [
              -122.37234299964233,
              45.58941299991628
            ],
            [
              -122.37208999992235,
              45.5894690001168
            ],
            [
              -122.37197500029464,
              45.58948800001497
            ],
            [
              -122.37186099959348,
              45.58949300018563
            ],
            [
              -122.37180100021733,
              45.58949099986597
            ],
            [
              -122.37142399975049,
              45.58948500016381
            ],
            [
              -122.37138399956751,
              45.58948400000383
            ],
            [
              -122.37131199959748,
              45.58948299984387
            ],
            [
              -122.37128400000837,
              45.58943800016988
            ],
            [
              -122.37126999976469,
              45.58941500023872
            ],
            [
              -122.37076799962436,
              45.58882900015362
            ],
            [
              -122.37059299972216,
              45.58860299988288
            ],
            [
              -122.3707629996015,
              45.588467999893375
            ],
            [
              -122.37084999964011,
              45.58838100004943
            ],
            [
              -122.37091400011253,
              45.58832500002073
            ],
            [
              -122.37119500031993,
              45.58811600022852
            ],
            [
              -122.3714959997205,
              45.58791399971692
            ],
            [
              -122.3716000003759,
              45.587843000158045
            ],
            [
              -122.37187900003516,
              45.58767699993578
            ],
            [
              -122.37217299976302,
              45.587501999980375
            ],
            [
              -122.37239899971883,
              45.58736999982191
            ],
            [
              -122.37233299959658,
              45.58730599970949
            ],
            [
              -122.37229900015971,
              45.58727700022394
            ],
            [
              -122.37220000042552,
              45.58718999979133
            ],
            [
              -122.37216799974016,
              45.58716199981851
            ],
            [
              -122.37201299992945,
              45.58702799971038
            ],
            [
              -122.37194199978434,
              45.586969999808375
            ],
            [
              -122.37125399987117,
              45.586408999689695
            ],
            [
              -122.37102500044062,
              45.586222000080674
            ],
            [
              -122.37096099996819,
              45.58617100025065
            ],
            [
              -122.3707130002711,
              45.58595100004606
            ],
            [
              -122.37002799983266,
              45.58534600022431
            ],
            [
              -122.36979199983108,
              45.58512299984568
            ],
            [
              -122.36949200025546,
              45.58483999976707
            ],
            [
              -122.36943399963083,
              45.58494800010091
            ],
            [
              -122.36925999955355,
              45.58527600016704
            ],
            [
              -122.36920299965215,
              45.58538499989506
            ],
            [
              -122.36916400019238,
              45.58545700027995
            ],
            [
              -122.36904700001654,
              45.58567699990586
            ],
            [
              -122.36900900038168,
              45.585750000142724
            ],
            [
              -122.36872099960327,
              45.58567699990586
            ],
            [
              -122.36785799978794,
              45.585457999883
            ],
            [
              -122.36757099973276,
              45.58538499989506
            ],
            [
              -122.367524999702,
              45.58537300024107
            ],
            [
              -122.36738699960972,
              45.585338000240185
            ],
            [
              -122.36734200030222,
              45.58532700018149
            ],
            [
              -122.36743699983845,
              45.58513099986044
            ],
            [
              -122.36772499971853,
              45.58454599993624
            ],
            [
              -122.367820999978,
              45.58435100028333
            ],
            [
              -122.36788999957497,
              45.584209999860846
            ],
            [
              -122.36809700016254,
              45.58379100002919
            ],
            [
              -122.36816699958442,
              45.583650999721556
            ],
            [
              -122.36824399957729,
              45.583492999925
            ],
            [
              -122.36847899975396,
              45.58302100030367
            ],
            [
              -122.36855699957175,
              45.582864000269424
            ],
            [
              -122.3686150001964,
              45.582746999694095
            ],
            [
              -122.36879199974838,
              45.58239800022119
            ],
            [
              -122.36885100019796,
              45.582282000220445
            ],
            [
              -122.3688820001601,
              45.58222199986588
            ],
            [
              -122.36898000006937,
              45.58203999971833
            ],
            [
              -122.36900799965848,
              45.58198600023816
            ],
            [
              -122.36902699992505,
              45.58194799975781
            ],
            [
              -122.370862000234,
              45.58212100009867
            ],
            [
              -122.37093699967878,
              45.58199099981962
            ],
            [
              -122.37098500025765,
              45.58189000026558
            ],
            [
              -122.37105399985462,
              45.58189800011238
            ],
            [
              -122.37108099961881,
              45.58190200003537
            ],
            [
              -122.3714670003065,
              45.58193499970339
            ],
            [
              -122.37189400010377,
              45.58197199989871
            ],
            [
              -122.37262700022279,
              45.58204200030352
            ],
            [
              -122.37301399983706,
              45.58208000009151
            ],
            [
              -122.37344200035756,
              45.582117000191325
            ],
            [
              -122.37364400002392,
              45.58213499977222
            ],
            [
              -122.37394100012483,
              45.58216099978541
            ],
            [
              -122.3747260001224,
              45.582236999803335
            ],
            [
              -122.37515499956945,
              45.58227899998422
            ],
            [
              -122.37512600015548,
              45.582336000044634
            ],
            [
              -122.37509500019331,
              45.582398999878706
            ],
            [
              -122.37504699961444,
              45.5824990001188
            ],
            [
              -122.37501200035265,
              45.582563000053234
            ],
            [
              -122.37498300004033,
              45.58261400001752
            ],
            [
              -122.37493299981165,
              45.582708999728865
            ],
            [
              -122.3749029996744,
              45.582771999773044
            ],
            [
              -122.37489199980375,
              45.582796000190434
            ],
            [
              -122.37498700023828,
              45.58280500018715
            ],
            [
              -122.37502499987315,
              45.58280799976658
            ],
            [
              -122.37552199999058,
              45.58285299972601
            ],
            [
              -122.37611600019244,
              45.582907000258395
            ],
            [
              -122.376464000347,
              45.58293899968782
            ],
            [
              -122.37764299963152,
              45.58304600026061
            ],
            [
              -122.3789649999295,
              45.58316599977312
            ],
            [
              -122.38186800009323,
              45.58342600024706
            ],
            [
              -122.3818730001161,
              45.58339399983778
            ],
            [
              -122.38194900028411,
              45.582877999757706
            ],
            [
              -122.38195599995679,
              45.58283099989006
            ],
            [
              -122.38196600000252,
              45.58274999990535
            ],
            [
              -122.38199199994179,
              45.582603000053794
            ],
            [
              -122.38237899955608,
              45.58086599977543
            ],
            [
              -122.38240299984552,
              45.580745999748025
            ],
            [
              -122.38242700013495,
              45.58063099979541
            ],
            [
              -122.38249200043231,
              45.58031600005851
            ],
            [
              -122.38254099993777,
              45.580073000185706
            ],
            [
              -122.38281899977214,
              45.578586999764035
            ],
            [
              -122.38303700023035,
              45.577422000158705
            ],
            [
              -122.38343600043852,
              45.57555900022012
            ],
            [
              -122.38030200029608,
              45.57594100012216
            ],
            [
              -122.37222600036479,
              45.57390500012563
            ],
            [
              -122.35280200026747,
              45.56944099995856
            ],
            [
              -122.351712999598,
              45.56835799991973
            ],
            [
              -122.35062499965174,
              45.5672749997527
            ],
            [
              -122.34915799958881,
              45.56581399971894
            ],
            [
              -122.34769200024911,
              45.56435400002935
            ],
            [
              -122.34475200027545,
              45.561427999842635
            ],
            [
              -122.34313100022672,
              45.55981499991272
            ],
            [
              -122.34181200030179,
              45.55850200010739
            ],
            [
              -122.34104400002268,
              45.557738000127074
            ],
            [
              -122.34087999999113,
              45.55757599998354
            ],
            [
              -122.34071699978452,
              45.55741299989972
            ],
            [
              -122.33906999979654,
              45.55577400017873
            ],
            [
              -122.33457099969841,
              45.5625319997649
            ],
            [
              -122.33336099955343,
              45.5643629998374
            ],
            [
              -122.33196999965848,
              45.563556999990325
            ],
            [
              -122.33019399979904,
              45.562527999720025
            ],
            [
              -122.32660100007233,
              45.5604610000709
            ],
            [
              -122.32580900040206,
              45.560183999916624
            ],
            [
              -122.32520000013162,
              45.55999200010964
            ],
            [
              -122.3246209999984,
              45.55986400029312
            ],
            [
              -122.32392100038966,
              45.55977900027349
            ],
            [
              -122.32215499967766,
              45.55971500015908
            ],
            [
              -122.32215499967766,
              45.55977900027349
            ],
            [
              -122.32133200004529,
              45.55977900027349
            ],
            [
              -122.32023400005329,
              45.56460899969255
            ],
            [
              -122.32004699955722,
              45.56543300007273
            ],
            [
              -122.32467100022711,
              45.56613000025472
            ],
            [
              -122.32566000043916,
              45.56627899972744
            ],
            [
              -122.32865899996406,
              45.56828899997267
            ],
            [
              -122.32876100007131,
              45.568357000012234
            ],
            [
              -122.32890300036152,
              45.568451000042366
            ],
            [
              -122.3251499999029,
              45.56845299985394
            ],
            [
              -122.32172399968245,
              45.56845299985394
            ],
            [
              -122.32172299985753,
              45.568492999844395
            ],
            [
              -122.32171500035992,
              45.56926100029978
            ],
            [
              -122.32170500031418,
              45.57031700020875
            ],
            [
              -122.32170199994113,
              45.57045699980663
            ],
            [
              -122.3216650001312,
              45.57225799986043
            ],
            [
              -122.32073799984343,
              45.57212099987154
            ],
            [
              -122.32070199985843,
              45.57211600004007
            ],
            [
              -122.31970799962352,
              45.5719650000143
            ],
            [
              -122.31930400029077,
              45.571904000109456
            ],
            [
              -122.31814299965127,
              45.57173499974879
            ],
            [
              -122.31697900043534,
              45.57157299971823
            ],
            [
              -122.31672499999213,
              45.571540000248625
            ],
            [
              -122.31612099974457,
              45.57146199988165
            ],
            [
              -122.31589700033689,
              45.57143000019965
            ],
            [
              -122.31577199976509,
              45.57141300018428
            ],
            [
              -122.3157299999323,
              45.57140699980773
            ],
            [
              -122.31568399990157,
              45.57140000020606
            ],
            [
              -122.31554699963421,
              45.57137599994811
            ],
            [
              -122.31550200032667,
              45.57136799985987
            ],
            [
              -122.31540500024231,
              45.571350999825746
            ],
            [
              -122.31532400005146,
              45.57133600012426
            ],
            [
              -122.3153369995719,
              45.57249499996552
            ],
            [
              -122.31535800038661,
              45.57320500011828
            ],
            [
              -122.31534199959479,
              45.57347500023847
            ],
            [
              -122.31533900012003,
              45.574325999767595
            ],
            [
              -122.31523299981484,
              45.574547999847795
            ],
            [
              -122.31513999992842,
              45.57474600023257
            ],
            [
              -122.31526399977697,
              45.57476700029912
            ],
            [
              -122.31539299964841,
              45.57478999994381
            ],
            [
              -122.31547899986212,
              45.574804999980394
            ],
            [
              -122.31573999997804,
              45.574853000070526
            ],
            [
              -122.31582700001668,
              45.574868999881865
            ],
            [
              -122.31575800041972,
              45.57506200019443
            ],
            [
              -122.31564700009163,
              45.57529899978493
            ],
            [
              -122.31545799994575,
              45.57570700005598
            ],
            [
              -122.31539699984639,
              45.57583300006765
            ],
            [
              -122.31534599979274,
              45.57596099996971
            ],
            [
              -122.31530599960978,
              45.5761119999408
            ],
            [
              -122.31529899993708,
              45.57619800016764
            ],
            [
              -122.31530300013503,
              45.57637199975576
            ],
            [
              -122.31529899993708,
              45.57663000010406
            ],
            [
              -122.31529800011216,
              45.57675200027028
            ],
            [
              -122.31528399986846,
              45.57709799974306
            ],
            [
              -122.31527800002068,
              45.57723800004336
            ],
            [
              -122.31526799997495,
              45.577342000291985
            ],
            [
              -122.31527800002068,
              45.57750999975467
            ],
            [
              -122.3152789998456,
              45.57767799997224
            ],
            [
              -122.31527399982274,
              45.577823999775624
            ],
            [
              -122.31527299999782,
              45.5778760000101
            ],
            [
              -122.31524200003567,
              45.578081000005874
            ],
            [
              -122.31522799979197,
              45.57813300000235
            ],
            [
              -122.31520500022573,
              45.578182999856836
            ],
            [
              -122.31513599973047,
              45.57827399996818
            ],
            [
              -122.31509200024783,
              45.578315999969796
            ],
            [
              -122.31499299961533,
              45.57839099980476
            ],
            [
              -122.31493599971392,
              45.5784240002789
            ],
            [
              -122.31481000021553,
              45.57847899976846
            ],
            [
              -122.31466700010041,
              45.5785210002455
            ],
            [
              -122.31396199957047,
              45.57875000003349
            ],
            [
              -122.31340400025195,
              45.57893299987632
            ],
            [
              -122.31318800034191,
              45.57900199995085
            ],
            [
              -122.31193700018902,
              45.57940400020247
            ],
            [
              -122.31171000040833,
              45.57947800013215
            ],
            [
              -122.31139800023877,
              45.579569999738865
            ],
            [
              -122.31108400041941,
              45.579691999804936
            ],
            [
              -122.31091700001484,
              45.579770999763
            ],
            [
              -122.31079700036423,
              45.57983599999534
            ],
            [
              -122.3106890004092,
              45.57990300018508
            ],
            [
              -122.31060800021835,
              45.57995600008145
            ],
            [
              -122.3103859995622,
              45.58011599979735
            ],
            [
              -122.3102440001703,
              45.58022900015508
            ],
            [
              -122.30999099955199,
              45.58045500018825
            ],
            [
              -122.30965099979336,
              45.58078399978446
            ],
            [
              -122.30945099977679,
              45.58099200015698
            ],
            [
              -122.30883200035893,
              45.581603999963825
            ],
            [
              -122.30873000025169,
              45.581703999733755
            ],
            [
              -122.30862899996933,
              45.58180500025113
            ],
            [
              -122.30846199956477,
              45.58196999993977
            ],
            [
              -122.30829900025647,
              45.58212800025023
            ],
            [
              -122.30811500013345,
              45.58230800016559
            ],
            [
              -122.30772199977307,
              45.5826210001076
            ],
            [
              -122.30758500040402,
              45.58271599980711
            ],
            [
              -122.30740799995372,
              45.582825000104755
            ],
            [
              -122.30713699979205,
              45.58299300013753
            ],
            [
              -122.30705999979916,
              45.58303400010666
            ],
            [
              -122.30703899988275,
              45.583044999985944
            ],
            [
              -122.30697600013359,
              45.583078000239524
            ],
            [
              -122.30695500021716,
              45.583089000110185
            ],
            [
              -122.30682200014779,
              45.58322500010479
            ],
            [
              -122.30662399978105,
              45.58341699972117
            ],
            [
              -122.30657799975032,
              45.58349499982969
            ],
            [
              -122.30649900010758,
              45.58363100009815
            ],
            [
              -122.30641399971879,
              45.58389699997601
            ],
            [
              -122.306303000289,
              45.58436800015426
            ],
            [
              -122.306183999565,
              45.58479000018254
            ],
            [
              -122.30618799976297,
              45.58638200017122
            ],
            [
              -122.30618899958789,
              45.58668700023971
            ],
            [
              -122.30619799980872,
              45.589850000154875
            ],
            [
              -122.30616799967147,
              45.592624000213725
            ],
            [
              -122.30799999960739,
              45.59262099990156
            ],
            [
              -122.30854299975562,
              45.59262099990156
            ],
            [
              -122.30883300018385,
              45.592625999793114
            ],
            [
              -122.30894799981156,
              45.592628000001056
            ],
            [
              -122.30916500044485,
              45.592631000312835
            ],
            [
              -122.31018800009379,
              45.59263899988624
            ],
            [
              -122.31028000015527,
              45.592642000197394
            ],
            [
              -122.31054999959372,
              45.59265199997631
            ],
            [
              -122.31067000014262,
              45.592644999879816
            ],
            [
              -122.31082599977823,
              45.59262099990156
            ],
            [
              -122.3110269996197,
              45.592575000124185
            ],
            [
              -122.31109699993988,
              45.592551000115996
            ],
            [
              -122.31115899986418,
              45.59252100009137
            ],
            [
              -122.31121499994069,
              45.59248399993411
            ],
            [
              -122.3115129998665,
              45.59225500021913
            ],
            [
              -122.31159200040756,
              45.59221000025315
            ],
            [
              -122.31166799967721,
              45.59217899993426
            ],
            [
              -122.31179200042406,
              45.59214300029279
            ],
            [
              -122.31190100020402,
              45.59212699974625
            ],
            [
              -122.311969999801,
              45.592121999810246
            ],
            [
              -122.31203699974813,
              45.59212500014908
            ],
            [
              -122.31210299987038,
              45.59213600013281
            ],
            [
              -122.31223000009199,
              45.59217400000289
            ],
            [
              -122.31232100032858,
              45.59220699991886
            ],
            [
              -122.3124059998191,
              45.59224699996242
            ],
            [
              -122.31256599965265,
              45.59233799990812
            ],
            [
              -122.3129620003861,
              45.59258000001978
            ],
            [
              -122.31308600023466,
              45.59265099987275
            ],
            [
              -122.31655400028791,
              45.59265699986509
            ],
            [
              -122.31655500011283,
              45.59275999973787
            ],
            [
              -122.31655000008995,
              45.59291199988831
            ],
            [
              -122.31655000008995,
              45.59292299971779
            ],
            [
              -122.31654400024217,
              45.59302099987507
            ],
            [
              -122.31653699967114,
              45.593130999745156
            ],
            [
              -122.31651900012781,
              45.593465000303766
            ],
            [
              -122.31659399957258,
              45.59358099982567
            ],
            [
              -122.31659399957258,
              45.59471999994761
            ],
            [
              -122.31659399957258,
              45.59493399997796
            ],
            [
              -122.31659399957258,
              45.59674300029571
            ],
            [
              -122.3165950002958,
              45.596857999927515
            ],
            [
              -122.31763899986112,
              45.596654000014425
            ],
            [
              -122.31898500044856,
              45.59644999998834
            ],
            [
              -122.32094899973063,
              45.596010000093955
            ],
            [
              -122.32121800024247,
              45.59594899991062
            ],
            [
              -122.32133899971797,
              45.595941000180446
            ],
            [
              -122.32200599971473,
              45.59586499985868
            ],
            [
              -122.32199700039223,
              45.597076000074765
            ],
            [
              -122.32190000030785,
              45.597083000247125
            ],
            [
              -122.32163800036702,
              45.59712099991033
            ],
            [
              -122.32162300029842,
              45.59712399998191
            ],
            [
              -122.32136100035758,
              45.597162000245916
            ],
            [
              -122.32133299987021,
              45.597167999755925
            ],
            [
              -122.32120499982368,
              45.59719399972047
            ],
            [
              -122.32104499999008,
              45.59722599980534
            ],
            [
              -122.32082300023225,
              45.5972720001704
            ],
            [
              -122.32069600001064,
              45.597299000107455
            ],
            [
              -122.32047000005483,
              45.5973449997841
            ],
            [
              -122.3204950001692,
              45.60171700000116
            ],
            [
              -122.3219189996761,
              45.60079200017302
            ],
            [
              -122.32196899990481,
              45.60067100004125
            ],
            [
              -122.32203300037723,
              45.60051500031218
            ],
            [
              -122.3220740003851,
              45.60041999993835
            ],
            [
              -122.3221289997384,
              45.60029800029411
            ],
            [
              -122.32216100042378,
              45.60022400015396
            ],
            [
              -122.32217300011932,
              45.60019699973883
            ],
            [
              -122.32228000024944,
              45.59998500024078
            ],
            [
              -122.32229699996789,
              45.59994500005596
            ],
            [
              -122.32838500032767,
              45.599943000108816
            ],
            [
              -122.32950099986299,
              45.5999420001352
            ],
            [
              -122.3294990002132,
              45.59825999983654
            ],
            [
              -122.3295019996879,
              45.59690700004881
            ],
            [
              -122.32961600038905,
              45.596906000021086
            ],
            [
              -122.33022300011139,
              45.5969019999101
            ],
            [
              -122.33077600030532,
              45.5968999998545
            ],
            [
              -122.33185699968055,
              45.5968999998545
            ],
            [
              -122.33223199959929,
              45.596904999993384
            ],
            [
              -122.33225099986588,
              45.596906000021086
            ],
            [
              -122.33244699968444,
              45.596903999965626
            ],
            [
              -122.33267799966312,
              45.596891000231956
            ],
            [
              -122.3329079998169,
              45.59687000026903
            ],
            [
              -122.33310000033583,
              45.59683699995218
            ],
            [
              -122.33322599983421,
              45.596806999704455
            ],
            [
              -122.3335630001181,
              45.59669500006267
            ],
            [
              -122.33360199957787,
              45.59667900018541
            ],
            [
              -122.33368399959362,
              45.5966469997886
            ],
            [
              -122.3341389998783,
              45.59641900012588
            ],
            [
              -122.33426299972683,
              45.59633900030037
            ],
            [
              -122.33454700030731,
              45.59603399988005
            ],
            [
              -122.33459499998786,
              45.59598100007689
            ],
            [
              -122.33472999970708,
              45.595700000153926
            ],
            [
              -122.33474399995076,
              45.595665999727785
            ],
            [
              -122.33477999993579,
              45.59558299993213
            ],
            [
              -122.33482400031671,
              45.595450999920914
            ],
            [
              -122.33485699992869,
              45.59531800017181
            ],
            [
              -122.33492899989872,
              45.59517500015133
            ],
            [
              -122.33493700029462,
              45.59515099999789
            ],
            [
              -122.33496200040899,
              45.595080000164835
            ],
            [
              -122.3349709997315,
              45.595057000031424
            ],
            [
              -122.33498699962502,
              45.59501199979786
            ],
            [
              -122.33500099986873,
              45.594973999963614
            ],
            [
              -122.33502599998307,
              45.594875000009964
            ],
            [
              -122.33503799967866,
              45.594830000258995
            ],
            [
              -122.33542900038921,
              45.593534000118716
            ],
            [
              -122.33562100000984,
              45.5930040001102
            ],
            [
              -122.33577699964545,
              45.59267200015736
            ],
            [
              -122.33579199971405,
              45.5926710000542
            ],
            [
              -122.33582600004927,
              45.59260899990864
            ],
            [
              -122.33593499982919,
              45.59240300004843
            ],
            [
              -122.33599400027873,
              45.59227499991309
            ],
            [
              -122.33645100021323,
              45.59146699994286
            ],
            [
              -122.33679000014695,
              45.59088899973119
            ],
            [
              -122.33687200016271,
              45.59076700010901
            ],
            [
              -122.33700799970683,
              45.590546999687184
            ],
            [
              -122.33705399973759,
              45.59045999992251
            ],
            [
              -122.33716400024076,
              45.590240000183236
            ],
            [
              -122.33721899959403,
              45.59010499973057
            ],
            [
              -122.33727800004355,
              45.589905999919395
            ],
            [
              -122.33731700040164,
              45.589803999992235
            ],
            [
              -122.33733300029515,
              45.58974500028868
            ],
            [
              -122.33736099988424,
              45.58913400012784
            ],
            [
              -122.33736199970915,
              45.58897499987815
            ],
            [
              -122.33736199970915,
              45.58895299992673
            ],
            [
              -122.33788300011608,
              45.588903999775404
            ],
            [
              -122.33820000030849,
              45.58878900018868
            ],
            [
              -122.33842399971617,
              45.5887899997324
            ],
            [
              -122.33852699964834,
              45.588727999700026
            ],
            [
              -122.33863499960334,
              45.58866099998353
            ],
            [
              -122.33877100004577,
              45.58861900017675
            ],
            [
              -122.33889300024451,
              45.58849000003488
            ],
            [
              -122.33890499994007,
              45.58830500017655
            ],
            [
              -122.33896000019168,
              45.58826300010339
            ],
            [
              -122.33904800005521,
              45.588220999998796
            ],
            [
              -122.33911599982727,
              45.58806899971691
            ],
            [
              -122.33907300016958,
              45.588028999839
            ],
            [
              -122.33921799993453,
              45.58795499986399
            ],
            [
              -122.33935400037697,
              45.587820999762954
            ],
            [
              -122.33933900030837,
              45.58777499982336
            ],
            [
              -122.33953599995182,
              45.587557000007195
            ],
            [
              -122.33952900027914,
              45.58750000021843
            ],
            [
              -122.33955699986825,
              45.587452000252135
            ],
            [
              -122.33965800015058,
              45.587086999755215
            ],
            [
              -122.34037399965284,
              45.58708799995787
            ],
            [
              -122.3406459996394,
              45.58708799995787
            ],
            [
              -122.34102099955813,
              45.58708199999885
            ],
            [
              -122.34132000020719,
              45.58707700024209
            ],
            [
              -122.3416230001559,
              45.58736299969526
            ],
            [
              -122.34202900003677,
              45.58783199996156
            ],
            [
              -122.34257300000989,
              45.58838399995959
            ],
            [
              -122.34304099981503,
              45.58876000021198
            ],
            [
              -122.3432430003797,
              45.58893500001725
            ],
            [
              -122.3435110001683,
              45.58931300004793
            ],
            [
              -122.34375499966745,
              45.58967299974608
            ],
            [
              -122.34415899989851,
              45.59010400021027
            ],
            [
              -122.34449199998443,
              45.59036699978647
            ],
            [
              -122.3447070000696,
              45.59061899973731
            ],
            [
              -122.34478900008537,
              45.590885999954914
            ],
            [
              -122.34480400015397,
              45.59115999981356
            ],
            [
              -122.34480499997889,
              45.59134000031419
            ],
            [
              -122.34473399983378,
              45.59146800006751
            ],
            [
              -122.34467199990952,
              45.591675999829796
            ],
            [
              -122.34456700032752,
              45.59214300029279
            ],
            [
              -122.34438400002942,
              45.592473000018586
            ],
            [
              -122.34414899985276,
              45.59265900007192
            ],
            [
              -122.34444500012876,
              45.59266100027868
            ],
            [
              -122.34478099968945,
              45.59266399996009
            ],
            [
              -122.34510000043,
              45.59266199975344
            ],
            [
              -122.34662600004415,
              45.5926670002699
            ],
            [
              -122.34662500021923,
              45.5930500001646
            ],
            [
              -122.3472760003225,
              45.5930500001646
            ],
            [
              -122.34728100034536,
              45.59266999995099
            ],
            [
              -122.34729499969076,
              45.59253900010806
            ],
            [
              -122.3473530003154,
              45.59240300004843
            ],
            [
              -122.34739000012529,
              45.592331999881715
            ],
            [
              -122.34742000026253,
              45.59227600002329
            ],
            [
              -122.34749800008035,
              45.59215300016057
            ],
            [
              -122.34767499963235,
              45.591932000026375
            ],
            [
              -122.3477340000819,
              45.59186900020422
            ],
            [
              -122.3478679999762,
              45.59172399995559
            ],
            [
              -122.34796900025852,
              45.59162700016977
            ],
            [
              -122.34809499975692,
              45.59152699984566
            ],
            [
              -122.34816699972693,
              45.59147199993722
            ],
            [
              -122.34827300003215,
              45.5913990002269
            ],
            [
              -122.34839199985784,
              45.59132599979306
            ],
            [
              -122.3484160001473,
              45.59131099976962
            ],
            [
              -122.34916299961169,
              45.59091399995594
            ],
            [
              -122.34921399966532,
              45.59088899973119
            ],
            [
              -122.34931300029783,
              45.5908420002843
            ],
            [
              -122.34932800036644,
              45.59083600009792
            ],
            [
              -122.3493180003207,
              45.591800999718075
            ],
            [
              -122.34995000015738,
              45.591802999955405
            ],
            [
              -122.34994000011164,
              45.59218299975335
            ],
            [
              -122.34970400011007,
              45.59259800001762
            ],
            [
              -122.34970099973704,
              45.592611000117174
            ],
            [
              -122.34967899999572,
              45.59269999989599
            ],
            [
              -122.35020000040264,
              45.592704000306504
            ],
            [
              -122.35044800009973,
              45.592702000101276
            ],
            [
              -122.35113600001291,
              45.59269799969062
            ],
            [
              -122.35133000018166,
              45.5926960001138
            ],
            [
              -122.35154400044192,
              45.59269500001103
            ],
            [
              -122.35168500000893,
              45.59269399990829
            ],
            [
              -122.35219200017212,
              45.592691999702666
            ],
            [
              -122.35242200032587,
              45.592691999702666
            ],
            [
              -122.35245999996071,
              45.592691999702666
            ],
            [
              -122.35293000031402,
              45.592685999714114
            ],
            [
              -122.35290600002456,
              45.595871000135936
            ],
            [
              -122.35290799967439,
              45.596322999693044
            ],
            [
              -122.35159899979519,
              45.59632100024533
            ],
            [
              -122.35158899974944,
              45.59870800028122
            ],
            [
              -122.35158799992452,
              45.59883400021359
            ],
            [
              -122.35162999975731,
              45.5989080003014
            ],
            [
              -122.35162999975731,
              45.59894699997713
            ],
            [
              -122.35162999975731,
              45.59912400005044
            ],
            [
              -122.35163099958224,
              45.599195999781976
            ],
            [
              -122.35159399977233,
              45.599673000305366
            ],
            [
              -122.3515920001225,
              45.5998230000074
            ],
            [
              -122.35161899988668,
              45.599970999990774
            ],
            [
              -122.3516280001075,
              45.59999399999562
            ],
            [
              -122.35165999989455,
              45.60007600020941
            ],
            [
              -122.35168500000893,
              45.60010899987838
            ],
            [
              -122.35171599997106,
              45.60013499973726
            ],
            [
              -122.3518180000783,
              45.600204000150306
            ],
            [
              -122.35191199978962,
              45.60023099993359
            ],
            [
              -122.35211299963109,
              45.600252999863784
            ],
            [
              -122.35277600032822,
              45.60024600008693
            ],
            [
              -122.35287199968936,
              45.60024400015053
            ],
            [
              -122.35367199975555,
              45.600228000028125
            ],
            [
              -122.35374500044878,
              45.60022700005964
            ],
            [
              -122.35380900002286,
              45.600226000091084
            ],
            [
              -122.35672600043031,
              45.600191999893276
            ],
            [
              -122.35874099976604,
              45.60018500010877
            ],
            [
              -122.35956699977147,
              45.60017900029282
            ],
            [
              -122.35979799975014,
              45.60017399981719
            ],
            [
              -122.3605700002272,
              45.600161000212566
            ],
            [
              -122.36054500011286,
              45.597571000052454
            ],
            [
              -122.36179899974047,
              45.5975690000207
            ],
            [
              -122.3634130001165,
              45.59756599997296
            ],
            [
              -122.36618900005864,
              45.59755399978028
            ],
            [
              -122.36826600021692,
              45.59754200021356
            ],
            [
              -122.36871499975551,
              45.59753300006542
            ],
            [
              -122.3691509997736,
              45.5975159997817
            ],
            [
              -122.3692279997665,
              45.59751699979855
            ],
            [
              -122.36923299978936,
              45.597805000133256
            ],
            [
              -122.36924399966001,
              45.59885500007005
            ],
            [
              -122.36924500038323,
              45.59890399970459
            ],
            [
              -122.36925200005594,
              45.599520000259034
            ],
            [
              -122.36925200005594,
              45.59957399984239
            ],
            [
              -122.36925500042899,
              45.59980499981294
            ],
            [
              -122.36925500042899,
              45.59984999997403
            ],
            [
              -122.36925600025388,
              45.59995199987039
            ],
            [
              -122.36925899972863,
              45.60017399981719
            ],
            [
              -122.36926700012455,
              45.601067000016236
            ],
            [
              -122.3692710003225,
              45.60259200022386
            ],
            [
              -122.36927399979723,
              45.60365200015635
            ],
            [
              -122.36927499962215,
              45.604283999716316
            ],
            [
              -122.36928399984299,
              45.60490100016483
            ],
            [
              -122.37170300030805,
              45.60480800007829
            ],
            [
              -122.37189499992868,
              45.604809999852016
            ],
            [
              -122.37203300002093,
              45.604810999738866
            ],
            [
              -122.37238000035056,
              45.604814000027716
            ],
            [
              -122.37301499966198,
              45.60481900008985
            ],
            [
              -122.37415000036222,
              45.6048149999145
            ],
            [
              -122.37746600007951,
              45.604804999789124
            ],
            [
              -122.3774879998208,
              45.602893999801985
            ],
            [
              -122.37750100023959,
              45.601169000214206
            ],
            [
              -122.37883199986011,
              45.60117300002101
            ],
            [
              -122.38141399963347,
              45.60117899973067
            ],
            [
              -122.38299700004737,
              45.60118300016528
            ],
            [
              -122.38282100032028,
              45.60023099993359
            ],
            [
              -122.38266399996142,
              45.599377000261676
            ],
            [
              -122.38269099972563,
              45.59938000021264
            ],
            [
              -122.38294799964358,
              45.59943399993073
            ],
            [
              -122.38318299982019,
              45.59950299994883
            ],
            [
              -122.38325800016328,
              45.59954399980096
            ],
            [
              -122.38360200011985,
              45.59954899970419
            ],
            [
              -122.38372599996845,
              45.599551000293914
            ],
            [
              -122.38438999959214,
              45.59959200011101
            ],
            [
              -122.38452500020969,
              45.59961300031227
            ],
            [
              -122.38461499972306,
              45.59963699981441
            ],
            [
              -122.38462599959372,
              45.599642999688335
            ],
            [
              -122.38467800037057,
              45.59967099972005
            ],
            [
              -122.3848159995645,
              45.59975499973125
            ],
            [
              -122.38492799971748,
              45.59980899971697
            ],
            [
              -122.38496500042572,
              45.59970099969357
            ],
            [
              -122.38534700001713,
              45.599074999979486
            ],
            [
              -122.38544300027662,
              45.59876799998503
            ],
            [
              -122.38552899959203,
              45.59855000012584
            ],
            [
              -122.38556399975214,
              45.598485000191324
            ],
            [
              -122.38557899982074,
              45.59824599978461
            ],
            [
              -122.38556999959992,
              45.59807600013288
            ],
            [
              -122.385568999775,
              45.5980539999776
            ],
            [
              -122.38551299969849,
              45.59779800005102
            ],
            [
              -122.38542200036022,
              45.59753100003232
            ],
            [
              -122.38541999981207,
              45.597475999722356
            ],
            [
              -122.38544300027662,
              45.59724100013348
            ],
            [
              -122.38547199969062,
              45.59705500018107
            ],
            [
              -122.38551299969849,
              45.596935000188715
            ],
            [
              -122.38559399988934,
              45.59680400024454
            ],
            [
              -122.38567300043037,
              45.59671199996655
            ],
            [
              -122.38598800007463,
              45.5963459999361
            ],
            [
              -122.3860979996795,
              45.59621799999402
            ],
            [
              -122.38612299979386,
              45.59618099975992
            ],
            [
              -122.3862249999011,
              45.5960370000097
            ],
            [
              -122.38626900028206,
              45.59595600022352
            ],
            [
              -122.38629699987113,
              45.595905999854814
            ],
            [
              -122.38636100034356,
              45.59574100027062
            ],
            [
              -122.38637600041218,
              45.59567300007603
            ],
            [
              -122.38639099958246,
              45.59560599984995
            ]
          ]
        ]
      },
      "properties": {
        "AREALAND": "15416671",
        "AREAWATER": "2270377",
        "BASENAME": "Washougal",
        "CBSAPCI": "N",
        "CENTLAT": "+45.5825188",
        "CENTLON": "-122.3450299",
        "FUNCSTAT": "A",
        "GEOID": "5376405",
        "INTPTLAT": "+45.5828010",
        "INTPTLON": "-122.3463838",
        "LSADC": "25",
        "MTFCC": "G4110",
        "NAME": "Washougal city",
        "NECTAPCI": "N",
        "OBJECTID": 26282,
        "OID": "27890231883792",
        "PLACE": "76405",
        "PLACECC": "C1",
        "PLACENS": "02412189",
        "STATE": "53",
        "DISP_CLR": 2,
        "slug": "washougal",
        "jurisdiction_key": "washougal_city",
        "county_fips": [
          "53011"
        ]
      }
    }
  ]
}
