{"type":"FeatureCollection","features":[{"type":"Feature","geometry":{"type":"Polygon","coordinates":[[[-118.31931400009483,46.7480459998255],[-118.31951999995914,46.74726300027024],[-118.31909200033698,46.74727000020893],[-118.31902700003963,46.7472709998484],[-118.31902000036695,46.74717100011193],[-118.31899500025257,46.74691700014424],[-118.31900100010036,46.746591000074986],[-118.31900100010036,46.74636300013888],[-118.3190100003212,46.74551699991805],[-118.3184040004238,46.74552299979608],[-118.31592800005733,46.74554699991718],[-118.31431899970416,46.74556300019715],[-118.31430000033589,46.74655400001052],[-118.31428899956694,46.746990999749485],[-118.31299899995432,46.746992000009634],[-118.31271400044727,46.746998999983525],[-118.31203800022969,46.74701400018833],[-118.30760100005585,46.74712600023157],[-118.30773900014812,46.74981300018503],[-118.30775300039181,46.75000799972814],[-118.30777000011025,46.75041399984652],[-118.3075910000101,46.750637000150576],[-118.30742399960552,46.75067900021777],[-118.30730300013,46.750709999997234],[-118.30586399965617,46.7510720002716],[-118.30592499975555,46.75124799982244],[-118.30610399985567,46.751356999763175],[-118.30633099963642,46.75241499980026],[-118.30594700039515,46.75232299981873],[-118.30544799972957,46.75209999972022],[-118.30466100008219,46.75187299986739],[-118.30423900030782,46.75186400018701],[-118.30359900007521,46.751720999729734],[-118.30241200039475,46.75207000029068],[-118.30235499959504,46.753201000037066],[-118.30242599974012,46.753274000103715],[-118.3024299999381,46.75334999988257],[-118.30241200039475,46.75412399972191],[-118.30235899979297,46.75644600024007],[-118.30234999957214,46.75685999986524],[-118.30237999970939,46.757219999924],[-118.30237499968652,46.75731300023036],[-118.30236100034112,46.757592000186385],[-118.30235700014318,46.757685999912376],[-118.30213000036242,46.757660000148626],[-118.29883899986119,46.75730400022757],[-118.29717599997967,46.75712399985631],[-118.2969459998259,46.757098999893934],[-118.29694900019894,46.75721600025796],[-118.29688399990162,46.759967000017774],[-118.2995519998887,46.75998200030592],[-118.30040200018361,46.75998899982356],[-118.30112600008177,46.759991999880285],[-118.30602600003789,46.75993500000452],[-118.30641100000237,46.75992999990457],[-118.30677699970023,46.75991000011557],[-118.3075330002838,46.75986799985751],[-118.30768899991938,46.75970699989844],[-118.31019100022512,46.7596549998471],[-118.31288000012863,46.759598000230234],[-118.3129620001444,46.759673999705974],[-118.31524699981685,46.7596170001092],[-118.3181519996304,46.75954400001932],[-118.31817000007207,46.75881000028699],[-118.31818599996559,46.758161000039806],[-118.31833300027868,46.75225200001997],[-118.31836500006574,46.751356999763175],[-118.31843600021085,46.7511159997516],[-118.31898100000889,46.75110899969684],[-118.31897900035908,46.750526999790196],[-118.31899699990241,46.75038599987285],[-118.31898600003176,46.75024899977011],[-118.31899699990241,46.749972999956775],[-118.31899699990241,46.74986600009281],[-118.31899600007749,46.74968300009768],[-118.31901100014613,46.74961199989866],[-118.31902299984168,46.74954400024455],[-118.31899100005465,46.74940699984812],[-118.31900000027547,46.749258999783336],[-118.31908599959087,46.74925800018077],[-118.31912999997179,46.748755000157765],[-118.31915599991109,46.74845099971711],[-118.3192349995538,46.74845000009957],[-118.31927100043713,46.7480459998255],[-118.31931400009483,46.7480459998255]]]},"properties":{"AREALAND":"1714577","AREAWATER":"0","BASENAME":"Washtucna","CBSAPCI":"N","CENTLAT":"+46.7539105","CENTLON":"-118.3105393","FUNCSTAT":"A","GEOID":"5376440","INTPTLAT":"+46.7539105","INTPTLON":"-118.3105393","LSADC":"43","MTFCC":"G4110","NAME":"Washtucna town","NECTAPCI":"N","OBJECTID":7874,"OID":"27890225708851","PLACE":"76440","PLACECC":"C1","PLACENS":"02413453","STATE":"53","DISP_CLR":2,"slug":"washtucna","jurisdiction_key":"washtucna_city","county_fips":["53001"]}}]}
