{"type":"FeatureCollection","features":[{"type":"Feature","geometry":{"type":"MultiPolygon","coordinates":[[[[-120.36792299996442,47.444491000121204],[-120.36792600033745,47.444317000165015],[-120.36778700042028,47.44265799990949],[-120.36778499987216,47.44263100013407],[-120.36771499955196,47.4418659997256],[-120.36761499999282,47.44082699976649],[-120.36762900023653,47.44082699976649],[-120.36762800041161,47.44080899969632],[-120.36762599986348,47.44077599975424],[-120.36757800018293,47.43992000024646],[-120.36749600016716,47.43842099998532],[-120.36743400024287,47.43728600019963],[-120.36736200027286,47.43728500006107],[-120.36580499979821,47.43726800013324],[-120.36569199982031,47.43726499971649],[-120.3656499999875,47.43702899981554],[-120.3655710003448,47.43649100010597],[-120.36471799967688,47.43649299980561],[-120.36453699992691,47.43648899979863],[-120.3645300002542,47.43610900017802],[-120.36451199981255,47.43515199971612],[-120.36410500010678,47.43515899975413],[-120.36417700007681,47.43475300026471],[-120.36417700007681,47.43455699976725],[-120.36418499957442,47.434423000209854],[-120.36407699961936,47.43435300002424],[-120.3637059998986,47.43417199978974],[-120.3633460000485,47.43399599993831],[-120.36281200012111,47.433735000283285],[-120.36260500043188,47.43362000016183],[-120.36239299982144,47.43348199980586],[-120.36214099992637,47.43327200007581],[-120.36208700039803,47.43323199997431],[-120.36200399965905,47.433191000233755],[-120.3619099999477,47.43316399985358],[-120.36180899966537,47.43315200028781],[-120.36175900033496,47.43315299989729],[-120.36174000006837,47.4328280000404],[-120.36172900019771,47.43261699990397],[-120.3617199999769,47.432457999985175],[-120.36170699955811,47.432205000052846],[-120.361747999566,47.432205000052846],[-120.3617199999769,47.43135199980118],[-120.36171599977892,47.43128899972943],[-120.36176699983258,47.43130000007539],[-120.36181899971109,47.431310999811295],[-120.36188700038149,47.43133700028287],[-120.36191599979546,47.43134900026249],[-120.36191699962039,47.43128400028965],[-120.36191199959754,47.43093099986735],[-120.36190699957464,47.430829999708536],[-120.3619099999477,47.430693999856366],[-120.36195900035149,47.43069700004009],[-120.36237899957773,47.430804999855916],[-120.36271800040979,47.4308329998845],[-120.3627190002347,47.430851999982266],[-120.3627200000596,47.430916999880964],[-120.36272400025757,47.43110900015071],[-120.36276500026544,47.43107600020167],[-120.36286999984743,47.43107499994509],[-120.36297799980247,47.431074000296135],[-120.36350800043019,47.43106999987723],[-120.36426400011545,47.43106699971477],[-120.36437299989541,47.43105700018477],[-120.36437200007049,47.43102800001788],[-120.3643600003749,47.43095500000895],[-120.36432799968954,47.430888000244586],[-120.36442899997188,47.43087899972554],[-120.36446400013199,47.430876000159905],[-120.36452500023134,47.43087100007314],[-120.36479300001993,47.43084800015414],[-120.36493500031018,47.43083600006034],[-120.36499100038667,47.43083099996978],[-120.36513299977857,47.43084300006477],[-120.36522099964212,47.43083799997488],[-120.36522099964212,47.430850000068226],[-120.36532699994731,47.43085799972387],[-120.36532600012242,47.43082099978727],[-120.36522800021312,47.43076999979918],[-120.36476000040798,47.43052699989225],[-120.36395899961862,47.430544999833835],[-120.36395699996876,47.43037000027608],[-120.36395500031895,47.43012999995375],[-120.36409000003817,47.43013199989511],[-120.36409000003817,47.430005999793885],[-120.36409000003817,47.42989600021134],[-120.36418600029765,47.42989499993234],[-120.36456700006416,47.429894000260965],[-120.36443900001763,47.429630000071676],[-120.3643739997203,47.4294600001236],[-120.36436899969743,47.4294370001957],[-120.36436899969743,47.429401000156254],[-120.36436799987251,47.42934499977584],[-120.36436799987251,47.42930299975533],[-120.36436299984965,47.429080000184534],[-120.36435700000185,47.4287239998763],[-120.3643529998039,47.42845700019194],[-120.36434000028343,47.42767600004764],[-120.36433899956019,47.42761299982966],[-120.36452600005626,47.42756700017275],[-120.36463400001129,47.42754100026963],[-120.36473500029363,47.427514999745945],[-120.36481200028652,47.42749699998358],[-120.36498600036379,47.42744799985654],[-120.36500700028019,47.42779499984838],[-120.36502200034882,47.42805500008576],[-120.36513799980143,47.42805100004506],[-120.36528099991658,47.428046000297655],[-120.36539700026756,47.42804200025632],[-120.36566699970595,47.428032000151575],[-120.36564099976668,47.427550000144066],[-120.36562300022334,47.427202999752495],[-120.36566900025407,47.42718299983009],[-120.36579800012554,47.427118999905765],[-120.36588699981397,47.427074999874655],[-120.36598700027142,47.42700899975905],[-120.36632600020512,47.42686700016898],[-120.36647500016805,47.42681399992851],[-120.36667799965932,47.42676100024237],[-120.36685599993456,47.42669400000095],[-120.36694100032335,47.42664899988162],[-120.36694100032335,47.42655700005818],[-120.36693399975235,47.42613899989221],[-120.36693200010254,47.426024000188995],[-120.36693200010254,47.42600300007339],[-120.36624199964122,47.426010999857944],[-120.36602800027929,47.42601299995582],[-120.36592500034712,47.4260139997009],[-120.36560800015471,47.426017999896345],[-120.36560700032982,47.425945999977806],[-120.36560399995679,47.425779999891574],[-120.3655649995987,47.42578100024879],[-120.36549500017682,47.42578299974764],[-120.36531299970363,47.42578799971002],[-120.36441599955309,47.42581199976586],[-120.36406300027399,47.425823000041035],[-120.36401100039545,47.425823000041035],[-120.36370300042385,47.42583099985294],[-120.3636630002409,47.42583200020918],[-120.3629309999468,47.42585100028906],[-120.36217299971342,47.425849000185025],[-120.3616630000755,47.425845999724906],[-120.36037099991475,47.42583099985294],[-120.36038599998335,47.42638200000295],[-120.36018400031699,47.42637799983517],[-120.35973499988009,47.42624499985585],[-120.35969499969714,47.42623200018713],[-120.35939599994639,47.42592499983105],[-120.35935999996136,47.42588800007306],[-120.35924299978551,47.42584499997669],[-120.35912800015778,47.42582099993589],[-120.35905799983759,47.4258060000568],[-120.35903699992117,47.42512399970088],[-120.3590160000048,47.42445900005007],[-120.35900500013415,47.42408900011192],[-120.35900400030926,47.42405899997011],[-120.35812100040239,47.4240470001517],[-120.35764400037641,47.424062999706386],[-120.35707199991587,47.42408199981699],[-120.35677399999004,47.4240920000644],[-120.35645199977478,47.424103000091186],[-120.35643199968327,47.424103999872536],[-120.35637200030713,47.424106000042876],[-120.35633999962177,47.42323499980427],[-120.35632399972826,47.42279199998908],[-120.35632000042861,47.42267700026724],[-120.35631700005555,47.42257600007178],[-120.35631100020777,47.42245600020752],[-120.35630899965963,47.4224289997901],[-120.35617399994041,47.42025500015403],[-120.35612700008475,47.41950099998795],[-120.35611399966596,47.41929499988317],[-120.35610399962022,47.41842799983702],[-120.35607799968096,47.41691300016971],[-120.35606500016048,47.416479999910415],[-120.35593299991599,47.41462399981574],[-120.35586699979376,47.413700000075835],[-120.3558140000903,47.41278899988045],[-120.35580499986949,47.41256300025757],[-120.35582300031112,47.412445000069035],[-120.35589600010607,47.412366999799346],[-120.3559820003198,47.41223799970758],[-120.35608400042706,47.411993999951775],[-120.3561000003206,47.411967000248175],[-120.35611200001614,47.41193499986104],[-120.35614899982606,47.41183899979879],[-120.35616200024486,47.411807999956565],[-120.35624300043571,47.41159600003693],[-120.35626400035213,47.41152699990767],[-120.35632399972826,47.411339000039476],[-120.35644500010207,47.410975999905155],[-120.35651200004922,47.410799000268696],[-120.35653299996562,47.41072300006361],[-120.35638499982764,47.41065400000645],[-120.35570000028748,47.41017699978172],[-120.35554999960137,47.4100719997333],[-120.35538800011796,47.40995999973457],[-120.35528000016292,47.409884000142604],[-120.35476700015194,47.40952700005582],[-120.35444300028686,47.4093019998717],[-120.35369199972615,47.409708999985234],[-120.35323300014186,47.40978000017126],[-120.35137199989362,47.41109499976598],[-120.35104999967835,47.41150800012934],[-120.35094500009635,47.41151699970521],[-120.35083100029355,47.41152699990767],[-120.35077199984399,47.411532000008165],[-120.35065399984322,47.4115819997713],[-120.35063999959951,47.41158799988562],[-120.35055599993392,47.411622999930735],[-120.35049800020761,47.41160100013087],[-120.35037500018396,47.41156800010988],[-120.35026300003095,47.41155099977785],[-120.35024600031251,47.411546000287046],[-120.35013499998445,47.41152899994791],[-120.35002299983147,47.41152699990767],[-120.34991900007438,47.411538000128125],[-120.34982199999,47.41155999995431],[-120.34976099989063,47.4115819997713],[-120.34972699955544,47.411595000018046],[-120.34942399960676,47.41170000006973],[-120.34899599998457,47.4118939999445],[-120.34850600043812,47.412092999759786],[-120.34824399959899,47.41217399985113],[-120.34787700007618,47.41227299992863],[-120.34754599964005,47.41231300015278],[-120.34744899955567,47.41232200019906],[-120.34705100007075,47.41236099977378],[-120.34671100031211,47.412385999875646],[-120.3466540004107,47.41238999989085],[-120.34663900034211,47.412391999898354],[-120.34637499985314,47.412427000017075],[-120.3462159998445,47.412436000043826],[-120.34611399973723,47.41243400003803],[-120.34605299963786,47.41243300003506],[-120.3458869999565,47.41241599998226],[-120.34573399979563,47.412386999879516],[-120.34525500011985,47.412249999785985],[-120.34473399971291,47.41208799971251],[-120.3445830001002,47.41205199996626],[-120.3443089995655,47.41199799999675],[-120.34406400024142,47.41196300020084],[-120.34401800021065,47.41195600011727],[-120.34389600001194,47.411947000008496],[-120.3436759999039,47.41192999979876],[-120.3443160001365,47.41192499973605],[-120.34463400015383,47.41192899978626],[-120.34604500014025,47.41194499998409],[-120.3460419997672,47.41179499976241],[-120.34603900029249,47.41160800026162],[-120.346015000003,47.410066000054215],[-120.34601400017809,47.41002900009307],[-120.3460130003532,47.40987599973123],[-120.3446400000016,47.40987200013303],[-120.34317200011375,47.409863999719825],[-120.3430840002502,47.409816999699444],[-120.34229300040488,47.40939700024231],[-120.34179999958705,47.40878400026312],[-120.34091400020549,47.4084580000241],[-120.34048999988293,47.40796200013155],[-120.33859000017497,47.40796599987479],[-120.33831700036347,47.408155999792605],[-120.33799099995026,47.408346999713515],[-120.3379459997444,47.40831999996407],[-120.33789200021606,47.40828799979278],[-120.33770600044322,47.40818599987698],[-120.33748299996215,47.40808100011489],[-120.33739599992349,47.40804700023393],[-120.33735099971767,47.408039000151476],[-120.33729899983912,47.40803499980581],[-120.33727000042511,47.408039000151476],[-120.33724299976261,47.408046000147706],[-120.33721699982337,47.408054999707254],[-120.33719300043224,47.408067000130806],[-120.33717300034074,47.408082000200494],[-120.337155999724,47.40809799974316],[-120.3371209995639,47.408154999708444],[-120.33709999964749,47.40823099997143],[-120.3370939997997,47.408341999918555],[-120.33709600034786,47.40835799999025],[-120.33710399984544,47.408383000168506],[-120.3368879999354,47.40850600011885],[-120.33656700044335,47.40825299996314],[-120.33645699994015,47.408169000277105],[-120.33642199978006,47.40814899981099],[-120.33635999985579,47.40811399988898],[-120.3363409995892,47.408103000169255],[-120.33621699974064,47.4080489997984],[-120.33617900010582,47.4080369999787],[-120.33620000002222,47.40797099970544],[-120.33663299966724,47.40797600014355],[-120.3368750004149,47.40797600014355],[-120.33685000030056,47.40729100014389],[-120.33641400028247,47.40729100014389],[-120.33604299966336,47.40729100014389],[-120.33604400038661,47.407359000251866],[-120.33604500021153,47.40737199971714],[-120.33592499966262,47.40736900002789],[-120.33566000024705,47.4073619999417],[-120.33567000029278,47.40708300009104],[-120.33554600044423,47.407086999901075],[-120.33554700026914,47.40617000009653],[-120.3353199995901,47.406020999967154],[-120.33501499999159,47.40582100018367],[-120.33488399957201,47.405728999833705],[-120.3348610000058,47.40567200028307],[-120.33481699962488,47.405622999905376],[-120.33486000018088,47.40559300018519],[-120.33491899973212,47.40555200019542],[-120.33491999955704,47.40547299991758],[-120.33491999955704,47.405319999696694],[-120.33491899973212,47.40530200024951],[-120.33492200010518,47.40429199979449],[-120.33390799977873,47.40427900017709],[-120.33369199986869,47.404276999861544],[-120.33365900025672,47.40427599970369],[-120.33358999976143,47.40427599970369],[-120.33325099982771,47.40428300020001],[-120.33252299973158,47.40411900022708],[-120.3325100002111,47.404115999744555],[-120.33249299959434,47.4042199999557],[-120.33248799957147,47.404255000033196],[-120.33122600044628,47.4042490002995],[-120.33106999991234,47.40424800014112],[-120.33096600015529,47.40424800014112],[-120.33095000026174,47.402194999829206],[-120.3309460000638,47.40159099999693],[-120.33093799966788,47.40064000018067],[-120.32955599999373,47.40063500026222],[-120.32729499971241,47.400626000043],[-120.32724200000898,47.40062499981588],[-120.32686899974007,47.400624000196785],[-120.32632200029221,47.40062100012326],[-120.32632099956899,47.40056099983288],[-120.32575999987743,47.40057800006397],[-120.32552300005096,47.40058299998783],[-120.32525199988932,47.4005920002144],[-120.32524600004153,47.400198000206494],[-120.32495700033652,47.40020000006888],[-120.32453999968668,47.40020199993123],[-120.32443900030268,47.40020199993123],[-120.32444299960231,47.40066900006312],[-120.32444599997537,47.400734000139984],[-120.3244560000211,47.40097700015673],[-120.32447000026481,47.40160300006907],[-120.32425799965438,47.40160700029518],[-120.32425799965438,47.401624000188754],[-120.32400599975931,47.401624000188754],[-120.32400599975931,47.40159500022395],[-120.32113100008299,47.40156699984444],[-120.32094699995994,47.40132400011683],[-120.32049599987326,47.400988000148494],[-120.32050400026918,47.40065900023123],[-120.32050400026918,47.40063099996231],[-120.31998600023533,47.400621999742405],[-120.3198439999451,47.400621999742405],[-120.31917799977322,47.400597999756535],[-120.31909900013052,47.400603999906046],[-120.31908400006189,47.39978800005457],[-120.31907999986394,47.399380999896636],[-120.31908900008479,47.399056000093],[-120.31904899990181,47.399054999836075],[-120.31904600042705,47.39884200000891],[-120.31905999977246,47.39879699979822],[-120.31903100035846,47.39736199974799],[-120.31902899981033,47.39720499973306],[-120.31899700002326,47.39719299987532],[-120.31895699984031,47.397177000060786],[-120.31846499974569,47.39697700014489],[-120.31840899966922,47.39695000004031],[-120.31836799966132,47.39693800012454],[-120.31832099980565,47.39692400021934],[-120.31823700014007,47.39691400028476],[-120.3179729996511,47.39691899994824],[-120.3178510003507,47.396920999935126],[-120.31772900015196,47.39691899994824],[-120.31769900001471,47.39691899994824],[-120.31769999983963,47.39701800011958],[-120.3177049998625,47.3974480002163],[-120.3177049998625,47.39750399986601],[-120.31674099976483,47.397497000293086],[-120.31674400013786,47.39753000000887],[-120.31637900026487,47.397533999936144],[-120.31637900026487,47.3975770000475],[-120.31638199973962,47.39782500021691],[-120.31539400025078,47.39781499984524],[-120.3152050001049,47.39781299989228],[-120.31519800043222,47.3970740002263],[-120.31520099990695,47.396893999801854],[-120.31460800042832,47.396887999837936],[-120.3142119996949,47.39688500015972],[-120.31376700035426,47.396875999908005],[-120.31375700030853,47.395392999998286],[-120.31375200028569,47.39460199974148],[-120.31363699975962,47.39460199974148],[-120.31363900030776,47.39443300013836],[-120.31364599998044,47.3937560002053],[-120.3136569998511,47.393272999828945],[-120.3136560000262,47.39320600014983],[-120.31298400000655,47.39320600014983],[-120.31291399968636,47.39320600014983],[-120.31088099990897,47.39179399983266],[-120.31086500001545,47.39172299972954],[-120.31083900007619,47.39136200022658],[-120.31081399996184,47.39103599981242],[-120.31074700001467,47.39073199982548],[-120.31055700004387,47.39063800026678],[-120.31037299992086,47.39037800013546],[-120.31037799994373,47.390365000125605],[-120.31047800040116,47.39007600024867],[-120.31052500025685,47.390040999874024],[-120.31062599964085,47.389931999931036],[-120.31062099961798,47.38990400004318],[-120.310588000006,47.3897039998904],[-120.3106010004248,47.38943900025228],[-120.31026099976788,47.389430999776614],[-120.31023900002656,47.38942999994516],[-120.31015199998795,47.3894239997395],[-120.310107999607,47.38941999980475],[-120.31011299962987,47.389403000230786],[-120.31020899988933,47.38906499997841],[-120.31021599956203,47.3890420000408],[-120.31023800020166,47.388921999780486],[-120.31025300027028,47.38883699983626],[-120.31028500005733,47.388672999828344],[-120.31030299960067,47.38858400009254],[-120.31032199986726,47.38850099990968],[-120.31034100013383,47.38841199988345],[-120.31037600029391,47.388255999816565],[-120.31040100040829,47.38814699983115],[-120.31042200032468,47.38805900028105],[-120.31046400015747,47.387879000080176],[-120.31048000005097,47.38781300009581],[-120.31051100001314,47.38768300021657],[-120.31057200011249,47.38749799999941],[-120.31044800026392,47.38749499978672],[-120.31042300014957,47.38749499978672],[-120.31025400009517,47.38749499978672],[-120.30839799986983,47.38749600026309],[-120.30830400015847,47.387505000292315],[-120.3082420002342,47.387511000108226],[-120.30809099972315,47.38752599994909],[-120.30715799958757,47.38752100000258],[-120.30635800041975,47.38751699992344],[-120.3059530003638,47.387515000187854],[-120.30589200026444,47.387515000187854],[-120.30585399973127,47.3875380001836],[-120.30553300023922,47.38779000022006],[-120.30618199979435,47.388235999696654],[-120.30619000019027,47.388501999758816],[-120.30619900041108,47.388835000150735],[-120.30618199979435,47.388881000196584],[-120.3060539997478,47.389116000227304],[-120.30580699987561,47.38956599996286],[-120.30577000006568,47.38963300001249],[-120.30583100016506,47.38964099984932],[-120.30593699957195,47.38965700012755],[-120.30591800020369,47.38967999979674],[-120.30583199998995,47.38978300009616],[-120.30578199976124,47.389842999888515],[-120.30602600015872,47.38993800007881],[-120.3061159996721,47.389976999806464],[-120.30616099987792,47.389996000053195],[-120.3060660003417,47.39011000017338],[-120.30602799980855,47.39015700014044],[-120.30575300034724,47.39052300026165],[-120.30560500020925,47.390775000014116],[-120.30553499988903,47.3908960001163],[-120.3056999997455,47.39099100023303],[-120.30639299968152,47.39115199971336],[-120.30770900013172,47.39145899969751],[-120.30828800026495,47.391592999763844],[-120.30851699969548,47.39168100010311],[-120.3085510000307,47.39169399978836],[-120.30868099972703,47.39172299972954],[-120.30864899993998,47.39179500022742],[-120.30864399991711,47.39181300003249],[-120.308580000343,47.39209799977521],[-120.30855900042663,47.39219399993685],[-120.30846800019002,47.39260299981252],[-120.30843200020502,47.39276599998613],[-120.30841399976335,47.39286599982073],[-120.30815900039352,47.39281899983694],[-120.30771099978156,47.39280099976738],[-120.30703799993698,47.39280700019666],[-120.30700500032503,47.39280700019666],[-120.30690900006556,47.392807999964106],[-120.30689999984475,47.393198000245995],[-120.30835000018924,47.39322299971342],[-120.30833900031858,47.39349100026493],[-120.30833500012061,47.39358099998105],[-120.30833599994553,47.39384899992814],[-120.3083400001435,47.39426899990818],[-120.3083409999684,47.394415999748894],[-120.30834299961823,47.39460700023245],[-120.30834400034145,47.39486000025288],[-120.30834599999126,47.395008999720616],[-120.30834599999126,47.395157000260404],[-120.30834599999126,47.395603999745106],[-120.3083469998162,47.39575300014961],[-120.3083469998162,47.395939999995775],[-120.30814199977678,47.3959390002878],[-120.30568100037723,47.39593199989888],[-120.30568399985196,47.39683299983267],[-120.30658600002538,47.396836999812905],[-120.3065890003984,47.39664699980978],[-120.30730599972561,47.39665299980115],[-120.307298000228,47.396796999997186],[-120.30749599969641,47.396814000226605],[-120.30815199982251,47.39682400018016],[-120.30835299966398,47.39681899989958],[-120.30835699986193,47.39688399986158],[-120.30835799968682,47.39691200029761],[-120.30836199988482,47.39699399970819],[-120.30837399958037,47.397242999872546],[-120.30837799977832,47.39732699995559],[-120.30838100015137,47.39741600012917],[-120.30839200002204,47.39768599998863],[-120.30839600021999,47.39777599983705],[-120.30838699999916,47.397857999727265],[-120.30836400043295,47.3981059997902],[-120.30835600003704,47.39818900004831],[-120.30767099959859,47.39818900004831],[-120.30749999989436,47.3981899997136],[-120.30688300012632,47.39818199995831],[-120.30688099957815,47.39844399982553],[-120.30687899992832,47.39866000023087],[-120.30666800004114,47.39865799970196],[-120.3057149998141,47.39864499991042],[-120.30544399965245,47.398637000224205],[-120.30507299993168,47.39863500030245],[-120.30494999990805,47.398637000224205],[-120.30488899980867,47.39863900014589],[-120.30465899965492,47.398635999959325],[-120.30451700026299,47.39863400003753],[-120.30382500015186,47.398625999741576],[-120.30346299975359,47.3986219998972],[-120.30346299975359,47.39850499975382],[-120.3034619999287,47.39823999998086],[-120.30325199986642,47.39823999998086],[-120.30305699987275,47.39823999998086],[-120.30306500026867,47.39850900021519],[-120.3030679997434,47.398618999709676],[-120.30307000029154,47.39872000025392],[-120.30307100011646,47.398791000051],[-120.30307699996425,47.39900400008433],[-120.30307899961404,47.39907500010678],[-120.30307899961404,47.39925400012409],[-120.30308100016217,47.399791000175526],[-120.3030819999871,47.3999700001925],[-120.30308100016217,47.400057000290246],[-120.30307899961404,47.40032000018744],[-120.30307899961404,47.400407999938494],[-120.30307799978914,47.400449000283636],[-120.30085599986587,47.40043899980194],[-120.29838299987246,47.40042500021896],[-120.29815000024396,47.4004300001573],[-120.2980559996343,47.400229999820134],[-120.29802999969505,47.40017599989077],[-120.2979550002503,47.40001399977064],[-120.29793000013593,47.39996099985968],[-120.2978249996556,47.39976400029685],[-120.29767800024085,47.39948400008585],[-120.29751800040727,47.3991709997195],[-120.29741700012494,47.398972999984565],[-120.29716600005477,47.39845400007777],[-120.29641299984426,47.3968999997651],[-120.29637400038455,47.396820000199],[-120.29598000019924,47.396796999997186],[-120.29546600036333,47.396812999927114],[-120.29510999981288,47.396834000131825],[-120.29511400001083,47.3968449997724],[-120.29504500041385,47.39685099974121],[-120.29497400026874,47.396856000018765],[-120.29487600035947,47.39686199998633],[-120.29498900033735,47.397338000101335],[-120.29517900030815,47.39777199992815],[-120.29557900034123,47.39873499994494],[-120.29588999978755,47.399664999812494],[-120.29614199968262,47.400276000256746],[-120.2962110001779,47.4004330002417],[-120.2956760004256,47.400435999717885],[-120.29548700027972,47.40043800017933],[-120.29312499971607,47.400435999717885],[-120.29284699988175,47.40043699994864],[-120.29316800027208,47.40075999990507],[-120.2931749999448,47.40076700026057],[-120.29366100019159,47.402025000057215],[-120.2937880004132,47.40235500015075],[-120.29474199956682,47.40482500019342],[-120.29484600022224,47.405094000246265],[-120.29523399966145,47.40702799978485],[-120.29528300006524,47.40774899983742],[-120.29536500008098,47.40893999974945],[-120.29550099962512,47.40982500011979],[-120.29555800042486,47.4101809999647],[-120.29592900014562,47.41180699994175],[-120.29640399962345,47.413140999792965],[-120.29662100025672,47.4135199999213],[-120.2971330004428,47.41441500018622],[-120.29727499983473,47.414616000124404],[-120.29780499956414,47.415366999891326],[-120.29820999962011,47.4159399999703],[-120.29851500011695,47.416331999698755],[-120.29853600003334,47.41637800005551],[-120.2999980000734,47.419202000096966],[-120.30060099959775,47.42036799999176],[-120.30066199969713,47.42056699999848],[-120.30135299998334,47.422810000144764],[-120.30182699963629,47.423963000130726],[-120.30200800028454,47.42440299988148],[-120.30255599955731,47.42507499979581],[-120.30271799993903,47.425315000073766],[-120.30328200000366,47.426148000006336],[-120.30346799977649,47.42636599993765],[-120.30452499976062,47.42760600000338],[-120.3078820003841,47.431548000082216],[-120.3079819999432,47.43164799983276],[-120.30818199995973,47.43194799976739],[-120.3084820004337,47.43234800005839],[-120.30858199999284,47.43254799997529],[-120.30878200000937,47.43294799995954],[-120.30888199956847,47.43314800002686],[-120.30894100001805,47.43326700021668],[-120.30898200002592,47.43334799994177],[-120.30908300030825,47.43374799992192],[-120.30918299986736,47.433947999987154],[-120.30918299986736,47.43414799989992],[-120.3093829998839,47.43454799987568],[-120.3093829998839,47.434947999849214],[-120.30946099970168,47.435104000211794],[-120.30948300034134,47.43514800021485],[-120.30948300034134,47.43544800024949],[-120.30948300034134,47.43574799978908],[-120.30958299990044,47.436048000048835],[-120.30958299990044,47.436102999819795],[-120.30958299990044,47.43615800014089],[-120.30958299990044,47.4364480001651],[-120.30968300035786,47.43684800027876],[-120.30968300035786,47.43724799978215],[-120.3098830003744,47.43774800020192],[-120.31008300039095,47.43814800015479],[-120.31028300040748,47.43854800010478],[-120.31038299996662,47.438948000051894],[-120.31040600043113,47.439042000299935],[-120.31048300042406,47.439347999995974],[-120.3105650004398,47.43951299972489],[-120.31068300044059,47.43974799993693],[-120.31078299999969,47.44014799987481],[-120.31098300001622,47.44054799980949],[-120.31108299957536,47.44084800004311],[-120.31118300003277,47.44124800012393],[-120.3112829995919,47.44164800020132],[-120.31138300004933,47.442048000275314],[-120.31136100030801,47.44233399986699],[-120.31138300004933,47.442947999954114],[-120.31138300004933,47.44334799986456],[-120.31138300004933,47.44364799992778],[-120.3114449999736,47.443804000013635],[-120.31158300006587,47.44414800028164],[-120.31168299962496,47.44464800013584],[-120.3118829996415,47.44524800012743],[-120.31218300011547,47.44564800016739],[-120.31238300013202,47.44614799973696],[-120.31268299970766,47.44654800022322],[-120.31298300018163,47.44704799974296],[-120.31338300021471,47.4475479999773],[-120.3135790000333,47.44780999970162],[-120.31368100014055,47.44777699989862],[-120.31427199996934,47.44758299980967],[-120.31429899973354,47.447575000266575],[-120.3149170002248,47.447372999858814],[-120.31598000005671,47.44702600016535],[-120.31634999995259,47.44690500019792],[-120.31663100015997,47.44681599981324],[-120.3176479999611,47.44690400024221],[-120.31870999996808,47.446997000293926],[-120.3188720003498,47.4470110002548],[-120.31885399990814,47.44694800009771],[-120.31969099978423,47.44714100014758],[-120.320281999613,47.44728299971],[-120.32048699965242,47.44735299970406],[-120.32059600033068,47.44740999969981],[-120.3207860003015,47.44747199996614],[-120.32086499994418,47.44753400015935],[-120.3208160004387,47.44759199990164],[-120.32079399979906,47.447598000164604],[-120.3206759997983,47.44762599976271],[-120.32079600034723,47.447764000081],[-120.32088900023365,47.44773699988875],[-120.3208990002794,47.44775400007891],[-120.32089599990631,47.447788999774154],[-120.32087099979196,47.44782899974448],[-120.32084800022575,47.447866999809634],[-120.32075100014136,47.44787100016661],[-120.32073699989768,47.44789200006137],[-120.32093699991421,47.447968000073175],[-120.32109400027304,47.44799099979931],[-120.32122800016737,47.447965000266635],[-120.3212259996192,47.447912999947725],[-120.32120999972571,47.44785300007659],[-120.32094699995994,47.44770799980181],[-120.32092900041661,47.44765599983627],[-120.32092400039373,47.44764000016367],[-120.32091099997494,47.447570999887134],[-120.320942999762,47.4475230001696],[-120.32103099962553,47.44753799993414],[-120.32124900008374,47.44763900022194],[-120.32138999965075,47.44774799983374],[-120.32153500031401,47.44780100025446],[-120.32153500031401,47.447856999827124],[-120.32157299994886,47.44790599978404],[-120.32163099967515,47.44798899992918],[-120.32182800021697,47.44807299987684],[-120.32194899969247,47.44817099995004],[-120.32210900042438,47.44830399980063],[-120.3222109996333,47.44845100010752],[-120.32248699981783,47.448760000119805],[-120.32260599964351,47.4489139997902],[-120.32283400014748,47.44923000010821],[-120.3229139996151,47.449341999796],[-120.32293399970656,47.44938899976746],[-120.32296899986667,47.449444000171944],[-120.32318499977674,47.44984700019906],[-120.32324900024916,47.44997699976466],[-120.32334700015846,47.45005000011346],[-120.32338300014347,47.45009100008188],[-120.32347900040293,47.45020699993788],[-120.32353700012925,47.45028300024944],[-120.32360200042659,47.45037599979386],[-120.32365599995494,47.450456000021575],[-120.32365099993207,47.45047999976238],[-120.32368000024438,47.45052799981872],[-120.32374299999357,47.45060299978103],[-120.32368299971913,47.45065900001522],[-120.32365299958188,47.450686999806194],[-120.32363900023648,47.45070199988337],[-120.3236400000614,47.45074000030267],[-120.32361699959688,47.45075899989458],[-120.3235820003351,47.45074999973709],[-120.3235630000685,47.45071600007303],[-120.32350299979406,47.45057800021045],[-120.32349000027358,47.4505530000205],[-120.32344500006776,47.4504990000557],[-120.32338599961818,47.45045699990974],[-120.32331000034854,47.45038300023624],[-120.32326599996759,47.45033599993809],[-120.32325599992186,47.45031700019337],[-120.32324099985324,47.450287999706575],[-120.32320200039351,47.45029699994316],[-120.32319900002045,47.450329000096886],[-120.32321099971601,47.45037099973762],[-120.32322599978461,47.45044500003544],[-120.32323500000545,47.450579000096305],[-120.32323699965528,47.45063100020929],[-120.32324599987612,47.45066599981251],[-120.32327000016556,47.450741000185445],[-120.32327699983826,47.45078999988542],[-120.32335499965605,47.45120600011071],[-120.32338800016633,47.4513849997149],[-120.32346099996127,47.451775000014266],[-120.32352500043369,47.451873999732804],[-120.32360599972623,47.45198099996144],[-120.32376700028303,47.45207999989965],[-120.32394499965993,47.45217900025891],[-120.32410600021673,47.45228900003458],[-120.32428799979161,47.4523990001876],[-120.32441599983812,47.452541999981776],[-120.32460599980895,47.45274099983414],[-120.32466100006052,47.454128000066014],[-120.32468299980182,47.45486999977092],[-120.32470200006838,47.45547299976826],[-120.32360900009927,47.45539899986377],[-120.32336899989976,47.455381999715065],[-120.32218600041728,47.45530399989124],[-120.31893900029696,47.45533000004786],[-120.31740600011177,47.45534299981762],[-120.31738299964724,47.45534800000857],[-120.31758299966376,47.455747999772896],[-120.31768399994613,47.456148000138874],[-120.31778400040353,47.45654799989161],[-120.3179840004201,47.45694800024587],[-120.3179840004201,47.45734799998678],[-120.3180839999792,47.457747999721654],[-120.3180839999792,47.458248000273734],[-120.3180839999792,47.458647999842945],[-120.3179840004201,47.458948000104165],[-120.3179840004201,47.459448000177375],[-120.31788300013773,47.45994599972431],[-120.31788300013773,47.460546000120935],[-120.31788300013773,47.46134600012069],[-120.3177819998554,47.46204600000367],[-120.3177819998554,47.462746000283325],[-120.31768200029629,47.46334599969827],[-120.31758199983886,47.463845999850285],[-120.31758100001396,47.46414600020946],[-120.31768099957306,47.46424599994872],[-120.31758100001396,47.46434600010503],[-120.31758100001396,47.46474600004268],[-120.31748099955651,47.46524600023923],[-120.3173809999974,47.46564600000866],[-120.31718099998086,47.46614600014656],[-120.31707999969854,47.466545999747424],[-120.31698000013942,47.46694599994809],[-120.31698000013942,47.4673460001411],[-120.31698000013942,47.467645999958236],[-120.31687999968199,47.467945999884876],[-120.31687999968199,47.468345999754945],[-120.31687899985707,47.46894600022856],[-120.31687899985707,47.46954599992523],[-120.31677900029796,47.47014600005924],[-120.31677900029796,47.470546000189024],[-120.31667899984053,47.470845999958414],[-120.31660799969542,47.4711860002582],[-120.31698500016229,47.47123900013174],[-120.3181180003144,47.47139800003901],[-120.31849599970782,47.47145199979495],[-120.31864200019602,47.471471999892906],[-120.31874799960292,47.47148700011314],[-120.31872699968652,47.47157600003661],[-120.31863600034825,47.471563000029896],[-120.31849200040818,47.47154299996657],[-120.31811199956827,47.4714889996969],[-120.31697299956839,47.47132699976941],[-120.31659400035002,47.47127299988503],[-120.31658400030429,47.471348000013094],[-120.31648399984688,47.47174800010289],[-120.31648399984688,47.47204800029754],[-120.31628399983032,47.472447999917186],[-120.31608399981378,47.47284800013551],[-120.31588399979724,47.47324799973807],[-120.3156839997807,47.47374799981733],[-120.3155840002216,47.47414799985575],[-120.31538400020504,47.474447999708076],[-120.31528399974763,47.474847999882876],[-120.31508399973107,47.47514799998912],[-120.31478400015543,47.47544800020421],[-120.31458400013888,47.47574799992092],[-120.31438400012236,47.47594799999485],[-120.31428399966491,47.476047999746385],[-120.31428399966491,47.47614799991473],[-120.31432499967278,47.476608999814694],[-120.31438400012236,47.47724800013511],[-120.31438400012236,47.47754799989675],[-120.31438400012236,47.47774799979812],[-120.31438400012236,47.47814799974571],[-120.31438400012236,47.47854800029096],[-120.31438400012236,47.47874800002881],[-120.31448399968146,47.4790479997259],[-120.31448399968146,47.479247999989006],[-120.31448399968146,47.479547999866824],[-120.31458400013888,47.47964800005256],[-120.31458400013888,47.47974800004799],[-120.31458400013888,47.47984799985307],[-120.31438400012236,47.48014799994766],[-120.31438400012236,47.48024800020562],[-120.3141840001058,47.48054799983752],[-120.31408399964839,47.4807479998547],[-120.31388399963183,47.481148000033365],[-120.31378400007272,47.48124800020925],[-120.3136839996153,47.481348000194835],[-120.31338400003963,47.481947999753665],[-120.31308399956566,47.48244800022249],[-120.31278399999002,47.48304799996724],[-120.31248400041436,47.483648000144285],[-120.31238399995694,47.484148000217075],[-120.31218399994039,47.48454800000558],[-120.31198399992385,47.48504800001105],[-120.3117839999073,47.485348000158154],[-120.31158399989077,47.485847999833524],[-120.31138399987422,47.48624800003224],[-120.31128400031511,47.48664800022022],[-120.31108400029858,47.48704799979026],[-120.31108400029858,47.48734800004875],[-120.31088400028203,47.48774799975142],[-120.31078399982461,47.488148000050124],[-120.31058399980806,47.4887480002497],[-120.31038399979153,47.48924799973283],[-120.31028400023241,47.489747999919246],[-120.31008400021587,47.49024800020166],[-120.30988400019933,47.490648000278185],[-120.3097839997419,47.49094800000555],[-120.30968400018278,47.49144799978966],[-120.30968400018278,47.49184799983145],[-120.30958399972536,47.492348000151765],[-120.30948400016625,47.492647999879914],[-120.30938399970881,47.49294799971516],[-120.3092840001497,47.493347999864525],[-120.30918399969228,47.494048000229824],[-120.30898399967573,47.49474799976154],[-120.3087839996592,47.495347999823665],[-120.30868400010009,47.49584800020202],[-120.30858399964262,47.49634800006795],[-120.30858399964262,47.49664800000854],[-120.30868400010009,47.49704799989311],[-120.30868400010009,47.49744799976508],[-120.308684999925,47.497848000231365],[-120.30858500036587,47.498148000098624],[-120.30858500036587,47.49834799986704],[-120.30848499990846,47.498647999912016],[-120.30848499990846,47.49894800006355],[-120.30838500034932,47.49934800002673],[-120.30838500034932,47.499548000079315],[-120.3082849998919,47.49964799981992],[-120.3082849998919,47.49974799997697],[-120.30844700027362,47.49984799994352],[-120.30843100038008,47.49995900027208],[-120.30821600029495,47.50145700018192],[-120.30809699957094,47.50219000012613],[-120.30984800021432,47.50220699970122],[-120.30997100023797,47.50219299987305],[-120.3102929995549,47.502193999990965],[-120.31040800008097,47.50219500010886],[-120.31063800023475,47.5022050000728],[-120.31081999980961,47.50222700022951],[-120.30984599966617,47.5050219998777],[-120.30920799998172,47.50679999982546],[-120.30913299963863,47.50701199971727],[-120.30905300017103,47.50727099976836],[-120.30890000001015,47.50794299997647],[-120.30878700003224,47.50827899988817],[-120.30909599982871,47.50829299991366],[-120.30948699964098,47.50781900000746],[-120.30991400033656,47.5073200001755],[-120.31047500002813,47.506644999780626],[-120.31069500013615,47.50638100009116],[-120.31125400017787,47.505708999910276],[-120.31143400010293,47.50549299999728],[-120.31160800018021,47.5052610000671],[-120.31303199968714,47.503356999798605],[-120.31390700009635,47.502187999890175],[-120.31422299956554,47.50219299987305],[-120.31420199964914,47.50114899991369],[-120.31446500031319,47.50114300030036],[-120.31645399970965,47.50109499972776],[-120.3170420000637,47.50108000007088],[-120.31759500025765,47.501067000081505],[-120.31850099973072,47.50104399990577],[-120.31941700014781,47.501020999719955],[-120.31929199957604,47.49570100009935],[-120.31926700036001,47.49473899985106],[-120.31926800018493,47.494385999784846],[-120.31928699955317,47.49047100027867],[-120.31929199957604,47.4877309997441],[-120.32036899965165,47.48619399969763],[-120.32061200022422,47.485849000262775],[-120.32103499982351,47.48524700006115],[-120.32122099959636,47.48498300021873],[-120.32173500033056,47.48425099970405],[-120.32225099981628,47.48351700018346],[-120.32251899960488,47.48313499998972],[-120.3230199999203,47.48233699991009],[-120.32422900024038,47.48051499993761],[-120.32425699982946,47.47961700007607],[-120.32474599955101,47.47961400025361],[-120.32474599955101,47.477686999990866],[-120.32471700013701,47.477435000195705],[-120.32498800029866,47.47723299973776],[-120.32593300012978,47.476534999908345],[-120.32706600028189,47.47580400009122],[-120.32718400028267,47.475732000295004],[-120.32778400033226,47.4753659997043],[-120.32882500042287,47.47473699990732],[-120.3301319997539,47.47394800021713],[-120.3303700003036,47.47383099985709],[-120.33039500041795,47.47381400020347],[-120.33114000023254,47.473333000081105],[-120.33138899975458,47.473172999892704],[-120.33163599962678,47.47299200024601],[-120.33213699994221,47.472644000113114],[-120.33259499970161,47.47232700015],[-120.33335100028515,47.47174900019339],[-120.3342900002685,47.47094000028272],[-120.33432799990332,47.470907999919866],[-120.33452200007207,47.47078399992382],[-120.3347410003552,47.47067899992367],[-120.33492399975496,47.47061799980408],[-120.33511999957356,47.47057700005223],[-120.3351930002668,47.47057300020805],[-120.33520800033544,47.47057200009513],[-120.33547500029911,47.47056899975632],[-120.33556399998757,47.47056899975632],[-120.33571799997337,47.470552999767975],[-120.33574399991264,47.4705510001486],[-120.33597499989133,47.470521999890614],[-120.33602400029513,47.47050200003837],[-120.33606100010505,47.47047100013094],[-120.33608000037162,47.470434000119525],[-120.33608500039448,47.47036799973906],[-120.33609700009005,47.470213000231006],[-120.33611100033376,47.47001999984021],[-120.33614099957266,47.469906999738704],[-120.33614599959553,47.46989600017797],[-120.33619800037238,47.4698000001602],[-120.33628299986289,47.469700000056406],[-120.33639099981792,47.46961200012344],[-120.33651999968934,47.469538000079574],[-120.33666500035262,47.46948000025134],[-120.33682400036129,47.46943999974625],[-120.33694099963883,47.46942500015622],[-120.33699000004265,47.46941899995467],[-120.33726399967901,47.46941899995467],[-120.33758599989429,47.46941899995467],[-120.33855199964181,47.46941899995467],[-120.33887499968199,47.469420000089485],[-120.33897799961416,47.46941799981979],[-120.33928999978369,47.469416000157246],[-120.33939400043909,47.46941500002231],[-120.33955199972452,47.46941299975243],[-120.33955199972452,47.46948400017875],[-120.33953900020404,47.47000400029203],[-120.33953400018117,47.47021499986323],[-120.33952400013544,47.470635999996034],[-120.33951099971664,47.471152999943264],[-120.34084200023545,47.47111499970223],[-120.34092599990103,47.471113000104246],[-120.34153199979845,47.47109600017857],[-120.3421550003126,47.47107800014416],[-120.34216199998531,47.47066500019116],[-120.3430709998314,47.4706569999086],[-120.34313899960347,47.47065599979728],[-120.34318899983218,47.47001300019027],[-120.34320700027384,47.46977399987218],[-120.3430830004253,47.46974200001384],[-120.34299600038663,47.46972000021384],[-120.34291099999784,47.46969700027501],[-120.3426399998362,47.46962700026736],[-120.3427749995554,47.46939599988413],[-120.34283599965478,47.469287999735215],[-120.3425300002313,47.469199999719685],[-120.3423949996138,47.46916099974849],[-120.34197000036467,47.469014000250894],[-120.34158100020224,47.4688669997349],[-120.34140299992701,47.468792999856625],[-120.34116899957529,47.46869600010456],[-120.34103700022912,47.46863299981284],[-120.34087599967232,47.46855400006326],[-120.34083200018969,47.46853000006967],[-120.34046499976859,47.46833300016381],[-120.34023200014009,47.46819800024892],[-120.34003499959829,47.46808399971338],[-120.3399109997497,47.468007000069356],[-120.3397049998854,47.46788100018778],[-120.33967899994613,47.46784899978417],[-120.33959000025764,47.46777299996207],[-120.33941700000533,47.46763300019393],[-120.33916699976004,47.46747200009066],[-120.33891900006292,47.46729800025436],[-120.33871099965046,47.467151999975236],[-120.3388040004352,47.46707100006969],[-120.33889800014654,47.466995999910935],[-120.33897599996435,47.46692599994959],[-120.33903700006371,47.46687100021821],[-120.33911999990438,47.46677399995549],[-120.33917799963069,47.466674000167124],[-120.3391979997222,47.46659399971361],[-120.33918699985153,47.46646900027947],[-120.33914199964569,47.46633600021506],[-120.33907600042177,47.46624200015834],[-120.33900100007871,47.466164000048224],[-120.33896400026879,47.46613100022374],[-120.33892699956056,47.466106999731124],[-120.33898500018519,47.46590099985948],[-120.33884999956764,47.46587399986952],[-120.33869300010714,47.465828999855475],[-120.33855599983978,47.465771999782355],[-120.33842699996835,47.46570099980726],[-120.33832300021128,47.465626000122825],[-120.33823100014976,47.465539999859104],[-120.3379010004369,47.465249999881564],[-120.33781100002518,47.465172000121335],[-120.33760000013801,47.465013000204955],[-120.33738599987775,47.46480999975026],[-120.33682900038416,47.46433800007524],[-120.33670700018541,47.46423299995084],[-120.33660500007817,47.46412300026071],[-120.33651700021461,47.464002000153556],[-120.33643600002377,47.46386899992019],[-120.33635200035818,47.46371700019579],[-120.33628700006085,47.46355300011216],[-120.33625699992362,47.463440999716575],[-120.33620500004508,47.46318499982505],[-120.33614099957266,47.46281500008474],[-120.33612399985421,47.46257000006291],[-120.33609100024229,47.46228700017078],[-120.33609000041737,47.461906000165364],[-120.33617499990785,47.46093700019168],[-120.33615499981634,47.46083300025323],[-120.33617599973277,47.460741999758746],[-120.33625600009873,47.46038799988095],[-120.33626600014446,47.46034900005236],[-120.33654800017678,47.45934000023862],[-120.33657300029111,47.45925300029536],[-120.33660500007817,47.45913199991149],[-120.33664299971299,47.45899099987583],[-120.33665399958365,47.4589469997701],[-120.33668899974376,47.45881800024165],[-120.33670100033765,47.458776000058506],[-120.33671499968302,47.45872100030302],[-120.33675800023904,47.45855899989381],[-120.33677300030766,47.45850500025382],[-120.33680300044489,47.458390000217136],[-120.33687000039203,47.45814000029954],[-120.33741299964194,47.4583679999174],[-120.33808499966159,47.458626000258555],[-120.33858400032719,47.458773999991095],[-120.33925899982155,47.45877100019353],[-120.33951200043988,47.45877199992361],[-120.3395559999225,47.45877199992361],[-120.33984100032782,47.458773000261054],[-120.34010300026866,47.458773999991095],[-120.340128000383,47.458773999991095],[-120.34040299984431,47.45877499972112],[-120.34046200029384,47.45877499972112],[-120.34077500028832,47.458776000058506],[-120.34091699968022,47.458776000058506],[-120.34134600002562,47.45878700012417],[-120.34175600010444,47.4587800001931],[-120.34164999979922,47.458972000221216],[-120.34144200028507,47.45934799981431],[-120.34171799957127,47.459420999909796],[-120.34197500038756,47.459495999943954],[-120.34222899993244,47.4595760002674],[-120.34248000000262,47.45966100024988],[-120.34272699987483,47.45975099986721],[-120.34292600006644,47.45982899977536],[-120.34320800009876,47.45994599972431],[-120.34344199955217,47.460050000202635],[-120.34343400005459,47.45952399988881],[-120.34365699963732,47.4594229999526],[-120.34378300003404,47.45936600022165],[-120.34381999984393,47.4594070002155],[-120.34390000020989,47.459470999742],[-120.34399599957102,47.459525999927685],[-120.3441050002493,47.459570999871126],[-120.34439599960413,47.4596680000637],[-120.34467699981153,47.45978400005274],[-120.344881000026,47.45987000001553],[-120.34496899988957,47.45990399983488],[-120.34494200012539,47.45978699979247],[-120.34493700010252,47.459769000136625],[-120.34487799965295,47.45957000015623],[-120.34483800036833,47.45943700025001],[-120.34479700036043,47.45930100023997],[-120.34479300016248,47.45928499985837],[-120.3449849997831,47.45894199992138],[-120.34500800024763,47.458950000164954],[-120.34570700003147,47.45920399997767],[-120.34594700023095,47.459291000002054],[-120.34599699956138,47.45931000014877],[-120.3460619998587,47.45931999977574],[-120.34609700001879,47.45931900005607],[-120.34609600019388,47.459271000127856],[-120.34617700038474,47.45925300029536],[-120.34659999998405,47.459157000274644],[-120.34661699970248,47.459164999878126],[-120.34662900029635,47.45917799991452],[-120.3466819999998,47.45923600017792],[-120.3472319998207,47.4598619999119],[-120.34733300010306,47.459972999722275],[-120.34779599988532,47.45996500024168],[-120.34827899975907,47.459955000130066],[-120.3483080000714,47.459955000130066],[-120.34833599966049,47.459953999815106],[-120.34840799963052,47.45995300010751],[-120.34846100023228,47.459951999792516],[-120.34874099971645,47.45994599972431],[-120.34902299974875,47.45994099997059],[-120.34929999975817,47.45993499990114],[-120.34955599985122,47.45993000014637],[-120.34980600009648,47.459924999783766],[-120.35028899997022,47.45991599998024],[-120.35081600022491,47.45990500015079],[-120.35089099966969,47.45990399983488],[-120.35112199964836,47.459899000077165],[-120.35112699967122,47.46002799999013],[-120.3511319996941,47.46043499969832],[-120.35113300041733,47.460556000120135],[-120.35113300041733,47.46057600011289],[-120.35113300041733,47.460673999967184],[-120.3511669998542,47.46066599998595],[-120.3512859996799,47.46066999997674],[-120.35137299971854,47.460661000300696],[-120.3514620003053,47.46063699973996],[-120.35149200044255,47.46062400006432],[-120.3514980002903,47.46047499976817],[-120.35149900011523,47.46045200003539],[-120.35149999994013,47.460403999926875],[-120.35150400013809,47.46009800002698],[-120.351504999963,47.45988400019391],[-120.35150699961284,47.45965599986174],[-120.3515119996357,47.45910500008901],[-120.35165399992593,47.459116000085835],[-120.35183200020114,47.4590839998126],[-120.35193099993533,47.459061999803204],[-120.35210900021059,47.45895099989163],[-120.35222499966324,47.45886500024771],[-120.35229499998341,47.45872600017275],[-120.35222899986118,47.45864200023332],[-120.35309800042266,47.45770700025625],[-120.35357899974825,47.45717699993387],[-120.35464300030338,47.4560060002146],[-120.35534200008722,47.455216000153555],[-120.35568799969361,47.45471299989622],[-120.3568690004246,47.45270400009866],[-120.3570869999845,47.45228699972042],[-120.35714300006099,47.45218599985388],[-120.3575020000862,47.4516199997432],[-120.35892200029346,47.45158199995969],[-120.36214599994925,47.45149800014909],[-120.36711700005044,47.45136700022006],[-120.36767299971918,47.446678000045274],[-120.36779099971992,47.445683000048966],[-120.36576499961524,47.445667999755386],[-120.36580800017127,47.445550000253625],[-120.36580800017127,47.44533000022856],[-120.36590799973038,47.44447600009524],[-120.36792299996442,47.444491000121204]],[[-120.34625799967729,47.45044099987423],[-120.34626199987521,47.45059500008983],[-120.34625600002745,47.45104699986989],[-120.34626100005032,47.45149300019951],[-120.34614399987447,47.45149300019951],[-120.34487500017822,47.45148800024946],[-120.34436600036521,47.45148199982285],[-120.34408900035577,47.451477999740526],[-120.3438449999583,47.451475000134174],[-120.34353399961367,47.45147100005131],[-120.34338600037401,47.45146500023018],[-120.34326199962713,47.45146500023018],[-120.3429860003409,47.4514679998371],[-120.34288800043163,47.45146899970604],[-120.34283099963189,47.45146899970604],[-120.34236700002472,47.45147299978905],[-120.34221300003892,47.451475000134174],[-120.34153900036945,47.45147400026535],[-120.34154000019437,47.45139200002301],[-120.34154299966909,47.451031999891114],[-120.34243200032203,47.451037999761645],[-120.34242800012409,47.45060699992991],[-120.34070599979302,47.450601999895625],[-120.34069999994523,47.451288999907895],[-120.34069699957217,47.45148199982285],[-120.33965999967955,47.45147100005131],[-120.33905200013233,47.45146500023018],[-120.33853699957321,47.451458999800906],[-120.33810899995102,47.45145499971682],[-120.33810300010325,47.45327599969935],[-120.3377139999408,47.453271999753476],[-120.33751200027444,47.45327099991882],[-120.33736300031154,47.45327099991882],[-120.33691800007261,47.45327300019556],[-120.3367699999346,47.453274999864774],[-120.33674499982023,47.453274999864774],[-120.33661799959864,47.453274999864774],[-120.33655800022248,47.453274999864774],[-120.33656200042046,47.45158600003411],[-120.33655999987232,47.45152600010089],[-120.33656999991805,47.451466000099174],[-120.33660599990309,47.45139799985248],[-120.33673999979739,47.45127399999819],[-120.33676800028479,47.451229000243266],[-120.33680300044489,47.45117899986298],[-120.33682500018618,47.451137000260076],[-120.33683799970666,47.4509629998122],[-120.33685299977529,47.45049999994305],[-120.33700799958599,47.45050099983039],[-120.33717699964036,47.45050199971771],[-120.33718000001342,47.45015300022526],[-120.33688600028556,47.450150999829845],[-120.33675300021615,47.450151999723815],[-120.33674800019331,47.45012299975351],[-120.33673700032266,47.44963399985648],[-120.33674300017044,47.449283000250546],[-120.33675200039126,47.448829999970656],[-120.33683699988174,47.44784400002927],[-120.33747799993925,47.44785100020121],[-120.33860900044152,47.44786499993479],[-120.34081200009821,47.44789100012439],[-120.34081299992313,47.44783799979437],[-120.34080799990026,47.44676899997253],[-120.34081399974805,47.44609700002283],[-120.34081499957297,47.44582499990234],[-120.34081499957297,47.44574899983167],[-120.3399929997655,47.44574199998751],[-120.33999500031362,47.44546299997261],[-120.33950499986885,47.44545700007363],[-120.33950499986885,47.445429999912164],[-120.33950700041699,47.445264999906975],[-120.33941299980735,47.445264999906975],[-120.33928399993592,47.445262999933185],[-120.33870700035082,47.445256000024365],[-120.33856300041079,47.44525400005025],[-120.33848800006773,47.445253000063154],[-120.33848600041789,47.445440999732135],[-120.33844100021204,47.44543999974855],[-120.33840900042499,47.44543999974855],[-120.33829999974674,47.445440999732135],[-120.33821600008116,47.44544199971564],[-120.33808700020973,47.44544299969915],[-120.33795999998812,47.44544500027357],[-120.3377979996064,47.44544500027357],[-120.33780299962929,47.44425699983723],[-120.3381280002176,47.44426199986715],[-120.3381280002176,47.44423799971913],[-120.33813999991315,47.44355700006911],[-120.33813999991315,47.44354199977688],[-120.33821400043131,47.44354199977688],[-120.33881199993283,47.443537999698236],[-120.33883000037449,47.44309299998449],[-120.33883500039734,47.44306100028867],[-120.33883399967412,47.4427900002998],[-120.33883899969699,47.44251199985607],[-120.33884299989496,47.442447999738185],[-120.33894199962916,47.442447999738185],[-120.33893900015443,47.44259099985621],[-120.33893199958342,47.442961999777566],[-120.33892999993357,47.44306100028867],[-120.33892400008581,47.443402999902965],[-120.338922000436,47.443537999698236],[-120.33987099956676,47.44354599985523],[-120.34008800020003,47.44354799989429],[-120.34021799989638,47.44354899991379],[-120.34022399974417,47.44305700017345],[-120.34022499956909,47.442945999892245],[-120.34025999972917,47.44294699992318],[-120.34038600012586,47.44294699992318],[-120.34075000017394,47.44294899998502],[-120.34079500037979,47.44294899998502],[-120.34083600038768,47.442950000015905],[-120.34083600038768,47.44300099974339],[-120.34127200040577,47.44300299980316],[-120.34184899999087,47.44300499986287],[-120.34184599961779,47.44336999976526],[-120.34218600027474,47.44337399985669],[-120.34217899970373,47.44419800005567],[-120.34217899970373,47.44423899972551],[-120.34255799982041,47.44423799971913],[-120.34284200040086,47.44423799971913],[-120.34293399956405,47.44423799971913],[-120.34352399956794,47.44423899972551],[-120.3435210000932,47.44438499984632],[-120.34353500033691,47.44605200009105],[-120.34353199996386,47.44613500012421],[-120.34352799976588,47.44616299989361],[-120.34351400042051,47.44700899973989],[-120.3439210001263,47.44701000030111],[-120.34413700003635,47.4470110002548],[-120.34433200003002,47.44689100020883],[-120.34483699964508,47.44689300012071],[-120.34518399997472,47.44689400007662],[-120.34518300014982,47.44701600002295],[-120.34567699989422,47.44701899988362],[-120.34566600002357,47.447856999827124],[-120.34612799998092,47.447863000059854],[-120.34623000008818,47.44786399999733],[-120.34622900026329,47.447911000074626],[-120.34623400028613,47.44838500007015],[-120.3462379995858,47.44862900005316],[-120.3462379995858,47.4486840000374],[-120.34624099995885,47.44884900025256],[-120.34624199978374,47.44890499992442],[-120.34624400033188,47.44898799970811],[-120.34624400033188,47.44930400018901],[-120.34624400033188,47.449334999822504],[-120.34609700001879,47.449334999822504],[-120.34585400034456,47.449334999822504],[-120.34572600029801,47.449334999822504],[-120.3456190001679,47.449334999822504],[-120.34561999999282,47.44941999995834],[-120.34561999999282,47.44950300014428],[-120.34561999999282,47.449569999898706],[-120.34562099981773,47.449671999832525],[-120.34561499996995,47.44972799984306],[-120.34531899969393,47.44972400023481],[-120.34530199997549,47.44972400023481],[-120.34530799982328,47.449954000299485],[-120.34531299984614,47.45014900004184],[-120.34531299984614,47.45016000008988],[-120.34531399967106,47.45017899989132],[-120.3457239997499,47.45018100028566],[-120.346167000339,47.450177000104375],[-120.34625500020253,47.45017499970989],[-120.34625799967729,47.45044099987423]],[[-120.3431610002431,47.41006500000633],[-120.34315200002226,47.410372999879506],[-120.34314600017446,47.41068599995608],[-120.34244200036778,47.41089100027417],[-120.34234199991035,47.41091999998489],[-120.34223599960514,47.41095399983502],[-120.34210099988594,47.41073299980891],[-120.34191599993801,47.41042899977346],[-120.34222800010753,47.41033800021949],[-120.34303900004437,47.410100999894986],[-120.3431610002431,47.41006500000633]],[[-120.34085800012897,47.440643999778715],[-120.34085599958085,47.440823000089],[-120.34084899990813,47.44155699992087],[-120.34084700025835,47.441802000036986],[-120.34084499971019,47.44192999994394],[-120.34084399988527,47.441990999937175],[-120.34070900016604,47.44199199998628],[-120.34046899996656,47.441990999937175],[-120.34010599974337,47.441990999937175],[-120.34009999989561,47.442315000269474],[-120.3400990000707,47.44234300024951],[-120.34009800024579,47.44244400018392],[-120.34007099958329,47.44244400018392],[-120.33998299971974,47.44244400018392],[-120.33971900012911,47.4424450002244],[-120.33963200009045,47.44244600026487],[-120.33949399999823,47.44244600026487],[-120.33949399999823,47.44239199987494],[-120.33949399999823,47.442342000207084],[-120.33949399999823,47.44232700017593],[-120.33949399999823,47.44221099995271],[-120.33949399999823,47.441712000077324],[-120.33894500000221,47.441715000240485],[-120.3387759999478,47.441715000240485],[-120.33815900017973,47.441711000022906],[-120.33816599985244,47.44065900028974],[-120.33816199965447,47.440632000095924],[-120.34040799986718,47.44064299970399],[-120.34073599993026,47.440643999778715],[-120.34079500037979,47.440643999778715],[-120.34085800012897,47.440643999778715]],[[-120.33605299970912,47.44962299969842],[-120.33605299970912,47.449675000149156],[-120.3360490004095,47.44994900020312],[-120.33594800012712,47.4499479996978],[-120.3359520003251,47.450364999791],[-120.33595599962476,47.45063499974857],[-120.3359539999749,47.4506919998324],[-120.33575899998124,47.4506919998324],[-120.33561599986612,47.45069099994869],[-120.33553600039849,47.45069000006496],[-120.33546899955303,47.45069000006496],[-120.33539099973521,47.450689000181214],[-120.33535800012324,47.450688000297454],[-120.33529799984879,47.45069000006496],[-120.3352690004348,47.4506699999566],[-120.33523199972657,47.450652000217005],[-120.33520199958933,47.45062200002985],[-120.33518599969581,47.450586999789934],[-120.33518300022106,47.45054799998109],[-120.33518900006885,47.450526999931895],[-120.33521099981014,47.45049099974119],[-120.33523199972657,47.45047200005247],[-120.3352690004348,47.450449000196336],[-120.33531000044268,47.45043699971273],[-120.33538499988745,47.45043699971273],[-120.33538999991032,47.44984800009882],[-120.33539300028335,47.449607999921],[-120.33542000004753,47.449607999921],[-120.33550299988819,47.449609999729574],[-120.33553100037562,47.44961100024132],[-120.3357280000191,47.449614999858156],[-120.33602599994494,47.44962299969842],[-120.33605299970912,47.44962299969842]],[[-120.32448000031054,47.40197100014358],[-120.32448000031054,47.40200800029304],[-120.32434800006607,47.40202200006347],[-120.32374200016865,47.40201600007545],[-120.32373700014581,47.401667000002305],[-120.32447199991462,47.4016710002236],[-120.32448000031054,47.40197100014358]]],[[[-120.33098299987371,47.396987999755616],[-120.33097799985084,47.395240000299005],[-120.33097700002594,47.39515799998322],[-120.32974400031472,47.39514900004463],[-120.32971699965222,47.395188000172915],[-120.32963200016174,47.39526299996421],[-120.32962200011598,47.395328000021365],[-120.32961000042042,47.39554999993936],[-120.32961000042042,47.395562999886394],[-120.32961299989516,47.395723999993706],[-120.32964899988016,47.396008000162254],[-120.32968099966722,47.39661000015193],[-120.32962600031395,47.3967370002167],[-120.32957799973505,47.396800000288465],[-120.32945700025954,47.3968950000998],[-120.32939600016017,47.396936000138304],[-120.32930099972563,47.396971999878815],[-120.32944899986362,47.39697500016013],[-120.32963399981155,47.396979999817816],[-120.32974400031472,47.39699800028424],[-120.33009400011909,47.39700099995598],[-120.33098299987371,47.396987999755616]]]]},"properties":{"AREALAND":"27555797","AREAWATER":"2360640","BASENAME":"Wenatchee","CBSAPCI":"Y","CENTLAT":"+47.4359443","CENTLON":"-120.3295573","FUNCSTAT":"A","GEOID":"5377105","INTPTLAT":"+47.4359852","INTPTLON":"-120.3292659","LSADC":"25","MTFCC":"G4110","NAME":"Wenatchee city","NECTAPCI":"N","OBJECTID":29159,"OID":"27890865135558","PLACE":"77105","PLACECC":"C1","PLACENS":"02412212","STATE":"53","DISP_CLR":5,"slug":"wenatchee","jurisdiction_key":"wenatchee_city","county_fips":["53007"]}}]}
