{"type":"FeatureCollection","features":[{"type":"Feature","geometry":{"type":"Polygon","coordinates":[[[-119.49028600033574,46.330497000172244],[-119.48980799958655,46.33051799989845],[-119.48219899963544,46.33035699993063],[-119.48222499957471,46.32955299972169],[-119.48239000032949,46.324180999696246],[-119.48253699974426,46.31939799971388],[-119.48259199999585,46.317727000139875],[-119.48261200008731,46.31699400024574],[-119.48261299991223,46.31660500001533],[-119.48211199959684,46.316529000162596],[-119.48043000034703,46.31615100025755],[-119.47772899984967,46.31496899972015],[-119.47720199959498,46.31469499993992],[-119.47578899995871,46.31396199976208],[-119.47388099985481,46.313295000139554],[-119.47297000035888,46.31283800017883],[-119.47215900042208,46.3124320000255],[-119.47217399959237,46.3130739997824],[-119.47219299985893,46.31324199999487],[-119.47220299990467,46.31340900010124],[-119.47220600027772,46.313576999905834],[-119.47220000042995,46.313744999815164],[-119.47218700001116,46.31391299982924],[-119.47218100016337,46.31395599979798],[-119.47216500026984,46.314079999749445],[-119.47213500013264,46.3142460002054],[-119.47209699959947,46.31441200015783],[-119.47205099956871,46.31457700003766],[-119.47199700004033,46.31474099985393],[-119.4718880002604,46.314897000191586],[-119.47180299987161,46.31499600029452],[-119.4716559995585,46.31513699969952],[-119.47148900005224,46.315265999721376],[-119.47130300027939,46.3153820002702],[-119.47117000021001,46.3154520000545],[-119.47103399976756,46.31551099971457],[-119.47081799985752,46.315586000189604],[-119.47059299972662,46.31564599987518],[-119.47061899966586,46.315719999996546],[-119.4718020000467,46.315719999996546],[-119.47198399962154,46.315719999996546],[-119.47206999983528,46.31571599994225],[-119.4720349996752,46.31652400001347],[-119.47187499984162,46.31994699990938],[-119.47173500009953,46.322922999876845],[-119.46914099973229,46.3229349996991],[-119.46654700026336,46.322947000139116],[-119.46656800017975,46.322730999880896],[-119.46674499973176,46.31861599980432],[-119.46681900024993,46.316345000081924],[-119.46669700005118,46.31643099988641],[-119.46653800004252,46.316535999998315],[-119.46642500006462,46.31660500001533],[-119.46615599955278,46.31675700002462],[-119.4659580000844,46.31685900030843],[-119.46574800002209,46.31695600029251],[-119.46522199959232,46.31719200013044],[-119.46461800024304,46.31745100024544],[-119.46406800042215,46.31767100016597],[-119.463376000311,46.3179289997468],[-119.4626580002606,46.3181749997292],[-119.46220499962575,46.31831899999261],[-119.46174699986638,46.31845699978602],[-119.46127099966529,46.31859200012382],[-119.4608830002261,46.318695999697375],[-119.46057799972927,46.31877299975538],[-119.46000699999193,46.318910000154716],[-119.4595170004455,46.31901800017793],[-119.45868899989195,46.31918100022861],[-119.45800099997876,46.319300000233014],[-119.4575890002501,46.31936399997718],[-119.45725000031639,46.31941199989127],[-119.45676099969654,46.319476000124816],[-119.45622500011935,46.31953699998696],[-119.45571200010836,46.31958699994525],[-119.45521599981579,46.31962700012719],[-119.45505199978426,46.319637999954914],[-119.45434999962738,46.31971200026157],[-119.45295799990753,46.319695999968985],[-119.45162899993684,46.31969999973234],[-119.45146599973023,46.31969499987298],[-119.45125499984303,46.31968600024906],[-119.45113500019244,46.31968000029213],[-119.45114199986513,46.31953200011271],[-119.44894199968319,46.319295999819985],[-119.44692599962424,46.31900799971366],[-119.4446059997917,46.31851200007877],[-119.44427799972863,46.31842199996577],[-119.44284599982579,46.3179770002993],[-119.4423179997462,46.31779099986264],[-119.44136299986931,46.31742300012444],[-119.44049199965804,46.317053000104586],[-119.43934000013769,46.316509000183764],[-119.43901100024975,46.316335999907004],[-119.43839899960622,46.31599099973773],[-119.43777299961734,46.31558200012552],[-119.43742899966074,46.31557699988986],[-119.43067500002742,46.311099999918994],[-119.4303500003374,46.310885000307245],[-119.43029300043601,46.31084699983492],[-119.43011400033586,46.31072499990372],[-119.42999700015999,46.310643000244724],[-119.42639199983938,46.30820800009766],[-119.42206400034382,46.30527399994054],[-119.42009000011765,46.30396800006537],[-119.42008000007195,46.304134999922084],[-119.41702600029545,46.30207300027785],[-119.41527499965207,46.30089099979764],[-119.41482199991553,46.30088699990075],[-119.41458900028704,46.30088399982272],[-119.41447999960877,46.30088300000356],[-119.4141869997058,46.30087900010613],[-119.41396300029815,46.30087500020834],[-119.41386899968852,46.30085599991424],[-119.41345199993695,46.30082599973036],[-119.41330200014916,46.30081600028606],[-119.41014500044051,46.300841999954606],[-119.41000499980011,46.300841999954606],[-119.40958499967554,46.300845999854786],[-119.40944599975838,46.30084800011504],[-119.4089059999832,46.30084400021505],[-119.4072869995843,46.300834999973425],[-119.40674799963405,46.300831999892594],[-119.40622200010259,46.30082799999139],[-119.40464600025972,46.30081899974718],[-119.40412099965484,46.30081600028606],[-119.4031110004247,46.3008119997631],[-119.40213200025839,46.30080799986043],[-119.40210600031914,46.30080799986043],[-119.40014100031382,46.30080000005422],[-119.40008199986427,46.30080000005422],[-119.39907299956073,46.300796000150726],[-119.39883499990937,46.30079499970931],[-119.39880300012229,46.2941040000115],[-119.39880300012229,46.293460000061756],[-119.3988020002974,46.29344799998314],[-119.39906400023823,46.29344999989298],[-119.4042389996556,46.29349199984482],[-119.4047940003977,46.29349099989067],[-119.40414400011936,46.29306099991647],[-119.40323500027327,46.292460000212415],[-119.40232499970394,46.291859000120404],[-119.40141599985782,46.29125800026127],[-119.40057700033192,46.290704000271504],[-119.39985400025866,46.29022600012224],[-119.39878100038099,46.28951700005016],[-119.39747499997654,46.28865399999598],[-119.39617199994512,46.28779200005975],[-119.39439199988776,46.28661600030782],[-119.39355400018674,46.28606300001487],[-119.3927900001056,46.28555800015348],[-119.39149200009707,46.284699999757194],[-119.39139900021064,46.28463599983159],[-119.39166100015144,46.28445500029678],[-119.39204699994085,46.28420900023789],[-119.39224199993451,46.28408800004588],[-119.39241600001179,46.28398700028126],[-119.39244399960087,46.28397200022659],[-119.39265100018842,46.28386100019094],[-119.39286399972544,46.283754999969325],[-119.39308100035873,46.28365400021159],[-119.39330300011659,46.28355799970375],[-119.39352999989732,46.2834679998509],[-119.39359000017174,46.28344499979579],[-119.39376199970089,46.28338199978438],[-119.39399699987754,46.283302999943636],[-119.39525399987818,46.282803000218884],[-119.39888199976502,46.28136100002311],[-119.3989649996057,46.27879899992228],[-119.38851399959027,46.27875800010245],[-119.38867699979686,46.27316500028247],[-119.38872600020066,46.2714909996973],[-119.37821400008586,46.27132499999902],[-119.37455299968876,46.27147300012091],[-119.3710439996276,46.27161599993877],[-119.36867699993941,46.27171099990675],[-119.36823199970048,46.27172900002593],[-119.36825400034009,46.27111200015847],[-119.36828699995206,46.27018200021819],[-119.36838300021151,46.26755199983729],[-119.36844599996073,46.265305000076836],[-119.3684519998085,46.265187999767015],[-119.36846299967915,46.26499999973878],[-119.36846400040238,46.2649840002219],[-119.36848299977063,46.264657999811405],[-119.36848500031878,46.264625000092295],[-119.36849700001434,46.26442499977022],[-119.36736899988513,46.26441800010283],[-119.36560899991923,46.26440699973649],[-119.36470199972293,46.26440099993094],[-119.36364700028696,46.264395000124736],[-119.36257100003627,46.26438100016038],[-119.3621430004141,46.26437600021658],[-119.36150099963335,46.26436700019243],[-119.36088200021547,46.2643599998966],[-119.35957599981103,46.26434299970671],[-119.35937999999244,46.2643409999763],[-119.35939900025902,46.263605999704886],[-119.35940199973375,46.2634480000209],[-119.3597299997968,46.26345100028646],[-119.36007200010357,46.263453999930746],[-119.36077699973517,46.26346099972126],[-119.36078400030617,46.26316499990463],[-119.36078400030617,46.2629790001716],[-119.36090999980458,46.263008000081356],[-119.36127200020282,46.26308899976945],[-119.36311099981143,46.26350099992636],[-119.36337399957718,46.26355700004028],[-119.36343899987449,46.26153500015115],[-119.36344899992024,46.26073099997654],[-119.36206499969798,46.26073000004546],[-119.35820500000756,46.260690000302915],[-119.35824600001543,46.2572949999662],[-119.35824699984036,46.25712700014008],[-119.35824699984036,46.257048999713106],[-119.35824799966525,46.257019999757006],[-119.35620099964417,46.256999999778344],[-119.35588199980195,46.25699599978173],[-119.35581700040294,46.25699599978173],[-119.35583099974833,46.256341000128025],[-119.35379899979584,46.25632399993609],[-119.353793999773,46.256465000126106],[-119.3537870001003,46.25701599976185],[-119.35361300002302,46.25701499976302],[-119.35321700018791,46.2570119997664],[-119.35292799958457,46.25700999976859],[-119.35282300000262,46.25700899976965],[-119.3522740000066,46.2570049997737],[-119.351597999789,46.256999999778344],[-119.35059400040664,46.2569929997841],[-119.35053099975913,46.2569929997841],[-119.35001000025056,46.25698799978762],[-119.3497530003326,46.25698599978893],[-119.3489719996347,46.25698099979185],[-119.34831999970655,46.25697599979432],[-119.34782299958907,46.25697299979556],[-119.34763000014355,46.25697099979632],[-119.34704599998743,46.256974999794764],[-119.3470150000253,46.25697699979385],[-119.3469730001925,46.25697999979239],[-119.34691200009313,46.25697799979337],[-119.3466700002438,46.25696399979839],[-119.34606699982115,46.25696399979839],[-119.34568199985668,46.25696299979857],[-119.34541200041824,46.25697199979595],[-119.34517899989143,46.25696699979759],[-119.34511299976919,46.256953999799705],[-119.34506000006573,46.25693199979633],[-119.3450080001872,46.2569109997848],[-119.34494600026291,46.25687999975317],[-119.34491500030077,46.25684299969242],[-119.34486900027004,46.25677500013683],[-119.3448390001328,46.256788000177146],[-119.34476299996481,46.25680800023313],[-119.34455899975033,46.256860999725085],[-119.34448500013048,46.256869999739216],[-119.34440800013758,46.25686799973622],[-119.34438399984813,46.25688199975572],[-119.34416600028825,46.25688499975945],[-119.343515000185,46.25689099976639],[-119.34329799955171,46.25689399976964],[-119.34311500015191,46.256894999770665],[-119.34256899963066,46.256899999775584],[-119.34238700005578,46.256901999777455],[-119.34195799971037,46.25691399978695],[-119.34067399994555,46.25694999979978],[-119.34024600032336,46.25696299979857],[-119.33988399992512,46.25697299979556],[-119.33956199970983,46.2569819997913],[-119.33943100018857,46.25752099994811],[-119.33934199960181,46.25805299991674],[-119.33931499983763,46.25821800008071],[-119.33926499960891,46.25820699971256],[-119.33890999978168,46.25812800022222],[-119.3384250002581,46.25802099992907],[-119.33822600006647,46.257976000167176],[-119.33762900038988,46.25784300000635],[-119.33743000019828,46.257799000082926],[-119.33738499999241,46.25778900023657],[-119.33712999972431,46.25773199983526],[-119.33712999972431,46.2576499996989],[-119.33713100044753,46.25712000016206],[-119.33714099959495,46.25701799975948],[-119.33638300025989,46.257019999757006],[-119.3358700002489,46.25702199975449],[-119.33539400004784,46.257119000165126],[-119.33523300038937,46.25731399984389],[-119.33493100026556,46.25726500014593],[-119.33479399999823,46.25721199980219],[-119.33457899991308,46.25714400008306],[-119.33442999995015,46.25710800019759],[-119.334214999865,46.25706800029717],[-119.33420200034452,46.25706600030136],[-119.33412700000144,46.25705699969832],[-119.33396899981769,46.25703899972998],[-119.33190400025327,46.257035999734676],[-119.33129300033299,46.25703499973621],[-119.33077000027627,46.25703299973924],[-119.33056600006175,46.257031999740725],[-119.32951699957526,46.25703099974215],[-119.32906499966363,46.25703499973621],[-119.32884000043106,46.257035999734676],[-119.32847100036011,46.25703699973316],[-119.32812900005334,46.25703799973158],[-119.32808700022055,46.25703799973158],[-119.32694400002273,46.257040999726776],[-119.32681900034925,46.25704199972513],[-119.32665399959447,46.25704299972347],[-119.32665199994469,46.257135000113905],[-119.32662400035558,46.25825999971565],[-119.32661500013474,46.258673000106086],[-119.32651399985241,46.26277599975279],[-119.32648700008822,46.26391999982413],[-119.32648000041554,46.26459199973232],[-119.3264760002176,46.265009000280045],[-119.32636099969153,46.26904899985569],[-119.32635400001884,46.269317000305044],[-119.32634300014819,46.27136900024483],[-119.32634300014819,46.2714160002849],[-119.32633800012532,46.27242499989364],[-119.32637300028543,46.27410699987344],[-119.32734900007866,46.27411099986358],[-119.32881299976857,46.274118000155994],[-119.32897699980012,46.27409899989239],[-119.33168199959711,46.2741380000996],[-119.33482400013546,46.27411600016125],[-119.33571500043821,46.2741380000996],[-119.33704500023381,46.27414699976137],[-119.33896300038344,46.274166999694394],[-119.34106200028305,46.27418199994981],[-119.34106200028305,46.27429499971377],[-119.34106399993289,46.274360000225215],[-119.34107599962844,46.27489299977244],[-119.3410739999786,46.275054999919284],[-119.34106899995577,46.27550000019617],[-119.34107700035166,46.275968000063074],[-119.34108999987215,46.27685300013375],[-119.34112500003226,46.27871900007877],[-119.3411509999715,46.28051699989705],[-119.34121500044392,46.280522000231095],[-119.34120600022311,46.28145999993548],[-119.34119899965208,46.282308999985204],[-119.34122499959135,46.28322100018487],[-119.34121899974356,46.2839499998906],[-119.34118799978143,46.28407599977627],[-119.3411850003067,46.285029999971805],[-119.34118899960635,46.28537300015168],[-119.34119399962921,46.28588200022856],[-119.34119500035246,46.28594800012389],[-119.34119600017735,46.28597000027828],[-119.33978000016806,46.285984999785875],[-119.33895199961448,46.28594399975625],[-119.33861799970363,46.285920000027524],[-119.3386150002289,46.28577799976187],[-119.33859799961216,46.28495900028349],[-119.3385819997186,46.28412300009298],[-119.33737999996957,46.28408000028032],[-119.33367500008983,46.28401500012402],[-119.3336430003028,46.28401699975748],[-119.33065899994818,46.283996999694644],[-119.32944200013051,46.28397200022659],[-119.32934400022123,46.28397100009863],[-119.32937299963523,46.28528800007558],[-119.32938100003115,46.28556099982957],[-119.32940299977246,46.285775000097665],[-119.32959299974324,46.285861000132336],[-119.33006599957127,46.28607399975967],[-119.33027099961066,46.286165999852614],[-119.33050300031258,46.28630299992738],[-119.33083700022341,46.28646599994607],[-119.33153799965706,46.28680600021782],[-119.33219399978319,46.2873109997482],[-119.33238700012703,46.28755199984246],[-119.3325240003944,46.28769000023554],[-119.33272799971057,46.287817000267594],[-119.3337229997704,46.28833100022495],[-119.33404099978772,46.288537999913004],[-119.33458399993594,46.28911899976746],[-119.33473299989885,46.2892460002108],[-119.33476200021117,46.28926200009426],[-119.33491399964883,46.289329999702],[-119.33505900031209,46.28938099997311],[-119.33525299958252,46.28942199991324],[-119.33576099957067,46.2895619999922],[-119.3361439998853,46.289702999736605],[-119.33614499971021,46.28990100027064],[-119.33614600043343,46.290032000211696],[-119.3356590003617,46.290426000027374],[-119.33600999999099,46.29089900028626],[-119.3361170001211,46.29099999972174],[-119.33616300015187,46.2910480003039],[-119.33612600034195,46.2927780000068],[-119.33611999959585,46.29304299997672],[-119.3361170001211,46.2931350001583],[-119.33609100018184,46.2931350001583],[-119.33481499991461,46.29311299977811],[-119.33435899980503,46.29310600005028],[-119.33427599996438,46.293105000089085],[-119.33423300030665,46.294164000280404],[-119.33415299994073,46.29416199977592],[-119.333778000022,46.29415500018221],[-119.33372100012059,46.29415400024018],[-119.33371899957244,46.294209000128596],[-119.33387699975619,46.29421199995164],[-119.33422499991073,46.29421700027706],[-119.33426099989573,46.29421800021795],[-119.33431199994938,46.29422000009968],[-119.3343060001016,46.294367999834044],[-119.33413000037451,46.294365000019546],[-119.33377899984688,46.29435899976934],[-119.33378100039502,46.29454900013139],[-119.33378300004486,46.29478499976119],[-119.33378200021994,46.2949329998307],[-119.33378100039502,46.294950999769924],[-119.333778000022,46.29544899988049],[-119.3337770001971,46.29561600027454],[-119.3337649996032,46.29570799985783],[-119.33373100016631,46.29598400016296],[-119.33372000029564,46.29607700027631],[-119.33374200003696,46.296168999705756],[-119.33377899984688,46.29627400020826],[-119.33378999971754,46.29630399978283],[-119.33382200040292,46.296365999927424],[-119.3338009995882,46.29637100005616],[-119.33367199971677,46.29640700022474],[-119.33354700004331,46.29643599982607],[-119.3330259996364,46.29657400017993],[-119.3326459996948,46.29669599999625],[-119.3326170002808,46.29670500029756],[-119.33255899965617,46.296724000170144],[-119.33262899997635,46.29675300022427],[-119.33278999963484,46.29684299997351],[-119.33287500002366,46.29688999988717],[-119.33312100007095,46.297025999938406],[-119.33337799998888,46.29716900010257],[-119.33344300028622,46.29720499974652],[-119.33348199974597,46.29722699972419],[-119.33351899955592,46.29725500024719],[-119.33355600026414,46.29728200025029],[-119.33364400012769,46.297348000063906],[-119.33369099998335,46.29738400021086],[-119.33400200032798,46.29761400014271],[-119.33480499986888,46.29816799974723],[-119.33505599993903,46.29837699984698],[-119.33532999957542,46.298794000278605],[-119.33550200000288,46.298920000154865],[-119.3356240002016,46.299006000032],[-119.33572600030887,46.29907799998403],[-119.33592299995233,46.29925100019714],[-119.33610100022759,46.29944600019103],[-119.33625100001541,46.299650999770044],[-119.33631899978747,46.29978699979078],[-119.33635200029777,46.29993000019214],[-119.33636399999334,46.30003799981368],[-119.33630999956665,46.30021599987439],[-119.33618300024335,46.300401999842556],[-119.33594399986876,46.30072799988414],[-119.33565199979071,46.30121499978392],[-119.33551399969843,46.30158599994193],[-119.33543599988064,46.30177800027939],[-119.33532600027578,46.30196099988707],[-119.33518499981047,46.30213500009641],[-119.33501499993116,46.30229500016467],[-119.33486099994536,46.3024110002786],[-119.33468199984522,46.30250900021545],[-119.33448400037683,46.30258699987512],[-119.3342709999415,46.30264100019504],[-119.3340469996355,46.30267300019859],[-119.33381499983192,46.30266500004431],[-119.33359899992185,46.30260699997683],[-119.33342099964659,46.302503000236996],[-119.3332709998588,46.30237199971668],[-119.33314700001023,46.3022989999587],[-119.33300600044322,46.30224199991845],[-119.33277100026658,46.30217599979772],[-119.33252600004421,46.302129999873436],[-119.3322809998218,46.302104999992785],[-119.33191699977375,46.30211600023957],[-119.3316590000309,46.302162999971465],[-119.33125300015001,46.30231000016651],[-119.33110400018711,46.30237999991377],[-119.33099100020921,46.30245999995862],[-119.33078399962164,46.302644999963796],[-119.33078000032201,46.302717999881],[-119.33049099971868,46.30315500004507],[-119.33043200016746,46.30324400004573],[-119.33018799976999,46.3035949997535],[-119.33015500015804,46.30366600010854],[-119.32957000017703,46.30492200008188],[-119.32933900019835,46.30623500007104],[-119.32924999961156,46.30686600000295],[-119.32908300010531,46.30756599973118],[-119.32907300005954,46.307718999719],[-119.32907200023465,46.30772899976417],[-119.32903799989946,46.308117000105526],[-119.32912999996097,46.308889999723874],[-119.32994300044592,46.30993400016618],[-119.33152299958846,46.31061700026666],[-119.3334409997381,46.31093399984859],[-119.33505599993903,46.31117899999997],[-119.3353480000171,46.3112310000303],[-119.33578200038535,46.31130900029338],[-119.33609100018184,46.31136699982833],[-119.33888600039054,46.3125449996967],[-119.33963000038021,46.312857000037354],[-119.34056000014272,46.31471699971477],[-119.34072900019713,46.31505300008454],[-119.34072499999915,46.31507199979455],[-119.34119799982719,46.31507199979455],[-119.34706000023114,46.315067999692836],[-119.34707199992673,46.31467700028676],[-119.34707699994956,46.314507999945356],[-119.34708699999533,46.31419599970991],[-119.34719300030055,46.30796100029885],[-119.34725699987466,46.30784799985098],[-119.34727100011834,46.30684299984404],[-119.34729600023272,46.305187000238945],[-119.34722000006474,46.30479799986055],[-119.34716200033839,46.30440800006608],[-119.34712299998036,46.304015999831094],[-119.34711399975951,46.303842999779775],[-119.34710299988886,46.30362399989215],[-119.34710200006394,46.30323200024931],[-119.34711899978238,46.30283899987802],[-119.34711899978238,46.30274399988754],[-119.34711899978238,46.302459000168234],[-119.34711899978238,46.30244700019981],[-119.347642999664,46.30243900001246],[-119.34804299969711,46.30243300002639],[-119.3481909998351,46.302432000235505],[-119.34884199993836,46.3024219998433],[-119.34937599986573,46.302415000064165],[-119.35039400039012,46.30240000009109],[-119.35218500031814,46.30237499971316],[-119.35228499987726,46.30229999975201],[-119.35282999967531,46.30243600001953],[-119.35361999969572,46.302757000196486],[-119.35374600009241,46.30283899987802],[-119.3542099996996,46.30326000018389],[-119.35430199976112,46.303326000239046],[-119.35440300004345,46.30338499993888],[-119.35451299964829,46.30343699992665],[-119.35466900018223,46.303493999963905],[-119.35479300003078,46.30352600008943],[-119.35496499955993,46.30355600003501],[-119.35500800011596,46.30356100012779],[-119.35531000023973,46.30356799976041],[-119.35541300017188,46.30358399980388],[-119.35551000025626,46.30361299994836],[-119.35558200022629,46.30364299984626],[-119.35567699976254,46.30370100005736],[-119.35574200005986,46.303759000207],[-119.35579099956536,46.3038230001296],[-119.35583699959611,46.30392000025756],[-119.35589000019787,46.30403099998196],[-119.35589600004566,46.304043999985296],[-119.35582400007566,46.30406299979364],[-119.35573700003698,46.30407299988611],[-119.35563999995261,46.304085000118775],[-119.355624999884,46.30409599996773],[-119.35555799993685,46.3041739998487],[-119.35553100017269,46.3042060001974],[-119.35529699982094,46.304221000296195],[-119.35392299964444,46.30421900015913],[-119.35392099999459,46.30424500007339],[-119.3539200001697,46.30426099991904],[-119.35394000026118,46.30427099997533],[-119.35396299982739,46.304281999786916],[-119.35394699993385,46.30436299991102],[-119.35392900039051,46.30446399995918],[-119.35387099976587,46.30479599974456],[-119.35376600018392,46.30540800017339],[-119.35357100019024,46.30684800025712],[-119.35356100014448,46.30692300019328],[-119.35355899959636,46.306932999763255],[-119.35366900009952,46.306993999955395],[-119.3548430002595,46.307124999965225],[-119.35493600014593,46.30713500011891],[-119.3549620000852,46.30712200022903],[-119.35595700014503,46.30663599984054],[-119.35666799962442,46.306397999723494],[-119.3575179999193,46.306114999856774],[-119.35751500044454,46.30625200029727],[-119.3575129998964,46.30645600011856],[-119.35751200007151,46.30646799982881],[-119.35824900038848,46.306465000056654],[-119.35824699984036,46.30665099989407],[-119.35824500019051,46.3072819999951],[-119.35911300002876,46.307259000010966],[-119.35926000034185,46.3072549999588],[-119.35943699989383,46.30725000020341],[-119.35935800025112,46.307406999874765],[-119.3594119997795,46.3074049998541],[-119.36049700025102,46.30742100001726],[-119.36061500025178,46.307669000086406],[-119.36066100028253,46.307764999911576],[-119.3607270004048,46.30790199994584],[-119.36075900019183,46.30796100029885],[-119.36077300043551,46.30798700029752],[-119.36079500017684,46.308029999957895],[-119.3608150002683,46.30806799990386],[-119.36083000033693,46.308095000159724],[-119.36085100025333,46.308135000054584],[-119.36002400042298,46.308133000060515],[-119.3598849996075,46.30813199975323],[-119.35946899968089,46.30812900007223],[-119.35933099958865,46.308127999764814],[-119.35904799973142,46.30812199978168],[-119.35891100036238,46.30811900010013],[-119.35888299987498,46.308202000123295],[-119.35886600015654,46.30830299991446],[-119.3588639996084,46.30840499982158],[-119.35887799985211,46.308505999858674],[-119.35890600033953,46.30860600003127],[-119.35894899999722,46.30870299975113],[-119.35900699972355,46.30879599998003],[-119.35907799986865,46.30888500011787],[-119.35919300039468,46.308995000032475],[-119.35933399996168,46.3090980001808],[-119.3594469999396,46.30915899982186],[-119.35953800017619,46.30919799989239],[-119.35966799987254,46.30923899988887],[-119.35980500013989,46.30926800014028],[-119.359876000285,46.309277000236584],[-119.36005399966193,46.309255000136474],[-119.36023600013507,46.309249000276886],[-119.36034099971708,46.309255000136474],[-119.36041699988506,46.30925999970869],[-119.36054999995447,46.30927999985468],[-119.3607220003819,46.30932000012465],[-119.36084500040555,46.30936100002974],[-119.3609619996831,46.30940999969442],[-119.36202500041331,46.31043899989422],[-119.36226899991246,46.31061700026666],[-119.36595000040107,46.3129209998715],[-119.36620399994597,46.31307999984319],[-119.3662340000832,46.313102000267314],[-119.36633899966517,46.313194000252714],[-119.36642599970382,46.313295000139554],[-119.36649199982607,46.31340400028752],[-119.36653700003188,46.31351800002214],[-119.36654999955238,46.313575999697996],[-119.36647199973459,46.31397199990758],[-119.36639100044202,46.314377999804904],[-119.3664249998789,46.3144870002777],[-119.36648000013051,46.314591999776425],[-119.36653399965886,46.31466600008216],[-119.3666220004207,46.31475900010651],[-119.36667299957602,46.31480200003095],[-119.36677899988123,46.314890999709526],[-119.36709799972347,46.31515899991716],[-119.36720499985358,46.315248999812894],[-119.36787799969814,46.31564499970516],[-119.36854100039527,46.31603600026081],[-119.36877700039683,46.316222999997564],[-119.36888899965153,46.316321000025816],[-119.36899599978162,46.31642100019025],[-119.36919499997326,46.31662899994693],[-119.36937200042357,46.31684500009827],[-119.36958199958755,46.31719700021852],[-119.36969700011359,46.31738800026324],[-119.37007000038248,46.31780399970021],[-119.37063600009692,46.3184080001555],[-119.37094999991628,46.318732000076416],[-119.37105299984844,46.318896999959485],[-119.37107200011502,46.31901700006952],[-119.37106700009213,46.319228000198706],[-119.37096699963473,46.31947700022482],[-119.37093300019784,46.319654000264464],[-119.3709519995661,46.31983600019883],[-119.37111099957477,46.32007099993453],[-119.37160400039257,46.32057499972594],[-119.37214099979471,46.32117400026836],[-119.37265399980569,46.3218310000687],[-119.37302299987661,46.32230999981892],[-119.37337299968098,46.32276099984713],[-119.37353599988762,46.322947000139116],[-119.37373000005638,46.32311399978579],[-119.37393799957053,46.32288799981148],[-119.37428099970218,46.32251500001065],[-119.37530699972417,46.32323600001525],[-119.37626199960101,46.32364600013537],[-119.3780480004045,46.32419699991794],[-119.37893899980894,46.32460600027397],[-119.37944500014724,46.325012000057285],[-119.37993600041693,46.32612899973251],[-119.38024799968814,46.32653200008597],[-119.38081799960055,46.326937999842656],[-119.38524999975148,46.328305000003105],[-119.38662499975293,46.32873000017709],[-119.3871999996882,46.32886899969248],[-119.38755700006355,46.3289050002011],[-119.38755000039086,46.329031000243866],[-119.38754000034513,46.329228000068795],[-119.38753500032226,46.32932700029548],[-119.38755899971339,46.32933899995364],[-119.38780200028596,46.329402999740125],[-119.38806400022676,46.3294459999423],[-119.38825900022044,46.32946199986467],[-119.38846500008476,46.32946700007202],[-119.38997999982827,46.329419000295374],[-119.39033100035587,46.32937799990998],[-119.39066500026672,46.329385999881694],[-119.39069899970359,46.329391000095995],[-119.39091399978876,46.32949299977841],[-119.39098400010896,46.32954200002649],[-119.3910369998124,46.32954800014246],[-119.39107100014759,46.32949600014931],[-119.39108100019332,46.32948100015408],[-119.39111600035343,46.32951399989014],[-119.39116900005686,46.32956400003498],[-119.39121799956236,46.32962100015676],[-119.39125100007263,46.329658000084315],[-119.39132499969247,46.3297640001573],[-119.39139400018777,46.32986300003408],[-119.39149499957178,46.330068999742245],[-119.39158599980838,46.330337000044054],[-119.39170499963409,46.33075599995366],[-119.3918889997571,46.33138500025365],[-119.392009000306,46.33182599991721],[-119.39211399988801,46.332106999834075],[-119.39225799982805,46.332424000221195],[-119.39250700024839,46.33280100011325],[-119.39275699959532,46.33300399974207],[-119.39354300031609,46.33300100018387],[-119.39400199990041,46.33299800000525],[-119.39496799964793,46.332997000152396],[-119.3963739996115,46.33303500012936],[-119.40280900030092,46.33295299978701],[-119.40284100008797,46.33838299983399],[-119.4029759998072,46.33838799984597],[-119.40775899958741,46.33853099987126],[-119.40811799961263,46.338542000239364],[-119.40776699998334,46.34767899977044],[-119.40745099961583,46.358819000036135],[-119.40934700002416,46.358838000044535],[-119.40990900043896,46.35882900004136],[-119.41059599962888,46.35883300004295],[-119.41256300018235,46.35884300004562],[-119.41326399961599,46.358847000046175],[-119.41758000031432,46.35887000004376],[-119.41976100022968,46.35888200003862],[-119.42195899986352,46.35889300003162],[-119.42427700004625,46.358904000022356],[-119.42476199956981,46.35907100023024],[-119.4282029998589,46.36025699997835],[-119.42827900002688,46.36030000009614],[-119.428378999586,46.36035599982397],[-119.42859200002135,46.360474000169646],[-119.42970000005909,46.3610849997011],[-119.42986699956532,46.36117700020449],[-119.43014000027512,46.36161299975558],[-119.43026699959842,46.362984000082015],[-119.4311450003807,46.3644040001014],[-119.43246099993259,46.36513899982664],[-119.43413399985984,46.365447999974336],[-119.43574800023588,46.36574599976318],[-119.43712099968916,46.36599999998058],[-119.43724999956062,46.3660239999352],[-119.43729499976644,46.366032000124356],[-119.43739900042183,46.36605100010399],[-119.43745799997308,46.36590700028941],[-119.43749200030824,46.365827000021795],[-119.4375040000038,46.36579700012366],[-119.43753599979087,46.36572099981216],[-119.4375519996844,46.36568199974174],[-119.43756900030114,46.365640999891994],[-119.43758299964654,46.365609000139116],[-119.43759799971514,46.3655709998658],[-119.43767600043128,46.36538199984287],[-119.43770200037055,46.36532100027968],[-119.43772699958657,46.36526000002852],[-119.43764100027117,46.3652449999258],[-119.43757599997383,46.36523300008863],[-119.4372849997207,46.36517900016891],[-119.4369039999542,46.3651080002851],[-119.43442199973994,46.364649999969316],[-119.43346400038834,46.364472999866194],[-119.43324000008235,46.36443099983111],[-119.43301300030164,46.3643910001809],[-119.43212199999887,46.36389399994592],[-119.43195299994447,46.36379800004059],[-119.4312709998791,46.36269400016265],[-119.43114399965746,46.361322000043224],[-119.43087900024192,46.36089900016431],[-119.43067500002742,46.3605720002735],[-119.42930400022395,46.35981500025148],[-119.42901399979573,46.35965499973541],[-119.42884499974132,46.359558999820834],[-119.42852300042435,46.35944799990307],[-119.42841600029423,46.35941100029365],[-119.42802100028402,46.35927500027418],[-119.42761399967992,46.359134999937034],[-119.42745399984638,46.35908000019354],[-119.42714000002701,46.358971999916164],[-119.42704700014058,46.35893999997667],[-119.42717799966185,46.35893899997829],[-119.42788400001668,46.3589459999668],[-119.42844399988331,46.358950999958],[-119.428638999877,46.35895299995436],[-119.43220900003752,46.35897799990273],[-119.43992000009584,46.359059000276886],[-119.44132100003652,46.359074000218186],[-119.44148900026603,46.3590750002141],[-119.44188099990316,46.35908000019354],[-119.44215399971466,46.35908300018095],[-119.44296100035184,46.358498000135356],[-119.44399300022158,46.35776299972076],[-119.44540699968276,46.35693399983928],[-119.44615099967245,46.356496000063636],[-119.44773099971327,46.354746000104385],[-119.44967700035033,46.35327499995561],[-119.45175699998336,46.35259299986856],[-119.452020999574,46.352555999957744],[-119.45307300043356,46.352413000033444],[-119.45505599998224,46.35224300019595],[-119.45720099991257,46.35220600004813],[-119.46104700025764,46.35107400006159],[-119.4654380004007,46.34915699986144],[-119.46666899956377,46.348013000074985],[-119.46695599961895,46.34731599999162],[-119.46837199962826,46.34480899984258],[-119.47160299985507,46.341792999820576],[-119.47559300014015,46.3384420001944],[-119.47748000032763,46.33764200007293],[-119.48034400013331,46.33705600021214],[-119.48225399988705,46.33632600002815],[-119.48338799986404,46.33571500029486],[-119.48739200039283,46.33356399998773],[-119.49028600033574,46.330497000172244]],[[-119.35812299999176,46.26432899972907],[-119.35812299999176,46.26444500014578],[-119.35811999961874,46.264822000115444],[-119.358117000144,46.2652380003068],[-119.358117000144,46.26532599997861],[-119.35770600024028,46.265321999968336],[-119.3570819999012,46.26531600026294],[-119.35638099956924,46.265305999924465],[-119.35636899987367,46.26431499974785],[-119.3570750002285,46.2643210001838],[-119.35770100021739,46.2643250002671],[-119.35812299999176,46.26432899972907]],[[-119.35198799977634,46.26420400025805],[-119.35199799982209,46.2642830003096],[-119.35115799957296,46.264271999916204],[-119.35026100032071,46.26426100014161],[-119.3499519996259,46.264257999920424],[-119.34968399983731,46.26425499969905],[-119.34968499966223,46.26254999969336],[-119.34967799998952,46.26164400024753],[-119.34966399974583,46.260524000189896],[-119.34990999979311,46.260576999816664],[-119.35021000026708,46.260640999895315],[-119.3505349999571,46.260710000177816],[-119.3519760000808,46.261016000087274],[-119.35196900040808,46.261202000269364],[-119.35197299970774,46.2618100000749],[-119.35197799973058,46.26257100002942],[-119.35198799977634,46.26420400025805]]]},"properties":{"AREALAND":"57278131","AREAWATER":"429743","BASENAME":"West Richland","CBSAPCI":"N","CENTLAT":"+46.3114976","CENTLON":"-119.3998034","FUNCSTAT":"A","GEOID":"5377665","INTPTLAT":"+46.3137969","INTPTLON":"-119.3877283","LSADC":"25","MTFCC":"G4110","NAME":"West Richland city","NECTAPCI":"N","OBJECTID":30537,"OID":"27890228642483","PLACE":"77665","PLACECC":"C1","PLACENS":"02412227","STATE":"53","DISP_CLR":4,"slug":"west_richland","jurisdiction_key":"west_richland_city","county_fips":["53005"]}}]}
