{
  "type": "FeatureCollection",
  "features": [
    {
      "type": "Feature",
      "geometry": {
        "type": "Polygon",
        "coordinates": [
          [
            [
              -124.15845799965825,
              46.9071519998598
            ],
            [
              -124.15836999979471,
              46.90517600024458
            ],
            [
              -124.15758200032242,
              46.903440000171535
            ],
            [
              -124.15626699969712,
              46.902602000173275
            ],
            [
              -124.15486499993153,
              46.90200299976604
            ],
            [
              -124.14054900020278,
              46.90148899979071
            ],
            [
              -124.14009499974301,
              46.900918999947464
            ],
            [
              -124.13973599971783,
              46.90046899992569
            ],
            [
              -124.13877599981811,
              46.89949300003169
            ],
            [
              -124.1384650003718,
              46.89921299982132
            ],
            [
              -124.13797699957684,
              46.898670000022804
            ],
            [
              -124.13744900039553,
              46.89801699988457
            ],
            [
              -124.13684199977493,
              46.89698499988978
            ],
            [
              -124.13650700003917,
              46.896096000024805
            ],
            [
              -124.13637899999267,
              46.89585499977448
            ],
            [
              -124.13619599969455,
              46.895218999695
            ],
            [
              -124.13601199957154,
              46.89499899969906
            ],
            [
              -124.13581999995091,
              46.89445600019626
            ],
            [
              -124.13571700001874,
              46.89397299984704
            ],
            [
              -124.13527000013,
              46.89310099979391
            ],
            [
              -124.1352219995511,
              46.89279399978955
            ],
            [
              -124.134861999701,
              46.892304999722946
            ],
            [
              -124.13452699996525,
              46.891668999899224
            ],
            [
              -124.13369199973897,
              46.889494000194176
            ],
            [
              -124.13220299993473,
              46.885483000065
            ],
            [
              -124.13036299960288,
              46.88063400016606
            ],
            [
              -124.1282650004265,
              46.87524700028529
            ],
            [
              -124.12804699996829,
              46.874811999989404
            ],
            [
              -124.12695099962613,
              46.872613000295324
            ],
            [
              -124.12689700009777,
              46.87246700004553
            ],
            [
              -124.12658300027843,
              46.87160699970886
            ],
            [
              -124.12627899960648,
              46.871608999898434
            ],
            [
              -124.12333500033316,
              46.871834999960896
            ],
            [
              -124.12229500006751,
              46.871834000177394
            ],
            [
              -124.11492200011797,
              46.87188099980814
            ],
            [
              -124.1149170000951,
              46.87243799990237
            ],
            [
              -124.11491999956984,
              46.87329499993615
            ],
            [
              -124.11490100020157,
              46.87383700021779
            ],
            [
              -124.11414399979313,
              46.873840999816544
            ],
            [
              -124.11334000042733,
              46.87384400028306
            ],
            [
              -124.11216700009224,
              46.873845000029114
            ],
            [
              -124.11151299961593,
              46.873849000241385
            ],
            [
              -124.10652999981917,
              46.8738819998319
            ],
            [
              -124.10561599995019,
              46.8738889998913
            ],
            [
              -124.10414999971216,
              46.8738889998913
            ],
            [
              -124.10414399986436,
              46.87341200015884
            ],
            [
              -124.10413999966642,
              46.87298699980468
            ],
            [
              -124.10413999966642,
              46.872942000054174
            ],
            [
              -124.09918700000688,
              46.872939000151355
            ],
            [
              -124.0991829998089,
              46.873460999756446
            ],
            [
              -124.09844899986498,
              46.873464000244155
            ],
            [
              -124.09706700019085,
              46.87348299984945
            ],
            [
              -124.09566299987712,
              46.87349099971354
            ],
            [
              -124.09379499995619,
              46.8734949999522
            ],
            [
              -124.09466299979441,
              46.87481400005954
            ],
            [
              -124.0955280001579,
              46.87612900025153
            ],
            [
              -124.09733300032966,
              46.87879200000887
            ],
            [
              -124.09170199990436,
              46.87953999994476
            ],
            [
              -124.08462299968271,
              46.880478999962186
            ],
            [
              -124.08463699992639,
              46.88053899999517
            ],
            [
              -124.08475800030021,
              46.88249199982942
            ],
            [
              -124.08470999972134,
              46.88295800026116
            ],
            [
              -124.08480699980572,
              46.88409900014938
            ],
            [
              -124.0847990003081,
              46.884493999752536
            ],
            [
              -124.0848629998822,
              46.88502100007083
            ],
            [
              -124.08484699998867,
              46.88531699998287
            ],
            [
              -124.08504000033253,
              46.88643599974318
            ],
            [
              -124.08514400008961,
              46.88683599991904
            ],
            [
              -124.08522399955723,
              46.887471999956965
            ],
            [
              -124.08515999998315,
              46.88772999969894
            ],
            [
              -124.08519199977017,
              46.88792199977236
            ],
            [
              -124.08539199978671,
              46.88814699979921
            ],
            [
              -124.08556800041212,
              46.88827899970309
            ],
            [
              -124.08566499959821,
              46.888284000158144
            ],
            [
              -124.0860720002023,
              46.88800999970425
            ],
            [
              -124.0862639998229,
              46.88784000029194
            ],
            [
              -124.08640799976297,
              46.88784500017402
            ],
            [
              -124.0864880001289,
              46.88792199977236
            ],
            [
              -124.08656900031974,
              46.88814099985164
            ],
            [
              -124.08650499984735,
              46.888601999902534
            ],
            [
              -124.08636900030321,
              46.888875999788056
            ],
            [
              -124.08627300004375,
              46.88899199972567
            ],
            [
              -124.08612900010371,
              46.88905200006068
            ],
            [
              -124.08570499978116,
              46.88903000021163
            ],
            [
              -124.08559299962818,
              46.88896399999656
            ],
            [
              -124.08540900040347,
              46.88908500012423
            ],
            [
              -124.08521699988454,
              46.88928799982681
            ],
            [
              -124.085088999838,
              46.88953499991363
            ],
            [
              -124.08513700041694,
              46.89035800015615
            ],
            [
              -124.08498799955568,
              46.890664999985155
            ],
            [
              -124.08485000036175,
              46.890950000223256
            ],
            [
              -124.08463399955335,
              46.8916520000369
            ],
            [
              -124.08461799965984,
              46.89273799998913
            ],
            [
              -124.08439400025216,
              46.8935560002291
            ],
            [
              -124.08444299975764,
              46.89372000000346
            ],
            [
              -124.08445100015356,
              46.89393399980826
            ],
            [
              -124.08437900018353,
              46.894416999894865
            ],
            [
              -124.08442699986412,
              46.89459199981343
            ],
            [
              -124.08442699986412,
              46.894872000214136
            ],
            [
              -124.08454700041304,
              46.895228999924456
            ],
            [
              -124.08470700024658,
              46.8954749997036
            ],
            [
              -124.0856439996818,
              46.896298000258604
            ],
            [
              -124.08644399974797,
              46.89678600019981
            ],
            [
              -124.08665999965801,
              46.896939000079506
            ],
            [
              -124.0868530000019,
              46.89715299992912
            ],
            [
              -124.08717299966902,
              46.89765199976313
            ],
            [
              -124.08749300023447,
              46.898408999797375
            ],
            [
              -124.08784600041189,
              46.89895199978383
            ],
            [
              -124.08868599976272,
              46.89965999969994
            ],
            [
              -124.08889400017517,
              46.8997530000138
            ],
            [
              -124.08974299974682,
              46.90032299997735
            ],
            [
              -124.09040700026884,
              46.900607999835
            ],
            [
              -124.0904819997136,
              46.9006529997063
            ],
            [
              -124.0913040004194,
              46.90087799972405
            ],
            [
              -124.09212500040196,
              46.901103999877044
            ],
            [
              -124.09222499996108,
              46.901399000186046
            ],
            [
              -124.09244300041931,
              46.902046000025436
            ],
            [
              -124.09365299966598,
              46.90246200008314
            ],
            [
              -124.09381599987259,
              46.90252599999436
            ],
            [
              -124.10165099977945,
              46.90666399975093
            ],
            [
              -124.10430399969796,
              46.907643000239375
            ],
            [
              -124.10590200018045,
              46.908785000045135
            ],
            [
              -124.10718199974733,
              46.911159999908335
            ],
            [
              -124.10805200013368,
              46.912820000028596
            ],
            [
              -124.10914799957754,
              46.91349499991948
            ],
            [
              -124.11054299967047,
              46.91390399974872
            ],
            [
              -124.11217999961272,
              46.91399800012351
            ],
            [
              -124.11342099971984,
              46.913801000219316
            ],
            [
              -124.11450000034357,
              46.91374299980739
            ],
            [
              -124.11519499992944,
              46.913564000097516
            ],
            [
              -124.1158329996139,
              46.913361999868066
            ],
            [
              -124.1165630002582,
              46.91330400020828
            ],
            [
              -124.11809100042049,
              46.91264899985203
            ],
            [
              -124.1183469996152,
              46.91246800027651
            ],
            [
              -124.11883299986202,
              46.911973000088636
            ],
            [
              -124.12029699955191,
              46.91087200006554
            ],
            [
              -124.12088599973087,
              46.910395999898896
            ],
            [
              -124.12146200038937,
              46.90967800001189
            ],
            [
              -124.12194699991295,
              46.90968699969397
            ],
            [
              -124.12628600017749,
              46.90976900013668
            ],
            [
              -124.14454399961242,
              46.91021100012309
            ],
            [
              -124.15156500010777,
              46.910380000129244
            ],
            [
              -124.1527590003592,
              46.91036199976907
            ],
            [
              -124.15420499960744,
              46.91034099975026
            ],
            [
              -124.15530299959944,
              46.91032499996424
            ],
            [
              -124.1567930001269,
              46.90966600002438
            ],
            [
              -124.15758200032242,
              46.909008000278114
            ],
            [
              -124.15758999982,
              46.90898800004744
            ],
            [
              -124.15761099973642,
              46.9089440001273
            ],
            [
              -124.15845799965825,
              46.9071519998598
            ]
          ]
        ]
      },
      "properties": {
        "AREALAND": "9517440",
        "AREAWATER": "5864202",
        "BASENAME": "Westport",
        "CBSAPCI": "N",
        "CENTLAT": "+46.8934661",
        "CENTLON": "-124.1155198",
        "FUNCSTAT": "A",
        "GEOID": "5377630",
        "INTPTLAT": "+46.8918148",
        "INTPTLON": "-124.1198470",
        "LSADC": "25",
        "MTFCC": "G4110",
        "NAME": "Westport city",
        "NECTAPCI": "N",
        "OBJECTID": 22352,
        "OID": "27890479425109",
        "PLACE": "77630",
        "PLACECC": "C1",
        "PLACENS": "02412243",
        "STATE": "53",
        "DISP_CLR": 2,
        "slug": "westport",
        "jurisdiction_key": "westport_city",
        "county_fips": [
          "53027"
        ]
      }
    }
  ]
}
