{
  "type": "FeatureCollection",
  "features": [
    {
      "type": "Feature",
      "geometry": {
        "type": "Polygon",
        "coordinates": [
          [
            [
              -121.50903799963592,
              45.728137999957
            ],
            [
              -121.5090219997424,
              45.72730700004313
            ],
            [
              -121.50875700032685,
              45.72726600021487
            ],
            [
              -121.50847699994436,
              45.7272219997233
            ],
            [
              -121.50800999996414,
              45.727144000134835
            ],
            [
              -121.50794499966679,
              45.72713300030473
            ],
            [
              -121.50745799959508,
              45.72705099973554
            ],
            [
              -121.50734399979225,
              45.727032000052986
            ],
            [
              -121.50674000044302,
              45.726934000267455
            ],
            [
              -121.50672500037439,
              45.72693199983488
            ],
            [
              -121.50586400020885,
              45.72677299970902
            ],
            [
              -121.50499899984537,
              45.726627999728166
            ],
            [
              -121.50439899979574,
              45.72651599986591
            ],
            [
              -121.50397199999847,
              45.72641400015432
            ],
            [
              -121.50373599999693,
              45.726367000193775
            ],
            [
              -121.50349499997249,
              45.72632000019369
            ],
            [
              -121.50314199979508,
              45.72626399998186
            ],
            [
              -121.50246300010274,
              45.72615600031069
            ],
            [
              -121.5020570002219,
              45.72609199996569
            ],
            [
              -121.50205499967376,
              45.72618699991248
            ],
            [
              -121.5020670002676,
              45.72735200004944
            ],
            [
              -121.5016370000973,
              45.727426999979414
            ],
            [
              -121.50151099970061,
              45.7274060000092
            ],
            [
              -121.50130200036158,
              45.727370000041844
            ],
            [
              -121.50115500004848,
              45.72742999997452
            ],
            [
              -121.50115500004848,
              45.7272999998299
            ],
            [
              -121.50088100041206,
              45.727332999842176
            ],
            [
              -121.500333000241,
              45.72742099998874
            ],
            [
              -121.49974599971185,
              45.72748699985092
            ],
            [
              -121.49927600025687,
              45.7275659997924
            ],
            [
              -121.49850600032795,
              45.72734499984185
            ],
            [
              -121.49825500025777,
              45.7273460000507
            ],
            [
              -121.49804299964735,
              45.72738000024414
            ],
            [
              -121.49776900001098,
              45.727474000302294
            ],
            [
              -121.49753499965922,
              45.72740000001626
            ],
            [
              -121.49739999994003,
              45.72741099979378
            ],
            [
              -121.49720199957332,
              45.72739299981463
            ],
            [
              -121.49701499997558,
              45.72737199983158
            ],
            [
              -121.49700599975473,
              45.72564800021761
            ],
            [
              -121.49700400010492,
              45.72542400010148
            ],
            [
              -121.49699999990695,
              45.7249039997286
            ],
            [
              -121.49699900008203,
              45.72480900010841
            ],
            [
              -121.49699300023426,
              45.723637000197314
            ],
            [
              -121.49691799989117,
              45.723648000088716
            ],
            [
              -121.49684900029419,
              45.72366299982312
            ],
            [
              -121.49675800005761,
              45.723671000139724
            ],
            [
              -121.49668100006471,
              45.723660000252856
            ],
            [
              -121.49652100023114,
              45.72362100018039
            ],
            [
              -121.49645199973585,
              45.72362100018039
            ],
            [
              -121.4963000002982,
              45.723637000197314
            ],
            [
              -121.49624599987155,
              45.723632999723186
            ],
            [
              -121.49618599959709,
              45.723614000132336
            ],
            [
              -121.49609400043387,
              45.723571999825616
            ],
            [
              -121.49598700030376,
              45.72351499971722
            ],
            [
              -121.4959179998085,
              45.723492000229115
            ],
            [
              -121.49590000026512,
              45.72349099995125
            ],
            [
              -121.49585099986133,
              45.72346799982613
            ],
            [
              -121.49573000038582,
              45.723411000238755
            ],
            [
              -121.49565699969256,
              45.72337099971245
            ],
            [
              -121.49560099961607,
              45.72332100011175
            ],
            [
              -121.49547900031564,
              45.7232239997428
            ],
            [
              -121.49541700039136,
              45.72316300002581
            ],
            [
              -121.49534700007116,
              45.723020000027205
            ],
            [
              -121.49530400041346,
              45.72288500009175
            ],
            [
              -121.49530000021551,
              45.72287200009935
            ],
            [
              -121.49522400004753,
              45.722706000171364
            ],
            [
              -121.49517800001675,
              45.7226160001629
            ],
            [
              -121.49510500022183,
              45.72257399973305
            ],
            [
              -121.49490900040327,
              45.722629000214866
            ],
            [
              -121.49480599957276,
              45.722766000096456
            ],
            [
              -121.49478999967926,
              45.72283700000824
            ],
            [
              -121.49471900043245,
              45.72291899986469
            ],
            [
              -121.4946089999293,
              45.72294099992807
            ],
            [
              -121.49439700021718,
              45.722879999902084
            ],
            [
              -121.49422499978974,
              45.72282999986195
            ],
            [
              -121.49398100029056,
              45.72278600026624
            ],
            [
              -121.49372299964939,
              45.72268599997298
            ],
            [
              -121.4935820000824,
              45.722476999948576
            ],
            [
              -121.49344099961708,
              45.72248699977249
            ],
            [
              -121.49328400015656,
              45.72253100023084
            ],
            [
              -121.49300200012428,
              45.722353999772785
            ],
            [
              -121.49287599972756,
              45.72238199996407
            ],
            [
              -121.49259299987033,
              45.722419000307326
            ],
            [
              -121.4924280000139,
              45.72244099994045
            ],
            [
              -121.492279000051,
              45.72249500025752
            ],
            [
              -121.49205100044534,
              45.722537000119594
            ],
            [
              -121.49185499972846,
              45.72258200020561
            ],
            [
              -121.49148499983262,
              45.72261400020289
            ],
            [
              -121.49121899969384,
              45.7225200001195
            ],
            [
              -121.49113300037841,
              45.722442999906654
            ],
            [
              -121.49099699993597,
              45.72231500004288
            ],
            [
              -121.49077400035323,
              45.7221690001049
            ],
            [
              -121.49069700036033,
              45.72212499998861
            ],
            [
              -121.49062399966705,
              45.72208400011988
            ],
            [
              -121.49045700016083,
              45.72207299992053
            ],
            [
              -121.49023899970261,
              45.722039000259905
            ],
            [
              -121.49000400042428,
              45.72194000018955
            ],
            [
              -121.48964299985093,
              45.721844999919085
            ],
            [
              -121.48943199996376,
              45.721706999977854
            ],
            [
              -121.48918099989358,
              45.72161900023726
            ],
            [
              -121.48907899978634,
              45.72162999989884
            ],
            [
              -121.48889800003637,
              45.72170600029515
            ],
            [
              -121.48881900039366,
              45.721750000114255
            ],
            [
              -121.4887099997154,
              45.721710999962774
            ],
            [
              -121.48851399989682,
              45.72160100027326
            ],
            [
              -121.48832499975094,
              45.72158900029402
            ],
            [
              -121.48792499971783,
              45.72146699973169
            ],
            [
              -121.48776900008221,
              45.72131799976307
            ],
            [
              -121.48758900015717,
              45.72115299992767
            ],
            [
              -121.4874560000878,
              45.721081000063485
            ],
            [
              -121.48723599997976,
              45.72102599993915
            ],
            [
              -121.48696200034337,
              45.72107200030909
            ],
            [
              -121.48676499980157,
              45.72100199973113
            ],
            [
              -121.48648299976925,
              45.72095199989175
            ],
            [
              -121.48631000041522,
              45.72097400010254
            ],
            [
              -121.48599599969754,
              45.72094500013646
            ],
            [
              -121.48574499962736,
              45.72085099975363
            ],
            [
              -121.48546299959507,
              45.720613999954544
            ],
            [
              -121.48532299985298,
              45.720433000246
            ],
            [
              -121.48515100032384,
              45.72027799989784
            ],
            [
              -121.48494700010936,
              45.720113000126965
            ],
            [
              -121.48488500018506,
              45.71991499988414
            ],
            [
              -121.48476800000921,
              45.71973300007473
            ],
            [
              -121.48439899993826,
              45.71979799989553
            ],
            [
              -121.4842259996859,
              45.71986899981598
            ],
            [
              -121.48386500001088,
              45.719896000283256
            ],
            [
              -121.4836209996134,
              45.719850999915366
            ],
            [
              -121.48334699997703,
              45.71979000027868
            ],
            [
              -121.48316700005196,
              45.71971799991237
            ],
            [
              -121.48280600037694,
              45.7195690002969
            ],
            [
              -121.48276899966869,
              45.719540000228704
            ],
            [
              -121.48278899976019,
              45.71949599992356
            ],
            [
              -121.48230699971131,
              45.71914699981058
            ],
            [
              -121.48175699989044,
              45.71881900009673
            ],
            [
              -121.48166599965383,
              45.71880599978539
            ],
            [
              -121.48154699982815,
              45.71889200010017
            ],
            [
              -121.48155500022405,
              45.7197489999508
            ],
            [
              -121.48156000024694,
              45.72050100024684
            ],
            [
              -121.48157299976742,
              45.72210100025264
            ],
            [
              -121.48158100016335,
              45.722642999929825
            ],
            [
              -121.48158500036129,
              45.72293100018537
            ],
            [
              -121.48145300011682,
              45.72289699979263
            ],
            [
              -121.48124300005453,
              45.722831999814225
            ],
            [
              -121.48112300040394,
              45.7227940000813
            ],
            [
              -121.48073500006642,
              45.72270000030076
            ],
            [
              -121.48045499968391,
              45.72263500009315
            ],
            [
              -121.47995300044191,
              45.722435999711
            ],
            [
              -121.47977400034176,
              45.72236400024588
            ],
            [
              -121.47956000008153,
              45.72224299979467
            ],
            [
              -121.47925200010997,
              45.72215900022402
            ],
            [
              -121.47882299976453,
              45.72207099994108
            ],
            [
              -121.47851499979299,
              45.72200800023776
            ],
            [
              -121.47801600002569,
              45.72178700024891
            ],
            [
              -121.47779400026786,
              45.72168999972521
            ],
            [
              -121.47743500024265,
              45.72153200004386
            ],
            [
              -121.47715300021036,
              45.721331000117125
            ],
            [
              -121.47694099959993,
              45.721081000063485
            ],
            [
              -121.47661699973483,
              45.72086099986857
            ],
            [
              -121.47637099968752,
              45.72062499981398
            ],
            [
              -121.47652300002348,
              45.720433999951474
            ],
            [
              -121.47643000013707,
              45.72040199995988
            ],
            [
              -121.47532499957407,
              45.72021399971763
            ],
            [
              -121.47498999983831,
              45.72073999992528
            ],
            [
              -121.47496800009702,
              45.720708000108935
            ],
            [
              -121.47495600040143,
              45.72068599979342
            ],
            [
              -121.4749050003478,
              45.720668000156
            ],
            [
              -121.47481499993614,
              45.720622999782705
            ],
            [
              -121.47474700016406,
              45.72057800000034
            ],
            [
              -121.47468400041487,
              45.72056799983469
            ],
            [
              -121.47459400000321,
              45.720544000057075
            ],
            [
              -121.47444800041332,
              45.72051000009316
            ],
            [
              -121.47440099965935,
              45.720478000145135
            ],
            [
              -121.47429100005449,
              45.72046500021979
            ],
            [
              -121.4742090000387,
              45.72044000006543
            ],
            [
              -121.47402900011366,
              45.72043899973288
            ],
            [
              -121.4739970003266,
              45.720442999808576
            ],
            [
              -121.47390100006716,
              45.72044600017874
            ],
            [
              -121.47379599958686,
              45.72046700025677
            ],
            [
              -121.47374000040867,
              45.72051000009316
            ],
            [
              -121.47359899994335,
              45.720535999919896
            ],
            [
              -121.47352000030065,
              45.720539000285065
            ],
            [
              -121.4734249998661,
              45.72062000004918
            ],
            [
              -121.4732009995601,
              45.720626000143206
            ],
            [
              -121.47295600023601,
              45.72062899987636
            ],
            [
              -121.47289400031174,
              45.72063099990747
            ],
            [
              -121.47269400029519,
              45.72063400026754
            ],
            [
              -121.47253399956331,
              45.72047499977669
            ],
            [
              -121.47203099959809,
              45.719971000188714
            ],
            [
              -121.4718919996809,
              45.71997300024333
            ],
            [
              -121.47112599994992,
              45.71998900005068
            ],
            [
              -121.47107200042157,
              45.71998900005068
            ],
            [
              -121.47107700044445,
              45.72021799980944
            ],
            [
              -121.47107800026937,
              45.72036300012176
            ],
            [
              -121.47007999983646,
              45.72006799993385
            ],
            [
              -121.46977100003998,
              45.72002400004445
            ],
            [
              -121.46965100038939,
              45.72022399994664
            ],
            [
              -121.46959100011495,
              45.72031600008772
            ],
            [
              -121.46955699977973,
              45.72036900024338
            ],
            [
              -121.46958699991697,
              45.72037899981741
            ],
            [
              -121.46960600018355,
              45.72038499993729
            ],
            [
              -121.4698859996677,
              45.72046900029363
            ],
            [
              -121.4701740004461,
              45.720556000260764
            ],
            [
              -121.47002999960776,
              45.72075000006009
            ],
            [
              -121.46809999976254,
              45.72075600014011
            ],
            [
              -121.4678200002784,
              45.720586999834254
            ],
            [
              -121.46753099967508,
              45.72057100019815
            ],
            [
              -121.46709200018223,
              45.72054699979468
            ],
            [
              -121.46662500020199,
              45.72076200021954
            ],
            [
              -121.46594700033457,
              45.720814999952125
            ],
            [
              -121.46536400000338,
              45.720816999976535
            ],
            [
              -121.46446299965488,
              45.72081999969944
            ],
            [
              -121.46424900029295,
              45.72082100002517
            ],
            [
              -121.46427400040729,
              45.72053799995428
            ],
            [
              -121.46432399973772,
              45.72045599973905
            ],
            [
              -121.46438400001217,
              45.72035600029267
            ],
            [
              -121.46462699968642,
              45.72004399994146
            ],
            [
              -121.46473899983941,
              45.719896000283256
            ],
            [
              -121.46490200004602,
              45.719304000238985
            ],
            [
              -121.46497400001606,
              45.71921900028555
            ],
            [
              -121.46509399966664,
              45.71907600022701
            ],
            [
              -121.46511899978101,
              45.719000999747436
            ],
            [
              -121.46518499990323,
              45.718786999807385
            ],
            [
              -121.46522000006334,
              45.71867700000577
            ],
            [
              -121.46532999966819,
              45.718638000217986
            ],
            [
              -121.46545900043793,
              45.718518999957475
            ],
            [
              -121.46556599966975,
              45.71841499995973
            ],
            [
              -121.46590499960347,
              45.71825600005335
            ],
            [
              -121.46590299995364,
              45.71815700017894
            ],
            [
              -121.46579599982354,
              45.71820799975602
            ],
            [
              -121.46526000024632,
              45.718013000162486
            ],
            [
              -121.46512600035202,
              45.71803000027957
            ],
            [
              -121.46497999986381,
              45.71823600014354
            ],
            [
              -121.46543099995054,
              45.71840000007073
            ],
            [
              -121.46519099975102,
              45.71858500030194
            ],
            [
              -121.4651270001769,
              45.71863300027538
            ],
            [
              -121.46494899990168,
              45.71877100028304
            ],
            [
              -121.46477099962647,
              45.71890699985709
            ],
            [
              -121.46442500002004,
              45.718779000045785
            ],
            [
              -121.46422400017858,
              45.71893299980257
            ],
            [
              -121.46400900009343,
              45.71855799982836
            ],
            [
              -121.46399900004769,
              45.71810800004949
            ],
            [
              -121.46385099990968,
              45.7179169997363
            ],
            [
              -121.46326199973072,
              45.71750799993362
            ],
            [
              -121.46312199998866,
              45.71698799989036
            ],
            [
              -121.46230600002895,
              45.71664399991378
            ],
            [
              -121.46226900021901,
              45.71669200030018
            ],
            [
              -121.4618590001402,
              45.71653599983437
            ],
            [
              -121.46101800006616,
              45.71623399979379
            ],
            [
              -121.46060499961429,
              45.71680500018467
            ],
            [
              -121.4606120001853,
              45.717137999880805
            ],
            [
              -121.45941799993383,
              45.71714500011303
            ],
            [
              -121.45971500003475,
              45.71740399993576
            ],
            [
              -121.46027699955121,
              45.717975000287936
            ],
            [
              -121.4606339999266,
              45.7182299997929
            ],
            [
              -121.46068400015533,
              45.7206950002371
            ],
            [
              -121.46068900017819,
              45.72093399971285
            ],
            [
              -121.46303300030017,
              45.722484999807875
            ],
            [
              -121.46298499972127,
              45.72254800022758
            ],
            [
              -121.46258600041143,
              45.72279000017391
            ],
            [
              -121.46217100030974,
              45.72292799994865
            ],
            [
              -121.46147099980267,
              45.72319299975102
            ],
            [
              -121.46086099970731,
              45.72353299969172
            ],
            [
              -121.46074400042977,
              45.72364400024247
            ],
            [
              -121.46074699990449,
              45.72378399970739
            ],
            [
              -121.46075000027756,
              45.72394899992534
            ],
            [
              -121.4610359996095,
              45.72364600016565
            ],
            [
              -121.46160100039734,
              45.72333000013096
            ],
            [
              -121.46227800043985,
              45.72307500007
            ],
            [
              -121.46271500028287,
              45.72292900023664
            ],
            [
              -121.46299399994211,
              45.722777000159354
            ],
            [
              -121.46321700042321,
              45.72259799989294
            ],
            [
              -121.46367799965734,
              45.72291199972868
            ],
            [
              -121.46411299985051,
              45.72279999994181
            ],
            [
              -121.46458400002871,
              45.72261200024277
            ],
            [
              -121.46490799989381,
              45.72245200006734
            ],
            [
              -121.4652879998354,
              45.72265999989249
            ],
            [
              -121.46546799976046,
              45.72270899979286
            ],
            [
              -121.46597999994655,
              45.72294200021578
            ],
            [
              -121.46638099980453,
              45.72303899982006
            ],
            [
              -121.46670399984474,
              45.723144000275155
            ],
            [
              -121.4668489996097,
              45.72321799992782
            ],
            [
              -121.46718900026661,
              45.72329200010961
            ],
            [
              -121.46767899981306,
              45.72345100010932
            ],
            [
              -121.46862500036742,
              45.72374799991433
            ],
            [
              -121.46905899983737,
              45.72390100012885
            ],
            [
              -121.46918699988389,
              45.72386000030922
            ],
            [
              -121.46962499955178,
              45.72398500021602
            ],
            [
              -121.4696599997119,
              45.72398799976884
            ],
            [
              -121.46965800006208,
              45.72390899978424
            ],
            [
              -121.4701740004461,
              45.724265000221486
            ],
            [
              -121.47030199959434,
              45.72435300018424
            ],
            [
              -121.47084599956743,
              45.724353999819584
            ],
            [
              -121.47119100024727,
              45.72435800024211
            ],
            [
              -121.4711870000493,
              45.72495600029729
            ],
            [
              -121.47116000028511,
              45.727829999969124
            ],
            [
              -121.4711589995619,
              45.7279760001629
            ],
            [
              -121.47331799973595,
              45.727979000128514
            ],
            [
              -121.4738569996862,
              45.72797799993095
            ],
            [
              -121.47489299975393,
              45.727979000128514
            ],
            [
              -121.47542699968132,
              45.7279839998618
            ],
            [
              -121.47629899971751,
              45.72798200009397
            ],
            [
              -121.47630299991546,
              45.7280590001974
            ],
            [
              -121.47631499961102,
              45.72833800028569
            ],
            [
              -121.47631899980898,
              45.72843199998588
            ],
            [
              -121.47632600038001,
              45.72910499988288
            ],
            [
              -121.4763330000527,
              45.729787000056
            ],
            [
              -121.47633899990046,
              45.73026400030167
            ],
            [
              -121.47634899994623,
              45.7311260001133
            ],
            [
              -121.47635300014417,
              45.73139999987699
            ],
            [
              -121.47635499979401,
              45.731608999751906
            ],
            [
              -121.47676400004791,
              45.73160700011385
            ],
            [
              -121.47751700025842,
              45.73160599998125
            ],
            [
              -121.4775089998625,
              45.731636999693755
            ],
            [
              -121.47730299999816,
              45.731819000227574
            ],
            [
              -121.47734499983096,
              45.73201500004276
            ],
            [
              -121.477312000219,
              45.73230999984988
            ],
            [
              -121.47714999983728,
              45.732543999846996
            ],
            [
              -121.47695800021667,
              45.732864999727234
            ],
            [
              -121.4769609996914,
              45.73328800015657
            ],
            [
              -121.47695999986648,
              45.73332600027544
            ],
            [
              -121.4769609996914,
              45.733450000219584
            ],
            [
              -121.477713000077,
              45.7334449997215
            ],
            [
              -121.47771700027495,
              45.73469600003044
            ],
            [
              -121.47771599955172,
              45.73471599969101
            ],
            [
              -121.47770700022922,
              45.73524400017793
            ],
            [
              -121.47655499981056,
              45.73524400017793
            ],
            [
              -121.4761999999833,
              45.73524300011046
            ],
            [
              -121.47619300031062,
              45.73555899984359
            ],
            [
              -121.47613600040921,
              45.73836999999381
            ],
            [
              -121.4761229999904,
              45.738772000019665
            ],
            [
              -121.47611999961734,
              45.73888799976669
            ],
            [
              -121.47652700022145,
              45.73888999977101
            ],
            [
              -121.48131800039761,
              45.73890199979549
            ],
            [
              -121.48433700001397,
              45.73888799976669
            ],
            [
              -121.48446099986253,
              45.738885999762246
            ],
            [
              -121.48460800017564,
              45.738884999760046
            ],
            [
              -121.48460999982547,
              45.738464999747954
            ],
            [
              -121.48545599992237,
              45.73846699976743
            ],
            [
              -121.48588699991758,
              45.73847099980622
            ],
            [
              -121.48561599975595,
              45.73825499981117
            ],
            [
              -121.48520800022527,
              45.73792900009416
            ],
            [
              -121.48494299991138,
              45.7376799997341
            ],
            [
              -121.48491500032227,
              45.7376579998327
            ],
            [
              -121.48656200031029,
              45.737654999759975
            ],
            [
              -121.4865639999601,
              45.737698000159945
            ],
            [
              -121.48773599957195,
              45.73770699974373
            ],
            [
              -121.48773200027229,
              45.73806900012117
            ],
            [
              -121.48773200027229,
              45.738133999924855
            ],
            [
              -121.4877189998535,
              45.73841399985386
            ],
            [
              -121.48770100031015,
              45.73888799976669
            ],
            [
              -121.48768799989136,
              45.73895299987089
            ],
            [
              -121.48799599986295,
              45.73895199986984
            ],
            [
              -121.48814999984874,
              45.73895199986984
            ],
            [
              -121.48833999981952,
              45.73895199986984
            ],
            [
              -121.48848100028485,
              45.73894799986556
            ],
            [
              -121.48860400030848,
              45.73894599986326
            ],
            [
              -121.48897400020435,
              45.738938999854824
            ],
            [
              -121.48909800005292,
              45.738937999853526
            ],
            [
              -121.48913400003792,
              45.73893699985225
            ],
            [
              -121.48913200038811,
              45.738547999869475
            ],
            [
              -121.48954099974368,
              45.73854899987772
            ],
            [
              -121.48954199956862,
              45.7384390001151
            ],
            [
              -121.48977699974523,
              45.738436000084334
            ],
            [
              -121.48976400022478,
              45.73893099984407
            ],
            [
              -121.48978900033913,
              45.73893099984407
            ],
            [
              -121.48996199969316,
              45.73893299984685
            ],
            [
              -121.49003700003625,
              45.73893299984685
            ],
            [
              -121.49026399981695,
              45.73893399984824
            ],
            [
              -121.49033999998495,
              45.73893499984961
            ],
            [
              -121.49041899962768,
              45.738935999850916
            ],
            [
              -121.49041899962768,
              45.73883800026201
            ],
            [
              -121.49043600024442,
              45.737087000015684
            ],
            [
              -121.49043700006933,
              45.73535199983352
            ],
            [
              -121.49043600024442,
              45.73524999995528
            ],
            [
              -121.49045399978776,
              45.73524999995528
            ],
            [
              -121.49049700034378,
              45.73525100002258
            ],
            [
              -121.4906529999794,
              45.73525599973198
            ],
            [
              -121.49076000010952,
              45.73525599973198
            ],
            [
              -121.49097000017179,
              45.73525599973198
            ],
            [
              -121.49160000035866,
              45.73525699979918
            ],
            [
              -121.49181000042093,
              45.7352579998664
            ],
            [
              -121.49243100038696,
              45.7352589999336
            ],
            [
              -121.4936749999688,
              45.73526200013501
            ],
            [
              -121.4941949996525,
              45.7352589999336
            ],
            [
              -121.49434399961541,
              45.7352579998664
            ],
            [
              -121.49502200038114,
              45.735255000291744
            ],
            [
              -121.49700900012779,
              45.73524400017793
            ],
            [
              -121.49700800030287,
              45.735526999737715
            ],
            [
              -121.49700800030287,
              45.735677000114826
            ],
            [
              -121.49699999990695,
              45.73637799993824
            ],
            [
              -121.4969970004322,
              45.736662000063085
            ],
            [
              -121.49699400005915,
              45.73686300000272
            ],
            [
              -121.49701999999841,
              45.73725900003154
            ],
            [
              -121.49709699999131,
              45.737393000311016
            ],
            [
              -121.49715999974053,
              45.73745200010752
            ],
            [
              -121.49727600009146,
              45.737499000145235
            ],
            [
              -121.49743500010013,
              45.73750999981485
            ],
            [
              -121.49756899999443,
              45.73750799976105
            ],
            [
              -121.49803500014976,
              45.73750200022629
            ],
            [
              -121.49806500028697,
              45.73750200022629
            ],
            [
              -121.49815800017339,
              45.737505000307245
            ],
            [
              -121.49815499980035,
              45.73718500016987
            ],
            [
              -121.49888299989648,
              45.737189999706075
            ],
            [
              -121.49888000042176,
              45.73678700016364
            ],
            [
              -121.49914499983731,
              45.736789000243256
            ],
            [
              -121.4990529997758,
              45.73666400014719
            ],
            [
              -121.49885299975927,
              45.73642400020661
            ],
            [
              -121.49823199979325,
              45.73655699993796
            ],
            [
              -121.49822599994548,
              45.736059999718
            ],
            [
              -121.49822099992258,
              45.73533900023439
            ],
            [
              -121.49852499969622,
              45.73534000030009
            ],
            [
              -121.49892999975216,
              45.73534199980454
            ],
            [
              -121.49933499980811,
              45.73534299987019
            ],
            [
              -121.49951399990826,
              45.735343999935864
            ],
            [
              -121.49951700028132,
              45.73570000022896
            ],
            [
              -121.5000660002773,
              45.73570299977972
            ],
            [
              -121.50048600040185,
              45.73570599995732
            ],
            [
              -121.50027499961634,
              45.7360200000984
            ],
            [
              -121.50044000037111,
              45.73619699989098
            ],
            [
              -121.50095400020702,
              45.73619899999173
            ],
            [
              -121.50110999984264,
              45.73571800003909
            ],
            [
              -121.50118699983551,
              45.73565900029147
            ],
            [
              -121.50125999963043,
              45.735638000281256
            ],
            [
              -121.50210200042771,
              45.7355279998001
            ],
            [
              -121.50209999987958,
              45.73535800022628
            ],
            [
              -121.50209400003182,
              45.73487900007478
            ],
            [
              -121.5020930002069,
              45.73480199996815
            ],
            [
              -121.50209200038198,
              45.73472900006219
            ],
            [
              -121.50209099965876,
              45.73461100029585
            ],
            [
              -121.50223899979677,
              45.73460800005942
            ],
            [
              -121.50205499967376,
              45.734446000220466
            ],
            [
              -121.50204299997817,
              45.73443600002919
            ],
            [
              -121.50195500011462,
              45.73435799985549
            ],
            [
              -121.50179500028108,
              45.73421799992959
            ],
            [
              -121.50154199966275,
              45.73401300014392
            ],
            [
              -121.50109099957605,
              45.733649999711176
            ],
            [
              -121.50071599965732,
              45.73376100022348
            ],
            [
              -121.50018299955484,
              45.733625999910316
            ],
            [
              -121.49974099968895,
              45.73351400028531
            ],
            [
              -121.49929899982311,
              45.73340099970825
            ],
            [
              -121.49875700039813,
              45.73326300009721
            ],
            [
              -121.49845299972618,
              45.73287199987013
            ],
            [
              -121.49809100022624,
              45.73287099976017
            ],
            [
              -121.4977280000031,
              45.732870000277245
            ],
            [
              -121.49689600014986,
              45.73284500003082
            ],
            [
              -121.49689399960172,
              45.73229600004944
            ],
            [
              -121.49689500032495,
              45.73165400005468
            ],
            [
              -121.49723799955831,
              45.73167199991482
            ],
            [
              -121.49788899966155,
              45.73170599998314
            ],
            [
              -121.49964399960461,
              45.731718999800954
            ],
            [
              -121.5004460002189,
              45.731726000087484
            ],
            [
              -121.50074199959658,
              45.731726000087484
            ],
            [
              -121.50163200007444,
              45.731726000087484
            ],
            [
              -121.50192900017538,
              45.731726000087484
            ],
            [
              -121.50204200015325,
              45.73172899985169
            ],
            [
              -121.50207999978811,
              45.730355000058026
            ],
            [
              -121.50208200033623,
              45.73029399997588
            ],
            [
              -121.50290800034166,
              45.730305999966454
            ],
            [
              -121.5029180003874,
              45.729849000228874
            ],
            [
              -121.50292500006009,
              45.72962600019594
            ],
            [
              -121.50299600020521,
              45.72964400008264
            ],
            [
              -121.50340399973591,
              45.72974900003742
            ],
            [
              -121.50351599988889,
              45.72978599989085
            ],
            [
              -121.50381700018778,
              45.72988700017946
            ],
            [
              -121.50387099971613,
              45.729907000308046
            ],
            [
              -121.50389599983049,
              45.729915999893336
            ],
            [
              -121.50397100017355,
              45.72994400005682
            ],
            [
              -121.50399700011285,
              45.72995399979828
            ],
            [
              -121.50410400024296,
              45.7300190002689
            ],
            [
              -121.50418799990854,
              45.73007899986444
            ],
            [
              -121.50415100009862,
              45.73028199998271
            ],
            [
              -121.50400399978552,
              45.73106400010388
            ],
            [
              -121.50396199995274,
              45.73106400010388
            ],
            [
              -121.50326399999382,
              45.73105600021903
            ],
            [
              -121.50324999975011,
              45.731751999710724
            ],
            [
              -121.50360399975244,
              45.731755000100584
            ],
            [
              -121.50386400004344,
              45.731757999863234
            ],
            [
              -121.50398700006711,
              45.73175899999312
            ],
            [
              -121.50402300005211,
              45.73175899999312
            ],
            [
              -121.50416799981704,
              45.73175899999312
            ],
            [
              -121.50448500000947,
              45.731761999755555
            ],
            [
              -121.50460399983515,
              45.73175899999312
            ],
            [
              -121.50475000032333,
              45.731756999733335
            ],
            [
              -121.50508800043214,
              45.73177100029594
            ],
            [
              -121.5053050001671,
              45.73178000020789
            ],
            [
              -121.50610500023326,
              45.731784000098635
            ],
            [
              -121.50621599966304,
              45.73178500022805
            ],
            [
              -121.50637999969457,
              45.731790999749954
            ],
            [
              -121.50644400016698,
              45.73179300000847
            ],
            [
              -121.50644199961884,
              45.73178199983979
            ],
            [
              -121.50641599967958,
              45.731680999842716
            ],
            [
              -121.50640200033418,
              45.73159900030673
            ],
            [
              -121.50636499962597,
              45.73137900014635
            ],
            [
              -121.50632699999112,
              45.731270000193305
            ],
            [
              -121.50629299965594,
              45.73117299983189
            ],
            [
              -121.50626599989175,
              45.73114199986185
            ],
            [
              -121.50632699999112,
              45.731140999720964
            ],
            [
              -121.50640200033418,
              45.73114000020708
            ],
            [
              -121.50765400031199,
              45.73113199970606
            ],
            [
              -121.50764400026623,
              45.72916600000942
            ],
            [
              -121.50764199971809,
              45.729138000082955
            ],
            [
              -121.50809000033007,
              45.72913200027606
            ],
            [
              -121.50810200002564,
              45.729977999922966
            ],
            [
              -121.50886299973375,
              45.72997299974109
            ],
            [
              -121.5088519998631,
              45.72950700013746
            ],
            [
              -121.50881500005318,
              45.72811499986387
            ],
            [
              -121.50903799963592,
              45.728137999957
            ]
          ],
          [
            [
              -121.48482599973553,
              45.73523799977293
            ],
            [
              -121.48486099989563,
              45.73523799977293
            ],
            [
              -121.48481499986487,
              45.73550799980333
            ],
            [
              -121.4844299999004,
              45.735509999928716
            ],
            [
              -121.48443300027344,
              45.735488999862476
            ],
            [
              -121.4844349999233,
              45.735420999922134
            ],
            [
              -121.4844349999233,
              45.73538400003967
            ],
            [
              -121.48443900012121,
              45.735274999752114
            ],
            [
              -121.48443999994613,
              45.73523899984049
            ],
            [
              -121.48451699993903,
              45.73523699970535
            ],
            [
              -121.4846559998562,
              45.735236000264806
            ],
            [
              -121.4847479999177,
              45.73523699970535
            ],
            [
              -121.48482599973553,
              45.73523799977293
            ]
          ]
        ]
      },
      "properties": {
        "AREALAND": "4054791",
        "AREAWATER": "0",
        "BASENAME": "White Salmon",
        "CBSAPCI": "N",
        "CENTLAT": "+45.7285171",
        "CENTLON": "-121.4853918",
        "FUNCSTAT": "A",
        "GEOID": "5378330",
        "INTPTLAT": "+45.7285171",
        "INTPTLON": "-121.4853918",
        "LSADC": "25",
        "MTFCC": "G4110",
        "NAME": "White Salmon city",
        "NECTAPCI": "N",
        "OBJECTID": 15468,
        "OID": "27890480139239",
        "PLACE": "78330",
        "PLACECC": "C1",
        "PLACENS": "02412254",
        "STATE": "53",
        "DISP_CLR": 4,
        "slug": "white_salmon",
        "jurisdiction_key": "white_salmon_city",
        "county_fips": [
          "53039"
        ]
      }
    }
  ]
}
