{
  "type": "FeatureCollection",
  "features": [
    {
      "type": "Feature",
      "geometry": {
        "type": "Polygon",
        "coordinates": [
          [
            [
              -122.41574400036173,
              45.865876000186866
            ],
            [
              -122.4157359999658,
              45.865180000069024
            ],
            [
              -122.41573400031596,
              45.86502200006533
            ],
            [
              -122.4157290002931,
              45.864364999830634
            ],
            [
              -122.41573000011802,
              45.86421300030711
            ],
            [
              -122.41571099985143,
              45.864207000012826
            ],
            [
              -122.41561700014009,
              45.86416600006985
            ],
            [
              -122.4154680001772,
              45.86412800024831
            ],
            [
              -122.41530800034361,
              45.86412199994486
            ],
            [
              -122.41485899990674,
              45.864123999837574
            ],
            [
              -122.41479699998247,
              45.86412199994486
            ],
            [
              -122.41461100020962,
              45.86411600026633
            ],
            [
              -122.41454900028535,
              45.86411500000705
            ],
            [
              -122.41443799995726,
              45.864113000114045
            ],
            [
              -122.41443700013234,
              45.86401599989879
            ],
            [
              -122.41443399975928,
              45.863749999884625
            ],
            [
              -122.4144270000866,
              45.86316700011021
            ],
            [
              -122.41439699994936,
              45.86049900019994
            ],
            [
              -122.41439600012447,
              45.86043999980098
            ],
            [
              -122.41183699991731,
              45.860414999793335
            ],
            [
              -122.41066299975734,
              45.860403000261066
            ],
            [
              -122.40942500002323,
              45.860389000073695
            ],
            [
              -122.40925099994598,
              45.860382000291466
            ],
            [
              -122.40661599957085,
              45.86035399990258
            ],
            [
              -122.40350499989296,
              45.86032200006648
            ],
            [
              -122.40326600041668,
              45.86031899970942
            ],
            [
              -122.40298699985911,
              45.86031500027582
            ],
            [
              -122.40146399971965,
              45.86029600030336
            ],
            [
              -122.39926799973566,
              45.86026999990251
            ],
            [
              -122.39882500004488,
              45.86026799987116
            ],
            [
              -122.39883400026572,
              45.86096800018996
            ],
            [
              -122.39472599997985,
              45.86090500027193
            ],
            [
              -122.3947419998734,
              45.86204799992711
            ],
            [
              -122.39440899978746,
              45.86204399999228
            ],
            [
              -122.3937579996842,
              45.86203800008949
            ],
            [
              -122.3937850003467,
              45.8638740001813
            ],
            [
              -122.39388200043108,
              45.8638740001813
            ],
            [
              -122.39625199959404,
              45.863893000182124
            ],
            [
              -122.39681900003168,
              45.86386599994855
            ],
            [
              -122.39745400024142,
              45.863864000046554
            ],
            [
              -122.39883400026572,
              45.8638589999785
            ],
            [
              -122.39890100021286,
              45.8638589999785
            ],
            [
              -122.39894800006856,
              45.8638589999785
            ],
            [
              -122.39899300027437,
              45.8638589999785
            ],
            [
              -122.39898300022864,
              45.864938000236855
            ],
            [
              -122.39896899998493,
              45.86678000027956
            ],
            [
              -122.400030000167,
              45.866789999889775
            ],
            [
              -122.40005100008342,
              45.86818400025796
            ],
            [
              -122.40008500041858,
              45.87038800008275
            ],
            [
              -122.40056800029235,
              45.87038999975
            ],
            [
              -122.4007680003089,
              45.870390999896365
            ],
            [
              -122.401156999573,
              45.870390999896365
            ],
            [
              -122.40155199958322,
              45.87039200004271
            ],
            [
              -122.40169499969836,
              45.87038900022911
            ],
            [
              -122.40185299988211,
              45.87039200004271
            ],
            [
              -122.40236900026615,
              45.870393000189
            ],
            [
              -122.40280100008626,
              45.87039399970981
            ],
            [
              -122.4030770002708,
              45.87039399970981
            ],
            [
              -122.40333300036384,
              45.87039399970981
            ],
            [
              -122.40417299971465,
              45.87039899981557
            ],
            [
              -122.40522499967591,
              45.87039399970981
            ],
            [
              -122.40572900036436,
              45.870393000189
            ],
            [
              -122.40724300028297,
              45.87039200004271
            ],
            [
              -122.40774799989804,
              45.87039200004271
            ],
            [
              -122.40898399998228,
              45.87040500006699
            ],
            [
              -122.4098569998434,
              45.87038999975
            ],
            [
              -122.41039199959567,
              45.870380000161965
            ],
            [
              -122.410384999923,
              45.87050199976712
            ],
            [
              -122.41038200044822,
              45.870934999910816
            ],
            [
              -122.41038099972502,
              45.8713360000572
            ],
            [
              -122.4103799999001,
              45.871473000094554
            ],
            [
              -122.41065899955936,
              45.87147699997644
            ],
            [
              -122.4107029999403,
              45.87154700005189
            ],
            [
              -122.41072499968162,
              45.87156099993128
            ],
            [
              -122.41565300012512,
              45.87156300018186
            ],
            [
              -122.4156720003917,
              45.87156300018186
            ],
            [
              -122.41566599964558,
              45.871123000246094
            ],
            [
              -122.41566399999577,
              45.87093399977423
            ],
            [
              -122.4156570003231,
              45.870455999988444
            ],
            [
              -122.41565599959985,
              45.87040100010796
            ],
            [
              -122.4156380000565,
              45.870390999896365
            ],
            [
              -122.4156380000565,
              45.869848999873604
            ],
            [
              -122.41563600040666,
              45.869540999730546
            ],
            [
              -122.41563600040666,
              45.869498000269346
            ],
            [
              -122.41541700012357,
              45.869498000269346
            ],
            [
              -122.41360299973098,
              45.86949999996865
            ],
            [
              -122.41349200030122,
              45.86950100013104
            ],
            [
              -122.41345399976805,
              45.866785000084896
            ],
            [
              -122.41357099994393,
              45.86678699988176
            ],
            [
              -122.41359900043136,
              45.86678699988176
            ],
            [
              -122.41364799993684,
              45.86678800009296
            ],
            [
              -122.41381600016632,
              45.866789999889775
            ],
            [
              -122.4143219996063,
              45.86679700011624
            ],
            [
              -122.41446700026955,
              45.86680000012366
            ],
            [
              -122.41451199957712,
              45.86680000012366
            ],
            [
              -122.4148139997009,
              45.86680199992004
            ],
            [
              -122.41536299969691,
              45.86680600013807
            ],
            [
              -122.41535299965115,
              45.86596700018007
            ],
            [
              -122.4153500001764,
              45.86586800024222
            ],
            [
              -122.41574400036173,
              45.865876000186866
            ]
          ]
        ]
      },
      "properties": {
        "AREALAND": "1495337",
        "AREAWATER": "0",
        "BASENAME": "Yacolt",
        "CBSAPCI": "N",
        "CENTLAT": "+45.8652479",
        "CENTLON": "-122.4063218",
        "FUNCSTAT": "A",
        "GEOID": "5379975",
        "INTPTLAT": "+45.8652479",
        "INTPTLON": "-122.4063218",
        "LSADC": "43",
        "MTFCC": "G4110",
        "NAME": "Yacolt town",
        "NECTAPCI": "N",
        "OBJECTID": 7551,
        "OID": "27890231883794",
        "PLACE": "79975",
        "PLACECC": "C1",
        "PLACENS": "02413517",
        "STATE": "53",
        "DISP_CLR": 1,
        "slug": "yacolt",
        "jurisdiction_key": "yacolt_city",
        "county_fips": [
          "53011"
        ]
      }
    }
  ]
}
