{
  "type": "FeatureCollection",
  "features": [
    {
      "type": "Feature",
      "geometry": {
        "type": "Polygon",
        "coordinates": [
          [
            [
              -122.77340200001909,
              45.93502900011015
            ],
            [
              -122.77342600030855,
              45.93137899997837
            ],
            [
              -122.77080500017709,
              45.93139099980343
            ],
            [
              -122.77086200007851,
              45.92787200015716
            ],
            [
              -122.77086499955323,
              45.9277560000037
            ],
            [
              -122.77065500038927,
              45.927753999901945
            ],
            [
              -122.77031700028047,
              45.92774999969829
            ],
            [
              -122.76831700011506,
              45.92772599971985
            ],
            [
              -122.7680660000449,
              45.92772200013897
            ],
            [
              -122.76731299983442,
              45.92771299998749
            ],
            [
              -122.76706299958916,
              45.92771000014496
            ],
            [
              -122.76624199960658,
              45.92769899988786
            ],
            [
              -122.76483399999319,
              45.92768100020086
            ],
            [
              -122.76470500012175,
              45.92767200004277
            ],
            [
              -122.76457799990015,
              45.92765700019257
            ],
            [
              -122.76441800006657,
              45.92762800022074
            ],
            [
              -122.76379899975039,
              45.92749599992042
            ],
            [
              -122.76299700003442,
              45.927324999845375
            ],
            [
              -122.76325399995235,
              45.926452000225005
            ],
            [
              -122.76360899977959,
              45.925251000084835
            ],
            [
              -122.76402600042941,
              45.92383600021586
            ],
            [
              -122.76408800035371,
              45.92362800017027
            ],
            [
              -122.76412699981344,
              45.92353700025664
            ],
            [
              -122.76416799982131,
              45.92347499985226
            ],
            [
              -122.76421899987496,
              45.92341699989505
            ],
            [
              -122.76428099979924,
              45.92336400021512
            ],
            [
              -122.7643569999672,
              45.92331700002038
            ],
            [
              -122.7644490000287,
              45.92328200011537
            ],
            [
              -122.76454399956495,
              45.92325899989799
            ],
            [
              -122.76461800008312,
              45.92325499999504
            ],
            [
              -122.76470900031973,
              45.9232500002722
            ],
            [
              -122.7648699999782,
              45.92326599988367
            ],
            [
              -122.76520100041431,
              45.92331200030312
            ],
            [
              -122.76694600031158,
              45.923557000291645
            ],
            [
              -122.76752799991957,
              45.92363899998494
            ],
            [
              -122.76789899964032,
              45.92369100021533
            ],
            [
              -122.76901500007396,
              45.92384699998923
            ],
            [
              -122.76938699961964,
              45.92389999983263
            ],
            [
              -122.76944299969617,
              45.92370100020598
            ],
            [
              -122.76968100024585,
              45.92284599980522
            ],
            [
              -122.76982799966062,
              45.922322999751565
            ],
            [
              -122.77058300041926,
              45.91969199988312
            ],
            [
              -122.77088499964472,
              45.9186420001403
            ],
            [
              -122.77106200009503,
              45.918015000123305
            ],
            [
              -122.77115599980638,
              45.91768799979123
            ],
            [
              -122.7711719996999,
              45.9175980000554
            ],
            [
              -122.77118199974565,
              45.91743099979086
            ],
            [
              -122.77118799959344,
              45.91607699987746
            ],
            [
              -122.77119199979141,
              45.91542599995097
            ],
            [
              -122.77075499994841,
              45.915502000031786
            ],
            [
              -122.77070600044293,
              45.915511000289435
            ],
            [
              -122.77045899967239,
              45.91557100030284
            ],
            [
              -122.7700739997079,
              45.91568800026752
            ],
            [
              -122.76996300027815,
              45.915718000186665
            ],
            [
              -122.76985000030024,
              45.915742999690224
            ],
            [
              -122.76946100013781,
              45.915804000031684
            ],
            [
              -122.76921500009053,
              45.91584300009188
            ],
            [
              -122.76921199971747,
              45.91566999980827
            ],
            [
              -122.7692069996946,
              45.915170000064194
            ],
            [
              -122.76920500004479,
              45.9128579997605
            ],
            [
              -122.76918300030347,
              45.91243400021342
            ],
            [
              -122.76912200020409,
              45.911284999733915
            ],
            [
              -122.76911100033344,
              45.9107119997052
            ],
            [
              -122.76910999961022,
              45.91056100011883
            ],
            [
              -122.76910399976244,
              45.909914000104386
            ],
            [
              -122.76909200006689,
              45.90845900006336
            ],
            [
              -122.76909200006689,
              45.90839700031196
            ],
            [
              -122.76909100024197,
              45.90831199970348
            ],
            [
              -122.7690729998003,
              45.90628500018777
            ],
            [
              -122.76905500025696,
              45.90404399974669
            ],
            [
              -122.7690529997088,
              45.90389499986033
            ],
            [
              -122.7692700003421,
              45.90389799974033
            ],
            [
              -122.76959199965906,
              45.90390199978843
            ],
            [
              -122.76968000042093,
              45.90390299995667
            ],
            [
              -122.7696779998728,
              45.90386099975047
            ],
            [
              -122.76963100001711,
              45.90220899977595
            ],
            [
              -122.76959900023009,
              45.901068000055524
            ],
            [
              -122.76911999965597,
              45.90107200030753
            ],
            [
              -122.76861000001803,
              45.90107799974727
            ],
            [
              -122.76743000001026,
              45.90110399981268
            ],
            [
              -122.76644400017128,
              45.90113200030224
            ],
            [
              -122.76634399971384,
              45.90112699983633
            ],
            [
              -122.7662490001776,
              45.901109999874116
            ],
            [
              -122.76625099982739,
              45.90075199986567
            ],
            [
              -122.76628000013973,
              45.8976380001491
            ],
            [
              -122.76579300006802,
              45.89763600021203
            ],
            [
              -122.76508099986539,
              45.897632999993654
            ],
            [
              -122.76424800018727,
              45.89760599989677
            ],
            [
              -122.76374500022202,
              45.89758900010686
            ],
            [
              -122.76324800010457,
              45.89757299996889
            ],
            [
              -122.76319600022603,
              45.89757100002942
            ],
            [
              -122.76320899974651,
              45.8928060001596
            ],
            [
              -122.76179000026247,
              45.892809999756345
            ],
            [
              -122.75865399957192,
              45.89281600008884
            ],
            [
              -122.75551199993187,
              45.892809999756345
            ],
            [
              -122.75544599980965,
              45.892809999756345
            ],
            [
              -122.75474399965276,
              45.89273599997925
            ],
            [
              -122.75441700031293,
              45.892674999919876
            ],
            [
              -122.75436100023644,
              45.8926649999652
            ],
            [
              -122.75108700035194,
              45.892111999796214
            ],
            [
              -122.7506479999608,
              45.89209300006345
            ],
            [
              -122.74998900035992,
              45.8920850001411
            ],
            [
              -122.7498389996738,
              45.892083000003986
            ],
            [
              -122.74971700037337,
              45.8920750000802
            ],
            [
              -122.74908800001143,
              45.89207399969889
            ],
            [
              -122.74877400019209,
              45.89207399969889
            ],
            [
              -122.74814499983015,
              45.89207399969889
            ],
            [
              -122.74742299958176,
              45.89207299994277
            ],
            [
              -122.74652600032955,
              45.89207299994277
            ],
            [
              -122.74643900029089,
              45.89217599973687
            ],
            [
              -122.74646100003221,
              45.89220799999216
            ],
            [
              -122.74650200004011,
              45.89225000026018
            ],
            [
              -122.74651600028382,
              45.89226399992559
            ],
            [
              -122.7466640004218,
              45.89236299973677
            ],
            [
              -122.74639599973489,
              45.89222700031083
            ],
            [
              -122.74622900022864,
              45.89242400013888
            ],
            [
              -122.74571600021763,
              45.89303500021353
            ],
            [
              -122.74706399955657,
              45.89348500026887
            ],
            [
              -122.7470719999525,
              45.893493999720114
            ],
            [
              -122.7488190003979,
              45.89553699996303
            ],
            [
              -122.74944600021172,
              45.8962689997936
            ],
            [
              -122.74905299985134,
              45.897273000122624
            ],
            [
              -122.74895400011712,
              45.8975270000935
            ],
            [
              -122.74863600009982,
              45.89834100014172
            ],
            [
              -122.7479459996385,
              45.8983519999677
            ],
            [
              -122.74737300025139,
              45.89836000023765
            ],
            [
              -122.74635899992496,
              45.89838199987996
            ],
            [
              -122.74520099965851,
              45.898406999690216
            ],
            [
              -122.74469600004345,
              45.89841800012831
            ],
            [
              -122.74425699965228,
              45.898427000030495
            ],
            [
              -122.74398700021389,
              45.89843299975605
            ],
            [
              -122.74386500001515,
              45.89843500028959
            ],
            [
              -122.74345999995917,
              45.89844499983041
            ],
            [
              -122.74305400007833,
              45.89845300008696
            ],
            [
              -122.74238500043172,
              45.89846700006422
            ],
            [
              -122.74238399970852,
              45.89856200026325
            ],
            [
              -122.74238200005867,
              45.898774000285904
            ],
            [
              -122.74227499992857,
              45.898769999868335
            ],
            [
              -122.74015699976238,
              45.898666999800625
            ],
            [
              -122.7397519997064,
              45.89864799980975
            ],
            [
              -122.73965600034526,
              45.89848999992989
            ],
            [
              -122.73908700025778,
              45.89838899987799
            ],
            [
              -122.73882699996679,
              45.89848600011704
            ],
            [
              -122.7392789998784,
              45.899227999858766
            ],
            [
              -122.73956400028376,
              45.899695999762976
            ],
            [
              -122.73961000031453,
              45.89977200012849
            ],
            [
              -122.73974800040678,
              45.89999899973719
            ],
            [
              -122.73979400043754,
              45.90007599992516
            ],
            [
              -122.73988499977581,
              45.900226999902614
            ],
            [
              -122.74002799989096,
              45.90046200011872
            ],
            [
              -122.74012999999819,
              45.9006249998999
            ],
            [
              -122.74000799979945,
              45.90067399976361
            ],
            [
              -122.73985600036181,
              45.90073199973771
            ],
            [
              -122.73957199978136,
              45.90084300026295
            ],
            [
              -122.73900699989186,
              45.90106199998951
            ],
            [
              -122.73891200035561,
              45.90109700015694
            ],
            [
              -122.73889599956377,
              45.901103000219116
            ],
            [
              -122.73882600014187,
              45.90113299989528
            ],
            [
              -122.73878400030907,
              45.901158999934935
            ],
            [
              -122.73876199966946,
              45.901172999855014
            ],
            [
              -122.73857400024681,
              45.901294999991904
            ],
            [
              -122.7384210000859,
              45.90139399995715
            ],
            [
              -122.73818500008437,
              45.90154800010791
            ],
            [
              -122.73766100020272,
              45.90188600027257
            ],
            [
              -122.73759099988251,
              45.90196699990651
            ],
            [
              -122.73749499962305,
              45.90207700026209
            ],
            [
              -122.73737199959942,
              45.90221799968876
            ],
            [
              -122.73727500041333,
              45.902537999807784
            ],
            [
              -122.7372929999567,
              45.9057750001829
            ],
            [
              -122.73729600032975,
              45.90633299993226
            ],
            [
              -122.7373830003684,
              45.90705000016074
            ],
            [
              -122.73775200043931,
              45.907997000210926
            ],
            [
              -122.73883000033983,
              45.909479999891005
            ],
            [
              -122.73892800024913,
              45.90961500012513
            ],
            [
              -122.7392160001292,
              45.91012900007641
            ],
            [
              -122.73931700041156,
              45.91034199973627
            ],
            [
              -122.73953400014652,
              45.91080199998352
            ],
            [
              -122.73962500038313,
              45.91194499969715
            ],
            [
              -122.73971900009445,
              45.91238400008871
            ],
            [
              -122.73976299957707,
              45.91299599991672
            ],
            [
              -122.73983899974507,
              45.913117999696595
            ],
            [
              -122.74029499985463,
              45.913853000210814
            ],
            [
              -122.74034300043353,
              45.913929999933536
            ],
            [
              -122.74032300034204,
              45.91400600018819
            ],
            [
              -122.74026899991536,
              45.91421400005688
            ],
            [
              -122.74021500038701,
              45.91442099979222
            ],
            [
              -122.74012800034838,
              45.914753999838695
            ],
            [
              -122.73899600002119,
              45.915287000249286
            ],
            [
              -122.73857800044475,
              45.915237000195035
            ],
            [
              -122.73816099979491,
              45.91518700009573
            ],
            [
              -122.73761500017196,
              45.91512199983673
            ],
            [
              -122.73732300009391,
              45.915086999761925
            ],
            [
              -122.73706500035108,
              45.915056000159325
            ],
            [
              -122.7367869996184,
              45.91502299997871
            ],
            [
              -122.73644299966182,
              45.91492599988336
            ],
            [
              -122.73465299955869,
              45.91442099979222
            ],
            [
              -122.7343420001124,
              45.91436199976516
            ],
            [
              -122.73345300035776,
              45.91419399977884
            ],
            [
              -122.73256799990277,
              45.91402699989481
            ],
            [
              -122.7323989998484,
              45.91405800007221
            ],
            [
              -122.73162300007165,
              45.91404800021848
            ],
            [
              -122.73018000029815,
              45.91430800020448
            ],
            [
              -122.72735699960208,
              45.91506799976562
            ],
            [
              -122.72667500043498,
              45.91532799997267
            ],
            [
              -122.72593300009515,
              45.915728999694636
            ],
            [
              -122.72502199970089,
              45.916436999688074
            ],
            [
              -122.72382099977675,
              45.91765300008491
            ],
            [
              -122.72321800025239,
              45.91868399978659
            ],
            [
              -122.72289699986202,
              45.91932599997533
            ],
            [
              -122.72320700038172,
              45.9195270000699
            ],
            [
              -122.72324900021452,
              45.91963500023036
            ],
            [
              -122.72355499963794,
              45.919685999955306
            ],
            [
              -122.7236569997452,
              45.91970299985323
            ],
            [
              -122.7235239996758,
              45.919857999711404
            ],
            [
              -122.72338099956069,
              45.920011999883506
            ],
            [
              -122.7232349999708,
              45.920233999850105
            ],
            [
              -122.72319300013801,
              45.920302999861455
            ],
            [
              -122.72293299984702,
              45.920702000146335
            ],
            [
              -122.72289900041015,
              45.92077899973944
            ],
            [
              -122.72284300033364,
              45.92090800018984
            ],
            [
              -122.72275000044725,
              45.92112200020776
            ],
            [
              -122.72267299955602,
              45.92129700007616
            ],
            [
              -122.72266099986045,
              45.92133199998359
            ],
            [
              -122.72261700037784,
              45.92138600020813
            ],
            [
              -122.72250000020199,
              45.92166700012319
            ],
            [
              -122.72216399974302,
              45.92214499985139
            ],
            [
              -122.72209400032112,
              45.92224300028836
            ],
            [
              -122.72198299999303,
              45.9223949997947
            ],
            [
              -122.72174500034167,
              45.9227240001655
            ],
            [
              -122.7212909998819,
              45.92345499978769
            ],
            [
              -122.72069599985517,
              45.924134999813326
            ],
            [
              -122.72015400043016,
              45.92477100003867
            ],
            [
              -122.71990900020778,
              45.92490899993839
            ],
            [
              -122.71921000042393,
              45.92530099986381
            ],
            [
              -122.71912699968496,
              45.92581000001078
            ],
            [
              -122.71909499989792,
              45.92600999996523
            ],
            [
              -122.71912300038532,
              45.92613199987706
            ],
            [
              -122.71912800040819,
              45.926153999760906
            ],
            [
              -122.719166000043,
              45.92615800007966
            ],
            [
              -122.72042800006655,
              45.92630400027011
            ],
            [
              -122.72317300004651,
              45.926616000304946
            ],
            [
              -122.72302599973345,
              45.92696299993878
            ],
            [
              -122.72289100001423,
              45.92728000000108
            ],
            [
              -122.7228469996333,
              45.92738699969598
            ],
            [
              -122.72279300010493,
              45.927512999924616
            ],
            [
              -122.72263300027137,
              45.927891000143056
            ],
            [
              -122.7225799996696,
              45.92801800021023
            ],
            [
              -122.7223960004449,
              45.92845399986175
            ],
            [
              -122.72194899965784,
              45.929515000007385
            ],
            [
              -122.72190099997727,
              45.92966399984658
            ],
            [
              -122.72187699968784,
              45.92977499999924
            ],
            [
              -122.72186900019021,
              45.929816000264
            ],
            [
              -122.72185199957347,
              45.92996800026482
            ],
            [
              -122.72185199957347,
              45.93015800014869
            ],
            [
              -122.72185699959634,
              45.93024699981127
            ],
            [
              -122.72186199961921,
              45.93034599999829
            ],
            [
              -122.72188000006086,
              45.93064300012383
            ],
            [
              -122.72188699973356,
              45.93074299991336
            ],
            [
              -122.72220200027616,
              45.93077699980078
            ],
            [
              -122.7222709998731,
              45.93078499977125
            ],
            [
              -122.72233500034552,
              45.93079400004904
            ],
            [
              -122.72240899996538,
              45.930813999966915
            ],
            [
              -122.72264599979184,
              45.9308820002586
            ],
            [
              -122.722712999739,
              45.93091200008514
            ],
            [
              -122.72294399971769,
              45.93101799996706
            ],
            [
              -122.72303199958124,
              45.93106299990281
            ],
            [
              -122.72311000029735,
              45.931144000070034
            ],
            [
              -122.723121000168,
              45.93121599991112
            ],
            [
              -122.7231429999093,
              45.931261000311075
            ],
            [
              -122.72306400026659,
              45.93146299994867
            ],
            [
              -122.7237200003927,
              45.931457000044276
            ],
            [
              -122.72523400031132,
              45.93144199996801
            ],
            [
              -122.7268040003064,
              45.93144199996801
            ],
            [
              -122.72706600024725,
              45.92925000023949
            ],
            [
              -122.72754999994588,
              45.9294250000867
            ],
            [
              -122.72756900021247,
              45.92943199991917
            ],
            [
              -122.72764799985521,
              45.929461000197485
            ],
            [
              -122.72831099965401,
              45.92970100013042
            ],
            [
              -122.72920100013185,
              45.93002299990354
            ],
            [
              -122.72940899964601,
              45.930094999950214
            ],
            [
              -122.72950200043074,
              45.93013199994654
            ],
            [
              -122.7295779997004,
              45.93011900015328
            ],
            [
              -122.7296670002872,
              45.930084999862565
            ],
            [
              -122.72968800020357,
              45.93006800002175
            ],
            [
              -122.7297030002722,
              45.93005700023227
            ],
            [
              -122.72973500005925,
              45.93003300000237
            ],
            [
              -122.72976099999849,
              45.92996499991943
            ],
            [
              -122.7297750002422,
              45.92992700011243
            ],
            [
              -122.72978399956473,
              45.92990499985052
            ],
            [
              -122.72977799971694,
              45.92980800015375
            ],
            [
              -122.72977600006712,
              45.92976800021007
            ],
            [
              -122.72976400037157,
              45.92954400024231
            ],
            [
              -122.72975799962546,
              45.92942100000356
            ],
            [
              -122.72976199982341,
              45.929382000114714
            ],
            [
              -122.72976799967122,
              45.929341999863816
            ],
            [
              -122.72976900039444,
              45.92930900005688
            ],
            [
              -122.72977199986916,
              45.92927600023027
            ],
            [
              -122.72980700002925,
              45.92913300013006
            ],
            [
              -122.72989700044094,
              45.92889500029933
            ],
            [
              -122.7299300000529,
              45.92881199990818
            ],
            [
              -122.7299429995734,
              45.92873700028349
            ],
            [
              -122.72995299961914,
              45.928695999845985
            ],
            [
              -122.72998899960415,
              45.928695999845985
            ],
            [
              -122.73007999984075,
              45.92869500012447
            ],
            [
              -122.7329980000731,
              45.9286799999261
            ],
            [
              -122.73299499970004,
              45.92822600004155
            ],
            [
              -122.73388099997993,
              45.92822399995675
            ],
            [
              -122.73392299981272,
              45.92803799987945
            ],
            [
              -122.73395700014792,
              45.927884000116116
            ],
            [
              -122.7339699996684,
              45.927825000032634
            ],
            [
              -122.73399499978275,
              45.92762300026716
            ],
            [
              -122.73399999980565,
              45.92741900027707
            ],
            [
              -122.73398499973699,
              45.927215999909734
            ],
            [
              -122.73391500031511,
              45.92678900020285
            ],
            [
              -122.7339060000943,
              45.926689999915546
            ],
            [
              -122.7338910000257,
              45.92651200028003
            ],
            [
              -122.73388699982772,
              45.926252999755086
            ],
            [
              -122.73388600000281,
              45.92600799980054
            ],
            [
              -122.73388600000281,
              45.92586299985335
            ],
            [
              -122.73481400011549,
              45.92585000030926
            ],
            [
              -122.73545799964772,
              45.925840999854096
            ],
            [
              -122.73677400009792,
              45.9258219997909
            ],
            [
              -122.73678199959554,
              45.92705199972915
            ],
            [
              -122.73678300031877,
              45.92723000013131
            ],
            [
              -122.73708299989443,
              45.927232000251905
            ],
            [
              -122.73768799996688,
              45.927235000120284
            ],
            [
              -122.73827999962062,
              45.92723799998853
            ],
            [
              -122.73825399968132,
              45.92718000021644
            ],
            [
              -122.73817300038881,
              45.92702000018606
            ],
            [
              -122.73798000004496,
              45.92664000013879
            ],
            [
              -122.73797099982411,
              45.92662400025071
            ],
            [
              -122.73804299979415,
              45.926515999948144
            ],
            [
              -122.73819199975705,
              45.926291999969344
            ],
            [
              -122.73824899965848,
              45.92625499991094
            ],
            [
              -122.73912599971752,
              45.925690999967486
            ],
            [
              -122.73953199959838,
              45.92629100020454
            ],
            [
              -122.73966100036813,
              45.9264749997435
            ],
            [
              -122.73986100038468,
              45.926502000171226
            ],
            [
              -122.74032300034204,
              45.92656799998121
            ],
            [
              -122.74041600022845,
              45.926578999837744
            ],
            [
              -122.74046200025921,
              45.926578999837744
            ],
            [
              -122.7410680001566,
              45.926580000222266
            ],
            [
              -122.74167400005402,
              45.926580000222266
            ],
            [
              -122.74227599975349,
              45.92658099998186
            ],
            [
              -122.7427369998859,
              45.92658099998186
            ],
            [
              -122.74287800035124,
              45.92654999992721
            ],
            [
              -122.74328300040719,
              45.926460000194474
            ],
            [
              -122.74346400015715,
              45.926267999984944
            ],
            [
              -122.74375000038744,
              45.925965000303904
            ],
            [
              -122.74375000038744,
              45.925762000239295
            ],
            [
              -122.74375000038744,
              45.92531299975408
            ],
            [
              -122.7439470000309,
              45.925314999943836
            ],
            [
              -122.74454600025562,
              45.92532000010546
            ],
            [
              -122.74506599993929,
              45.92532399985952
            ],
            [
              -122.74507000013726,
              45.92497499976904
            ],
            [
              -122.74507500016013,
              45.92447299991734
            ],
            [
              -122.7450790003581,
              45.92410100022871
            ],
            [
              -122.74527699982652,
              45.92409999979953
            ],
            [
              -122.74587699987612,
              45.92409599995722
            ],
            [
              -122.74645099998648,
              45.92409299991909
            ],
            [
              -122.74703699979241,
              45.92408900007627
            ],
            [
              -122.74815200040115,
              45.924080999764925
            ],
            [
              -122.74813999980728,
              45.9241279999373
            ],
            [
              -122.74803100002732,
              45.92452499999089
            ],
            [
              -122.74812599956357,
              45.924552999914205
            ],
            [
              -122.74809200012669,
              45.924586000051114
            ],
            [
              -122.7478479997292,
              45.92482899983001
            ],
            [
              -122.74779599985068,
              45.92489199976098
            ],
            [
              -122.74774599962196,
              45.92501200005636
            ],
            [
              -122.74773399992638,
              45.92508399973407
            ],
            [
              -122.74772999972843,
              45.92510900001689
            ],
            [
              -122.74772800007862,
              45.92513100030646
            ],
            [
              -122.74768200004785,
              45.925969999782076
            ],
            [
              -122.7475430001307,
              45.92852100019802
            ],
            [
              -122.74752800006208,
              45.92879699974141
            ],
            [
              -122.74749999957469,
              45.92931900028444
            ],
            [
              -122.74746500031289,
              45.929625000128645
            ],
            [
              -122.74744500022139,
              45.92980899985516
            ],
            [
              -122.74743900037362,
              45.92990099980199
            ],
            [
              -122.74745400044223,
              45.92991499997066
            ],
            [
              -122.74746799978763,
              45.92992799981174
            ],
            [
              -122.7477969996756,
              45.93023299972638
            ],
            [
              -122.74780800044455,
              45.930244999799385
            ],
            [
              -122.74785100010226,
              45.93029100005507
            ],
            [
              -122.74793700031597,
              45.930406999905586
            ],
            [
              -122.74794499981361,
              45.930416999935225
            ],
            [
              -122.7480929999516,
              45.93061799983586
            ],
            [
              -122.74811800006596,
              45.93064700011885
            ],
            [
              -122.74813099958644,
              45.93066199978531
            ],
            [
              -122.74814900002809,
              45.93068100006511
            ],
            [
              -122.74821099995236,
              45.93073899992526
            ],
            [
              -122.7483549998924,
              45.93084300014747
            ],
            [
              -122.74848999961162,
              45.930939999908574
            ],
            [
              -122.74865700001621,
              45.93109500023754
            ],
            [
              -122.748698999849,
              45.93107299981417
            ],
            [
              -122.74874300022995,
              45.931049999702935
            ],
            [
              -122.74876499997124,
              45.931037999804154
            ],
            [
              -122.74940100000588,
              45.93127300016162
            ],
            [
              -122.74960500022036,
              45.931209999980005
            ],
            [
              -122.74964000038047,
              45.93123399970061
            ],
            [
              -122.75007999969822,
              45.93153100006941
            ],
            [
              -122.75065200015875,
              45.93140199995316
            ],
            [
              -122.75071400008302,
              45.931384000218195
            ],
            [
              -122.75106200023757,
              45.93128199973541
            ],
            [
              -122.75109200037481,
              45.93127399983662
            ],
            [
              -122.75111599976594,
              45.93126799991179
            ],
            [
              -122.75131900015553,
              45.931211999957135
            ],
            [
              -122.75135599996544,
              45.93120299974717
            ],
            [
              -122.75148999985973,
              45.93114699972689
            ],
            [
              -122.75157900044653,
              45.9311110000856
            ],
            [
              -122.75181899974771,
              45.93103100017437
            ],
            [
              -122.75192199967987,
              45.93100000010747
            ],
            [
              -122.75202299996222,
              45.93096999970372
            ],
            [
              -122.75235600004814,
              45.93087100000574
            ],
            [
              -122.75253199977523,
              45.93075499987602
            ],
            [
              -122.75276799977681,
              45.93061599983732
            ],
            [
              -122.75299000043294,
              45.93058100016374
            ],
            [
              -122.75327099974204,
              45.93062700014075
            ],
            [
              -122.75346800028385,
              45.930621000145926
            ],
            [
              -122.75360999967576,
              45.93060700015546
            ],
            [
              -122.75399600036344,
              45.930515000130086
            ],
            [
              -122.75439600039653,
              45.930406999905586
            ],
            [
              -122.75477100031526,
              45.93028100000272
            ],
            [
              -122.75531399956515,
              45.93014899976769
            ],
            [
              -122.75545900022844,
              45.93009600027131
            ],
            [
              -122.75592600020866,
              45.9299620001987
            ],
            [
              -122.75619399999727,
              45.92988399990478
            ],
            [
              -122.75631500037109,
              45.92985000009483
            ],
            [
              -122.75670899965806,
              45.93011900015328
            ],
            [
              -122.75672700009974,
              45.930100000305785
            ],
            [
              -122.75677399995541,
              45.93005100017578
            ],
            [
              -122.75708500030004,
              45.92972200014545
            ],
            [
              -122.75700999995695,
              45.9296219997647
            ],
            [
              -122.75690399965174,
              45.929489000128605
            ],
            [
              -122.75668400044204,
              45.92922799970907
            ],
            [
              -122.75651799986237,
              45.92904599998481
            ],
            [
              -122.75645099991523,
              45.92897199976823
            ],
            [
              -122.756168000058,
              45.928690999988675
            ],
            [
              -122.75595999964554,
              45.9285039998779
            ],
            [
              -122.75579800016216,
              45.92835799985439
            ],
            [
              -122.75538999973315,
              45.92799099989558
            ],
            [
              -122.75535499957304,
              45.92796000000406
            ],
            [
              -122.75531399956515,
              45.92792299980854
            ],
            [
              -122.75515299990668,
              45.927777999868276
            ],
            [
              -122.75553700004625,
              45.92766400024809
            ],
            [
              -122.75598399993498,
              45.92753299977591
            ],
            [
              -122.75614200011873,
              45.927485999988996
            ],
            [
              -122.75661800031979,
              45.92734600013512
            ],
            [
              -122.75677700032844,
              45.92729999993638
            ],
            [
              -122.75680699956736,
              45.92728999996963
            ],
            [
              -122.75689899962886,
              45.9272640002976
            ],
            [
              -122.75692999959102,
              45.92725500007181
            ],
            [
              -122.75696999977397,
              45.92724299997682
            ],
            [
              -122.75715600044512,
              45.92718800008087
            ],
            [
              -122.7577170001367,
              45.927023000065894
            ],
            [
              -122.75790399973444,
              45.926968999704464
            ],
            [
              -122.75797400005466,
              45.927085000254046
            ],
            [
              -122.75803299960589,
              45.927183000087624
            ],
            [
              -122.75808000035984,
              45.92726099980595
            ],
            [
              -122.75818699959167,
              45.92743799979323
            ],
            [
              -122.75822199975178,
              45.92749700028835
            ],
            [
              -122.75917900017677,
              45.929081000002185
            ],
            [
              -122.75949800001901,
              45.92961000018174
            ],
            [
              -122.75957699966169,
              45.929735000031755
            ],
            [
              -122.75968399979183,
              45.92988100017968
            ],
            [
              -122.75986799991485,
              45.93009000021899
            ],
            [
              -122.76027799999366,
              45.930543000153946
            ],
            [
              -122.76045799991873,
              45.930703999704484
            ],
            [
              -122.76122299982478,
              45.93144300026478
            ],
            [
              -122.76206800009679,
              45.93224800027469
            ],
            [
              -122.76222399973241,
              45.93239700026946
            ],
            [
              -122.76225300004472,
              45.93242399968891
            ],
            [
              -122.76234000008337,
              45.932507000298024
            ],
            [
              -122.76236900039568,
              45.93253499994103
            ],
            [
              -122.76283999967556,
              45.93298400007319
            ],
            [
              -122.76297100009512,
              45.933094000187076
            ],
            [
              -122.76326800019604,
              45.93334499978344
            ],
            [
              -122.76376299976539,
              45.933749000011275
            ],
            [
              -122.76397799985054,
              45.933917999770124
            ],
            [
              -122.76426900010367,
              45.93414700018174
            ],
            [
              -122.76478399976446,
              45.934538000183
            ],
            [
              -122.76490500013828,
              45.934626999689485
            ],
            [
              -122.76530900036933,
              45.93492400000633
            ],
            [
              -122.76542800019504,
              45.93500800023025
            ],
            [
              -122.77013300015746,
              45.935005999765245
            ],
            [
              -122.77059199974175,
              45.93501000007037
            ],
            [
              -122.7733240002013,
              45.935032999788845
            ],
            [
              -122.77340200001909,
              45.93502900011015
            ]
          ]
        ]
      },
      "properties": {
        "AREALAND": "10651319",
        "AREAWATER": "369094",
        "BASENAME": "Woodland",
        "CBSAPCI": "N",
        "CENTLAT": "+45.9145541",
        "CENTLON": "-122.7504619",
        "FUNCSTAT": "A",
        "GEOID": "5379625",
        "INTPTLAT": "+45.9181833",
        "INTPTLON": "-122.7535016",
        "LSADC": "25",
        "MTFCC": "G4110",
        "NAME": "Woodland city",
        "NECTAPCI": "N",
        "OBJECTID": 23875,
        "OID": "27890231883793",
        "PLACE": "79625",
        "PLACECC": "C1",
        "PLACENS": "02412301",
        "STATE": "53",
        "DISP_CLR": 3,
        "slug": "woodland",
        "jurisdiction_key": "woodland_city",
        "county_fips": [
          "53011",
          "53015"
        ]
      }
    }
  ]
}
