{"type":"FeatureCollection","features":[{"type":"Feature","geometry":{"type":"Polygon","coordinates":[[[-122.96002800011983,46.49882099994146],[-122.96003499979253,46.49624599981769],[-122.9522829997263,46.496291000303565],[-122.95090299970201,46.49629899994629],[-122.94952900042381,46.496307000206215],[-122.94844399995227,46.496291000303565],[-122.94822700021732,46.49628799981882],[-122.94721799991378,46.49627099995479],[-122.9472260003097,46.495949000253184],[-122.94723200015748,46.49574900012388],[-122.94711099978366,46.495750000089274],[-122.94644200013705,46.495754999915846],[-122.94644200013705,46.495698000010314],[-122.94644200013705,46.49561800017236],[-122.94643200009132,46.49505000004115],[-122.94642799989334,46.49484799973367],[-122.94641799984761,46.49424099988208],[-122.94644100031216,46.493584999826616],[-122.94644100031216,46.4932410000513],[-122.94644100031216,46.49288599975819],[-122.94644100031216,46.49250100011356],[-122.94644100031216,46.49231099995922],[-122.94634300040283,46.49230899990195],[-122.94624100029559,46.49231099995922],[-122.94600299974591,46.49231600010199],[-122.9460039995708,46.49223300014631],[-122.94600699994386,46.489040999859554],[-122.94185000015254,46.489051000127375],[-122.94181599981735,46.489051000127375],[-122.94165500015886,46.488914000194455],[-122.94162500002163,46.48887200006466],[-122.94159800025747,46.48884299986774],[-122.94156399992225,46.48880299986935],[-122.9415320001352,46.4887610002723],[-122.94148899957919,46.48869799988821],[-122.94146099999011,46.488650000253465],[-122.94142099980714,46.488597000092106],[-122.94138999984497,46.48856199978219],[-122.94136599955553,46.48853400013657],[-122.9413489998371,46.48850699995655],[-122.94133600031662,46.48849500000973],[-122.94131399967702,46.4884739997871],[-122.94127400039237,46.488443999896774],[-122.94125599995068,46.48841000020727],[-122.94123000001144,46.488366000104534],[-122.94120599972199,46.4883190002788],[-122.94118499980559,46.48828499989265],[-122.94116800008715,46.48823799999691],[-122.94114799999565,46.488205999768326],[-122.94115100036869,46.488171999930046],[-122.9411429999728,46.48809200015393],[-122.94113399975195,46.487977000192366],[-122.94114100032296,46.48790699998914],[-122.94118499980559,46.48781599983767],[-122.94121900014078,46.4877370002692],[-122.94128500026302,46.48765400012922],[-122.94135899988284,46.48758400012884],[-122.9414750002338,46.48750299998947],[-122.94155600042464,46.487463999741884],[-122.941650000136,46.48742500008484],[-122.94172399975584,46.48739000025782],[-122.94180900014466,46.48736300012846],[-122.94187500026688,46.48734399970871],[-122.94195899993247,46.48731399981367],[-122.94202800042775,46.487287000265106],[-122.94214200023059,46.48724299987248],[-122.94217900004051,46.4872269997771],[-122.94220800035282,46.487206999805906],[-122.94227899959962,46.4871840000773],[-122.94237800023213,46.48714199984871],[-122.94240900019426,46.48712299997024],[-122.94247899961616,46.487079000063474],[-122.9425299996698,46.48705199977974],[-122.94257900007356,46.48701699971273],[-122.94262099990638,46.48699000001673],[-122.9426429996477,46.48697499997367],[-122.94268399965557,46.486933999711155],[-122.94275200032594,46.48687299994222],[-122.94279300033382,46.486827999703806],[-122.94282400029594,46.486772999980424],[-122.94284600003726,46.48675100019918],[-122.94289399971785,46.4866879999611],[-122.94290600031174,46.48667100018872],[-122.94293600044898,46.4866240001354],[-122.94297800028177,46.48657700004152],[-122.94298800032749,46.48655799996571],[-122.9430109998937,46.48653100004189],[-122.94304199985586,46.48650699989219],[-122.94305699992447,46.48647899980727],[-122.94307399964292,46.48645000019005],[-122.94310600032829,46.4863960002218],[-122.9431289998945,46.4863680000797],[-122.94316400005458,46.48633800026492],[-122.94319400019182,46.486298000279994],[-122.94323699984953,46.48625599998579],[-122.94328899972807,46.48619200027037],[-122.94330799999464,46.48615700026848],[-122.94333700030695,46.48611399972292],[-122.94335900004825,46.48608499991111],[-122.94340799955376,46.48603299986863],[-122.94344299971384,46.485977999959914],[-122.94350299998831,46.485898000049694],[-122.94356900011056,46.485812999900176],[-122.94360300044572,46.48574900028204],[-122.94366700001983,46.485657000080636],[-122.94373300014209,46.485590999974704],[-122.94380699976192,46.48552899978352],[-122.94389399980055,46.48544899983152],[-122.94399900028085,46.48537100007427],[-122.94407299990073,46.485318999967795],[-122.94412099958129,46.48528699987755],[-122.94418000003081,46.48514199969671],[-122.94417800038102,46.48506800014652],[-122.94418500005371,46.48504500013207],[-122.94420500014517,46.4849869999718],[-122.94424199995511,46.484917999796565],[-122.94422400041174,46.48486599987562],[-122.94420099994723,46.48478200013621],[-122.94415200044173,46.48462700000412],[-122.94412800015228,46.48455299975339],[-122.94411700028165,46.48442700029847],[-122.94412099958129,46.484363999843026],[-122.94415599974138,46.48431300018672],[-122.94420599997011,46.484235000037735],[-122.94424399960492,46.48417799981054],[-122.94429899985653,46.48411199976587],[-122.94436699962856,46.48404399989849],[-122.94439500011599,46.484019999888645],[-122.94445799986518,46.48398000005483],[-122.94449300002526,46.483956000016754],[-122.94458500008679,46.48388799995437],[-122.94465500040698,46.48387699979079],[-122.9447280002019,46.48385699982499],[-122.9447700000347,46.48384800002355],[-122.94484899967742,46.48382800004708],[-122.94489499970818,46.48380800006331],[-122.94492900004336,46.48379200019468],[-122.94501000023422,46.48372999980879],[-122.94505200006701,46.48369200013595],[-122.94509999974758,46.4835879997562],[-122.94513699955752,46.48352800013656],[-122.94522500031938,46.4835080000425],[-122.94536000003858,46.483460000157805],[-122.94539100000071,46.48344199980351],[-122.94547399984141,46.48338000025584],[-122.94549099955985,46.48335199979846],[-122.94559199984218,46.48332500013908],[-122.94566600036035,46.48330200000626],[-122.94580699992733,46.4832420000712],[-122.946114000074,46.483097000006545],[-122.9461919998918,46.483054999715186],[-122.94628499977823,46.48297499983622],[-122.94641899967253,46.482869999739314],[-122.94660600016859,46.48275100029166],[-122.9466089996433,46.48270599973618],[-122.94660199997062,46.48253800026138],[-122.94658699990201,46.482455999821255],[-122.94657699985628,46.48240200021824],[-122.94659000027507,46.482274000303676],[-122.94680000033735,46.482411999850925],[-122.94744200021977,46.482738000107524],[-122.94755699984748,46.48279900018333],[-122.94764700025917,46.48284800023527],[-122.94799100021575,46.48254700027956],[-122.94900700019201,46.48163899981227],[-122.94861200018177,46.481572999780205],[-122.94651300028217,46.48115099987569],[-122.9463049998697,46.481108999937724],[-122.94619500026485,46.481087999956564],[-122.94575099985082,46.48130299993995],[-122.9457969998816,46.48136699983996],[-122.94581399960003,46.48139200001244],[-122.94591400005747,46.48153499983787],[-122.94592800030115,46.481553999812334],[-122.9459459998445,46.481578000291535],[-122.94587499969941,46.481578000291535],[-122.94561299975858,46.481578000291535],[-122.94553300029094,46.481578000291535],[-122.94549200028307,46.481578000291535],[-122.9454090004424,46.481578000291535],[-122.94540699989427,46.481553999812334],[-122.94540600006935,46.481537999899395],[-122.94538299960479,46.481195999861654],[-122.94554900018447,46.48118600000546],[-122.94572300026174,46.48117600014742],[-122.9457140000409,46.4811130002572],[-122.94572599973648,46.48064499984961],[-122.94574300035325,46.480555000166184],[-122.94577199976725,46.48040200023898],[-122.9457340001324,46.48026700005515],[-122.94534800034303,46.480132999788815],[-122.94529499974126,46.48011500018953],[-122.94523700001494,46.48019800007924],[-122.94416199958916,46.48173299983219],[-122.94371200022567,46.48173299983219],[-122.94293700027387,46.48173200022766],[-122.9429049995885,46.48173100000454],[-122.94286299975572,46.48173200022766],[-122.93636600004035,46.48172499990262],[-122.9323919996488,46.48172000002333],[-122.93222599996744,46.487287000265106],[-122.93221500009678,46.487675000049926],[-122.93220199967797,46.48809599996],[-122.93218999998241,46.4885109997321],[-122.9314350001221,46.488550999945225],[-122.93136099960392,46.488552000042965],[-122.93137400002271,46.48937500001778],[-122.93077999982088,46.489378000265454],[-122.93076399992736,46.48848400015917],[-122.92929900041257,46.48808700024134],[-122.92935100029109,46.48650400010468],[-122.92764300020373,46.486488999927595],[-122.9276540000744,46.48536400021745],[-122.92739899980624,46.48535200019576],[-122.92627800024806,46.485348999726014],[-122.92605599959188,46.485341999866364],[-122.92628499992074,46.48483100025768],[-122.92633699979928,46.48471200015122],[-122.92665800018963,46.483995000305256],[-122.92708199961385,46.48304599978103],[-122.92728400017853,46.48259700014709],[-122.92768599986145,46.48169999988319],[-122.92774000028811,46.481578999898886],[-122.92763800018085,46.48156199976706],[-122.92758799995212,46.4815450002485],[-122.92754500029444,46.48153999973415],[-122.926535000166,46.48141200026585],[-122.92580799989476,46.48123099996247],[-122.92557199989322,46.48117400029928],[-122.9249450000794,46.48102399972836],[-122.92494000005654,46.48101099975013],[-122.92492300033811,46.48096499999253],[-122.92459100007709,46.48089399980626],[-122.92393400012604,46.48075600012011],[-122.922255000351,46.480397999867236],[-122.9200719998875,46.47993300026388],[-122.91655899962838,46.479185000213334],[-122.91556899959143,46.48146999990755],[-122.91396299961131,46.48113900016184],[-122.913652000165,46.48160599980624],[-122.91361600018,46.481657000144494],[-122.9117440000611,46.48120000017478],[-122.91159300044836,46.48138899994287],[-122.91082299962112,46.48120000017478],[-122.9101249996622,46.481029999907584],[-122.9105819995967,46.48037499973414],[-122.90746400024611,46.47961300023719],[-122.9090540003327,46.47758500009252],[-122.90685499997564,46.47711700026991],[-122.90400000039081,46.47651300021733],[-122.90503700028343,46.47519000002336],[-122.90242899967248,46.47493399998499],[-122.8984529996311,46.47453299998129],[-122.89814200018479,46.47525799982148],[-122.89803099985672,46.47523900012295],[-122.89500800004238,46.47459499971213],[-122.89499200014886,46.47424000021772],[-122.89222399970434,46.47427200000048],[-122.89194599987,46.474276000204],[-122.8914110001177,46.4751639997506],[-122.88996900016912,46.47753299996731],[-122.88709199994464,46.47673599976584],[-122.88627900035802,46.47651100019781],[-122.88492400044804,46.476135000174146],[-122.88478499963259,46.476097000145664],[-122.8846189999512,46.47605099994543],[-122.88342899989772,46.47722700000843],[-122.8832809997597,46.47737800021533],[-122.88314100001763,46.477534000267624],[-122.88300799994825,46.477691999848815],[-122.88288400009966,46.47785299985456],[-122.88276799974872,46.478017999930984],[-122.88266099961861,46.478185000083755],[-122.8825619998844,46.47835400029442],[-122.88244200023381,46.478585000114016],[-122.88238399960917,46.47870900016966],[-122.88221299990492,46.47903099987255],[-122.88103899974497,46.48169199994875],[-122.87736700037551,46.49173400018712],[-122.87719900014604,46.492256000213786],[-122.87712399980295,46.49251799991922],[-122.87699499993151,46.493045999933216],[-122.87689299982428,46.49357599977933],[-122.8768519998164,46.49384099992998],[-122.87678999989211,46.49437500003068],[-122.8767699998006,46.49464199996994],[-122.87676499977776,46.49476199998126],[-122.87674899988424,46.49516000000935],[-122.87674800005931,46.495710000223205],[-122.87674700023439,46.4964700000673],[-122.87739900016257,46.49664799991142],[-122.88645400026019,46.499330000035435],[-122.88983100007685,46.50032999982002],[-122.89009899986544,46.49987400016626],[-122.891869999702,46.496867999962845],[-122.89407999992969,46.49311400029802],[-122.89473500023091,46.49200000007087],[-122.89537899976315,46.49090799987269],[-122.89728500021721,46.48767000009901],[-122.89347200038249,46.48654699972347],[-122.89336600007726,46.486514999737125],[-122.89356299972076,46.48617599986584],[-122.89550000013698,46.482833000287194],[-122.89557899977969,46.482696000157524],[-122.89854200021787,46.48352699994649],[-122.90113300021207,46.48425400030637],[-122.90378399958242,46.48499600020336],[-122.90873100029252,46.48637999987733],[-122.90958700043518,46.48659399984328],[-122.91766599984122,46.48884500005242],[-122.91758399982545,46.48898300024896],[-122.91751799970321,46.489111999927815],[-122.91746499999978,46.489259000210104],[-122.9174320003878,46.48940999980455],[-122.91742099961883,46.489562000295905],[-122.91739899987752,46.49453700012938],[-122.92115999983376,46.494529000227445],[-122.92280799964665,46.49452600026391],[-122.9229780004243,46.49451799974193],[-122.92314699958035,46.49450499989615],[-122.92342500031303,46.494469000307035],[-122.9236989999494,46.49441600025015],[-122.92384999956215,46.4943789999931],[-122.92432400011339,46.494251999805186],[-122.92447499972614,46.494212000074135],[-122.92562799996969,46.49390699992065],[-122.92566700032778,46.493896999927216],[-122.92604499972123,46.49379199988505],[-122.9262620003545,46.49372099974171],[-122.92793199990874,46.493130999912076],[-122.9284080001098,46.49296999997062],[-122.92889099998354,46.49282099978451],[-122.92931399958286,46.49270199984076],[-122.92953399969088,46.49264199975996],[-122.92965699971451,46.4926090002439],[-122.92971299979102,46.49259399989505],[-122.92995899983832,46.49252800016627],[-122.92995600036359,46.493390999713895],[-122.92995499964036,46.493701000303],[-122.93005099989983,46.493703000309026],[-122.93122800043287,46.49370799970542],[-122.93122800043287,46.49378199987048],[-122.93122000003694,46.495373000091014],[-122.93222500014252,46.49537999989661],[-122.93224000021112,46.49625300012933],[-122.9322369998381,46.496514999749444],[-122.93221799957152,46.498048999869],[-122.93222500014252,46.49987500005576],[-122.9347800001517,46.499885000186644],[-122.9354210002092,46.499886999965234],[-122.93490700037331,46.50039099995559],[-122.93448100040098,46.50081199975503],[-122.93418799959969,46.501147999704294],[-122.93365500039555,46.50175200018512],[-122.93322000020235,46.50228900004627],[-122.93305299979777,46.50253600018319],[-122.93279099985695,46.50295000000121],[-122.93254999983252,46.503498000303566],[-122.93243699985464,46.503498000303566],[-122.92955999963014,46.50348500013131],[-122.92856799994335,46.50348100022039],[-122.92856899976827,46.50353899982766],[-122.92857999963891,46.5043659997778],[-122.92858100036214,46.50449999970831],[-122.92858399983692,46.50473300001918],[-122.92858800003486,46.50498799978273],[-122.92858999968468,46.50521100008921],[-122.92859200023281,46.505326999878626],[-122.9295060001018,46.505332000061166],[-122.92966400028554,46.50539999990168],[-122.92972500038492,46.50542599994551],[-122.92979999982965,46.50545799993481],[-122.92993399972399,46.5055159999061],[-122.92995200016564,46.50560599971766],[-122.92995100034072,46.505624999940494],[-122.92995499964036,46.50565399984478],[-122.92996300003628,46.505661999964886],[-122.92998300012778,46.50576300022077],[-122.92981499989828,46.5059799999216],[-122.92935399976584,46.506578000059264],[-122.92911600011445,46.50688600014412],[-122.92889099998354,46.5070040002041],[-122.92881499981559,46.507094999781955],[-122.93200500003451,46.50711199997157],[-122.9333299998072,46.507119000120866],[-122.93414499994198,46.507121000251665],[-122.93395099977322,46.50681999983125],[-122.93388600037422,46.50670199999015],[-122.93384500036635,46.50660100024231],[-122.93381400040418,46.50647599969467],[-122.93380099998542,46.50634999970744],[-122.9338079996581,46.506223000273685],[-122.93383399959734,46.50609800009339],[-122.93387799997826,46.50597499979862],[-122.93394099972748,46.505856999978135],[-122.93403899963678,46.505698000181724],[-122.93416300038366,46.50551099974044],[-122.93430099957759,46.505328000286134],[-122.93445299991357,46.50515100020758],[-122.93464700008232,46.5049509999179],[-122.93492999993953,46.50468099987446],[-122.93637199988811,46.50352400002046],[-122.93906900018754,46.503523000198044],[-122.93906800036262,46.502605000268716],[-122.93905800031689,46.49989999976115],[-122.94548999973493,46.499924000184755],[-122.94564000042108,46.499924000184755],[-122.94570300017024,46.499992999875126],[-122.9457829996379,46.50003199979582],[-122.94586899985161,46.50008599983008],[-122.9459170004305,46.500120000259244],[-122.94600600011897,46.500172999703736],[-122.94608200028695,46.50022700021632],[-122.94619500026485,46.50028600008523],[-122.9462749997325,46.500318999889664],[-122.9463590002964,46.50035200029244],[-122.94644999963467,46.500387999697125],[-122.94656099996273,46.50041900029901],[-122.94673500004002,46.500461000168755],[-122.94679699996429,46.500476000202724],[-122.94696900039175,46.50051600027304],[-122.94726700031757,46.50058099970616],[-122.94744899989244,46.50065100029306],[-122.94815400042239,46.50081499999014],[-122.94824599958555,46.500837000266266],[-122.94824599958555,46.50046600018053],[-122.94824300011085,46.50033200020061],[-122.94884300016047,46.50000100020997],[-122.94887800032058,46.49997400015732],[-122.9492699999577,46.50026799973375],[-122.9494370003623,46.50039400021393],[-122.94955500036308,46.500467999937754],[-122.94969900030313,46.50054700018357],[-122.94989000009883,46.50063300006243],[-122.94999100038117,46.50067200014238],[-122.95120999984869,46.50105600019701],[-122.95149400042911,46.50113500020682],[-122.95172700005763,46.501185000302414],[-122.95196399988409,46.50122399998646],[-122.9520850002579,46.501240000292626],[-122.95238800020662,46.50126499998875],[-122.95263199970577,46.501272000272614],[-122.95275399990452,46.501270999790414],[-122.95298200040845,46.50126199977847],[-122.95336800019783,46.50123499973371],[-122.95338599974117,46.501233999869186],[-122.95355999981847,46.50121599983156],[-122.95373399989572,46.50119299984352],[-122.95399199963857,46.50115199978692],[-122.95416200041622,46.50111999973635],[-122.95441400031129,46.50106399975709],[-122.95457900016773,46.501020999866356],[-122.95482299966687,46.500949999886124],[-122.95519199973782,46.50083400003242],[-122.95532900000518,46.50078400023235],[-122.95545799987661,46.50072600015936],[-122.95635199965412,46.50027500014594],[-122.95684700012174,46.500067000144774],[-122.95692499993956,46.50003900023844],[-122.95708899997106,46.499993999762474],[-122.95725999967532,46.49996300015495],[-122.95743399975257,46.499944999696545],[-122.95774900029517,46.499925999961974],[-122.9578930002352,46.49991300017227],[-122.9580339998022,46.49989399980815],[-122.95820799987946,46.49986099974576],[-122.9583440003219,46.49982599988259],[-122.95847599966807,46.49978599992302],[-122.95863399985181,46.49972600023766],[-122.95875500022566,46.499671999845866],[-122.9592380000994,46.49940700028343],[-122.95934100003157,46.49936100000385],[-122.95975000028547,46.499193000023205],[-122.95980999966162,46.49916399976421],[-122.9598649999132,46.49913099987714],[-122.95991199976888,46.499091999928545],[-122.95995299977677,46.49905000023807],[-122.9599849995638,46.499004000274795],[-122.96000899985326,46.498955999841456],[-122.96002300009697,46.498907000076855],[-122.96002800011983,46.498855999833225],[-122.96002800011983,46.49882099994146]]]},"properties":{"AREALAND":"8755769","AREAWATER":"0","BASENAME":"Winlock","CBSAPCI":"N","CENTLAT":"+46.4886550","CENTLON":"-122.9139468","FUNCSTAT":"A","GEOID":"5379275","INTPTLAT":"+46.4906805","INTPTLON":"-122.9183910","LSADC":"25","MTFCC":"G4110","NAME":"Winlock city","NECTAPCI":"N","OBJECTID":22128,"OID":"27890932748910","PLACE":"79275","PLACECC":"C1","PLACENS":"02412283","STATE":"53","DISP_CLR":5,"slug":"winlock","jurisdiction_key":"winlock_city","county_fips":["53041"]}}]}
