{"type":"FeatureCollection","features":[{"type":"Feature","geometry":{"type":"Polygon","coordinates":[[[-122.39968299983737,47.7854479998739],[-122.39968299983737,47.78540300011345],[-122.39885699983193,47.785384999956904],[-122.39884199976333,47.78526299987182],[-122.39318299974894,47.78525899989388],[-122.39518100026454,47.784242999750425],[-122.3967560002825,47.783116999776716],[-122.39733600024064,47.78270299993346],[-122.39754499957971,47.78206799984541],[-122.39800599971214,47.780664000169836],[-122.39820900010173,47.78004700012532],[-122.39643300024231,47.778645999809385],[-122.39557600027476,47.77792299987773],[-122.39497200002718,47.77792099990825],[-122.39463399991834,47.77791899993867],[-122.39454299968176,47.77791899993867],[-122.39382600035458,47.77792400016431],[-122.39348300022291,47.77792699981652],[-122.39333199971186,47.777928000102975],[-122.39319399961961,47.777928999785786],[-122.39317199987829,47.777928999785786],[-122.3925400000416,47.777930999754965],[-122.39198400037294,47.777934000010454],[-122.3901309996223,47.77791199974268],[-122.38981099995515,47.777894000010605],[-122.38963400040316,47.777894000010605],[-122.38944100005928,47.77789599998113],[-122.38855399995451,47.77790100020898],[-122.38827399957201,47.77790900008959],[-122.38826000022662,47.77790900008959],[-122.38820400015014,47.77790999977277],[-122.38696100039319,47.77791899993867],[-122.38287900004659,47.777871999725896],[-122.38274299960416,47.77786999975444],[-122.38018900031821,47.777840000173214],[-122.38002799976138,47.77784299983026],[-122.38000900039312,47.77784299983026],[-122.37910399984669,47.777859000211805],[-122.37894300018817,47.777857999924024],[-122.37810499958887,47.77785300029568],[-122.37752200015602,47.77785000003556],[-122.3775239998058,47.778241000086815],[-122.37753899987445,47.78133699985884],[-122.37753999969937,47.78154399989747],[-122.37754600044543,47.78272300019997],[-122.37750500043757,47.78272300019997],[-122.37750600026246,47.78298299994628],[-122.37750899973723,47.783503999942205],[-122.37751100028535,47.78397999976012],[-122.37751200011026,47.78413099986444],[-122.37751200011026,47.784172000060884],[-122.37751499958499,47.7846909998993],[-122.37751499958499,47.78470599982805],[-122.37751700013312,47.78512699984515],[-122.37751700013312,47.78523200018553],[-122.37751600030823,47.78554900021382],[-122.37751399976007,47.786580000171966],[-122.37751100028535,47.78822500013552],[-122.37750999956212,47.78874399994366],[-122.37750999956212,47.789035000206],[-122.37750899973723,47.789628000139906],[-122.37750700008739,47.790496999720936],[-122.37750700008739,47.79055199973262],[-122.37744199979007,47.79055199973262],[-122.37744299961496,47.790759999930884],[-122.37742099987364,47.79085700005783],[-122.37739699958422,47.79091299972518],[-122.37741300037607,47.79092300009051],[-122.37765699987521,47.79111900022385],[-122.37759800032397,47.791186999986536],[-122.37756099961575,47.79123799975014],[-122.37751999960788,47.79132799999195],[-122.37751799995804,47.79134099975917],[-122.37750200006451,47.79146900021832],[-122.37749200001878,47.791750000106376],[-122.37749299984367,47.7919430000879],[-122.37750100023959,47.79207399971074],[-122.37750600026246,47.792137999982266],[-122.37751399976007,47.79223399994002],[-122.37744500016312,47.79239600029645],[-122.37626299960722,47.792326000286344],[-122.3759449995899,47.79230800011335],[-122.37588500021377,47.792326000286344],[-122.37580800022084,47.792326000286344],[-122.37572500038017,47.79231100014259],[-122.37565400023506,47.79231500018138],[-122.37519300010261,47.792313000162],[-122.37505300036052,47.79231200015233],[-122.375029999896,47.79231200015233],[-122.37486800041262,47.79231100014259],[-122.37486400021464,47.792408999796514],[-122.37486300038974,47.792581000257144],[-122.37485499999383,47.79349300000848],[-122.37485300034398,47.79415799976966],[-122.37505300036052,47.79415899974385],[-122.37520899999613,47.794159999717984],[-122.37537700022565,47.79416100029559],[-122.37591199997793,47.794159999717984],[-122.37612299986513,47.79416300024384],[-122.37675200022707,47.79416500019199],[-122.37685099996126,47.79416100029559],[-122.3771129999021,47.79416800011402],[-122.37729600020019,47.794164000217904],[-122.37738499988863,47.794144000129194],[-122.37745400038393,47.794101000002875],[-122.37751999960788,47.79500200009456],[-122.37752700017889,47.79569500012237],[-122.3775499997451,47.79774300019876],[-122.37755099957002,47.79786800026647],[-122.37753499967647,47.79818300006876],[-122.37751799995804,47.79854599993218],[-122.37752299998091,47.79913200020293],[-122.37752700017889,47.799448999931066],[-122.37752700017889,47.79946500030009],[-122.37752700017889,47.799513000170705],[-122.37752800000378,47.79952999978738],[-122.37752800000378,47.79966500027299],[-122.37752800000378,47.79974199972238],[-122.37752800000378,47.79977799973926],[-122.3779380000826,47.79977600000717],[-122.37808399967248,47.79977299980548],[-122.37836999990273,47.799768999737395],[-122.37908600030332,47.7997679998712],[-122.38024000037183,47.799763999802735],[-122.38155300044897,47.79975200019892],[-122.38295100001662,47.7997679998712],[-122.38295600003947,47.799847000104194],[-122.38297899960571,47.802018000130076],[-122.38300100024534,47.80260900012065],[-122.38300999956783,47.80327400026907],[-122.3832740000568,47.803272000068155],[-122.38333400033126,47.80327299986695],[-122.38351400025633,47.80327599986652],[-122.38357500035569,47.80327700026858],[-122.38361499964036,47.80327599986652],[-122.38383399992345,47.80327299986695],[-122.38394699990135,47.80327700026858],[-122.38409900023734,47.80327599986652],[-122.38442300010242,47.80327400026907],[-122.38473199989892,47.80328100006656],[-122.3851899996583,47.80328499986423],[-122.38540200026875,47.80329200026363],[-122.38555299988147,47.80328900026498],[-122.38571299971504,47.80328600026617],[-122.38581800019533,47.80329300006204],[-122.38603800030334,47.80329099986186],[-122.38625900023631,47.80328900026498],[-122.38677800009509,47.80328799986315],[-122.38692500040818,47.80329000006341],[-122.38714700016601,47.80329399986039],[-122.38727799968726,47.80328799986315],[-122.38758499983393,47.80329000006341],[-122.3876330004128,47.80329300006204],[-122.38796700032367,47.803281999865185],[-122.38811299991353,47.803283000267136],[-122.38830200005941,47.803283000267136],[-122.39041000017986,47.80329500026215],[-122.39050100041646,47.80319400001664],[-122.39053700040147,47.80322100004772],[-122.39060099997558,47.80323000005496],[-122.39078199972556,47.8032219998475],[-122.39110099956777,47.803227000052736],[-122.39119600000232,47.80322499985001],[-122.39138199977516,47.80323000005496],[-122.39150499979883,47.803226000253055],[-122.39161000027913,47.80322799985235],[-122.39169899996757,47.80323099985457],[-122.39188999976331,47.803232000257495],[-122.3919829996497,47.80324299986155],[-122.39247200026955,47.80329800026045],[-122.39442300003117,47.80330299985498],[-122.3948480001786,47.80330400025657],[-122.39683999994809,47.80330899985052],[-122.39696999964444,47.80330800005247],[-122.39698700026118,47.803239999860075],[-122.39850899967742,47.799768999737395],[-122.39525400005947,47.791910000126215],[-122.39631000021865,47.787949999856544],[-122.39968299983737,47.7854479998739]]]},"properties":{"AREALAND":"3244311","AREAWATER":"735397","BASENAME":"Woodway","CBSAPCI":"N","CENTLAT":"+47.7902519","CENTLON":"-122.3874086","FUNCSTAT":"A","GEOID":"5379835","INTPTLAT":"+47.7835175","INTPTLON":"-122.3883372","LSADC":"25","MTFCC":"G4110","NAME":"Woodway city","NECTAPCI":"N","OBJECTID":13159,"OID":"27890921610452","PLACE":"79835","PLACECC":"C1","PLACENS":"02412307","STATE":"53","DISP_CLR":1,"slug":"woodway","jurisdiction_key":"woodway_city","county_fips":["53061"]}}]}
