{"type":"FeatureCollection","features":[{"type":"Feature","geometry":{"type":"Polygon","coordinates":[[[-120.64444600038996,46.56200399998195],[-120.64440500038206,46.56166400020209],[-120.64441399970458,46.55998399999021],[-120.64442700012337,46.558305999744576],[-120.64272599970873,46.558324000021116],[-120.63917099961681,46.55836600023126],[-120.63917200034005,46.558339000144],[-120.63914499967757,46.558330999749536],[-120.63906299966177,46.55829900001293],[-120.6389930002399,46.558283999878945],[-120.63837200027389,46.558278000194825],[-120.63797899991349,46.558275000043686],[-120.63697899983079,46.55829799996296],[-120.6365150002236,46.55830200016279],[-120.6360080000604,46.55832099987248],[-120.63557000039248,46.558329999700156],[-120.63480200011337,46.558332999848254],[-120.63475799973244,46.55833499994694],[-120.63452000008108,46.55834699991962],[-120.63444300008815,46.55835300021382],[-120.63418000032244,46.5583740000029],[-120.6339240002294,46.55838700001531],[-120.63383800001569,46.55838299982174],[-120.63376100002276,46.55836600023126],[-120.63368300020497,46.55833199979891],[-120.63361100023496,46.55823699996769],[-120.63329200039273,46.55824300027405],[-120.63260100010652,46.55824200022304],[-120.63011399986937,46.55824200022304],[-120.62980099987492,46.55825699975088],[-120.62957400009422,46.5582620000044],[-120.62856499979067,46.55828900012997],[-120.62818499984907,46.55830100011283],[-120.62756100040833,46.558300000062886],[-120.62454899956633,46.55829699991296],[-120.62354600000889,46.558295999862956],[-120.62354000016109,46.5584930000954],[-120.62352599991738,46.55908699969631],[-120.62352099989454,46.559286000209],[-120.6235180004198,46.559369999725234],[-120.62351300039693,46.559622999989955],[-120.6235119996737,46.559708000243866],[-120.62351000002388,46.55975500011633],[-120.62350800037403,46.559896000107166],[-120.6235069996508,46.55994399983649],[-120.62350400017608,46.560050999980966],[-120.6234969996051,46.56037199976602],[-120.62349499995524,46.56047999969391],[-120.62348800028256,46.560813000074226],[-120.62348499990951,46.56097299980268],[-120.62346800019108,46.56136699987885],[-120.6232570003039,46.561365999885425],[-120.62280899969191,46.56136499989198],[-120.622807999867,46.56194699976057],[-120.61937499997384,46.56194299982951],[-120.61709600014917,46.5619389998981],[-120.61566500007123,46.561916000286885],[-120.61287599971031,46.56191500030357],[-120.61148200034063,46.561927000102166],[-120.61151599977751,46.56288500016517],[-120.61167300013634,46.562882000268765],[-120.61167899998415,46.56383199994355],[-120.61152099980038,46.56383099999556],[-120.61148300016553,46.56383099999556],[-120.61123100027046,46.56383000004754],[-120.6108539998036,46.56382900009947],[-120.6104749996869,46.56382700020335],[-120.61022399961675,46.563826000255254],[-120.6093730003953,46.563822999793246],[-120.60756300020067,46.56381700010396],[-120.60682199968572,46.563811999744736],[-120.60597200028916,46.56380700000268],[-120.60563400018036,46.56380400015727],[-120.60462099967887,46.563797999848234],[-120.60428400029329,46.563795999950976],[-120.60358200013643,46.563792000156184],[-120.60147900003885,46.56378100010143],[-120.60077799970688,46.56377800025453],[-120.60001699999877,46.56377199994262],[-120.59773399997616,46.56375700008643],[-120.59697300026802,46.56375300028877],[-120.59636999984538,46.56374899987322],[-120.59456399984872,46.56373999970914],[-120.59396200014928,46.56373699985998],[-120.59393299983697,46.56374100027646],[-120.59381900003413,46.56373999970914],[-120.59382800025497,46.56342299990844],[-120.59401599967762,46.56286199971972],[-120.59407900032512,46.56253599998376],[-120.59407500012718,46.56096799979905],[-120.59698999998648,46.56097299980268],[-120.5969980003824,46.55999200014099],[-120.5970050000551,46.55925199973543],[-120.59700699970492,46.55905200029737],[-120.59700800042816,46.55890899988891],[-120.59701199972778,46.55848000010839],[-120.59701400027592,46.558338000094764],[-120.5964340003178,46.558332999848254],[-120.5946960000932,46.55831799972372],[-120.59411699995998,46.55831400014277],[-120.59364900015484,46.558306999794446],[-120.59235600016916,46.55829000018011],[-120.59242099956816,46.55931299982503],[-120.59171799958638,46.55932300013692],[-120.59172799963211,46.55942300006637],[-120.59173400037825,46.56181899996632],[-120.5915550002781,46.56181899996632],[-120.5890560003454,46.56182199992155],[-120.58904200010171,46.56003200025932],[-120.58736900017443,46.56002900020516],[-120.5873669996263,46.55892199977313],[-120.58650899983381,46.55891999969613],[-120.58648299989454,46.55890699981138],[-120.58639099983301,46.55886700009903],[-120.58544199980398,46.55886800013851],[-120.58543699978108,46.558457000266266],[-120.5854329995831,46.55820300007221],[-120.5852180003963,46.55820099996866],[-120.5845930002323,46.558193000171556],[-120.58460499992786,46.56045100002035],[-120.58385699974022,46.56044799998935],[-120.58385699974022,46.56180700014384],[-120.58438800019289,46.56180800012914],[-120.5843909996676,46.56366499972484],[-120.58589600026372,46.56367299995045],[-120.58589899973845,46.564041999733],[-120.58589600026372,46.56526600029266],[-120.58588500039306,46.56643399986129],[-120.58590100028658,46.56643299996126],[-120.58589700008861,46.56735800029023],[-120.58459099968415,46.56734200030709],[-120.58421699959035,46.56733700027278],[-120.5838969999232,46.56733300012151],[-120.5835930001496,46.5673289999699],[-120.5833489997521,46.5673050002894],[-120.58053400035024,46.56731399986207],[-120.58053400035024,46.56733099973696],[-120.58053699982499,46.56745400008988],[-120.58054000019804,46.567598000088424],[-120.58054400039599,46.56785700013588],[-120.58054500022088,46.567893999777006],[-120.58054799969564,46.56810999973213],[-120.58055000024378,46.56822999995313],[-120.5805529997185,46.56836100027213],[-120.58055699991645,46.56861300012807],[-120.58056199993932,46.56887200026967],[-120.58056399958917,46.568996000068935],[-120.58056500031238,46.569045000245204],[-120.5805660001373,46.56914600001509],[-120.58084399997163,46.56914699986511],[-120.58140100036357,46.56914900018269],[-120.58167900019791,46.56915000003266],[-120.58190599997863,46.5691509998826],[-120.58195799985717,46.5691509998826],[-120.58207900023099,46.5691509998826],[-120.5822359996915,46.56915199973258],[-120.58251400042418,46.56915300020004],[-120.582552000059,46.56915300020004],[-120.58276299994623,46.56915300020004],[-120.58279300008344,46.56915300020004],[-120.58304099978056,46.56915400004998],[-120.58307099991778,46.56915400004998],[-120.58323699959912,46.56915599974971],[-120.58322499990355,46.57074000002553],[-120.58322300025374,46.570985999813196],[-120.58318100042094,46.570985999813196],[-120.58311299975057,46.57098499999707],[-120.58116000033914,46.57097899986477],[-120.5810239998967,46.57097800004852],[-120.5802649998384,46.5709759997984],[-120.57782299980713,46.5709619998981],[-120.57548799990596,46.57095299969561],[-120.57530899980581,46.57095199987888],[-120.57470700010637,46.570950000245354],[-120.57451100028779,46.57094899981101],[-120.57449399967105,46.570846000055816],[-120.57449299984611,46.570206999745764],[-120.57513300007872,46.57021200013305],[-120.57513300007872,46.569979000245354],[-120.57520800042181,46.56997300000181],[-120.57518499995724,46.56957900005219],[-120.5751320002538,46.5695839998798],[-120.5751160003603,46.56911200016246],[-120.57484699984846,46.56911399986374],[-120.57471799997703,46.569122999753816],[-120.57452399980825,46.56912400022184],[-120.57410500040693,46.56912400022184],[-120.57379300023739,46.56912400022184],[-120.5734559999535,46.56912400022184],[-120.57290399958448,46.56912500007227],[-120.57262199955214,46.56912500007227],[-120.57261999990233,46.56924499990047],[-120.57261599970435,46.56956799993573],[-120.57261200040472,46.569889000227505],[-120.57260800020677,46.57021500024168],[-120.57259999981085,46.570534999967734],[-120.57260099963575,46.57086300005884],[-120.57260099963575,46.57094199985781],[-120.57253899971148,46.57094199985781],[-120.57246199971858,46.57094199985781],[-120.5723350003953,46.57094199985781],[-120.57183400007987,46.57094199985781],[-120.57166699967529,46.57094199985781],[-120.5714840002755,46.57094199985781],[-120.57093500027949,46.57094199985781],[-120.5707529998063,46.57094199985781],[-120.57041399987259,46.57094199985781],[-120.56939799989638,46.57094199985781],[-120.56905999978754,46.57094300029229],[-120.56899700003838,46.57094300029229],[-120.5687679997095,46.570951000062124],[-120.56874099994533,46.57095299969561],[-120.56722799985162,46.57094000022393],[-120.56696099988794,46.57093899978939],[-120.56678000013801,46.57093899978939],[-120.56613800025556,46.57093899978939],[-120.56421500008305,46.57094000022393],[-120.56357499985046,46.570941000040875],[-120.56329100016833,46.57094000022393],[-120.56244199969835,46.57093899978939],[-120.56215899984115,46.57093899978939],[-120.56216200021417,46.57081800018447],[-120.56217300008483,46.57045799984528],[-120.56217800010772,46.570338000230485],[-120.56219599965107,46.569749999947675],[-120.56225199972755,46.56798800012052],[-120.5622679996211,46.56752399975954],[-120.56229500028357,46.56747500006203],[-120.56234499961397,46.567429999847086],[-120.56237499975119,46.567413000003214],[-120.56244699972122,46.567386999977394],[-120.56252799991209,46.567376999916654],[-120.5625990000572,46.567376999916654],[-120.56329000034341,46.56738299982982],[-120.56342199968955,46.56738500021245],[-120.56346699989543,46.567391000124736],[-120.56351799994903,46.56740499971159],[-120.5637670003694,46.56740600021127],[-120.5645139998338,46.567409999739596],[-120.5645640000625,46.567411000239225],[-120.56470399980459,46.56730999970906],[-120.56473399994184,46.56730999970906],[-120.56494099963106,46.56730999970906],[-120.56671999986352,46.56731200009438],[-120.56726399983664,46.56731299997821],[-120.56788099960471,46.56731299997821],[-120.56925899997918,46.56731499974586],[-120.57093600010441,46.567317000131],[-120.57160899994896,46.56731299997821],[-120.57172799977465,46.56733400000495],[-120.57259599961287,46.56732200016711],[-120.5726459998416,46.56550899983387],[-120.57274600029902,46.56550799991678],[-120.57335100037153,46.565493999840335],[-120.57345000010572,46.56549200000559],[-120.57435399992897,46.565496000292626],[-120.57706700012189,46.56550999975094],[-120.57797199977006,46.56551499995365],[-120.57799199986154,46.56485799988065],[-120.57800199990727,46.56458500002585],[-120.577903999998,46.56458599995999],[-120.5727710004134,46.564607999740865],[-120.57267099995593,46.56460699980717],[-120.57269699989523,46.563702999705114],[-120.57279599962942,46.563702999705114],[-120.57556999992173,46.563689999731146],[-120.57563400039415,46.5607859999693],[-120.57716199965813,46.560790999989706],[-120.57716000000832,46.56083300014328],[-120.5781020003647,46.56084200017198],[-120.5781030001896,46.560629999717534],[-120.57564000024195,46.56062200027851],[-120.57566500035628,46.55994299981678],[-120.5730550000955,46.559929000157254],[-120.57307699983681,46.55961100029947],[-120.57311399964674,46.55810699996159],[-120.57311600019486,46.558037999931614],[-120.57256300000093,46.55803300027517],[-120.57242999993154,46.55803100016539],[-120.5724280002817,46.55810000020428],[-120.57237899987788,46.55992099999724],[-120.57126800036544,46.55991799993689],[-120.57116899973293,46.55991799993689],[-120.57104900008231,46.55987599969271],[-120.57093100008154,46.55987999977621],[-120.57079800001215,46.55989200002489],[-120.57073100006501,46.55989500008662],[-120.57066499994276,46.55989800014824],[-120.57055100013994,46.55989800014824],[-120.57046599975112,46.5598599999735],[-120.57043099959104,46.55974399986069],[-120.57043300013916,46.55969800000289],[-120.57043300013916,46.55965000005598],[-120.57033400040496,46.559638999779054],[-120.56979399973149,46.55963400027013],[-120.56978500040896,46.560004999765745],[-120.56842299992802,46.55999200014099],[-120.56842100027818,46.56124499992597],[-120.5691390003286,46.561250999899684],[-120.57030300044282,46.561268999816825],[-120.57029099984895,46.56133800006175],[-120.57028300035134,46.56168399995745],[-120.56500299955532,46.56165399970395],[-120.56500199973043,46.56169199985752],[-120.55992000019945,46.561662000226114],[-120.55982099956692,46.561669000141585],[-120.55981800009218,46.561881000242174],[-120.55991799965129,46.56188200022611],[-120.56094899969614,46.561883000210024],[-120.56094100019855,46.56231200026124],[-120.55991400035167,46.56231100028522],[-120.55981399989423,46.56230999969153],[-120.55981200024439,46.56258899970283],[-120.55980100037374,46.56309699983765],[-120.55979399980276,46.56347799990539],[-120.55979999965052,46.56352199973922],[-120.5597889997799,46.56357199987205],[-120.55977299988633,46.56359000025449],[-120.55976700003858,46.56360999991752],[-120.55974299974912,46.56363599990077],[-120.55972100000781,46.563650999790404],[-120.5596909998706,46.56367199999952],[-120.55962800012138,46.563697999953064],[-120.55955199995343,46.56371199987537],[-120.55926200042352,46.56370900002465],[-120.55752900022178,46.563693000200516],[-120.5571140001201,46.563689999731146],[-120.55702500043164,46.5637099999749],[-120.55696199978411,46.56374200022611],[-120.55692199960116,46.56377800025453],[-120.5568899998141,46.56383099999556],[-120.55688399996632,46.5638789999494],[-120.5568699997226,46.56363499994912],[-120.55279499994704,46.56361900010315],[-120.55279300029723,46.56124599992162],[-120.55277400003064,46.56109799974483],[-120.55277300020572,46.56075799984626],[-120.5525959997554,46.561084999764276],[-120.55256399996837,46.56114300027116],[-120.55250100021918,46.561186000149],[-120.55247500027988,46.561204000087756],[-120.55243699974675,46.56122700000081],[-120.55226400039271,46.56133400008574],[-120.55218499985168,46.561381999778206],[-120.55190600019242,46.561535999740116],[-120.55163900022872,46.561674000080664],[-120.5514269996183,46.56172000011621],[-120.55119200033998,46.5617509997019],[-120.55103699963094,46.56177599997249],[-120.55080200035263,46.561813000055416],[-120.55039999977141,46.56190599983524],[-120.55029900038738,46.56188700014557],[-120.54988199973756,46.56181100008497],[-120.54969599996471,46.56179299972994],[-120.54943599967372,46.56148800018395],[-120.54928699971082,46.56147600028825],[-120.5466379999903,46.56114300027116],[-120.54618000023088,46.56108299976696],[-120.54614199969774,46.56108199976829],[-120.54618199988072,46.56059500007854],[-120.54617299965987,46.55789099970946],[-120.5459219995897,46.557890000269666],[-120.54445799989982,46.557888000154634],[-120.54397000000318,46.557888000154634],[-120.5408729996707,46.55788299986665],[-120.54061699957765,46.55788299986665],[-120.53872699991541,46.55789399988187],[-120.53751099992263,46.55790199972311],[-120.53591499998828,46.55790399983763],[-120.53465100031492,46.557905999952084],[-120.53291999976304,46.55792000013362],[-120.53158499994457,46.55792000013362],[-120.53093800003926,46.557921000190554],[-120.5307000003879,46.55791800001964],[-120.530467999686,46.55792300030439],[-120.53015999971441,46.55794200014684],[-120.529229000127,46.557985000090746],[-120.52849099998511,46.55798199992336],[-120.52848599996224,46.55780300013809],[-120.52847400026668,46.55729599991912],[-120.52844699960418,46.557294999850605],[-120.52826900022728,46.557292000262834],[-120.52826599985423,46.557429000213126],[-120.52826000000644,46.55784300001714],[-120.52825800035662,46.557980999867546],[-120.52822499984636,46.5587539998412],[-120.52816999959477,46.560096000140305],[-120.52817399979271,46.56107399977828],[-120.52817799999066,46.56160700024118],[-120.52602100036475,46.56163499992603],[-120.52427599956914,46.56165900026208],[-120.52320699988947,46.561668000153716],[-120.52297400026094,46.56170499969264],[-120.52297300043605,46.561668000153716],[-120.52295199962134,46.56011499983954],[-120.52119900022647,46.5601380002142],[-120.5208300001555,46.56016299999276],[-120.52029100020525,46.56017200013255],[-120.52039199958928,46.56164399982169],[-120.52039400013741,46.561668000153716],[-120.52053300005458,46.563542000044954],[-120.52034999975649,46.56356500020211],[-120.52037200039612,46.56363399999749],[-120.52036700037323,46.563699999853945],[-120.52026199989292,46.56417700005071],[-120.52009600021158,46.56493900025199],[-120.52161000013018,46.56529900016463],[-120.52229700021844,46.56545799971541],[-120.52345399976166,46.56576500023691],[-120.52422399969062,46.565958000272765],[-120.52546399997281,46.566288999958005],[-120.5264759997511,46.56648500029735],[-120.52762599962162,46.566793999734315],[-120.52833799982423,46.5669969999474],[-120.52860700033607,46.567072000265945],[-120.52879499975873,46.5671280001562],[-120.52908199981391,46.56722799990466],[-120.52916399982968,46.567284000251476],[-120.52927000013487,46.56733400000495],[-120.52955100034227,46.56752799989671],[-120.52974499961273,46.567665999817656],[-120.52988899955277,46.56785999975718],[-120.53007100002596,46.56806599991397],[-120.53020800029331,46.56831600017466],[-120.53031399970021,46.56850499971558],[-120.53031399970021,46.56864099990255],[-120.53031399970021,46.56886299972036],[-120.53031399970021,46.56889800020127],[-120.53031399970021,46.56953200004425],[-120.53031399970021,46.56975499975951],[-120.53031399970021,46.56996199996525],[-120.53031299987532,46.56997600012367],[-120.53008400044475,46.569979000245354],[-120.5299310002839,46.569976999958385],[-120.52964199968056,46.56997399983659],[-120.52962599978703,46.56997399983659],[-120.52961200044165,46.56997399983659],[-120.5296159997413,46.570749000263376],[-120.5296159997413,46.570773000272716],[-120.52961699956622,46.570816999747684],[-120.52961800028943,46.57086300005884],[-120.52955399981703,46.57086300005884],[-120.529185999571,46.57086300005884],[-120.52906400027055,46.57086300005884],[-120.52887000010179,46.57086200024044],[-120.52829099996856,46.570860999804474],[-120.52809799962473,46.570860999804474],[-120.5276249997967,46.57085999998604],[-120.52752900043556,46.5708590001676],[-120.52582499964787,46.57084399980082],[-120.52525700028359,46.570839000089315],[-120.52499500034277,46.5708360000152],[-120.52421000034522,46.57082900004742],[-120.52394900022931,46.5708269997918],[-120.52388200028214,46.57082599997274],[-120.52368499974034,46.57082399971702],[-120.52289300007013,46.570816999747684],[-120.52263000030436,46.57081500010919],[-120.52210600042272,46.570809999777445],[-120.52053600042764,46.570797000271476],[-120.52001300037091,46.570792999757806],[-120.51974800005705,46.57079000029866],[-120.51895300001375,46.57078400014483],[-120.51868799969986,46.570781999887515],[-120.5184280003072,46.57078000024772],[-120.51764999998234,46.57077400009279],[-120.51739100041456,46.570773000272716],[-120.51713299977338,46.57077100001502],[-120.51636100019462,46.57076600029684],[-120.51610400027668,46.5707649998591],[-120.51583899996282,46.57076300021869],[-120.51504599956934,46.57075700006183],[-120.5147819999787,46.57075600024148],[-120.51400299982892,46.57075000008384],[-120.51244000040484,46.57073900020488],[-120.51199199979288,46.57073699994594],[-120.5116689997527,46.57073200022457],[-120.51101900037267,46.570722999983964],[-120.51089100032614,46.57072099972443],[-120.51077400015026,46.57071900008235],[-120.51061299959349,46.570712999920666],[-120.51055099966919,46.570712000099505],[-120.5103180000407,46.570726000064326],[-120.50996800023631,46.57072999996538],[-120.50977900009043,46.57072900014453],[-120.50950200008101,46.5707279997061],[-120.50909399965201,46.570723999804905],[-120.50787000016163,46.570713999741805],[-120.50746199973263,46.57071100027829],[-120.50744400018925,46.570709999839536],[-120.50739099958749,46.570709999839536],[-120.50737399986907,46.570709999839536],[-120.5070030001483,46.570705999937005],[-120.50684499996456,46.57070400029442],[-120.50589199973751,46.570694000227626],[-120.50552199984168,46.57068999970635],[-120.50486300024083,46.5706800002545],[-120.50431699971953,46.57067199982716],[-120.50288700036485,46.57064900021299],[-120.50222899969059,46.570639000136055],[-120.50216000009361,46.57063799969602],[-120.50195300040438,46.57063500022829],[-120.50188499973402,46.57063399978814],[-120.50156000004398,46.57062800023457],[-120.50155800039417,46.57052099995361],[-120.5015530003713,46.569202000234476],[-120.50155199964807,46.56883999995667],[-120.50155199964807,46.5688130001411],[-120.50155199964807,46.56877400017793],[-120.5015940003792,46.5686289997363],[-120.50159699985392,46.568581000279906],[-120.50160799972457,46.568385000103],[-120.5016370000369,46.567882999936415],[-120.5014889998989,46.56787899982542],[-120.50131399999671,46.56787899982542],[-120.49894099956238,46.56787200009361],[-120.49892600039209,46.5687539999484],[-120.49886100009476,46.56875300009113],[-120.49802199967054,46.56873900023458],[-120.4960910000004,46.56871000003505],[-120.4960910000004,46.56835200025563],[-120.4960910000004,46.56704199990391],[-120.4960910000004,46.565035999935205],[-120.49630500026066,46.56328399973512],[-120.4960910000004,46.56328099986078],[-120.49563700043898,46.5632760000698],[-120.49421700023169,46.56325800020082],[-120.49362300002986,46.56324999991401],[-120.49300600026181,46.56324300020252],[-120.49212900020272,46.56323299999544],[-120.4917750002004,46.56322800020008],[-120.49104499955614,46.56321899994953],[-120.49071400001833,46.563215000112244],[-120.4903609998409,46.56321100027462],[-120.49015800034962,46.563207999778584],[-120.48954999990411,46.563200000102015],[-120.48934800023773,46.56319800018271],[-120.48844600006431,46.56318700000751],[-120.48423700039443,46.563135000215816],[-120.4842359996712,46.563647999936315],[-120.48303200027232,46.5636690001466],[-120.48301700020372,46.56415400015302],[-120.48301100035593,46.56433299998572],[-120.48300399978493,46.564586999894075],[-120.48299999958695,46.56467600013011],[-120.4844109995734,46.56468500013891],[-120.48440899992357,46.565416000054185],[-120.48399999966965,46.56570100024938],[-120.48368300037558,46.565776999801514],[-120.48320700017452,46.56576999979845],[-120.48304599961772,46.56576799997389],[-120.48304599961772,46.56601300017006],[-120.48304599961772,46.566099000200886],[-120.48292699979203,46.566153999955226],[-120.48277299980624,46.566225999874995],[-120.48226399999321,46.566225999874995],[-120.48226700036626,46.56673800011685],[-120.4828330000807,46.56674699978355],[-120.48284999979914,46.5667480002954],[-120.48285099962405,46.56763599978414],[-120.48285999984486,46.56765099980297],[-120.4828339999056,46.56971800015267],[-120.48282600040801,46.57041400007908],[-120.48326800027387,46.57042199992694],[-120.4834370003283,46.57042199992694],[-120.4850659998746,46.57043100021755],[-120.48527199973893,46.570447999733126],[-120.48542099970183,46.57047000022445],[-120.48560999984774,46.570506000110875],[-120.48580700038954,46.57052799996114],[-120.48587799963634,46.57053199987679],[-120.48595499962924,46.570534999967734],[-120.48604599986582,46.57053999970725],[-120.48607500017815,46.57082399971702],[-120.4861270000567,46.57131800012231],[-120.48502099966875,46.57132700026423],[-120.48500999979812,46.572895999708884],[-120.48501800019405,46.57398500028817],[-120.48501800019405,46.57407100003001],[-120.48578800012297,46.57407600006106],[-120.4863899998224,46.574079999715046],[-120.48643500002825,46.574079999715046],[-120.4876779997852,46.574089000016144],[-120.48781099985459,46.57408999977505],[-120.48783699979388,46.57408999977505],[-120.48792100035776,46.57409100015146],[-120.48794099955094,46.57409100015146],[-120.48817300025286,46.5740930002867],[-120.48822199975832,46.5740930002867],[-120.4881499997883,46.57775300008224],[-120.48789299987035,46.577751999773376],[-120.48713800001003,46.577749000081674],[-120.48686900039652,46.57774799977274],[-120.48634299996675,46.5777450000808],[-120.48518600042352,46.57774100007965],[-120.48476799994876,46.57773900007896],[-120.48424300024223,46.57773700007819],[-120.48397799992836,46.577733999768114],[-120.4831850004332,46.57772700007321],[-120.48292099994423,46.57772500007201],[-120.4821640004341,46.577717000066436],[-120.47989300010704,46.577695999737415],[-120.4791370004218,46.577689000037566],[-120.47883399957477,46.577685000032275],[-120.47792800010171,46.57767599971055],[-120.47762599997793,46.577673000014585],[-120.47726399957966,46.577669000008115],[-120.4761809996563,46.57765699998693],[-120.47581999998127,46.57765299997923],[-120.47565599994975,46.57765099997529],[-120.47516600040328,46.577648000277996],[-120.47500300019668,46.57764699996719],[-120.47448500016283,46.5776420002654],[-120.4729340004343,46.57762699992225],[-120.47241700022533,46.57762200021861],[-120.47227699958493,46.57762000021354],[-120.47198100020725,46.57761800020834],[-120.4718570003587,46.577616000203115],[-120.47171800044153,46.57761499989173],[-120.47171800044153,46.57757000006242],[-120.47171800044153,46.57750100008696],[-120.47171800044153,46.57743400003567],[-120.47171900026642,46.577389999754224],[-120.47172500011423,46.57591500022525],[-120.47173000013707,46.574913999864606],[-120.47175000022858,46.573423000254856],[-120.47174699985553,46.572586999833504],[-120.471766999947,46.57148999989995],[-120.4717870000385,46.570399000206805],[-120.47178799986342,46.57036899983218],[-120.47130599981458,46.570397999762285],[-120.4709569998351,46.57039699993532],[-120.46701400030399,46.57038900008377],[-120.46690600034898,46.57038900008377],[-120.46650100029301,46.57038900008377],[-120.46641799955403,46.57054400023958],[-120.46622900030647,46.57090099993742],[-120.46611799997838,46.571282999967934],[-120.4660639995517,46.57209599987559],[-120.46571200009751,46.57388700017199],[-120.4650209998113,46.57388200012348],[-120.46502500000925,46.57391800021528],[-120.46502500000925,46.57399300022684],[-120.46502500000925,46.574135000022196],[-120.46502500000925,46.57421100010785],[-120.46502500000925,46.57426799979341],[-120.46503900025293,46.57436200020572],[-120.46505199977344,46.574457000207225],[-120.4650929997813,46.574542000067495],[-120.46510700002501,46.574618000200246],[-120.46510700002501,46.57473100014386],[-120.4651339997892,46.57478799990038],[-120.46517499979707,46.57493000008415],[-120.46521699962986,46.575006000290664],[-120.46523000004868,46.57510999991314],[-120.46527100005655,46.57517600000953],[-120.46532600030811,46.5752890000254],[-120.46536700031601,46.57539299972266],[-120.4654080003239,46.575459999825775],[-120.46543599991298,46.57554499996642],[-120.46546299967714,46.57563900001771],[-120.46550399968504,46.575687000020466],[-120.46557300018034,46.57577199980536],[-120.46558999989878,46.575787999771755],[-120.46552600032467,46.575936999733855],[-120.46570700007463,46.57609800027295],[-120.46613300004698,46.576478000083135],[-120.46649799991995,46.57705800018434],[-120.46653100043025,46.577366999901656],[-120.4665430001258,46.577491999734654],[-120.4663449997591,46.57805800018361],[-120.4653039996685,46.57913200029373],[-120.46457700029558,46.579668000124805],[-120.46369799968838,46.580315999987604],[-120.46199200014918,46.58129099988407],[-120.46178600028485,46.58140900009555],[-120.461741000079,46.58143599981482],[-120.46065200030785,46.58207800001825],[-120.46037000027553,46.58266900004016],[-120.46050099979678,46.58351899975524],[-120.46108999997577,46.58428500002333],[-120.46166300026121,46.58483599974404],[-120.46197500043073,46.585119000036705],[-120.46476200024351,46.58688299983066],[-120.46640900023151,46.58792500029614],[-120.46753599963753,46.58886499986862],[-120.46851099960587,46.589905999806625],[-120.46907700021862,46.59079000011924],[-120.4698730000868,46.59230999992477],[-120.46998900043776,46.59253099973153],[-120.47085499972785,46.59490199972511],[-120.47249099984518,46.59954999981211],[-120.47236600017173,46.599695000281244],[-120.47046899993846,46.60183900014556],[-120.47070699958984,46.6026130001613],[-120.47139700005116,46.60339800027355],[-120.4721240003224,46.60379600005766],[-120.47235600012598,46.60400800027502],[-120.47270000008257,46.604321999771244],[-120.4735410001566,46.6047839997819],[-120.47475499960125,46.60528600024291],[-120.47523300035046,46.605467000299576],[-120.47548000022266,46.60556099969488],[-120.47566299962244,46.605634000163256],[-120.47569399958458,46.60564199975208],[-120.47693800006478,46.605874000274184],[-120.47747000034234,46.605974000160884],[-120.47920000017099,46.60607600005259],[-120.48147099959974,46.60618200012381],[-120.48254199982755,46.60631800023742],[-120.48368900022334,46.60664200014895],[-120.48472299974291,46.607157000103854],[-120.48601900010165,46.60787800020797],[-120.48644900027196,46.60812300022769],[-120.48688000026718,46.60836799975635],[-120.48730700006445,46.60871600024244],[-120.48788299982462,46.60918600010568],[-120.48832499969049,46.6095489998099],[-120.48902600002246,46.61094899999051],[-120.48830200012428,46.61266999979156],[-120.48786500028127,46.613376000236244],[-120.48786199990822,46.61395599986152],[-120.48820099984194,46.614243999925044],[-120.48839199963766,46.61449299990882],[-120.48840599988134,46.61477100024302],[-120.48844799971414,46.61560500008749],[-120.48846199995785,46.61588399987177],[-120.48897699961864,46.616771999887376],[-120.48919900027482,46.61715500023828],[-120.48957699966827,46.617419999813734],[-120.49045200007752,46.61818800010562],[-120.4905220003977,46.6182489999254],[-120.48998199972422,46.61911999973793],[-120.48956499997271,46.620042999912975],[-120.48944600014703,46.62065000024815],[-120.4906830000562,46.62207700019067],[-120.49347900008979,46.62331499985033],[-120.49530000015508,46.62398300004863],[-120.49790799986772,46.624333000277176],[-120.49851200011531,46.62435800007469],[-120.49995999991168,46.62437600002047],[-120.50090499974279,46.62445600025553],[-120.50089100039739,46.625229999755945],[-120.50282899974022,46.62721400010111],[-120.50404899993093,46.628006000239345],[-120.5043059998489,46.62825499986301],[-120.50474000021717,46.628491999704366],[-120.50570099994181,46.62907500021592],[-120.50678800006315,46.629552000225935],[-120.50793799993369,46.62987799986952],[-120.50881599981764,46.630046000300524],[-120.50927199992724,46.63013399984822],[-120.50939099975292,46.63015600017543],[-120.51051399985927,46.630308999792305],[-120.51068399973857,46.63033100004838],[-120.51154800027716,46.63040000000846],[-120.51184899967771,46.630512000301685],[-120.51288499974544,46.6306209998964],[-120.51338500023596,46.630675000253795],[-120.51434900033365,46.63077799983796],[-120.5146830002445,46.63048099992978],[-120.51508800030045,46.6300350001157],[-120.51521899982171,46.62989100001329],[-120.51523100041558,46.62988500023205],[-120.51549599983113,46.62976400018332],[-120.51552599996838,46.629750000043],[-120.5163169998137,46.62938800000347],[-120.51942599984176,46.62863099989382],[-120.51999800030228,46.6281319998799],[-120.52024199980146,46.628070000093416],[-120.52070799995676,46.627951000304286],[-120.52108299987549,46.627857000285886],[-120.52568999992862,46.626680999832175],[-120.52719600034962,46.62649800028769],[-120.5292490002185,46.62626599988822],[-120.53074800006848,46.62614100025534],[-120.53110399972064,46.626132999992656],[-120.53198800035071,46.626026000066695],[-120.53408499970217,46.62566599988163],[-120.53534300042605,46.62556599995375],[-120.53856600025692,46.62536400006646],[-120.54025199970468,46.625022000145385],[-120.54149700000974,46.62459100007561],[-120.54284500024703,46.62428400009759],[-120.54415999997399,46.62438299986071],[-120.54753500014081,46.625292999759104],[-120.54927400019034,46.62564699970599],[-120.55156499971055,46.62584500023524],[-120.55171700004654,46.625857000075754],[-120.55360099986096,46.62589300019837],[-120.55478900026466,46.62600800005261],[-120.55623000038834,46.62624499986149],[-120.55689300018716,46.62624599989234],[-120.55741000039612,46.626259000291505],[-120.55876500030602,46.62635800014435],[-120.56182900012826,46.6263160001541],[-120.56225500010059,46.62634699982691],[-120.56225500010059,46.626384000268835],[-120.56225500010059,46.62645899986991],[-120.56225500010059,46.626494000182845],[-120.56225500010059,46.626533999984005],[-120.56225299955247,46.626886999816385],[-120.56225000007775,46.62794900030557],[-120.56224900025283,46.62830300015677],[-120.5622130002678,46.628973999819365],[-120.56359199956889,46.628954000207116],[-120.57004599962656,46.62903699978347],[-120.5700470003498,46.62882600004614],[-120.57004899999961,46.628695000242715],[-120.57004899999961,46.62839000007944],[-120.57005099964942,46.628072000087656],[-120.57005099964942,46.62782800024729],[-120.57005200037267,46.62709899972435],[-120.56992799962579,46.62704500011759],[-120.56961999965421,46.6268539997968],[-120.56951800044526,46.626761999766764],[-120.56941299996497,46.62666800015124],[-120.5693229995533,46.62660899999419],[-120.56895100000762,46.62645000024409],[-120.56860799987592,46.62627700022213],[-120.5683640003768,46.62612799982783],[-120.56796000014575,46.62586699983805],[-120.56767100044075,46.62572199971124],[-120.56647399981622,46.62499599998368],[-120.5664370000063,46.624974000026846],[-120.5663800001049,46.62494100007491],[-120.56632499985332,46.62484699976505],[-120.56629300006627,46.62482499974771],[-120.56599299959231,46.62461200012703],[-120.56571200028321,46.62441400002347],[-120.56563399956711,46.62434699996778],[-120.56526399967123,46.623614999832256],[-120.56489200012555,46.62297199984947],[-120.56483900042213,46.622878999915436],[-120.56630899995979,46.62346700021344],[-120.56632800022635,46.62347500025321],[-120.56837000022458,46.62429799980087],[-120.57101999977,46.625381000247884],[-120.5710399998615,46.62539000005147],[-120.57258700029035,46.626028000136465],[-120.57265500006244,46.62605599987124],[-120.57270299974299,46.62607499990337],[-120.57269500024542,46.62573899978023],[-120.57269600007031,46.62558700024388],[-120.57269500024542,46.62553399978975],[-120.57269100004744,46.62531899977821],[-120.57283300033768,46.62539999989999],[-120.57323099982261,46.62562800014057],[-120.57393999965218,46.62603599979778],[-120.57445400038638,46.62631700018363],[-120.57478199955112,46.62648299989308],[-120.57498300029091,46.62658500002693],[-120.57501400025305,46.62659999977638],[-120.57525100007952,46.626714999979406],[-120.57562900037128,46.62688599979742],[-120.57586399964961,46.62699199985711],[-120.57601500016065,46.62705300024554],[-120.5771879995974,46.627525000148374],[-120.57736099984977,46.62759399998411],[-120.57758000013287,46.627682999821126],[-120.57768899991282,46.62772699999148],[-120.57774800036239,46.62775100006934],[-120.57790300017308,46.6278130002212],[-120.57801600015098,46.627859000288005],[-120.57812599975583,46.627902999698385],[-120.57843799992536,46.628028000197695],[-120.57937699990872,46.628405999936575],[-120.57956699987952,46.62848299979964],[-120.57958399959794,46.62848999972569],[-120.57968999990315,46.62853199987982],[-120.57996799973749,46.62847799985194],[-120.58004399990547,46.62846499998565],[-120.5801850003708,46.62844200021466],[-120.58030900021933,46.628407999918366],[-120.5804120001515,46.628382000149145],[-120.58066800024454,46.628300000178214],[-120.58089699967509,46.628194000212275],[-120.5810520003841,46.62809500001587],[-120.58108199962302,46.628077000072864],[-120.58134199991402,46.627881000306104],[-120.58139100031781,46.62784600027306],[-120.58153699990766,46.62774300004456],[-120.5815870001364,46.6277089999261],[-120.58153199988482,46.62765599969888],[-120.58148300037932,46.62760900007083],[-120.58116899966166,46.627304999968594],[-120.58107199957726,46.62720900003615],[-120.580720999948,46.62687900028084],[-120.57927999982434,46.625523999965935],[-120.57923399979357,46.62548099990062],[-120.57942200011456,46.625476000292515],[-120.58002100033926,46.62545700005019],[-120.57989199956951,46.6253550002586],[-120.5798499997367,46.62533299983077],[-120.57981200010188,46.62531300010708],[-120.5796740000096,46.62524100030038],[-120.57958799979589,46.62510200004275],[-120.57946599959715,46.62500699995873],[-120.57930199956563,46.62485999988324],[-120.57921500042534,46.624469999914325],[-120.57910499992214,46.624307999851155],[-120.5790160002337,46.624176000149575],[-120.57890300025578,46.624055000294625],[-120.57886899992057,46.62404699972361],[-120.57875299956962,46.624039999839965],[-120.57861299982756,46.624063000247496],[-120.57845200016907,46.62402399992624],[-120.57825100032763,46.62397700022943],[-120.57805100031106,46.623861999762305],[-120.57799100003662,46.623784000036004],[-120.57776000005794,46.62358900022868],[-120.5775600000414,46.623465000049094],[-120.57740000020783,46.623405000019474],[-120.57729300007769,46.62330300006325],[-120.57717099987894,46.623205999733045],[-120.57709999973386,46.62308799982854],[-120.57699900034983,46.62301600014733],[-120.57678199971654,46.622925999948514],[-120.57657300037748,46.6227989998178],[-120.57646299987432,46.622700999722205],[-120.57629600036805,46.62262099997856],[-120.5761680003215,46.6225840000494],[-120.576032999704,46.62255799995068],[-120.57586399964961,46.62249700004967],[-120.57572899993039,46.62244099996884],[-120.57558499999035,46.6223899997236],[-120.57546100014177,46.6223669998392],[-120.57509100024593,46.62224299994558],[-120.57499300033666,46.622205000269574],[-120.57465600005274,46.62212800011378],[-120.57435499975388,46.622033999855205],[-120.57416599960798,46.62201400014669],[-120.5740059997744,46.62196400022615],[-120.57389600016955,46.62195800018319],[-120.57376200027525,46.62188600023315],[-120.57364799957413,46.62184999991378],[-120.57354100034232,46.6218240000795],[-120.57331200001346,46.6218360001944],[-120.57307799966173,46.62180300018052],[-120.57276700021542,46.62173800020653],[-120.57269299969725,46.62172100011508],[-120.57302699960812,46.62171600015972],[-120.57399999992664,46.62170199978875],[-120.57677099984589,46.621662000119024],[-120.57787600040889,46.621668000194774],[-120.57787499968566,46.621646000119476],[-120.57789200030243,46.621646000119476],[-120.57787300003584,46.621283000054625],[-120.57786800001297,46.62117199991601],[-120.57788700027955,46.620195999733276],[-120.57789499977713,46.619833999967916],[-120.57265500006244,46.61981599974597],[-120.57265300041259,46.61968199989374],[-120.57265000003956,46.61931699991751],[-120.57263800034399,46.618033999981854],[-120.57257399987157,46.618033999981854],[-120.57152299973525,46.618036999912306],[-120.57133600013749,46.61803800009477],[-120.57131699987092,46.61723000028465],[-120.57131100002316,46.61677900009372],[-120.572225999717,46.616504000210604],[-120.57235299993863,46.616458999962155],[-120.57262300027539,46.61637399980217],[-120.57261900007741,46.61519799980144],[-120.57235200011372,46.61520099988902],[-120.57131600004602,46.615199000036306],[-120.57128900028184,46.61483200020978],[-120.57172500029995,46.61483499970061],[-120.57172699994973,46.61454499981793],[-120.57172699994973,46.61449299990882],[-120.57130500017536,46.61446799987541],[-120.57128799955859,46.61446700024407],[-120.570286999651,46.61444499971109],[-120.57003800012896,46.6144399997009],[-120.57000100031902,46.61443000029621],[-120.57037100021488,46.61410600007285],[-120.57043499978899,46.61405899978807],[-120.57050599993411,46.61400899992604],[-120.57060999969119,46.61395000016529],[-120.57072600004213,46.613897000042975],[-120.57083800019512,46.6138550002585],[-120.57151900043561,46.61365299987041],[-120.57164099973602,46.613607000073834],[-120.57175399971392,46.613556000146374],[-120.57187599991266,46.613489999878524],[-120.57196999962399,46.613426999716175],[-120.57200700033223,46.613403000075785],[-120.57228099996861,46.61323499982707],[-120.57236999965707,46.61316499992963],[-120.57244300035032,46.613087000219394],[-120.57246000006876,46.61306200015396],[-120.57247699978718,46.61303599980219],[-120.57248600000803,46.613024999863256],[-120.57249900042682,46.612997999835265],[-120.5726030001839,46.61301199998857],[-120.57260700038185,46.61304000028438],[-120.57260599965863,46.61328400013345],[-120.57260599965863,46.61336099990819],[-120.57302099976033,46.61315900014577],[-120.57304500004976,46.61318099996707],[-120.57307699983681,46.61321400029929],[-120.57358700037308,46.61310900006989],[-120.57354899983991,46.61304600008137],[-120.57453300002909,46.61275700015473],[-120.5746810001671,46.61269699998302],[-120.57479499996994,46.6125690002585],[-120.5750030003824,46.61228699980762],[-120.57507600017732,46.612177999703775],[-120.57519400017809,46.612165000242875],[-120.57544600007317,46.61202300008979],[-120.57600199974186,46.61167600016993],[-120.575960999734,46.611659000004735],[-120.57589999963461,46.61162300029058],[-120.57584000025848,46.61158800023699],[-120.57577300031132,46.611535000271516],[-120.575743999999,46.611510999792685],[-120.57566899965595,46.61142999987236],[-120.57543199982948,46.611223000005495],[-120.57531700020176,46.611122000242325],[-120.57525299972933,46.6111480002788],[-120.5752300001631,46.611156999979954],[-120.57513100042891,46.61119999969718],[-120.57498999996358,46.61124400030529],[-120.57495300015368,46.61125099999203],[-120.57485799971911,46.611270000283156],[-120.57473200022072,46.61130400023541],[-120.57435499975388,46.611409000261744],[-120.57423000008039,46.611445000118145],[-120.57389899964429,46.611535999956985],[-120.57296899988178,46.61179499994303],[-120.57290699995751,46.61180800010984],[-120.57286699977453,46.611817999998664],[-120.57275600034475,46.61182999986284],[-120.57256600037398,46.611825999908376],[-120.57256600037398,46.611694000012385],[-120.57256600037398,46.61129899993523],[-120.57256700019887,46.611168000298335],[-120.57256399982585,46.61105099977067],[-120.57255700015314,46.610703000093416],[-120.57255499960498,46.61058700011551],[-120.57255399978008,46.61056400015421],[-120.57255299995519,46.61049500021173],[-120.57255299995519,46.61047200021137],[-120.57332999955682,46.610495999916395],[-120.57400499994948,46.61051000009941],[-120.57429600020264,46.6105229999575],[-120.57441300037851,46.610524999982886],[-120.57482500010714,46.610529999737416],[-120.57488299983346,46.61052799971226],[-120.57488399965838,46.61050299969979],[-120.57488899968125,46.6103429998405],[-120.574906000298,46.60986600027831],[-120.57491200014579,46.60970700010785],[-120.5750950004439,46.60970999988254],[-120.57555800022615,46.60971800010362],[-120.57558499999035,46.609315999873054],[-120.576104999674,46.6093130000766],[-120.57613999983414,46.6093130000766],[-120.57614200038226,46.60928100018001],[-120.57615599972766,46.60890600002173],[-120.57623600009362,46.60890800010682],[-120.57655199956277,46.608919999998605],[-120.57665799986799,46.60892400016763],[-120.57678900028753,46.60892499990129],[-120.57714900013765,46.60892799971929],[-120.57718500012268,46.60893199988773],[-120.57730300012345,46.60897599986987],[-120.57730099957533,46.609085000246715],[-120.57729800010058,46.60924999999219],[-120.57729599955243,46.609335000225926],[-120.57729399990261,46.60943699996005],[-120.57729399990261,46.60945000007573],[-120.5772910004279,46.60959799974853],[-120.57727299998622,46.60961600028154],[-120.57696699966446,46.609917999693316],[-120.57690399991527,46.61001800013688],[-120.57682000024968,46.61015300016512],[-120.57678199971654,46.61021399977954],[-120.57738699978904,46.61015599991505],[-120.57751200036081,46.610145999719364],[-120.57745600028434,46.610363000157335],[-120.57742100012423,46.61072599999569],[-120.57741600010137,46.61083800026557],[-120.57742399959896,46.61102199998581],[-120.57745999958397,46.61126000029315],[-120.57750899998778,46.61151299978159],[-120.57757199973695,46.611763999959926],[-120.57770099960838,46.61213599982035],[-120.57781699995934,46.6123959996921],[-120.57785899979213,46.612491000306974],[-120.57798500018885,46.61277599991758],[-120.57802799984654,46.61287099986588],[-120.57802899967143,46.61290100017218],[-120.57803000039466,46.61292199982133],[-120.57817599998455,46.61317199998513],[-120.57818000018253,46.6133149998636],[-120.57843600027554,46.61331999997765],[-120.5785450000555,46.613325000091244],[-120.5785810000405,46.61323600009825],[-120.57862899972108,46.613109999726305],[-120.57877500020925,46.61273199993701],[-120.57882399971476,46.6126069999094],[-120.5789049999056,46.61257799972356],[-120.5791509999529,46.612491999974786],[-120.57917500024233,46.6124840001634],[-120.57923399979357,46.61246599996647],[-120.57927499980147,46.61245299995759],[-120.57940200002308,46.61271100021419],[-120.57941399971864,46.61273999971172],[-120.5794530000767,46.61281299976136],[-120.57986399998043,46.612715999766934],[-120.5797560000254,46.612497999832534],[-120.57967999985742,46.61234699981647],[-120.57971699966731,46.61233799969593],[-120.57975199982742,46.61233100014973],[-120.57986099960736,46.61230599973531],[-120.58018899967043,46.61222999998447],[-120.5802990001736,46.612205999813675],[-120.58035900044806,46.61219200006906],[-120.58057799983285,46.612141999717544],[-120.58081800003237,46.61208699970948],[-120.58082800007813,46.61267400030072],[-120.58082899990303,46.6127350001612],[-120.58147599980832,46.61258699980417],[-120.58166699960404,46.612542000003174],[-120.58138000044715,46.611958999777414],[-120.5815670000449,46.61191699972415],[-120.58166099975625,46.611896000302366],[-120.58207000001018,46.611804000153754],[-120.58284599978688,46.61162999992833],[-120.58315999960622,46.6115599998076],[-120.58348199982152,46.61148200025414],[-120.5837060001275,46.61143399985602],[-120.58379399999103,46.611415999927154],[-120.58402499996974,46.611356000121106],[-120.5842619997962,46.61127800027386],[-120.58436399990345,46.611235999692454],[-120.58438499981985,46.611290000257675],[-120.5852479996352,46.61325799988826],[-120.58520800035053,46.613341000081405],[-120.5848049999444,46.61434300015234],[-120.58493299999094,46.614392000073224],[-120.58504799961865,46.61441799977398],[-120.58516399996961,46.61444499971109],[-120.58522599989388,46.61444799984037],[-120.5852469998103,46.61444999972082],[-120.58539599977318,46.615032000043676],[-120.58542900028347,46.6151030002328],[-120.58552499964463,46.615295999902806],[-120.58557200039861,46.61533299987604],[-120.58558800029213,46.61534399996329],[-120.58561199968328,46.61535999997397],[-120.58563199977475,46.61537200028745],[-120.58572700020929,46.61540999982272],[-120.58581500007287,46.615433999807756],[-120.5859380000965,46.615433999807756],[-120.5860219997621,46.615433999807756],[-120.5861620004025,46.61542000028057],[-120.58644699990954,46.61538500021264],[-120.58650200016113,46.615364999899214],[-120.58673599961452,46.615334000108454],[-120.58690700021705,46.615319999938365],[-120.58701199979906,46.61531800009005],[-120.58715499991418,46.61532699971531],[-120.58730100040238,46.615342999731055],[-120.5875359996807,46.615380000289235],[-120.58768200016887,46.615403000056496],[-120.58783399960654,46.61542299973883],[-120.58799099996534,46.61545499970882],[-120.58813099970746,46.61550000017455],[-120.58828800006629,46.61556800030005],[-120.58838400032576,46.615622999858175],[-120.5884870002579,46.615684000099286],[-120.58858599999212,46.61572500009125],[-120.58869499977204,46.615764000220345],[-120.58893900016955,46.615849999709575],[-120.58891400005517,46.61770600020556],[-120.5890150003375,46.61802699993775],[-120.58914099983588,46.61798999995419],[-120.58964399980114,46.617840000011824],[-120.59048499987519,46.61759200018297],[-120.59062499961728,46.617560999815986],[-120.59076899955731,46.617538999922964],[-120.5909150000455,46.61752599989783],[-120.59106200035859,46.61752199974708],[-120.59117799981124,46.61752599989783],[-120.5911979999027,46.617527000089694],[-120.59133099997212,46.617538999922964],[-120.59169900021814,46.61759800009273],[-120.59178899973149,46.6176129998642],[-120.59190799955721,46.617632999964336],[-120.59205300022046,46.61769200003168],[-120.59213900043417,46.61772699984254],[-120.592465999774,46.61785899984241],[-120.59281899995143,46.61800299986792],[-120.59344499994032,46.61826599987303],[-120.59361599964454,46.618337999700934],[-120.59376999963034,46.6181100002259],[-120.59383999995053,46.61800699998313],[-120.59383999995053,46.61798500027132],[-120.59383999995053,46.617921000217414],[-120.59383900012564,46.617712000102685],[-120.59383900012564,46.61767499990384],[-120.59383800030072,46.61741900023688],[-120.59383800030072,46.617345000030525],[-120.59383699957748,46.617106999931984],[-120.59383699957748,46.61703400011725],[-120.59383599975256,46.616759000295154],[-120.59383599975256,46.616687999809066],[-120.59383499992767,46.6166049998094],[-120.59383499992767,46.6165609998546],[-120.59376299995763,46.616560000261885],[-120.59341399997818,46.61655700024961],[-120.59324499992378,46.61655600003978],[-120.59274000030871,46.616553000027274],[-120.59257200007923,46.616553000027274],[-120.59248800041364,46.61655400023715],[-120.59223700034347,46.616560000261885],[-120.59215399960449,46.61656200006433],[-120.5921750004192,46.61647899987153],[-120.59222200027486,46.61633300030162],[-120.5923739997125,46.6158720002888],[-120.59240300002482,46.61573600009888],[-120.59241200024566,46.615644999912625],[-120.59241800009343,46.6155989999569],[-120.59241999974327,46.61544100018707],[-120.59242099956816,46.615406999746725],[-120.59243800018493,46.61499199976575],[-120.5924490000556,46.614756999927366],[-120.59247300034501,46.61453499981556],[-120.59251000015493,46.61431400027903],[-120.59263800020145,46.61376500025809],[-120.59265099972194,46.61371000004708],[-120.59267599983632,46.61366699985439],[-120.59272100004213,46.613628999713136],[-120.59278899981419,46.61360099972186],[-120.59279899985995,46.61358600007321],[-120.59283599966987,46.613552999967624],[-120.59278999963911,46.61349899980762],[-120.59191799960294,46.61274899976545],[-120.59162100040032,46.612493999927416],[-120.58924100029333,46.61247500006568],[-120.58911499989664,46.612473999780455],[-120.58904600029966,46.612465000298165],[-120.58875800041956,46.6125600001749],[-120.58837299955677,46.612687999920695],[-120.58789899990384,46.61285299979752],[-120.58772700037471,46.61291299979639],[-120.58761500022173,46.61295700024694],[-120.58758900028245,46.61296600026462],[-120.58751300011448,46.61299599990121],[-120.58748800000012,46.61300600018777],[-120.5873669996263,46.61305300015229],[-120.58729300000645,46.613078999878816],[-120.58713099962473,46.613148000231774],[-120.58688399975253,46.61267699991103],[-120.5859809997542,46.61115499997795],[-120.58574999977552,46.61076599972195],[-120.58570299991986,46.610680999882625],[-120.58582900031655,46.61065199989966],[-120.58615900002943,46.61057900002278],[-120.58622299960354,46.61056400015421],[-120.58641699977231,46.61052099993209],[-120.58648200006962,46.61050699975193],[-120.58967599958818,46.60979599972906],[-120.59016600003295,46.609687000165955],[-120.59030800032319,46.60966300010246],[-120.59038699996592,46.60965200009547],[-120.59051599983732,46.60963800030785],[-120.59077799977815,46.60962399989943],[-120.59090599982466,46.60962399989943],[-120.59237799991048,46.60968599982924],[-120.59264700042232,46.60969699982927],[-120.5928289999972,46.609713000274134],[-120.59287699967776,46.609718999822626],[-120.59287000000506,46.609784999749124],[-120.5928800000508,46.610272999907714],[-120.5933599995515,46.610270999873066],[-120.59336999959726,46.60994299997581],[-120.59336499957439,46.609893999732186],[-120.59335799990171,46.609803999937476],[-120.59352699995608,46.609845999778],[-120.59408799964766,46.609988000084904],[-120.59417300003648,46.61001800013688],[-120.5943710004032,46.61008999982356],[-120.59446000009166,46.61012599993956],[-120.59455800000096,46.610172000224374],[-120.59465099988735,46.61022399996268],[-120.594737999926,46.61028100004568],[-120.5948169995687,46.61034200013306],[-120.59490100013261,46.61042000009406],[-120.59515600040073,46.610686000239866],[-120.59522900019569,46.610771000071345],[-120.59528199989914,46.61081899982288],[-120.5953439998234,46.61086599983407],[-120.59543900025794,46.61092400017237],[-120.5955410003652,46.61097199978832],[-120.59565099997006,46.61100999994262],[-120.59576999979575,46.61104000004562],[-120.59584500013881,46.611052000082175],[-120.59585900038252,46.61105499978236],[-120.59595200026895,46.61106400011606],[-120.59651499961033,46.61107000013201],[-120.59650100026494,46.61155100017342],[-120.59649799989188,46.61166099998812],[-120.59648500037142,46.61244100023145],[-120.5964769999755,46.61286500004945],[-120.5961809996995,46.61285799995423],[-120.59556599958124,46.61285600001499],[-120.59499400001904,46.612854000075735],[-120.59440499984007,46.612852000136364],[-120.59388500015638,46.61285000019695],[-120.59386099986693,46.61447100000347],[-120.59397100037009,46.61452499981134],[-120.59418499973205,46.614599999797996],[-120.5942740003188,46.614622999896476],[-120.59437800007589,46.61464099999362],[-120.59442400010666,46.614649999731384],[-120.59458200029037,46.6146629998299],[-120.59478800015471,46.61466400007469],[-120.59540599974767,46.6146679998195],[-120.59561300033523,46.61466999969181],[-120.59563699972635,46.61431600016442],[-120.59566799968849,46.613874000253226],[-120.59646000025707,46.613881999859245],[-120.59645900043215,46.61394300021031],[-120.59645500023417,46.61421199985647],[-120.59645000021133,46.61426099989593],[-120.5964340003178,46.61432899972605],[-120.59639699960957,46.61441000024714],[-120.59636999984538,46.6144590001074],[-120.59628399963165,46.614539000186966],[-120.59622900027837,46.61456699969327],[-120.5961599997831,46.61460299991869],[-120.59608699998817,46.614629999763565],[-120.59600900017035,46.61465099997642],[-120.5971809997822,46.61465900008472],[-120.60069999988909,46.61468299978553],[-120.60094299956334,46.614685000274356],[-120.60128900006805,46.614687000146],[-120.60152500006959,46.61467200018107],[-120.60173799960661,46.614624999770456],[-120.60171300039057,46.61458799993051],[-120.60170199962161,46.61454400018801],[-120.60170699964448,46.61450600004506],[-120.6017090001926,46.61429400018712],[-120.6017150000404,46.61373299990648],[-120.60183700023914,46.61373200026157],[-120.60295600014754,46.61373299990648],[-120.60295699997243,46.61365099996054],[-120.60433199997388,46.613649000050636],[-120.60433600017183,46.61117400030276],[-120.60703400029615,46.61116099998382],[-120.60767700000346,46.611162999985595],[-120.6095790002596,46.61119399969564],[-120.6096079996736,46.61119399969564],[-120.61037500012782,46.61118299999963],[-120.61053800033443,46.611158999981924],[-120.61061799980205,46.61115499997795],[-120.61097400035251,46.61115400028545],[-120.61118799971443,46.61115600028749],[-120.61452699989627,46.611185999692516],[-120.61458600034584,46.611180000306526],[-120.61463800022436,46.61116600029675],[-120.61468799955476,46.611144000274024],[-120.61472799973774,46.61111699992534],[-120.61475100020226,46.61109499988272],[-120.61477299994358,46.611066000121426],[-120.61479100038524,46.61100700023997],[-120.61478899983709,46.61082000013868],[-120.61478499963914,46.609966000200814],[-120.61478499963914,46.609871999809904],[-120.61478700018726,46.60968199971648],[-120.61478800001217,46.60945400020562],[-120.61478899983709,46.609301999998536],[-120.61479399985996,46.60877399979753],[-120.61479700023301,46.60854699990791],[-120.61479700023301,46.608506000035725],[-120.61694899983605,46.60850800013559],[-120.61696800010264,46.609315999873054],[-120.61717599961679,46.609317000216606],[-120.61743199970984,46.609315999873054],[-120.61743400025799,46.60944599994555],[-120.61743400025799,46.61023800021595],[-120.61791600030683,46.61023899992536],[-120.61873499974124,46.61023200010783],[-120.61873399991632,46.60931399980308],[-120.619990999917,46.609311999732974],[-120.61999500011494,46.60682500015686],[-120.62011700031368,46.60682500015686],[-120.6201249998113,46.60639700021928],[-120.62012700035942,46.60626299986956],[-120.62012900000927,46.60619999994062],[-120.62013200038231,46.6061199998861],[-120.62013200038231,46.605986999873366],[-120.62013800023009,46.60589500017929],[-120.62014699955259,46.60575900023798],[-120.62014099970482,46.60387100008964],[-120.62014099970482,46.603850999844404],[-120.62014099970482,46.60383599996422],[-120.62014099970482,46.60360499980353],[-120.62015800032155,46.60355100021708],[-120.62016199962122,46.60350700014847],[-120.62014800027582,46.603380000142856],[-120.62014699955259,46.603365000132264],[-120.62011300011574,46.60320800030693],[-120.62007299993273,46.603104000270406],[-120.62006000041228,46.603024999806586],[-120.62005899968905,46.60298099992797],[-120.62014900010074,46.60298099992797],[-120.62017800041303,46.602981999771316],[-120.62073200043191,46.602987000222114],[-120.6213290001085,46.60298400007515],[-120.62192599978508,46.60298099992797],[-120.62242399972743,46.603000999877246],[-120.62289400008073,46.60306900026662],[-120.62291099979915,46.60307099995004],[-120.62300700005864,46.60308500020065],[-120.62327800022028,46.60315100018701],[-120.62334000014458,46.60325999994175],[-120.6235600002526,46.60331500027264],[-120.62425300018862,46.603589999855224],[-120.62484800021537,46.6029259998752],[-120.62534000030996,46.60267500009245],[-120.62533899958673,46.6027909997333],[-120.62593299978859,46.60280699974939],[-120.62633100017185,46.602818999758384],[-120.62650799972384,46.602818999758384],[-120.62650699989894,46.60306299998156],[-120.62650199987607,46.60325299983952],[-120.62651299974674,46.603281000242994],[-120.62652500034062,46.60330900001483],[-120.62674500044864,46.60350400003031],[-120.6269680000314,46.60370200006845],[-120.62713299988783,46.60384799974524],[-120.62724300039099,46.603946000017814],[-120.62725199971352,46.60404899984869],[-120.62725500008658,46.604080999750245],[-120.62723199962203,46.604179000218515],[-120.62719099961414,46.60428200022354],[-120.6271169999943,46.6044029998295],[-120.62701800026011,46.60451500021348],[-120.62691399960471,46.60460500015583],[-120.62682900011423,46.604664000222044],[-120.62665300038714,46.604734999808564],[-120.62660099961026,46.60475799977637],[-120.62637800002751,46.60484799993219],[-120.62625099980589,46.60497500019943],[-120.62629799966159,46.60508700001796],[-120.62652899964026,46.605153999837285],[-120.62670600009056,46.60522100019091],[-120.62687599996988,46.60530099972162],[-120.62705000004716,46.60529300008245],[-120.62763000000528,46.605246000172635],[-120.62803300041142,46.6051960001976],[-120.62851799993501,46.604851999784806],[-120.62929200006188,46.60430199969252],[-120.62962699979767,46.60414200003104],[-120.63038000000815,46.60397400006311],[-120.63045600017612,46.60399599991221],[-120.63051599955229,46.60398400016397],[-120.63053099962089,46.60508900024407],[-120.63524800017719,46.605096999913364],[-120.63586900014323,46.60509900013905],[-120.63586999996815,46.60453999990385],[-120.63587099979304,46.604058000112204],[-120.63587099979304,46.603918999784064],[-120.63580800004385,46.603918999784064],[-120.63580800004385,46.60389600007723],[-120.6357750004319,46.60389600007723],[-120.63574199992163,46.60389600007723],[-120.63571799963216,46.60389600007723],[-120.63549099985144,46.60389699990369],[-120.63503800011493,46.60389799973013],[-120.63220199989833,46.60390300009637],[-120.63228499973901,46.60387899993879],[-120.63257500016725,46.60379600005766],[-120.63350300027993,46.60352900018727],[-120.63441499960075,46.60326700004306],[-120.63473599999112,46.603175000049944],[-120.63487800028135,46.60314700020884],[-120.63534000023871,46.60322400019987],[-120.6356699999516,46.60323900024955],[-120.63580899986877,46.603245999736394],[-120.63580800004385,46.60320299987654],[-120.63580899986877,46.60319000011316],[-120.63575899964003,46.602983000231845],[-120.6357639996629,46.602948999993835],[-120.63576600021106,46.60293099971396],[-120.63577100023393,46.60288699975904],[-120.63578700012746,46.602764000158295],[-120.63579899982301,46.60244099974183],[-120.63579399980014,46.600456000263094],[-120.63581899991449,46.60030599989825],[-120.63582999978514,46.600288999867736],[-120.63582700031044,46.5991540001423],[-120.63582800013536,46.59844000007351],[-120.63710799970221,46.59845199981526],[-120.63712500031895,46.59779599995337],[-120.63712500031895,46.597785000005594],[-120.63582899996025,46.59778999970154],[-120.63582899996025,46.59768399987572],[-120.63583099961006,46.59666600027245],[-120.6358120002418,46.59485900003305],[-120.6384300000002,46.59484600011945],[-120.63842099977938,46.59299499972305],[-120.6365229997212,46.59299399969541],[-120.6358399998309,46.59299399969541],[-120.63478000037207,46.592992000257375],[-120.63439899970723,46.59279600003227],[-120.63420899973644,46.5927240001999],[-120.63402799998646,46.59265499975633],[-120.63341299986823,46.59251100023862],[-120.63333199967738,46.59249699972496],[-120.63248599958045,46.592488000010135],[-120.63201799977531,46.59251200027518],[-120.63150599958922,46.592567999823395],[-120.63125299986926,46.59261700030658],[-120.63110100043158,46.59265899989181],[-120.63104700000493,46.592685000147874],[-120.63078699971393,46.59280699975819],[-120.63054400003968,46.59301999979071],[-120.63054300021479,46.592950999724046],[-120.6305399998417,46.592746999710926],[-120.6305399998417,46.592678999947424],[-120.63053099962089,46.59203199974555],[-120.63050600040486,46.59009299987609],[-120.63049999965875,46.58958099972563],[-120.63048799996321,46.589447999856155],[-120.63047100024475,46.589327000188035],[-120.62852399978277,46.589291999927546],[-120.62851999958485,46.589036000069036],[-120.62853300000364,46.585767999736426],[-120.63061500018479,46.585743000027904],[-120.630601999766,46.585524000038745],[-120.63379299980981,46.585484000196075],[-120.63387499982558,46.58331699984622],[-120.63387400000069,46.58326899980603],[-120.63391099981061,46.582735000197445],[-120.63321200002677,46.582735000197445],[-120.63320000033121,46.58312999986161],[-120.6319180002162,46.58315299973936],[-120.63185100026907,46.58315399994853],[-120.630537000367,46.58316599998805],[-120.630537000367,46.583149000137105],[-120.63053800019192,46.58311400020939],[-120.63056800032913,46.58208299992844],[-120.63035599971869,46.58208599999782],[-120.62952700023855,46.582098000273696],[-120.62947600018492,46.582098000273696],[-120.62932300002404,46.58210099972481],[-120.62927299979533,46.58210199995344],[-120.62873499966997,46.58210899970099],[-120.627123999667,46.582133000239935],[-120.62658700026489,46.582141000211394],[-120.62654299988394,46.582141000211394],[-120.62641499983744,46.58214300004971],[-120.62637200017974,46.582144000277566],[-120.62526400014201,46.58216000021606],[-120.62513600009547,46.58216000021606],[-120.62405900001987,46.58216200005368],[-120.6209640002355,46.582168000183536],[-120.62005500038939,46.582165000118685],[-120.62005399966618,46.58396000019655],[-120.61902199979642,46.58397600021652],[-120.61902599999436,46.585798999778795],[-120.61756899997718,46.5857930000508],[-120.61716200027142,46.585794999754405],[-120.61664599988738,46.585798999778795],[-120.61664599988738,46.58489299999162],[-120.61640800023599,46.58489499972842],[-120.6163809995735,46.58489499972842],[-120.61495299986862,46.58490999991303],[-120.61479999970774,46.58491200026663],[-120.61479999970774,46.58479600001111],[-120.6148020002559,46.58434100004554],[-120.61480300008083,46.584058000013215],[-120.61480399990572,46.58368100020819],[-120.61480899992858,46.58254999988095],[-120.61481099957841,46.582173999695335],[-120.61481099957841,46.5821589999885],[-120.61481099957841,46.58211700029343],[-120.61481099957841,46.582103000182045],[-120.61480999975348,46.58195099979834],[-120.61480899992858,46.58149600003473],[-120.61480899992858,46.58134500004412],[-120.61480800010366,46.580964999764824],[-120.61480599955553,46.5798250002355],[-120.61480599955553,46.5794460000773],[-120.61480700027874,46.57910199981023],[-120.61481099957841,46.578519999988906],[-120.61481300012653,46.578070999801604],[-120.61481499977637,46.577727999765045],[-120.61481499977637,46.57756400004121],[-120.61481499977637,46.57707500009266],[-120.61481499977637,46.57691199995317],[-120.61481499977637,46.57650499978797],[-120.6148170003245,46.575284000106194],[-120.61481899997432,46.574877999816515],[-120.61621800026519,46.57487999992272],[-120.61692100024698,46.57487599971022],[-120.6192240003611,46.574864000305894],[-120.62225200019832,46.57485399977114],[-120.62322799999154,46.57485200028148],[-120.62533100008915,46.574850000174244],[-120.62532699989117,46.573051000110475],[-120.62285200024793,46.57302499969954],[-120.62286399994349,46.57272700003716],[-120.62285600044588,46.571286000017324],[-120.61611500033305,46.57127399981871],[-120.61481999979925,46.57128800025607],[-120.61481999979925,46.5712260002328],[-120.61482200034737,46.56943399990985],[-120.61478800001217,46.56943399990985],[-120.61394799976306,46.56942699976112],[-120.61350500007225,46.56942299976398],[-120.61251900023326,46.5694139999237],[-120.61176299964971,46.56940800023517],[-120.61153300039427,46.56940599992715],[-120.61091800027602,46.56940000023775],[-120.61088200029101,46.56940000023775],[-120.61061100012935,46.56939700008404],[-120.61058400036518,46.56939700008404],[-120.61054699965693,46.56939700008404],[-120.6101840003321,46.56939399993011],[-120.60962299974221,46.56938999993053],[-120.60957300041181,46.56938999993053],[-120.6095719996886,46.5687639997553],[-120.60956900021387,46.567537000049946],[-120.609636000161,46.567537000049946],[-120.61121600020185,46.56754200006582],[-120.61272500009757,46.56754700008119],[-120.6148180001494,46.56755399985495],[-120.6158729995854,46.567556000231264],[-120.61610000026442,46.56755700011065],[-120.61903799968995,46.56755100021673],[-120.62009399984916,46.56754999971968],[-120.62115699968105,46.56754799996069],[-120.6227240002014,46.567543999824984],[-120.62272699967613,46.56937799993],[-120.62538999964036,46.56939600023858],[-120.62731000033816,46.56937799993],[-120.63081500020134,46.569382999776124],[-120.63093599967684,46.571217000074114],[-120.63644800027646,46.571171000063195],[-120.63637700013135,46.56991399983575],[-120.63634500034429,46.5693530000747],[-120.63625900013058,46.56780899999628],[-120.63624200041212,46.567665999817656],[-120.63622599962028,46.56762800014296],[-120.63621099955168,46.5676049998556],[-120.6361419999547,46.56756700013821],[-120.63606499996182,46.56756300000386],[-120.63606499996182,46.56755399985495],[-120.6375429998954,46.56754100018621],[-120.64131300007244,46.567508999705574],[-120.64131300007244,46.5669969999474],[-120.64131399989736,46.56613699971146],[-120.64131399989736,46.56554400000853],[-120.64131100042262,46.56522000017566],[-120.64130700022467,46.56478599999804],[-120.64130700022467,46.56467899992736],[-120.64130600039975,46.56430499984038],[-120.64130499967652,46.56410000016686],[-120.64130499967652,46.563946000071276],[-120.64130300002671,46.56390399985704],[-120.6409359996056,46.563904999803746],[-120.64090899984139,46.563342999701135],[-120.64091300003936,46.56200100003683],[-120.64367700028593,46.5620139997979],[-120.64444600038996,46.56200399998195]],[[-120.56680699990217,46.62540800027105],[-120.56699400039824,46.62551899974491],[-120.5656629998794,46.62538900000481],[-120.56457400010824,46.625284999988],[-120.56414300011302,46.62465599970898],[-120.56348299978893,46.624010000152104],[-120.56303800044834,46.62373399989928],[-120.56296999977796,46.623672000011055],[-120.56224699970467,46.62332099974289],[-120.56167900034045,46.622977999780005],[-120.56387600014935,46.62249300026616],[-120.56418999996869,46.622616000106326],[-120.56438800033541,46.6226940002815],[-120.56443900038902,46.62276500029581],[-120.56442199977228,46.622765999773975],[-120.56439900020607,46.622766999869086],[-120.56437699956643,46.622769000059215],[-120.564359999848,46.62277000015429],[-120.56529899983134,46.624518999925535],[-120.56548299995436,46.62462699980624],[-120.56552399996222,46.624651000024684],[-120.56626100027921,46.62508599982595],[-120.56646899979337,46.62520899994426],[-120.56650599960328,46.625230999805545],[-120.56670499979492,46.62534799992715],[-120.56680699990217,46.62540800027105]]]},"properties":{"AREALAND":"72740613","AREAWATER":"1191008","BASENAME":"Yakima","CBSAPCI":"Y","CENTLAT":"+46.5920824","CENTLON":"-120.5499390","FUNCSTAT":"A","GEOID":"5380010","INTPTLAT":"+46.5909379","INTPTLON":"-120.5494001","LSADC":"25","MTFCC":"G4110","NAME":"Yakima city","NECTAPCI":"N","OBJECTID":31721,"OID":"27890483243458","PLACE":"80010","PLACECC":"C1","PLACENS":"02412314","STATE":"53","DISP_CLR":1,"slug":"yakima","jurisdiction_key":"yakima_city","county_fips":["53077"]}}]}
