{"type":"FeatureCollection","features":[{"type":"Feature","geometry":{"type":"Polygon","coordinates":[[[-122.22843100017272,47.657601000020726],[-122.22752599962624,47.65520400011361],[-122.22646399961927,47.65223900013632],[-122.22468699993493,47.64727799984761],[-122.22503000006661,47.642004000114014],[-122.22314700007705,47.640890000212934],[-122.22314799990197,47.64082499981503],[-122.22314899972689,47.64067899980908],[-122.22315600029789,47.6399739999211],[-122.22315600029789,47.639964000201985],[-122.2231579999477,47.639847000138026],[-122.22316200014566,47.63945299996168],[-122.2231579999477,47.639200999827196],[-122.22316799999348,47.63880800016034],[-122.22317800003918,47.638341999968226],[-122.22318399988697,47.63810900012945],[-122.22318499971189,47.63806300012677],[-122.22318499971189,47.63804900024951],[-122.22319399993272,47.63781199989889],[-122.22320200032863,47.6375940000778],[-122.2232130001993,47.63746899987563],[-122.22322499989484,47.63706600022378],[-122.22323199956756,47.63676600019961],[-122.22323800031366,47.63648799978967],[-122.22324599981127,47.636062000158695],[-122.22325900023006,47.63588099992916],[-122.223255999857,47.635738999999134],[-122.22248599992808,47.63583299979993],[-122.22234500036107,47.63586100013289],[-122.22218999965206,47.635916000159554],[-122.22211799968203,47.635950999761214],[-122.22200200022938,47.63601900013083],[-122.2214819996474,47.63639299997676],[-122.21956699987079,47.637824999887215],[-122.21796900028662,47.63900899974474],[-122.21770399997273,47.639174999926674],[-122.21769099955394,47.639627999810706],[-122.21769099955394,47.6400470000523],[-122.2176720001857,47.64037800004711],[-122.21767100036078,47.640422999924745],[-122.21766999963755,47.64051699977266],[-122.21766799998773,47.640741000093584],[-122.21766600033791,47.641043000076],[-122.21766399978978,47.64124500002784],[-122.2174260001384,47.64125000006767],[-122.21737400025987,47.6412559999938],[-122.2172710003277,47.64128700010551],[-122.2172029996573,47.64132099985547],[-122.21704000034903,47.641424999950054],[-122.21667799995076,47.64166900001123],[-122.21537999994224,47.64254499972077],[-122.21518599977347,47.64264300003355],[-122.2151249996741,47.64266900002392],[-122.21499699962759,47.642713999743904],[-122.21482199972539,47.64276099974628],[-122.21468100015841,47.64278300024795],[-122.2145969995945,47.64279600020992],[-122.21448799981455,47.642805000135155],[-122.21433200017896,47.64281000002568],[-122.2141239997665,47.6428019999585],[-122.2140059997657,47.64278700028318],[-122.21390100018372,47.64276399992529],[-122.21380999994713,47.642737000123795],[-122.21375300004571,47.64271600006679],[-122.21375100039592,47.642790999712794],[-122.21374800002283,47.643103000280206],[-122.21373299995423,47.64445499976611],[-122.21381999999286,47.64445700002234],[-122.21381999999286,47.6445609999261],[-122.21376800011434,47.6445609999261],[-122.21352999956464,47.6445760003025],[-122.21312299985887,47.6445760003025],[-122.21311500036127,47.645212000194114],[-122.21247099993072,47.64521300000511],[-122.21246900028088,47.646089000201336],[-122.21246900028088,47.64633700002871],[-122.21187500007905,47.646331999870554],[-122.2118659998582,47.646362000207105],[-122.21183599972099,47.64641400010405],[-122.21128599990008,47.647351999830825],[-122.21074000027714,47.648281999824654],[-122.2105260000169,47.648654999893154],[-122.20978399967704,47.64991399971253],[-122.21093000024794,47.65355200005224],[-122.21213500037004,47.65732099998974],[-122.21209099998912,47.65746400013266],[-122.21702600010532,47.657505999875966],[-122.22843100017272,47.657601000020726]]]},"properties":{"AREALAND":"948535","AREAWATER":"1135833","BASENAME":"Yarrow Point","CBSAPCI":"N","CENTLAT":"+47.6491753","CENTLON":"-122.2190408","FUNCSTAT":"A","GEOID":"5380150","INTPTLAT":"+47.6445856","INTPTLON":"-122.2199912","LSADC":"43","MTFCC":"G4110","NAME":"Yarrow Point town","NECTAPCI":"N","OBJECTID":5125,"OID":"27890836057951","PLACE":"80150","PLACECC":"C1","PLACENS":"02413520","STATE":"53","DISP_CLR":5,"slug":"yarrow_point","jurisdiction_key":"yarrow_point_city","county_fips":["53033"]}}]}
