{"type":"FeatureCollection","features":[{"type":"Feature","geometry":{"type":"Polygon","coordinates":[[[-120.31416700038737,46.42526700028023],[-120.31416800021228,46.425138999756314],[-120.31416700038737,46.42504499983813],[-120.31416700038737,46.424762999730156],[-120.31416700038737,46.42466999981608],[-120.31416599966414,46.42449099976784],[-120.31416599966414,46.42395699995111],[-120.31416599966414,46.42377900008827],[-120.31416499983925,46.423590000300464],[-120.31416200036448,46.42302300010183],[-120.31416099964125,46.42283500023695],[-120.31415999981635,46.42269800019055],[-120.31415700034161,46.42228699984357],[-120.31415700034161,46.42215000027785],[-120.31415599961841,46.42196199987956],[-120.31415399996858,46.42139799974897],[-120.31415399996858,46.42120999985384],[-120.31415300014366,46.42103499999145],[-120.31415099959553,46.42051100023986],[-120.31415099959553,46.42033700010441],[-120.3141499997706,46.41997299997545],[-120.3141480001208,46.41888300014975],[-120.3141480001208,46.41851999974929],[-120.3141480001208,46.41833599981756],[-120.3141499997706,46.41778699987205],[-120.31415099959553,46.417604000106905],[-120.31408000034874,46.417601999781205],[-120.3138689995632,46.41759700020521],[-120.31379900014132,46.417596000042245],[-120.31312000044899,46.41757899974613],[-120.3129449996485,46.417552999829404],[-120.31278700036306,46.41751599995038],[-120.31264300042302,46.41747099996325],[-120.31247699984335,46.417401000115916],[-120.31236200021561,46.417338000114505],[-120.31234600032211,46.41733000001082],[-120.31221599972744,46.41724200003146],[-120.3118590002504,46.41693599995469],[-120.3116919998458,46.4167590002618],[-120.31151299974566,46.41659799980075],[-120.3113189995769,46.41644499971835],[-120.31111000023783,46.4163019998361],[-120.31088599993184,46.4161699998025],[-120.31065099975523,46.41604800012542],[-120.3104030000581,46.415938000020105],[-120.31014500031525,46.4158409997544],[-120.30987800035153,46.4157559998203],[-120.30846599964188,46.41538600009354],[-120.30703499956394,46.415012000111645],[-120.30666499966809,46.414933000156616],[-120.30555599980543,46.41469900025333],[-120.30518699973452,46.414621000062425],[-120.30481199981577,46.41454099994131],[-120.30369000043264,46.41430299993992],[-120.30331600033885,46.414224000196484],[-120.30269399964959,46.41409099986029],[-120.30224699976085,46.413997000093005],[-120.3013990000141,46.41381800030548],[-120.30061800021451,46.41365300012972],[-120.29989599996615,46.41350100007407],[-120.29819999957434,46.41314599986676],[-120.29645300002724,46.41278000015945],[-120.2958859995896,46.412662000105854],[-120.29564799993824,46.41261100016117],[-120.2949779995684,46.41246699987768],[-120.29373300016162,46.412201999863434],[-120.29344000025866,46.41213900004921],[-120.29313599958671,46.412074999898024],[-120.29281599991958,46.412003000025194],[-120.29256400002451,46.41193899971443],[-120.29248700003161,46.41192000021736],[-120.29227600014444,46.41186099991148],[-120.29216300016651,46.411828999991855],[-120.29184299960106,46.41173100019854],[-120.2917189997525,46.41168899996778],[-120.2915289997817,46.411624999907865],[-120.29121900016031,46.411510999692524],[-120.29076700024869,46.41132700026576],[-120.29032899968246,46.41112599976848],[-120.29010799974951,46.411013000032604],[-120.29003099975661,46.4109740001023],[-120.28959899993647,46.41073200010202],[-120.28933399962261,46.410570999809],[-120.28907000003197,46.410397999837734],[-120.28881599958876,46.410219000005874],[-120.28857000043978,46.41003400025445],[-120.28833400043823,46.40984299990291],[-120.28810699975918,46.409646000127026],[-120.28778700009205,46.409342000174064],[-120.28742100039416,46.40896400019609],[-120.2861140001648,46.40759500027411],[-120.28590199955437,46.40738300013443],[-120.28558299971216,46.40708399987802],[-120.28535000008364,46.4068790002695],[-120.28445600030615,46.40619699981007],[-120.28340699981963,46.405541999961265],[-120.28265699998218,46.405140000188105],[-120.28223100000983,46.404941999756474],[-120.2817580001818,46.4049189999569],[-120.28108799981199,46.40474500024366],[-120.2804409999067,46.40465099985442],[-120.27984099985711,46.404587999990525],[-120.27935200013555,46.40453199977513],[-120.27898100041479,46.404501000294864],[-120.27861099962062,46.40448500003671],[-120.27835799990063,46.404468999773805],[-120.2781369999677,46.40446100026005],[-120.27793000027845,46.40440900029488],[-120.27773799975951,46.40433700021358],[-120.27735100014522,46.404135000183715],[-120.27714000025804,46.40401400001308],[-120.27653099998757,46.40368199971258],[-120.27611199968791,46.40347599990599],[-120.2758840000823,46.40337899977582],[-120.27563399983704,46.40328100028661],[-120.27536000020065,46.40318399980972],[-120.27482799992306,46.403024999778914],[-120.27388899993976,46.40278699970062],[-120.27314999997296,46.40258699976383],[-120.27257900023565,46.40242600020811],[-120.27257800041073,46.402409000138796],[-120.27257800041073,46.40239800023691],[-120.27257300038787,46.4020910000523],[-120.27257199966463,46.402076999982484],[-120.27257000001481,46.40183100020557],[-120.27149399976413,46.40160899974178],[-120.27126799980833,46.40155300018534],[-120.27106299976889,46.40176000027269],[-120.27080400020111,46.40202600005188],[-120.2705830002682,46.40225199997712],[-120.27023699976345,46.40230299969646],[-120.27021199964909,46.40231699970824],[-120.27016499979345,46.40237199989677],[-120.27012600033372,46.4023829998039],[-120.27008899962546,46.402392000064175],[-120.27005799966332,46.40239500015063],[-120.27000999998276,46.40239299988655],[-120.26986900041578,46.402379999716835],[-120.2697739999812,46.402374999984275],[-120.2697100004071,46.40236599972119],[-120.26952399973594,46.4023409998086],[-120.26927600003884,46.40230999970277],[-120.26898200031096,46.40227799975497],[-120.26890299976992,46.40226100025901],[-120.26879399998997,46.40223600029827],[-120.26826000006258,46.40215100022218],[-120.2680709999167,46.402191999918315],[-120.26788199977084,46.40221999999524],[-120.26758700021803,46.4023570000761],[-120.2674640001944,46.40241900021668],[-120.26696600025201,46.40255599979782],[-120.26688599988609,46.40256400021039],[-120.26682599961161,46.40256999974468],[-120.26662700031831,46.40256999974468],[-120.26640499966213,46.40261600007579],[-120.26632699984434,46.402667000074345],[-120.26627800033886,46.40267300021678],[-120.26611900033019,46.402603999777675],[-120.26564300012913,46.40254199984737],[-120.26552099993039,46.402535999690485],[-120.26514299963861,46.4024120002243],[-120.265022999988,46.40239800023691],[-120.26475400037451,46.40230199987244],[-120.26450499995416,46.40225400024636],[-120.26433599989974,46.40225400024636],[-120.26406700028625,46.40222700001225],[-120.26391800032332,46.40220599995858],[-120.26378799972865,46.40220599995858],[-120.26340000028947,46.40212399993709],[-120.26316099991486,46.40204800000354],[-120.26267300001822,46.40182100001996],[-120.26254400014682,46.401602000264965],[-120.26236400022175,46.40147099980185],[-120.26229499972646,46.40138899991461],[-120.26231499981793,46.40127199983948],[-120.26223500035033,46.401183000122636],[-120.26209499970992,46.40084600006699],[-120.26200799967128,46.40071600011967],[-120.26184600018787,46.40047500030812],[-120.26168700017924,46.40017299976902],[-120.26159699976755,46.39979400019187],[-120.26152099959957,46.3992629997545],[-120.26148600033777,46.399056000105624],[-120.26142199986538,46.39867399991288],[-120.26017999993333,46.39806900024657],[-120.26006199993253,46.39801200025173],[-120.25979300031904,46.39788099984224],[-120.25923799957692,46.39761100003979],[-120.2591999999421,46.3975939997092],[-120.2582480004383,46.397058999865365],[-120.25807900038386,46.396963999941036],[-120.25744199962602,46.39664399985955],[-120.25724099978457,46.39653999984722],[-120.2563269999156,46.39607099987882],[-120.25616799990694,46.39597700003299],[-120.2557770000947,46.39574200001977],[-120.25521800005295,46.3954059997642],[-120.25493600002063,46.39526299985945],[-120.25475299972254,46.395105000243774],[-120.25373599992139,46.395011999930674],[-120.25241500034663,46.39483199983373],[-120.25211800024572,46.394717999837],[-120.25187300002334,46.394669999734504],[-120.25183799986326,46.394666999842855],[-120.25163500037195,46.39463299982028],[-120.25162799980095,46.394921999956445],[-120.25162299977805,46.39515899969336],[-120.25159600001389,46.395502999819946],[-120.25080900036652,46.39536599987626],[-120.24954300014504,46.39515499987365],[-120.24913499971605,46.39511299989027],[-120.2490979999061,46.39524600003647],[-120.24893600042273,46.39521900005167],[-120.24844500015303,46.39517300029917],[-120.2478790004386,46.3951259999328],[-120.24678100044662,46.39501299988829],[-120.24611600009968,46.394931000208345],[-120.24608400031262,46.39502400003997],[-120.24610699987883,46.39503199969829],[-120.24613199999318,46.395039999975005],[-120.24620899998608,46.395065000135205],[-120.2463019998725,46.39509500006452],[-120.24647799959959,46.39515299996366],[-120.24721499991655,46.3954059997642],[-120.24703699964132,46.395551999756954],[-120.24696200019658,46.39558599982652],[-120.24622200040487,46.39705999978542],[-120.24624800034414,46.397111000021276],[-120.2462249998796,46.397150999869204],[-120.24622400005468,46.39723700021737],[-120.24626500006255,46.39735199982279],[-120.24592600012888,46.39745999979716],[-120.24489599990893,46.397440000299895],[-120.24443999979937,46.39789700017867],[-120.24425099965346,46.39788899970133],[-120.24351099986175,46.397399000130456],[-120.24353400032628,46.400767999887975],[-120.24314099996587,46.40102299998809],[-120.2429359999265,46.40122499977045],[-120.24281100025301,46.40146599998603],[-120.24312199969933,46.40204099996356],[-120.24312000004952,46.40205800014755],[-120.24311599985154,46.40209299970797],[-120.24313599994304,46.402124999764325],[-120.24317399957786,46.40218199979883],[-120.24329099975374,46.40236199981032],[-120.24466499993025,46.40205400021405],[-120.24501200025986,46.401942000098686],[-120.24520899990337,46.40184099976991],[-120.24538999965336,46.401649000009286],[-120.24558700019516,46.401388000073894],[-120.24587500007524,46.40119100011701],[-120.24616799997818,46.40110099980255],[-120.24657800005703,46.401063000065676],[-120.24782599983685,46.40104099971689],[-120.24864099997163,46.40119100011701],[-120.24890299991243,46.40130699990418],[-120.24912999969315,46.40135099975889],[-120.2494069997026,46.401340000263126],[-120.24998199963788,46.40122300008293],[-120.2502429997538,46.40121199994192],[-120.25051499974033,46.40125500003008],[-120.25085600022219,46.40136699969727],[-120.25096199962908,46.40147300009978],[-120.25100299963695,46.401535999844],[-120.25106899975923,46.401637000117965],[-120.25107899980496,46.401857000184044],[-120.25097699969768,46.40208499984581],[-120.25076499998559,46.40223499985358],[-120.24919400016559,46.402991999819676],[-120.24798200037075,46.40344300021955],[-120.2476679996531,46.40357899990654],[-120.24749100010109,46.40372000010311],[-120.24732899971937,46.40398799982363],[-120.24715899984007,46.40417400004843],[-120.24679099959404,46.40445699988328],[-120.24641300020059,46.40465899995977],[-120.24621599965879,46.40480799992625],[-120.2461040004041,46.40497300022499],[-120.24606099984807,46.40518100011573],[-120.24611399955154,46.4053779999123],[-120.24626900026055,46.40558600011716],[-120.24654600026997,46.405789000109245],[-120.24729199990948,46.40606599985007],[-120.24751000036767,46.40619300018004],[-120.24761699959947,46.406353000018825],[-120.24767000020124,46.406561000222574],[-120.24762199962234,46.406746999727076],[-120.247451999743,46.40700800004048],[-120.24722199958929,46.407221999866486],[-120.24665199967687,46.4077699999118],[-120.24652500035357,46.40798900030269],[-120.24650299971394,46.40825000024806],[-120.24658800010276,46.40849499986257],[-120.24675399978412,46.408622999820125],[-120.24702800031882,46.40874299997212],[-120.24733999959003,46.40881400010809],[-120.24761099975169,46.40883399977203],[-120.24805900036365,46.408713000113714],[-120.24842199968853,46.40855000001662],[-120.24843000008443,46.40871199978781],[-120.24843900030527,46.4100509998058],[-120.24843900030527,46.4102659997591],[-120.24901199969239,46.41025900015425],[-120.24903299960879,46.411061000003855],[-120.2517729995659,46.411061000003855],[-120.25287599958078,46.411061000003855],[-120.25319799979603,46.411059999721004],[-120.25416600009171,46.411059999721004],[-120.2544890001319,46.411059999721004],[-120.25454100001042,46.41100099972352],[-120.25469199962318,46.41083500002865],[-120.25470099984402,46.410825000254746],[-120.2547560000956,46.410769000248365],[-120.25487800029434,46.410642999714106],[-120.25513500021228,46.41071700010248],[-120.25531699978714,46.410564999915856],[-120.25561300006316,46.41039700016208],[-120.25598499960884,46.41030700016963],[-120.25632500026576,46.41030399989895],[-120.25668299956773,46.410311999794594],[-120.25678800004803,46.410311999794594],[-120.2572009996016,46.41029999995066],[-120.25762999994701,46.41016899993405],[-120.25792500039809,46.409993000258034],[-120.25813299991223,46.40982099999782],[-120.25844300043194,46.4095740001446],[-120.25861999998396,46.40941900016956],[-120.25881699962747,46.4093309998119],[-120.25904299958327,46.409299000266024],[-120.25909600018504,46.40929999996177],[-120.25953200020312,46.40909999974593],[-120.25963199976223,46.40911599988929],[-120.25976800020467,46.409138000078734],[-120.25988600020544,46.409150999876836],[-120.25993600043415,46.40915400021094],[-120.26000000000826,46.40915800024328],[-120.26003900036632,46.40915800024328],[-120.26043699985128,46.40915800024328],[-120.26163100010272,46.409160999957635],[-120.26202899958768,46.409162000275316],[-120.26203000031089,46.40953499980474],[-120.26203299978565,46.410657000063104],[-120.26203399961055,46.411031000181595],[-120.26203399961055,46.41112100021813],[-120.26203600015867,46.411391000055986],[-120.26203699998361,46.41148100011784],[-120.26203799980853,46.41162600018035],[-120.26220500021309,46.411624999907865],[-120.26466599961263,46.411621999709645],[-120.26465700029013,46.411436000105475],[-120.26465700029013,46.411400999726105],[-120.264037000149,46.411400999726105],[-120.2640289997531,46.41103800030679],[-120.26489300029168,46.411042000200915],[-120.26493500012447,46.411042000200915],[-120.26846199972897,46.41104800004159],[-120.26963800043707,46.411049999988364],[-120.2696900003156,46.411049999988364],[-120.26984599995122,46.411049999988364],[-120.26989899965467,46.41105100027139],[-120.26992899979192,46.41105100027139],[-120.26992700014208,46.411198000179695],[-120.26992399976902,46.41195099981714],[-120.2705189997958,46.41195299973076],[-120.27105299972315,46.41195500026367],[-120.27109299990613,46.41195500026367],[-120.27161799961267,46.41195599991073],[-120.27165500032093,46.41195900009058],[-120.27165500032093,46.41205399991912],[-120.27165500032093,46.41212000000249],[-120.27165799979566,46.412674000049485],[-120.27165799979566,46.4128309999461],[-120.2716600003438,46.41292900024024],[-120.27154300016792,46.4129299998695],[-120.271434000388,46.412931999747215],[-120.27144199988558,46.41335499980098],[-120.27236199960235,46.4133499998356],[-120.27247799995328,46.41335199969796],[-120.27247700012839,46.41373700001131],[-120.27247799995328,46.41390500000568],[-120.2724839998011,46.41442799984894],[-120.27248899982395,46.41489899975661],[-120.27248700017415,46.415197999906574],[-120.27248299997618,46.41630599996347],[-120.27247200010552,46.41750900003739],[-120.27246700008266,46.41812900008118],[-120.27246600025774,46.418280000092075],[-120.27249600039497,46.418280000092075],[-120.27258599990834,46.418280000092075],[-120.27261699987048,46.418280000092075],[-120.27321100007234,46.418278999941634],[-120.27499399960443,46.4182760001095],[-120.2755889996312,46.4182760001095],[-120.2755889996312,46.41802200030426],[-120.27593299958777,46.41752400002677],[-120.27596000025028,46.41731399979994],[-120.27622999968871,46.41676999974513],[-120.27631300042769,46.41656900010954],[-120.27716199999934,46.41533599980402],[-120.2773639996657,46.4147500001034],[-120.27702800010503,46.414704000094986],[-120.27700600036374,46.41111400010363],[-120.27700600036374,46.41106800012515],[-120.27690300043157,46.41106800012515],[-120.27690599990632,46.40989700025172],[-120.2769079995561,46.4091589999416],[-120.27690900027935,46.40882099989837],[-120.27691799960186,46.4086130002601],[-120.27691699977694,46.40850500006365],[-120.27926699974672,46.40957699983609],[-120.27950100009848,46.409682999771334],[-120.27954999960396,46.409706000039776],[-120.27948600002985,46.40935600023761],[-120.27939599961819,46.408862999860105],[-120.27915100029409,46.40853900011413],[-120.27953000041077,46.40793900004482],[-120.27901599967655,46.40676700014889],[-120.27908000014898,46.40654999991898],[-120.27947199978614,46.4065699997936],[-120.28093200017639,46.40664499987751],[-120.28161199969364,46.406661999865705],[-120.28243500022435,46.407930999801124],[-120.28250600036944,46.40807699972846],[-120.28300500013674,46.40842800001664],[-120.28307600028184,46.40851199989358],[-120.28316800034335,46.40861100022401],[-120.2838699996019,46.40893999991244],[-120.28495800044648,46.40922000008732],[-120.28571199958357,46.40939900010072],[-120.28583399978231,46.40951200008354],[-120.28584200017823,46.4095649998304],[-120.28579100012462,46.40969800005524],[-120.28589300023187,46.41008399983064],[-120.28632099985403,46.410762999757615],[-120.28648300023572,46.41106400023289],[-120.2865440003351,46.4111490000478],[-120.28678199998649,46.411256999964024],[-120.28704999977508,46.411405999870155],[-120.28745499983103,46.41151500017137],[-120.28830199975286,46.41173500004189],[-120.28864499988454,46.41180000024201],[-120.28951199989787,46.411983999931095],[-120.28992600017463,46.41208199988918],[-120.28994999956576,46.412085000062056],[-120.29020200035916,46.412142000219],[-120.29078200031731,46.412151999751416],[-120.29164500013266,46.41217599986046],[-120.29199900013496,46.41270699972602],[-120.29231499960417,46.41322400030926],[-120.29240500001585,46.41351700016505],[-120.29332499973259,46.41461300017947],[-120.2933749999613,46.41467099976883],[-120.29340900029652,46.41471199996463],[-120.29580199992401,46.41484200000385],[-120.29736100004844,46.415152000276045],[-120.29736199987336,46.415265999693226],[-120.29737399956892,46.41747200012851],[-120.29737500029215,46.41767000028588],[-120.29737600011707,46.417801000245014],[-120.2984830003299,46.418307999962025],[-120.29797500034178,46.4182979997005],[-120.2979639995728,46.41836099983131],[-120.29793099996083,46.41855700018561],[-120.29820299994739,46.41863599984483],[-120.29846900008617,46.41872500019396],[-120.29881200021786,46.418857999756085],[-120.29905999991499,46.41896900030166],[-120.29929900028958,46.419088999984545],[-120.30175600038947,46.420207000160374],[-120.30311999962194,46.42083100028502],[-120.3054820001856,46.42191099996276],[-120.30571399998921,46.422017000076366],[-120.3064119999481,46.42233599987586],[-120.30664499957662,46.422442999856436],[-120.30697000016492,46.422601000184606],[-120.30794500013326,46.423076999785046],[-120.30826999982331,46.42323600019304],[-120.30830900018134,46.42325500008227],[-120.308684999925,46.42347400021758],[-120.30881200014659,46.423554000237075],[-120.30891300042894,46.42361799992046],[-120.30892500012449,46.42327600008249],[-120.30893500017025,46.42315200008201],[-120.31083800025127,46.42403200027588],[-120.31232500040569,46.42485199998548],[-120.3130240001895,46.425237000223085],[-120.31391700014213,46.42572899994188],[-120.31416400001432,46.42586099974525],[-120.31416499983925,46.425782000027986],[-120.31416499983925,46.42565300007897],[-120.31416700038737,46.42526700028023]]]},"properties":{"AREALAND":"4715370","AREAWATER":"0","BASENAME":"Zillah","CBSAPCI":"N","CENTLAT":"+46.4084243","CENTLON":"-120.2726634","FUNCSTAT":"A","GEOID":"5380500","INTPTLAT":"+46.4084243","INTPTLON":"-120.2726634","LSADC":"25","MTFCC":"G4110","NAME":"Zillah city","NECTAPCI":"N","OBJECTID":17096,"OID":"27890483243459","PLACE":"80500","PLACECC":"C1","PLACENS":"02412331","STATE":"53","DISP_CLR":4,"slug":"zillah","jurisdiction_key":"zillah_city","county_fips":["53077"]}}]}
