{"type":"FeatureCollection","features":[{"type":"Feature","geometry":{"type":"Polygon","coordinates":[[[-122.67529099967074,46.923415999751],[-122.6752899998458,46.92335000013975],[-122.67504600034664,46.92335000013975],[-122.67420000024973,46.923356999879275],[-122.67269200017891,46.92334800003872],[-122.67159099981386,46.92333600004446],[-122.66981900015242,46.92332999973954],[-122.66626099968747,46.92330799984284],[-122.66452800038405,46.92329799994258],[-122.66225899970681,46.92331400015022],[-122.65582399991571,46.92336200013088],[-122.65416199985911,46.923374000119374],[-122.65400799987331,46.923375000169386],[-122.6459040003529,46.92355400023715],[-122.64255099992737,46.92361700007414],[-122.63584499997462,46.92361199984634],[-122.63538800004014,46.92361499998309],[-122.63472000021844,46.92423600013207],[-122.6335839996933,46.92529399984845],[-122.63307300023047,46.92577000020386],[-122.63290800037403,46.92592400018919],[-122.6326909997407,46.92612600030341],[-122.63296600010032,46.92628999983588],[-122.63444599968375,46.927198999796715],[-122.63650699994854,46.928455999926335],[-122.63919099982915,46.929014000231305],[-122.64034599972256,46.929253999933486],[-122.64045899970046,46.929309000301714],[-122.64094400012236,46.92955799993466],[-122.64135199965304,46.929765000108375],[-122.64339600019937,46.93079800019571],[-122.64339500037448,46.93717700017619],[-122.64339500037448,46.937748000017024],[-122.64339600019937,46.938012000004406],[-122.6426589998824,46.93801799989139],[-122.6328659996429,46.938097999751754],[-122.62235000022845,46.938072999846554],[-122.6222489999461,46.938072999846554],[-122.62220899976315,46.938072999846554],[-122.62220899976315,46.93783299979493],[-122.62220899976315,46.937700000046746],[-122.62220999958804,46.936749000236695],[-122.62220999958804,46.93556999998712],[-122.6221560000597,46.935346000051865],[-122.62213799961802,46.93527100012706],[-122.6219800003326,46.934579000011645],[-122.62195799969297,46.93448200002462],[-122.62109200040288,46.93447899988309],[-122.6210449996489,46.93450500008171],[-122.62098500027277,46.93453299995119],[-122.62090800027987,46.9345700002163],[-122.62070900008823,46.93439900013647],[-122.6208410003327,46.93432599980339],[-122.62132400020646,46.93405800002961],[-122.62167300018592,46.93386299997837],[-122.62189699959363,46.93373800026415],[-122.62215900043273,46.9335949997278],[-122.62227900008334,46.933527999915654],[-122.6222339998775,46.93101899980252],[-122.62222999967952,46.93088900003601],[-122.6208399996095,46.93088600030664],[-122.62073900022547,46.93088600030664],[-122.62067300010322,46.93088600030664],[-122.62062600024755,46.93088600030664],[-122.62060399960792,46.93088600030664],[-122.62050099967576,46.93088499978334],[-122.61693100041359,46.93085599993651],[-122.61527000018188,46.93084299987316],[-122.61376299993599,46.930847000128914],[-122.61367000004955,46.930900000269126],[-122.61306300032724,46.93089099985547],[-122.61273699991399,46.93088600030664],[-122.61273600008909,46.93083499997417],[-122.61273799973891,46.930396999846465],[-122.61264099965453,46.93040000021663],[-122.61248199964587,46.930396999846465],[-122.61163300007422,46.93041700006197],[-122.61163300007422,46.93044700006454],[-122.61163300007422,46.93082500025208],[-122.61163300007422,46.930871999727025],[-122.61152099992124,46.93086700017643],[-122.61140399974536,46.93087400016058],[-122.61120499955373,46.93087699989063],[-122.61090599980298,46.930878999710544],[-122.61071900020524,46.93087099981693],[-122.61058199993788,46.93087099981693],[-122.61039600016505,46.93088100014388],[-122.6101740004072,46.93088800012622],[-122.6099269996367,46.93088900003601],[-122.6097879997195,46.93090100017864],[-122.60955000006813,46.93092100020599],[-122.60938199983863,46.93091400022792],[-122.60938199983863,46.93083099971747],[-122.60607100014421,46.93083300015256],[-122.6060560000756,46.93263400001331],[-122.60605299970256,46.93299899994754],[-122.60593300005196,46.93299899994754],[-122.60593399987688,46.932855999891565],[-122.60593399987688,46.93282199990357],[-122.60581800042422,46.93282199990357],[-122.60569399967737,46.93282199990357],[-122.60563199975307,46.93282199990357],[-122.60559999996602,46.93282199990357],[-122.60539099972866,46.93282199990357],[-122.60538900007882,46.93299999981791],[-122.60483400023504,46.93300100030165],[-122.60469500031788,46.93300100030165],[-122.60469299976974,46.93385000003155],[-122.6046960001428,46.93450000025683],[-122.60449199992829,46.93450100009914],[-122.60224400006577,46.934489999992266],[-122.60209599992776,46.934489999992266],[-122.60193799974401,46.93449300013314],[-122.60137100020465,46.93449099983476],[-122.60112699980719,46.93449600027388],[-122.60090500004934,46.934497999958666],[-122.6017040002906,46.935051000109695],[-122.60204499987412,46.935289000094066],[-122.60287799955223,46.935882999904486],[-122.6036390001587,46.93640399991917],[-122.60367799961843,46.93643100021621],[-122.60385900026671,46.93655599977828],[-122.60386599993939,46.93630000028349],[-122.60394299993229,46.93630000028349],[-122.60411399963651,46.93630000028349],[-122.60557999987454,46.93629899986138],[-122.60585000021128,46.93632900024942],[-122.60592600037926,46.936478000291885],[-122.60592600037926,46.93653099976652],[-122.60592600037926,46.93662999994094],[-122.60592700020418,46.93667600004022],[-122.60591899980825,46.93683200016273],[-122.60591899980825,46.93696200022435],[-122.60592600037926,46.93713399988686],[-122.60592600037926,46.93719699969989],[-122.6065060003374,46.93719699969989],[-122.6065060003374,46.93723199976843],[-122.6065060003374,46.93725799985716],[-122.60650499961419,46.93737999996317],[-122.60650399978927,46.93754900015361],[-122.60650299996435,46.937638999779686],[-122.60650200013946,46.93791800005123],[-122.60650100031452,46.938072999846554],[-122.60631999966623,46.938072999846554],[-122.60620599986343,46.938072999846554],[-122.60601599989262,46.938072999846554],[-122.60602199974039,46.93814300004236],[-122.6060479996797,46.93849199988076],[-122.6060259999384,46.9384800002123],[-122.60600400019707,46.938467999927795],[-122.60591299996047,46.93841900022046],[-122.60528600014665,46.93807899972674],[-122.60489899963407,46.93787000023337],[-122.60465199976184,46.93807899972674],[-122.60415299999457,46.93852000011895],[-122.60366799957269,46.938948999769124],[-122.60345900023363,46.939134000303206],[-122.60340499980694,46.93918200021464],[-122.6012620004247,46.93807400023556],[-122.60068499994132,46.93807500001113],[-122.6003800003428,46.93807599978673],[-122.60038100016772,46.93785199990723],[-122.60012300042483,46.93785300030032],[-122.60012500007467,46.937768999722124],[-122.6001280004477,46.93761299987595],[-122.60013000009754,46.9375079997354],[-122.59988200040041,46.9375079997354],[-122.59988400005024,46.93722700019816],[-122.59944999968197,46.937227999989595],[-122.5994449996591,46.93702399983115],[-122.59944600038233,46.93689000011595],[-122.5994510004052,46.93631000021005],[-122.59908300015914,46.93631000021005],[-122.5986200003769,46.93631100001861],[-122.5980169999542,46.93631199982715],[-122.59803799987063,46.934783000283815],[-122.59804200006857,46.93441999992818],[-122.59804899974125,46.93388999971641],[-122.59805200011431,46.93379999992334],[-122.59804600026652,46.932884000009786],[-122.59804700009144,46.932333999826575],[-122.59804399971839,46.92996100028519],[-122.59543600000578,46.92996100028519],[-122.59543699983067,46.92991000029884],[-122.59543699983067,46.92986900016633],[-122.59543799965556,46.92981399975972],[-122.5954469998764,46.929032999791964],[-122.59296899986012,46.92903199984753],[-122.59281700042246,46.92903199984753],[-122.59281099967637,46.92993999997193],[-122.59015500028315,46.92993000008278],[-122.59014699988724,46.931196000284416],[-122.5901460000623,46.931416000189316],[-122.59012199977286,46.9315860000824],[-122.59002300003867,46.93173900001559],[-122.58984899996139,46.93186300021013],[-122.58965200031791,46.93200599985041],[-122.58962100035578,46.93202899974403],[-122.58912099986526,46.932363999982186],[-122.58899100016892,46.93227800022719],[-122.58887099962001,46.93219900014508],[-122.58794000003257,46.9315860000824],[-122.5871600000579,46.931070999866115],[-122.58665899974248,46.9307449999546],[-122.5865190000004,46.93065499978378],[-122.58635499996885,46.93055999988247],[-122.58618500008954,46.930474000297856],[-122.5860339995785,46.93041099993679],[-122.58600599998941,46.93039900029776],[-122.58581699984352,46.930329999714125],[-122.58414899993913,46.92982199981122],[-122.58368100013399,46.92968300020339],[-122.58322699967425,46.929548999908995],[-122.5832240001995,46.93086299992212],[-122.58177399985499,46.930857999757215],[-122.5805210000523,46.930853000205296],[-122.57815299964086,46.930860000191295],[-122.5781690004327,46.932802999846736],[-122.57816799970949,46.93308399990281],[-122.57800500040119,46.93308399990281],[-122.5761149998406,46.93307999981415],[-122.57600699988559,46.93307999981415],[-122.57600400041086,46.933415000225644],[-122.57599799966475,46.93372500028693],[-122.57599000016715,46.93414099983284],[-122.57597500009854,46.9380809998911],[-122.57603799984773,46.9380809998911],[-122.57611800021368,46.9380809998911],[-122.5761480003509,46.9380809998911],[-122.57757699988069,46.938091000098424],[-122.5783600002284,46.938091000098424],[-122.57920899980006,46.938097999751754],[-122.58133100016423,46.93811599999518],[-122.58261699957886,46.938126999970635],[-122.58332100028389,46.938129999907744],[-122.58394999974752,46.93814099988031],[-122.5843649998492,46.93815300023811],[-122.5847869996236,46.93817699971889],[-122.58541599998551,46.938222999715904],[-122.58544399957462,46.93822400010211],[-122.58546899968897,46.936594000289006],[-122.5854910003286,46.936586999825735],[-122.58573900002573,46.93650599974314],[-122.58652300019837,46.93624200030459],[-122.58663500035135,46.93621000024703],[-122.58671499981898,46.936259999945214],[-122.58695199964545,46.9364079997596],[-122.58798600006334,46.93705300001832],[-122.58896000020678,46.93763599981503],[-122.59000999961988,46.93819499993577],[-122.58997299980996,46.93820000002902],[-122.58935100001902,46.93829299971561],[-122.58918199996461,46.93831099989349],[-122.58901299991022,46.93832300021318],[-122.58867499980141,46.93833100022038],[-122.58858100009009,46.93833100022038],[-122.58845899989134,46.93833100022038],[-122.58844299999782,46.939398999954626],[-122.58834000006566,46.93939999970551],[-122.58828800018712,46.93939999970551],[-122.58823100028573,46.93939999970551],[-122.58786499968951,46.93940100006972],[-122.5878620002148,46.93993600025595],[-122.58744000044038,46.9399369999968],[-122.58720299971563,46.93993799973763],[-122.58711999987493,46.93993499990177],[-122.58713699959338,46.93969800007197],[-122.5858629998743,46.93970099992111],[-122.58479599984442,46.939606999866335],[-122.58480000004239,46.94005499995124],[-122.58480000004239,46.940261000298364],[-122.58540199974183,46.940259000215434],[-122.58540199974183,46.94047900030269],[-122.58540199974183,46.94069700003272],[-122.58540199974183,46.940915999824334],[-122.58710399998141,46.94091000026204],[-122.58707300001927,46.94153999969513],[-122.58707300001927,46.94157900005887],[-122.58707800004214,46.941705000190744],[-122.58708399988993,46.941845999899144],[-122.58709099956262,46.94205899985053],[-122.5884060001879,46.94205699983478],[-122.58940799992044,46.94204899977097],[-122.58979399970981,46.94205299980305],[-122.5899269997792,46.94206499989735],[-122.58994199984782,46.94206899992818],[-122.58999700009937,46.9420830000338],[-122.5900950000087,46.942117000275026],[-122.59016600015381,46.94215200019411],[-122.59026900008595,46.94221300022624],[-122.59002600041173,46.94234300010302],[-122.58921700012472,46.94278199973174],[-122.58921499957658,46.9428120001673],[-122.5892930002927,46.94314699980053],[-122.58513700032626,46.94315900026293],[-122.58480000004239,46.94317100010937],[-122.58480099986728,46.94336400002963],[-122.58480400024034,46.94416300019026],[-122.58480400024034,46.94418100023457],[-122.58480400024034,46.9442419997947],[-122.58480599989016,46.9447279999903],[-122.58481199973795,46.94484700007365],[-122.58481400028609,46.94529299995998],[-122.5847230000495,46.945352999839876],[-122.58467199999586,46.94536999984473],[-122.58457800028454,46.945383000061256],[-122.58439400016152,46.9453860002051],[-122.58482799963147,46.945740000055864],[-122.58497300029475,46.945858999729374],[-122.5852379997103,46.94607600000428],[-122.58533099959669,46.94615199975126],[-122.58525399960382,46.94619500015742],[-122.58267900040146,46.94744500000534],[-122.58332700013166,46.949290999948424],[-122.58545199997054,46.94827000022696],[-122.58626799993024,46.94787899969485],[-122.58700600007211,46.94752499988481],[-122.5868210001242,46.94737499970604],[-122.58625799988448,46.94691699976444],[-122.58901999958292,46.94541200001393],[-122.58957500032501,46.94541599979469],[-122.59042899991951,46.945410000123445],[-122.59116500041159,46.945403999838234],[-122.59314999961008,46.94539699991348],[-122.59391799988919,46.94539500002242],[-122.59403699971489,46.94539500002242],[-122.5941229999286,46.94536200027605],[-122.59428899960996,46.94554599986626],[-122.59450700006816,46.94578699993272],[-122.59442500005238,46.94583300013768],[-122.59423500008158,46.94593999976814],[-122.59272500036094,46.9467859997299],[-122.59035899959933,46.94810299993822],[-122.59010599987934,46.94824399996656],[-122.59007300026738,46.94826199986514],[-122.59091000014347,46.94986199998769],[-122.59115700001567,46.9503290000868],[-122.59131799967416,46.950633000028546],[-122.59147199965996,46.950923999989186],[-122.59083700034851,46.9512769998659],[-122.58974900040228,46.95186700022418],[-122.58404500018207,46.955063999943675],[-122.58386000023411,46.95516699985127],[-122.58372600033982,46.95524400024797],[-122.58391899978535,46.955337999825595],[-122.58451899983501,46.95549099995264],[-122.58537599980257,46.955561000061245],[-122.58669200025277,46.95565899993686],[-122.5873840003639,46.955753000011796],[-122.58832699964687,46.95589300006518],[-122.58863100031881,46.95594499988662],[-122.58923200019335,46.95610499986922],[-122.58993699982496,46.956298999804226],[-122.59009400018378,46.95631900015577],[-122.59023099955282,46.95632900002218],[-122.59077899972391,46.95649100017259],[-122.59145999996439,46.95660000004324],[-122.59235299991694,46.956789999866295],[-122.59382300035294,46.95705599983408],[-122.59465500020616,46.95718899993523],[-122.59507100013278,46.9570899997623],[-122.59541199971633,46.957011000112225],[-122.59528700004284,46.95696499970347],[-122.59517400006494,46.95690800007512],[-122.59507100013278,46.956836999850736],[-122.59497099967535,46.9567569997873],[-122.59476599963594,46.95658299992614],[-122.5942910001581,46.956182000142526],[-122.59413499962416,46.95605100009717],[-122.5940800002709,46.95600400003553],[-122.5938540003151,46.955815999989184],[-122.59234600024426,46.95456199971144],[-122.591186000328,46.95360699979058],[-122.59089599989976,46.95336800018763],[-122.59085300024208,46.953332000139504],[-122.59064900002755,46.95316400020809],[-122.59052299963086,46.95306000001549],[-122.59045099966083,46.95300100029984],[-122.59012500014592,46.952950000181396],[-122.59002800006154,46.95266500028425],[-122.59002399986359,46.95265300011326],[-122.59286900030101,46.9526459999101],[-122.59315999965582,46.952638999706025],[-122.59362599981114,46.9526370000855],[-122.59514499975262,46.952629999880244],[-122.60066700039798,46.952603999898216],[-122.60066599967473,46.95266400016788],[-122.60066099965186,46.953046999823904],[-122.60065900000205,46.95318200029168],[-122.60066499984981,46.95328899994815],[-122.60066999987268,46.953953999813216],[-122.60067599972048,46.95478899980856],[-122.60068199956827,46.95643900026861],[-122.60068300029147,46.95650200005148],[-122.60067900009355,46.956770999730374],[-122.60066999987268,46.957521000261956],[-122.6009179995698,46.957524999751],[-122.60130599990734,46.95755099979476],[-122.60160800003112,46.957580999923934],[-122.60182800013914,46.957599999772185],[-122.60259700024316,46.957667000119166],[-122.60344599981481,46.957740999919864],[-122.60427099999536,46.957802999988935],[-122.60450199997402,46.95782999991744],[-122.60503099987852,46.957870000081726],[-122.60521199962851,46.95786900006267],[-122.60534499969789,46.957863999967],[-122.60538400005595,46.957857999851655],[-122.60546600007171,46.95786600000532],[-122.60566000024049,46.95781300019116],[-122.60574100043134,46.95791100023439],[-122.60582199972387,46.95792499987559],[-122.60602699976329,46.95802100029438],[-122.60695900007393,46.95808900012917],[-122.60821299970152,46.95800600004867],[-122.60824299983877,46.95800700006521],[-122.60825899973229,46.958008000081676],[-122.60828399984666,46.958029999826636],[-122.60836099983953,46.95803399989078],[-122.60883600021567,46.95805900028485],[-122.60882299979689,46.9578839997336],[-122.60879699985762,46.95769900022782],[-122.60879699985762,46.957629999873845],[-122.6088089995532,46.95752200028751],[-122.60882100014709,46.95735900016409],[-122.60881899959894,46.957131999932365],[-122.6088150002993,46.95702800009336],[-122.60881899959894,46.95693799995159],[-122.60882799981978,46.95686200019092],[-122.60885700013209,46.95671299985471],[-122.60889599959184,46.95656799989046],[-122.60898900037655,46.956253000009674],[-122.60906999966912,46.956032999752296],[-122.60920500028665,46.95587500028032],[-122.60922799985286,46.95584900003532],[-122.60924100027165,46.955800000293905],[-122.60928999977713,46.95574300003775],[-122.60959299972583,46.95539100025173],[-122.60979699994033,46.95504100013372],[-122.60998699991113,46.9544250001053],[-122.61000299980465,46.95437300003319],[-122.61005700023134,46.954198000303656],[-122.61008599964535,46.953673000134266],[-122.61000799982752,46.95305799979754],[-122.60974599988671,46.95245200022206],[-122.60922700002794,46.951592000216884],[-122.60868600042787,46.950824999876694],[-122.60818900031042,46.95014599993075],[-122.60781699986642,46.949597000000985],[-122.6073499998862,46.948980000286866],[-122.6094699997022,46.94896900008831],[-122.61114000015473,46.949000999879225],[-122.61160600031003,46.94901200007126],[-122.61164999979268,46.94940300029892],[-122.61165099961757,46.94948299970492],[-122.61164700031793,46.94982300013908],[-122.6116449997698,46.950047999770874],[-122.61164099957183,46.9503919997042],[-122.61163899992201,46.950634999723945],[-122.61164399994487,46.95073800018415],[-122.61163100042438,46.9516860000773],[-122.61163499972403,46.95227600021914],[-122.61163800009709,46.952565000208054],[-122.61163600044728,46.952857999700626],[-122.61162999970117,46.95365400011799],[-122.61162800005135,46.95392400010334],[-122.6116320002493,46.95546799971299],[-122.61163300007422,46.955899999843616],[-122.6116249996783,46.956539999894424],[-122.6116160003558,46.95744900021086],[-122.61161499963256,46.95877199986208],[-122.611602999937,46.959477999825545],[-122.61160200011209,46.95956799998687],[-122.61161200015782,46.95963499970891],[-122.61161399980766,46.959647000153566],[-122.6168900004057,46.95964900012524],[-122.61688799985755,46.95962799980593],[-122.61688899968247,46.959503000158044],[-122.61690799994905,46.95762499975588],[-122.61690200010126,46.95723800024415],[-122.61690200010126,46.95698699987721],[-122.61690600029921,46.95534400022356],[-122.61690700012413,46.955187000012735],[-122.61690899977394,46.95483699978678],[-122.61691200014702,46.95439000023917],[-122.61692899986545,46.95439000023917],[-122.61959100000477,46.954395000046276],[-122.61958299960882,46.95521999983364],[-122.61958299960882,46.95529800022119],[-122.62065700020972,46.95529999974229],[-122.6207280003548,46.95529999974229],[-122.62217899962592,46.9553019998764],[-122.62217899962592,46.95534100002464],[-122.62217699997609,46.95582100027619],[-122.62217299977812,46.95727500014738],[-122.6221710001283,46.958430999863445],[-122.6221710001283,46.958686000216574],[-122.6221710001283,46.95895199995591],[-122.62266700042086,46.958949999958186],[-122.62283499975202,46.95894799996043],[-122.62429099994432,46.958949999958186],[-122.6248459997881,46.958949999958186],[-122.62482999989456,46.95958699974268],[-122.62481599965086,46.95988199999093],[-122.62481300017613,46.960264000127765],[-122.62480399995532,46.96145900023648],[-122.62480300013038,46.96162599992733],[-122.62529000020211,46.96162699987621],[-122.62717099964351,46.96163500007945],[-122.62742300043692,46.96162799982502],[-122.62743500013248,46.96135600017826],[-122.62743500013248,46.960938000031746],[-122.6275360004148,46.96082699987383],[-122.62754399991243,46.96006599994146],[-122.62754499973732,46.958409000283346],[-122.62754599956224,46.95764300017838],[-122.6275509995851,46.95697299999065],[-122.62755599960799,46.9558620001594],[-122.62756099963086,46.95475599972187],[-122.62756200035409,46.954586999888186],[-122.62756200035409,46.95449300021773],[-122.62784699986113,46.95437300003319],[-122.62844699991074,46.95411400023025],[-122.62871999972221,46.95400199992722],[-122.62861099994227,46.95394500020858],[-122.62804000020498,46.95363399999677],[-122.62773800008118,46.95347000019234],[-122.6276209999053,46.953405999803316],[-122.62758400009538,46.95338600020257],[-122.62754800011038,46.953365999981195],[-122.6274169996908,46.95329399985808],[-122.62739900014748,46.95328400003776],[-122.62747500031546,46.95321099969823],[-122.62753899988954,46.95315100004178],[-122.62803299963394,46.952686000270376],[-122.62812200022074,46.95260600013314],[-122.62818400014501,46.95260700025054],[-122.62831300001643,46.952607999754775],[-122.62877999999668,46.95261299972832],[-122.62899199970877,46.95261299972832],[-122.62923600010626,46.95261299972832],[-122.62923500028134,46.95252499975735],[-122.62923399955814,46.952368999982745],[-122.62922900043355,46.95199800008751],[-122.62920699979392,46.95002100020843],[-122.62919900029634,46.949255999790864],[-122.62919599992327,46.94898600017123],[-122.6315209997787,46.94899300023991],[-122.63645400024508,46.949009999702014],[-122.6434389998571,46.94901799995203],[-122.64342499961339,46.945321999961415],[-122.64441700019847,46.945318000173636],[-122.64606099981344,46.94530899973013],[-122.65111899995328,46.94528400012551],[-122.65293900019363,46.94527500028953],[-122.65370400009968,46.94527200013946],[-122.65396500021559,46.94527099988494],[-122.65407999984335,46.94511499981837],[-122.65408300021637,46.94450199980459],[-122.65409499991195,46.94249700027508],[-122.65410300030787,46.94113200017802],[-122.65411900020139,46.93818300020076],[-122.6541200000263,46.93801400017127],[-122.65420200004206,46.93801400017127],[-122.65800700037923,46.938014999948],[-122.65965000016928,46.93801599972468],[-122.65973600038299,46.93801599972468],[-122.66149700017378,46.938017000114755],[-122.66167600027393,46.938017000114755],[-122.6658770004462,46.93801799989139],[-122.66983599987083,46.93801900028142],[-122.67101800042674,46.93801900028142],[-122.67117999991011,46.93801900028142],[-122.67309800005975,46.938020000058025],[-122.67346399975764,46.938020000058025],[-122.67441399961167,46.938020000058025],[-122.67505499966916,46.938020000058025],[-122.67526200025672,46.938020999834656],[-122.67526200025672,46.937849999734325],[-122.67529099967074,46.923415999751]]]},"properties":{"AREALAND":"15055642","AREAWATER":"15877","BASENAME":"Yelm","CBSAPCI":"N","CENTLAT":"+46.9397450","CENTLON":"-122.6256237","FUNCSTAT":"A","GEOID":"5380220","INTPTLAT":"+46.9426075","INTPTLON":"-122.6431588","LSADC":"25","MTFCC":"G4110","NAME":"Yelm city","NECTAPCI":"N","OBJECTID":25683,"OID":"27890482056968","PLACE":"80220","PLACECC":"C1","PLACENS":"02412317","STATE":"53","DISP_CLR":2,"slug":"yelm","jurisdiction_key":"yelm_city","county_fips":["53067"]}}]}
