{"type":"FeatureCollection","features":[{"type":"Feature","id":31054,"geometry":{"type":"MultiPolygon","coordinates":[[[[-122.30952399957174,47.35794299997614],[-122.30941700033995,47.357942000155994],[-122.30930600001186,47.3579409997273],[-122.30875000034317,47.35793600001776],[-122.3072520003181,47.35794399979621],[-122.30638600012969,47.35794500022486],[-122.30471300020241,47.357942000155994],[-122.30302500020656,47.357933999768704],[-122.30255800022631,47.35793299994839],[-122.3016989997106,47.35792900005846],[-122.30096800013972,47.35791800020751],[-122.29976899986538,47.35789899996166],[-122.29864999995698,47.35788100013883],[-122.29797600028753,47.35787000027782],[-122.29771299962349,47.35787000027782],[-122.29762599958485,47.35787000027782],[-122.29673099998244,47.35784400004415],[-122.29624399991073,47.35783899971688],[-122.29459299972476,47.35782099987354],[-122.29418199982105,47.35781600015264],[-122.29318199973834,47.35780500027813],[-122.29283199993397,47.35779900012431],[-122.2920899995941,47.35778500016847],[-122.29142000012261,47.357786999814635],[-122.29066799973702,47.35778800024626],[-122.29058999991923,47.35778800024626],[-122.29004900031914,47.35778999989231],[-122.28857999970808,47.35779299996982],[-122.28845300038476,47.35779299996982],[-122.28789000014505,47.357793999792776],[-122.28700399986518,47.3578020002013],[-122.28608699962314,47.35781099982271],[-122.28601399982821,47.35781099982271],[-122.28452000000111,47.357806000100815],[-122.28436400036549,47.35780799974623],[-122.28388200031664,47.35781499972155],[-122.28292599971654,47.357827999847174],[-122.28191899996115,47.35783199974471],[-122.2812050001087,47.357827000024855],[-122.27848900044103,47.35781200025383],[-122.27830799979276,47.35781000000007],[-122.27783499996475,47.35780799974623],[-122.27658800000984,47.35780099976995],[-122.27651199984183,47.35779999994712],[-122.27643200037423,47.35779999994712],[-122.27597899973938,47.35779699987006],[-122.27482700021903,47.35778999989231],[-122.27464800011886,47.35778999989231],[-122.27398299977192,47.35778599999154],[-122.27377699990761,47.35778500016847],[-122.27318299970575,47.35778299991368],[-122.27165899974143,47.35778599999154],[-122.27160299966492,47.35790699974572],[-122.27147499961839,47.35816900021895],[-122.27144899967912,47.358255000132466],[-122.27143100013578,47.358375000216256],[-122.27143000031089,47.35846699987255],[-122.27144200000645,47.35857499995227],[-122.27145799989997,47.35864600027865],[-122.27195800039048,47.35976900016513],[-122.27204299988098,47.360058999844604],[-122.2720870002619,47.360247000140674],[-122.27210599963014,47.36044499992887],[-122.27210099960728,47.36063599998234],[-122.27206899982025,47.36083299976232],[-122.2718899997201,47.3613089997129],[-122.27185700010813,47.36155500004686],[-122.27184799988729,47.361689999816875],[-122.27193499992595,47.36246900003519],[-122.27197199973585,47.36261099984782],[-122.27224100024769,47.36462999992356],[-122.27225999961594,47.36476699972476],[-122.27227200020981,47.36480199984344],[-122.27230700036995,47.36490100010551],[-122.27236400027132,47.36501200006778],[-122.27241299977683,47.36508599991286],[-122.27124799983767,47.36508399993482],[-122.27076900016186,47.36508199995675],[-122.27064000029046,47.36508199995675],[-122.27048700012958,47.365081000271935],[-122.2704889997794,47.36554099993488],[-122.27048999960432,47.36594100029632],[-122.27049100032752,47.36632399973464],[-122.27049200015244,47.366459999736676],[-122.27049399980227,47.36666400029918],[-122.27049600035039,47.36685200017861],[-122.2678550001275,47.36686600016225],[-122.26785400030258,47.366796999859254],[-122.26785400030258,47.36661700007252],[-122.26785400030258,47.36646400019674],[-122.26785299957936,47.36628500015252],[-122.26785299957936,47.366104999835464],[-122.26785299957936,47.36592500012103],[-122.26785199975444,47.36574400012012],[-122.26785099992952,47.365559999862455],[-122.26784900027972,47.36537800014676],[-122.26784699973157,47.36509799977927],[-122.26773899977654,47.365099000072235],[-122.26624999997227,47.36510699998152],[-122.26519800001107,47.36511699986642],[-122.26518600031548,47.37035400006378],[-122.26518399976733,47.37127800023747],[-122.26518200011753,47.37215300017155],[-122.26518100029261,47.37217600017775],[-122.26612899959848,47.37217699972809],[-122.26646800043049,47.372177999886844],[-122.26990899982125,47.372184000230426],[-122.2705249997644,47.372169999833254],[-122.2705239999395,47.373063000301315],[-122.27052200028969,47.37330799982937],[-122.27052200028969,47.37339400000716],[-122.27052099956646,47.37348299983834],[-122.27052099956646,47.37352499997306],[-122.27051800009171,47.374159999802664],[-122.27051399989374,47.37489900018659],[-122.27051300006885,47.37495500007178],[-122.2705089998709,47.37573200009817],[-122.2683279999555,47.375754000277496],[-122.2679189997016,47.37575900012343],[-122.26597799998572,47.375778000020276],[-122.26576100025076,47.375780000201125],[-122.2655300002721,47.37578299986393],[-122.26517799991956,47.375786000134866],[-122.26519499963798,47.376343000035085],[-122.26520100038411,47.37654399986058],[-122.2652030000339,47.3766720002974],[-122.26515700000317,47.37668700018094],[-122.26461899987781,47.37705899994209],[-122.26437600020355,47.37719200005545],[-122.2640330000719,47.37738100018366],[-122.26360799992445,47.37762200011122],[-122.26310199958615,47.377829000237284],[-122.2625269996509,47.37802400019455],[-122.2617679995926,47.378197000279776],[-122.26091700037115,47.378321000185],[-122.2605480003002,47.3783859998471],[-122.26011599958174,47.378393000133514],[-122.25925399959131,47.37872099973616],[-122.25869799992262,47.378840000072344],[-122.25837700043057,47.37884300016933],[-122.25803299957568,47.37883299984528],[-122.25787799976496,47.37877399971969],[-122.25771200008363,47.37871099999727],[-122.25745699981547,47.37853400022942],[-122.25731899972322,47.37849599998183],[-122.25705500013258,47.378092999800806],[-122.25678999981871,47.37751899977214],[-122.25684300042047,47.37724900000133],[-122.25686699981162,47.37714600015022],[-122.25727799971536,47.376379999930364],[-122.25748699995272,47.375993000168805],[-122.25761099980127,47.375395999979155],[-122.2574719998841,47.374999999958185],[-122.25749899964829,47.374499999739406],[-122.25785600002366,47.373500999813245],[-122.25780300032024,47.372833000006516],[-122.25782000003866,47.37235000013748],[-122.25751000041724,47.371938999739115],[-122.25696800009396,47.37155900021421],[-122.25676600042758,47.37148199980877],[-122.25652600022806,47.37145900010829],[-122.25620800021075,47.37145099994563],[-122.25568900035198,47.371527999787965],[-122.25513799980783,47.37176100019048],[-122.2547899996533,47.3720789998985],[-122.25452600006268,47.37255899997003],[-122.25436200003114,47.37367699992038],[-122.25432900041916,47.37396100026486],[-122.25422599958871,47.374406999942316],[-122.25408800039476,47.374999999958185],[-122.25411799963368,47.375084999706374],[-122.2538049996392,47.37578500004459],[-122.25355100009432,47.37609800000762],[-122.2532539999934,47.37630600011385],[-122.2527400001575,47.37651899978175],[-122.25125700020105,47.37677100017981],[-122.24973900008446,47.37654000016509],[-122.24953400004506,47.37649499976795],[-122.24924399961682,47.37643100028602],[-122.24924000031719,47.376361999721496],[-122.24924199996701,47.376323000261756],[-122.24924000031719,47.3761849999764],[-122.2492410001421,47.37614400021877],[-122.24924000031719,47.37607100015594],[-122.24923600011924,47.374543999900226],[-122.24923399957109,47.37396500015596],[-122.24923299974617,47.37366000013615],[-122.24923199992126,47.373277999960735],[-122.24923199992126,47.37316600021923],[-122.24923199992126,47.37302400022673],[-122.24923100009634,47.37276099976624],[-122.24923000027145,47.372359999866],[-122.24923100009634,47.37222500002516],[-122.24923299974617,47.37196700004406],[-122.24923799976904,47.3713269997025],[-122.24924000031719,47.37109399981608],[-122.24924899963969,47.369917000168854],[-122.24925000036292,47.36979599997279],[-122.24925799986053,47.36879000002874],[-122.24925899968545,47.36864900003896],[-122.24924199996701,47.3679799999861],[-122.24927200010424,47.367716000290436],[-122.24935499994491,47.367150999716685],[-122.24936499999065,47.36709100025868],[-122.2494689997477,47.36598299974458],[-122.24943699996068,47.36555599994228],[-122.24941400039447,47.36543199983372],[-122.24920900035502,47.36429699996692],[-122.24915999995123,47.36383800011671],[-122.24918099986763,47.36346899994218],[-122.24920000013421,47.362926999901724],[-122.24921600002774,47.361065999948735],[-122.24931399993703,47.35808199973923],[-122.2516289997467,47.35805099991134],[-122.25210999997064,47.35804099990411],[-122.25275100002816,47.35803199971339],[-122.25348499997207,47.35803199971339],[-122.25351199973623,47.35690700029769],[-122.25367099974491,47.35365899972171],[-122.25278700001316,47.3536579998204],[-122.25153199966233,47.35365600001776],[-122.24948399981633,47.35365299970504],[-122.24783600000343,47.35365199980361],[-122.24643699971254,47.353650000000734],[-122.24640199955248,47.353650000000734],[-122.24599900004463,47.353650000000734],[-122.24486699971744,47.353650000000734],[-122.24460700032478,47.353650000000734],[-122.2434409996624,47.35365099990221],[-122.24317000039906,47.35365199980361],[-122.24151699966497,47.35365299970504],[-122.23991200040808,47.35365299970504],[-122.23925299990893,47.3536569999191],[-122.23910200029619,47.3536569999191],[-122.2390260001282,47.35365099990221],[-122.23876599983721,47.35365199980361],[-122.23880299964713,47.356563000142366],[-122.23879099995156,47.35746799991318],[-122.23877800043108,47.3579460000449],[-122.23877800043108,47.35982399990159],[-122.238815000241,47.36125799994533],[-122.23895099978512,47.36233100000536],[-122.23928300004614,47.36455699974202],[-122.23940600006979,47.36537499989214],[-122.23950499980401,47.36632199980358],[-122.2396029997133,47.367198000075966],[-122.23971400004136,47.36794899988983],[-122.23986999967698,47.368889000107],[-122.23989499979135,47.369036999766834],[-122.23991099968485,47.36914899975954],[-122.23993199960125,47.369302999969605],[-122.2399349999743,47.369324000184655],[-122.23994800039308,47.36951700014701],[-122.24000899959417,47.36996399988864],[-122.23970399999563,47.36994100013457],[-122.23928300004614,47.36991899996361],[-122.23851499976703,47.36989799998551],[-122.23831599957542,47.36990500018195],[-122.23759500005026,47.36997599986211],[-122.23696800023647,47.370009999975046],[-122.23585500017585,47.370051000243116],[-122.23584900032809,47.36973800028315],[-122.23584799960484,47.36967500010747],[-122.2352790004157,47.36969799997754],[-122.23465699972644,47.3695179997478],[-122.2344700001287,47.369329000031826],[-122.23436899984634,47.36908499987975],[-122.23434899975487,47.36863699976355],[-122.2343589998006,47.36861899995367],[-122.23461400006873,47.36840600001342],[-122.23505400028479,47.36810900015191],[-122.23566500020507,47.36749799972543],[-122.2358869999629,47.36732200029206],[-122.236583000272,47.36662200017631],[-122.23690999961184,47.36622000017649],[-122.23709100026012,47.365996999958845],[-122.23720800043597,47.36574800002599],[-122.23734700035317,47.36515699999553],[-122.2371759997506,47.364476000064194],[-122.23725899959129,47.363218000196966],[-122.23714399996356,47.362939999984675],[-122.23703000016074,47.36266099979371],[-122.23646000024836,47.36220799996553],[-122.23583400025947,47.361967000179014],[-122.23471199997803,47.36168299974715],[-122.23400499979829,47.361486000098616],[-122.23359899991742,47.36137299990026],[-122.23277899975976,47.36122400027575],[-122.23242700030556,47.36115999990759],[-122.23225599970303,47.3610819997723],[-122.23210699974013,47.36101499994627],[-122.2312670003893,47.36094000010364],[-122.23103999971028,47.360979999749006],[-122.23078799981519,47.36102400023666],[-122.23026300010865,47.36111600014191],[-122.22986300007554,47.36121400026138],[-122.22966800008187,47.36126299994858],[-122.22957299964733,47.36128700020101],[-122.22929900001094,47.36135500004556],[-122.22913599980433,47.361412000071454],[-122.22907999972783,47.36142600028191],[-122.22859000018137,47.361540999870634],[-122.22786200008524,47.36157400019311],[-122.22784500036678,47.36157400019311],[-122.22702299966102,47.36161300021572],[-122.22671999971229,47.36176699991413],[-122.2263110003567,47.36197499995478],[-122.22557999988751,47.36248799985231],[-122.22531100027399,47.36275999981446],[-122.22523500010601,47.36283599983954],[-122.22490000037025,47.36317399971379],[-122.22422300032775,47.36399200001322],[-122.22337899988065,47.36524799970465],[-122.2233400004209,47.365420999721714],[-122.22349000020873,47.36572700021251],[-122.22378999978439,47.36597699991235],[-122.22431500038927,47.366337000197355],[-122.2246090001171,47.36657100006902],[-122.22486199983712,47.3667199998026],[-122.2253599997795,47.36701000021286],[-122.225375999673,47.36701900008886],[-122.22550999956731,47.367098000219244],[-122.22581400023924,47.36727600029499],[-122.22653999978725,47.367603000051425],[-122.22712399994334,47.36804599985566],[-122.22733499983055,47.36858299970713],[-122.22735200044728,47.36862699993753],[-122.22727499955609,47.368710999998946],[-122.22706000036925,47.36894700012184],[-122.22697099978247,47.36898699978023],[-122.22644900044895,47.36921900024265],[-122.22591999964615,47.36938799977444],[-122.22556499981891,47.36943099973088],[-122.22493899983,47.3692259999208],[-122.22439900005485,47.36905699986988],[-122.2238969999145,47.36891100009918],[-122.22349000020873,47.368712999839424],[-122.22322200042011,47.36855399981177],[-122.22291100007551,47.368354000183054],[-122.22190099994707,47.36794500015082],[-122.22189900029723,47.36810499981666],[-122.2218959999242,47.36834100021741],[-122.2218900000764,47.36887999994163],[-122.22188900025148,47.36895999993812],[-122.22188800042656,47.3689910000486],[-122.2218909999013,47.369199999807805],[-122.22188900025148,47.369269000009325],[-122.2218909999013,47.369301000151495],[-122.22189199972622,47.36934400017888],[-122.22189199972622,47.36959600018643],[-122.2218959999242,47.36969999978059],[-122.22189699974909,47.36979100016988],[-122.22169599990765,47.36978999996586],[-122.22113900041404,47.369788000166224],[-122.21806399982286,47.369788000166224],[-122.21805600032526,47.3688849998309],[-122.21759099999485,47.36888600005207],[-122.21538800033817,47.36888799988592],[-122.21538999998796,47.36799100017288],[-122.21270699993227,47.36798899969661],[-122.21270399955921,47.36774399979533],[-122.2127019999094,47.36750399999304],[-122.21269799971142,47.367090000003465],[-122.21269400041179,47.36683199984789],[-122.21269299968856,47.366763000108875],[-122.21269100003873,47.366627999935126],[-122.21269000021384,47.36655500008489],[-122.21268400036605,47.366082000223905],[-122.21268000016808,47.36582400000551],[-122.2126740003203,47.36539100023421],[-122.21267199977216,47.365283000112605],[-122.21267099994726,47.36468999974702],[-122.21267099994726,47.364454000047594],[-122.21267000012234,47.363621999986435],[-122.21267000012234,47.36354900023542],[-122.21267000012234,47.363326000287024],[-122.21267000012234,47.36310399972679],[-122.21267000012234,47.36220899970478],[-122.21265900025168,47.36164899974296],[-122.2073240001024,47.3616699999629],[-122.20732499992732,47.36145600019877],[-122.20732599975224,47.361272000196664],[-122.20732900012527,47.360748999933755],[-122.20734800039185,47.358475999989025],[-122.2074000002704,47.3568609997381],[-122.20741699998882,47.35630100021434],[-122.20746100036975,47.35494400025366],[-122.20833800042881,47.355317999765106],[-122.2090000004027,47.35525800023678],[-122.20985399999724,47.35518099976843],[-122.21033299967304,47.35513699988507],[-122.21041200021406,47.35508700011137],[-122.21061200023061,47.354960000108015],[-122.21073000023138,47.35488199993528],[-122.21071299961461,47.354871000057706],[-122.21037000038127,47.35464899982504],[-122.20957299978986,47.35412700013779],[-122.20953000013213,47.35409099973818],[-122.20905499975599,47.353707999730936],[-122.2091190002284,47.353709000239895],[-122.20984700032456,47.35372900006872],[-122.21020700017466,47.353735999976614],[-122.21036700000822,47.353838999904774],[-122.21059200013912,47.35398400011289],[-122.21113699993717,47.35432399987791],[-122.21198700023203,47.3542189998979],[-122.21222599970834,47.354190999908504],[-122.21320400004971,47.35413700027825],[-122.21317899993535,47.35384900009982],[-122.21296300002531,47.35385699988932],[-122.21269199986364,47.35387100027875],[-122.21268000016808,47.35377299990897],[-122.21266299955134,47.35363799996466],[-122.21196700014055,47.35363399974915],[-122.20998000039393,47.353399999699576],[-122.20967700044525,47.35336300011431],[-122.20947999990345,47.35317799997302],[-122.20945700033721,47.353184999953996],[-122.20917600012982,47.353253999803634],[-122.20865700027102,47.35338800021525],[-122.20852199965351,47.35253099980998],[-122.20859799982149,47.35183499974949],[-122.20855299961565,47.35160799982499],[-122.20867700036253,47.351425000113395],[-122.20915400038851,47.350934999903124],[-122.20854900031601,47.350924999764516],[-122.20799899959678,47.35091400027933],[-122.20760799978453,47.350908999903986],[-122.20413999973127,47.35086200024754],[-122.20416700039377,47.34609900002648],[-122.20238800016129,47.346091000278314],[-122.20236100039712,47.350827000010035],[-122.1971149999363,47.35081899976124],[-122.1952000001597,47.350803999823924],[-122.19435400006279,47.35082200023507],[-122.19210100017736,47.35077499989253],[-122.18839299992459,47.35073299990067],[-122.18677299970079,47.35071500006779],[-122.18677299970079,47.35025700009141],[-122.18454400010484,47.35026099995422],[-122.18413400002602,47.35026099995422],[-122.18377400017592,47.35026199991991],[-122.1814509999703,47.35026599978238],[-122.18145000014538,47.34981300004101],[-122.180992000386,47.34981200006683],[-122.1809720002945,47.34981200006683],[-122.18094899982998,47.34981200006683],[-122.18079200036946,47.349811000092664],[-122.18079099964622,47.34979899979224],[-122.18078999982133,47.34968500014984],[-122.18078999982133,47.34960700009252],[-122.1807820003237,47.348992000261084],[-122.1807820003237,47.348907999840705],[-122.17958300004938,47.34892600028986],[-122.17939700027654,47.34892900026267],[-122.17867000000531,47.348941000152216],[-122.17860499970796,47.348936000198584],[-122.17797100022149,47.34893900017083],[-122.17686200035884,47.34894500011481],[-122.17613799956233,47.34891399978821],[-122.17078400004479,47.34889699993516],[-122.17041800034688,47.34888600002731],[-122.16996100041241,47.34888400004384],[-122.16969000025075,47.34888400004384],[-122.16956300002914,47.34888400004384],[-122.16935700016481,47.34888400004384],[-122.16929699989036,47.34888400004384],[-122.16921800024764,47.34888400004384],[-122.16916100034625,47.34888400004384],[-122.16913700005679,47.34888400004384],[-122.16869699984076,47.34888400004384],[-122.16852299976347,47.348883000052055],[-122.16840499976269,47.3488820000603],[-122.16830199983052,47.3488820000603],[-122.16796299989682,47.348883000052055],[-122.16782599962946,47.3488820000603],[-122.16776899972807,47.3488820000603],[-122.16771100000174,47.3488820000603],[-122.16742599959638,47.3488820000603],[-122.16736700004515,47.3488820000603],[-122.16713900043952,47.3488820000603],[-122.1668499998362,47.348881000068474],[-122.16679899978257,47.348881000068474],[-122.1665679998039,47.348881000068474],[-122.16630599986308,47.348880000076626],[-122.16604200027244,47.348880000076626],[-122.16588999993648,47.348880000076626],[-122.16553599993414,47.348880000076626],[-122.16553000008638,47.34844500000801],[-122.16549699957608,47.34616299979407],[-122.16550300032219,47.34412399991517],[-122.16550099977405,47.343439000208434],[-122.1625270003635,47.343451000128724],[-122.16070700012315,47.34345599999327],[-122.16022400024941,47.34345200022338],[-122.16010200005066,47.343453999804005],[-122.15876999970693,47.34346799990969],[-122.15837700024488,47.34347299977258],[-122.15737799998708,47.34347200028699],[-122.15688800044062,47.34347200028699],[-122.15485399994002,47.343482000011626],[-122.15342799988497,47.3434859997792],[-122.1509230001045,47.34349100024913],[-122.14956200034676,47.34349500001603],[-122.14691399955284,47.343503000157604],[-122.14638999967119,47.34351600015679],[-122.14581899993387,47.34351500006335],[-122.14580499969017,47.34353199982367],[-122.14559100032827,47.34378500026485],[-122.1454349997943,47.34395900013647],[-122.14524599964845,47.34415600009292],[-122.14494699989768,47.34444500028687],[-122.14485400001129,47.34452799982269],[-122.14515000028729,47.34467500019099],[-122.14531299959559,47.34475599983395],[-122.14524399999863,47.34481699980615],[-122.14505800022577,47.344979999815074],[-122.14492299960824,47.34509199975353],[-122.14478600023921,47.34520199994004],[-122.14464599959882,47.34531099983787],[-122.144503000382,47.34541800000448],[-122.14435799971872,47.34552299984336],[-122.14420999958071,47.34562599997511],[-122.14409099975505,47.345704999880894],[-122.14405700031817,47.345726999802785],[-122.14390199960917,47.345824999896784],[-122.14374500014863,47.345921999761],[-122.1435740004444,47.34602400028561],[-122.14304499964157,47.34632000027439],[-122.14299799978592,47.34634700013937],[-122.14295099993024,47.346372999951186],[-122.14290300024967,47.34639899975021],[-122.14287300011243,47.346414999760604],[-122.14224999959828,47.34675000004414],[-122.14145600027823,47.347176999890664],[-122.14127700017805,47.347273000291416],[-122.14122100010158,47.34730399975588],[-122.1411039999257,47.34736699986795],[-122.14030300003463,47.347800000275264],[-122.13973700032021,47.348107000115654],[-122.1396879999164,47.348133000277876],[-122.13964000023583,47.348158999818594],[-122.13909000041492,47.3484570000076],[-122.1388860002004,47.348566999876915],[-122.13874999975798,47.348641000268614],[-122.1380760000885,47.34900500012585],[-122.13784599993475,47.34912899989187],[-122.13772100026127,47.349021999944114],[-122.13750399962797,47.34913899976213],[-122.13719200035673,47.34930799971767],[-122.13698999979208,47.34941700026629],[-122.13643199957525,47.34971799997559],[-122.13620800016758,47.349838999971446],[-122.13492600005256,47.35053099973369],[-122.13479299998316,47.35060299988792],[-122.1347810002876,47.350610000210395],[-122.13476000037122,47.35062099975894],[-122.13465400006599,47.35067799981731],[-122.13456600020245,47.35072500024619],[-122.13438299990435,47.350823000190076],[-122.1341899995605,47.350921999905154],[-122.13416299979633,47.35093699980888],[-122.13347599970804,47.35129000024863],[-122.13292000003936,47.351593000111926],[-122.12998799956331,47.353190000113706],[-122.12872100041521,47.35388099985914],[-122.12831700018418,47.35409800020665],[-122.12830899978829,47.35442599998883],[-122.129316000442,47.354420999946235],[-122.13006700010435,47.35440900008548],[-122.13013900007438,47.35441599990316],[-122.13011999980779,47.35456700026503],[-122.13010200026444,47.354579000089856],[-122.13006499955621,47.35490600004752],[-122.13005299986062,47.354998000275216],[-122.1303109996035,47.35499400016285],[-122.13055500000098,47.35499199980225],[-122.13169800019881,47.35499199980225],[-122.13170300022169,47.35530100014907],[-122.13112999993623,47.355307999848435],[-122.13113300030929,47.3557890002651],[-122.13113300030929,47.3559060002956],[-122.13113499995913,47.35617999982005],[-122.13071400000963,47.356187000011346],[-122.13003399959408,47.35619900007634],[-122.13001900042376,47.356285000157975],[-122.12998199971553,47.356400999847935],[-122.12995900014931,47.356647999786134],[-122.12993499985988,47.356697999906345],[-122.12992200033938,47.35704000011572],[-122.12990700027078,47.357137999895194],[-122.12988600035438,47.35727399984654],[-122.12981600003417,47.35741700008397],[-122.1295780003828,47.3576309998005],[-122.12943600009258,47.357745999750286],[-122.12942400039701,47.357755999813435],[-122.12931800009179,47.357874000172224],[-122.1293039998481,47.35788999974672],[-122.12924600012178,47.35801200029832],[-122.12829500044288,47.35802000006525],[-122.12829200006985,47.35810700003866],[-122.12829399971963,47.358206999900816],[-122.12829299989474,47.35826100023443],[-122.12829200006985,47.35867999978402],[-122.12829200006985,47.358838999757374],[-122.1282960002678,47.35885000002486],[-122.1283049995903,47.35887599976284],[-122.12831399981114,47.35890200009651],[-122.12832100038213,47.35892300019282],[-122.12832700022993,47.35893699984672],[-122.12921500015962,47.358926000205905],[-122.13095099983609,47.35892000017961],[-122.13094900018628,47.359879999972634],[-122.13095400020914,47.360707999737016],[-122.13171200044252,47.36070300028968],[-122.13179000026031,47.36076999990343],[-122.1318320000931,47.360806000005866],[-122.13194800044405,47.36090600022913],[-122.13196699981232,47.360919999965354],[-122.13205899987383,47.360991000178615],[-122.13221899970742,47.36111600014191],[-122.13227899998186,47.361146000235046],[-122.13257400043297,47.361297999958104],[-122.13268599968764,47.36137200014516],[-122.13275099998496,47.36141599969733],[-122.13283300000073,47.36152500018626],[-122.13284999971917,47.361601000165045],[-122.13319700004878,47.36158799975209],[-122.13320799991943,47.36159499983441],[-122.1333159998745,47.36159400008352],[-122.13360600030273,47.361591999973136],[-122.13392199977189,47.36159400008352],[-122.13420700017726,47.36159400008352],[-122.13429500004081,47.36159400008352],[-122.13471299961724,47.36159400008352],[-122.13625699967305,47.36159499983441],[-122.1362580003963,47.361977999794284],[-122.13625900022119,47.36221499996558],[-122.13626099987103,47.36250500019526],[-122.13627000009184,47.36359899990078],[-122.13627299956659,47.36395000019668],[-122.13627500011474,47.36412599992875],[-122.13627599993964,47.36424099971656],[-122.13627900031268,47.36459399999668],[-122.1362819997874,47.36507200006521],[-122.13628299961232,47.36522600001002],[-122.13652399963676,47.36522400003729],[-122.13698999979208,47.365222999746706],[-122.13734999964218,47.36522099977391],[-122.13831399973989,47.36521200019953],[-122.13996599975074,47.36521200019953],[-122.14110999977349,47.36521600014578],[-122.1415049997837,47.36521699982803],[-122.14155900021036,47.36521699982803],[-122.14155800038547,47.36528700005347],[-122.14155800038547,47.365410999894436],[-122.14155800038547,47.36546700011962],[-122.14156000003528,47.36678700029284],[-122.1415680004312,47.36700300024061],[-122.142560000118,47.36700099972686],[-122.14305899988528,47.36699899982147],[-122.14328700038922,47.366996999915955],[-122.14336299965889,47.36715599976981],[-122.14373400027797,47.36782499993082],[-122.14379000035447,47.36794599978139],[-122.14383800003506,47.36806800019943],[-122.14387700039312,47.36819099996124],[-122.14392000005083,47.368404000161306],[-122.14391800040099,47.3684769998863],[-122.14397699995223,47.3686250000938],[-122.14410300034892,47.36894200023846],[-122.14413000011311,47.36970200019198],[-122.14415100002948,47.37030199972032],[-122.14421799997663,47.37221900029462],[-122.14422399982443,47.37237899977078],[-122.14420200008314,47.374665000153186],[-122.14417500031892,47.376340999875595],[-122.14416899957284,47.37687400015507],[-122.14416699992303,47.37880400011143],[-122.14416799974792,47.37895700007968],[-122.14415000020458,47.37983499977342],[-122.14412199971719,47.38012299983185],[-122.1440179999601,47.380333999887846],[-122.14335500016128,47.38133799984853],[-122.14301600022758,47.381820000140884],[-122.14289700040189,47.38199999974337],[-122.1426870003396,47.38235600028325],[-122.14260899962346,47.38250799971313],[-122.1425259997828,47.38269900016805],[-122.14244399976704,47.382982999972704],[-122.14236099992637,47.38359599970722],[-122.14235900027656,47.38368899971991],[-122.14237500017005,47.38379000029342],[-122.1423919998885,47.383855999841025],[-122.14245299998788,47.384057000221226],[-122.14263600028598,47.38448800017167],[-122.14291699959507,47.384796999885104],[-122.14341100023779,47.385416999775614],[-122.14370999998852,47.385584999800855],[-122.14410599982365,47.385757000111916],[-122.14452500012332,47.38593200016358],[-122.14501800004282,47.386043000263605],[-122.1456099996965,47.38611900019182],[-122.1460259996231,47.38620500015449],[-122.14615899969249,47.386250000170975],[-122.14625300030215,47.386288000303665],[-122.14699300009387,47.38668400008809],[-122.14709299965298,47.386732999834585],[-122.14719700030835,47.38677700012675],[-122.14730500026339,47.38681599976058],[-122.1475029997318,47.38687199976133],[-122.14758800012062,47.38688800027196],[-122.1476790003572,47.38690699980767],[-122.14779900000782,47.386922999699465],[-122.14792100020654,47.386934000192404],[-122.14940699963775,47.3869040001695],[-122.14939800031523,47.38725499985523],[-122.14939400011728,47.387983999967936],[-122.15004799969525,47.388199000214996],[-122.15037099973543,47.388427000076064],[-122.15117300034974,47.388507000220415],[-122.15142000022195,47.38920099972159],[-122.15230999980149,47.38949000013932],[-122.15296599992759,47.39053499981382],[-122.15302600020206,47.39063200019865],[-122.15302100017918,47.391105999825136],[-122.15301699998122,47.39196500016814],[-122.154641000403,47.39197100008447],[-122.15465399992348,47.3920969999943],[-122.15467499983987,47.39219999982709],[-122.15470699962692,47.39230399984373],[-122.1546909997334,47.39370500018951],[-122.15468700043374,47.39404900016238],[-122.15494000015373,47.39441000011089],[-122.15586800026644,47.39574099996124],[-122.15608300035159,47.396049999988755],[-122.1572809999027,47.397768000018914],[-122.15861300024642,47.39776999997357],[-122.1586769998205,47.39777100025489],[-122.15867599999561,47.397836000258685],[-122.1586619997519,47.39884200000891],[-122.15866099992701,47.398932999966206],[-122.15865400025429,47.39941400025666],[-122.15864400020855,47.40102599999181],[-122.15864300038363,47.40123100020978],[-122.15864199966043,47.401368999993345],[-122.15869400043727,47.40137099981128],[-122.15901599975425,47.40137999990322],[-122.15907100000582,47.4013840001463],[-122.15986100002625,47.401378000085636],[-122.15999599974548,47.40137600026792],[-122.15999400009562,47.401554000162605],[-122.1599930002707,47.40162299998058],[-122.15999499992056,47.40167300003007],[-122.15999699957037,47.4017300002597],[-122.15999200044581,47.402849999759276],[-122.15998099967682,47.404886000029755],[-122.15997999985191,47.40501600003332],[-122.1598369997368,47.40501600003332],[-122.1597959997289,47.40501600003332],[-122.15965299961378,47.40511400004846],[-122.15962000000181,47.40513700026754],[-122.15980400012482,47.405863000091756],[-122.15993999966896,47.406231999712006],[-122.15997300017924,47.40632300028043],[-122.16008600015714,47.4066389998376],[-122.16006000021787,47.407003000179415],[-122.16012299996706,47.40750700014778],[-122.16017099964765,47.40784099969908],[-122.16022199970125,47.40821200021996],[-122.16010899972335,47.40847299998244],[-122.16009299982984,47.40850999982078],[-122.16006500024073,47.40857499995041],[-122.16002800043081,47.408652000290104],[-122.16008600015714,47.408652000290104],[-122.16012200014214,47.408652000290104],[-122.16036399999147,47.40864900006579],[-122.16036900001437,47.408947000233894],[-122.16035399994574,47.41135899990212],[-122.15989299981331,47.41136099994878],[-122.15989100016347,47.41288600002899],[-122.15989700001126,47.4132919998149],[-122.15990000038431,47.413520999903575],[-122.15977900001049,47.41351799995663],[-122.15949699997817,47.413518999938944],[-122.15949399960512,47.41406500022289],[-122.15859999982763,47.41407000008246],[-122.15859800017779,47.41490599970846],[-122.15859999982763,47.414964000163025],[-122.15883900020224,47.414964000163025],[-122.15883500000426,47.41552599977131],[-122.15883300035443,47.41582100011579],[-122.15882999998139,47.41589599971318],[-122.15990799988188,47.41588700027775],[-122.15991299990478,47.41622900023419],[-122.1599149995546,47.41633400016438],[-122.15991600027783,47.41646000016897],[-122.1599149995546,47.41667499972664],[-122.1599149995546,47.41673699974136],[-122.15991200007986,47.41728400000205],[-122.15991200007986,47.41732099972892],[-122.16057800025172,47.41731899990865],[-122.16058499992444,47.41822500007566],[-122.16076599967437,47.418310000026096],[-122.16090399976665,47.41837500021739],[-122.1609270002312,47.418386000223094],[-122.16102400031555,47.41843200000113],[-122.1611740001034,47.41850299997604],[-122.16121299956313,47.418520999774685],[-122.16139699968615,47.41860900012001],[-122.1618999996514,47.41884499996075],[-122.16189899982648,47.41898699991666],[-122.16189800000156,47.419139999945635],[-122.16194800023027,47.419124000110436],[-122.16266399973256,47.4188900000653],[-122.16286899977197,47.41882300013876],[-122.16290800013003,47.41880999985286],[-122.16329800011736,47.419241000046895],[-122.16398000018276,47.41999399982239],[-122.16459799977572,47.420675999781075],[-122.16477600005095,47.42087199970339],[-122.16500500037981,47.42095599979408],[-122.16516900041135,47.42101599995046],[-122.16521999956667,47.42103599978479],[-122.16521999956667,47.42105499977228],[-122.16521999956667,47.42106999978958],[-122.16521999956667,47.42109299972678],[-122.16521899974175,47.42110500021854],[-122.16521899974175,47.421135000220374],[-122.16521899974175,47.42115700029188],[-122.16521899974175,47.421181000027886],[-122.16521899974175,47.42120499975295],[-122.16521899974175,47.42122299984346],[-122.16521899974175,47.42124199976351],[-122.16521799991682,47.42132299976156],[-122.16521799991682,47.42133699986862],[-122.16528999988684,47.42133699986862],[-122.16552800043654,47.42133600003476],[-122.16569800031586,47.42133600003476],[-122.16595699988365,47.42133600003476],[-122.16602999967857,47.42133600003476],[-122.1661719999688,47.42133600003476],[-122.16630800041122,47.421335000200884],[-122.16635899956654,47.421335000200884],[-122.16643800010755,47.421335000200884],[-122.16684099961536,47.421335000200884],[-122.16696299981412,47.421333999759185],[-122.16730900031882,47.421333999759185],[-122.16781599958372,47.42133299992527],[-122.16784099969807,47.42133299992527],[-122.16790000014763,47.42133299992527],[-122.1678990003227,47.42150799974741],[-122.1678990003227,47.421613000090915],[-122.16789799959949,47.421676000196456],[-122.16789699977457,47.42176499995661],[-122.16802099962314,47.42189399980622],[-122.16959200034147,47.42266699975103],[-122.17053299997461,47.42272200013545],[-122.1705460003934,47.42306400006494],[-122.17210600034275,47.42308599993813],[-122.17219300038141,47.42308599993813],[-122.17238099980409,47.42308500013744],[-122.17237999997916,47.423134999871266],[-122.17237800032932,47.42336200010777],[-122.17237499995629,47.42372700013589],[-122.17237099975831,47.423779999838],[-122.17237300030645,47.423912000182824],[-122.17237300030645,47.42396999983369],[-122.17238500000201,47.42398600001955],[-122.17248299991132,47.423985000236],[-122.17257099977486,47.424197000116244],[-122.1725780003459,47.42421300023307],[-122.17261799963055,47.42431099977914],[-122.17267299988214,47.424443000007976],[-122.17268399975276,47.42447000000022],[-122.17270399984426,47.424515999932574],[-122.17282900041604,47.424817000175786],[-122.17321000018256,47.42573800006502],[-122.1733700000161,47.42612600019727],[-122.17344799983393,47.42631400014751],[-122.17397500008862,47.427589999702384],[-122.17425100027314,47.428254999908596],[-122.17434699963431,47.42849199996367],[-122.17458199981093,47.42905700009058],[-122.17471800025339,47.429386000081905],[-122.17568300017598,47.42938000017251],[-122.1758100003976,47.42938000017251],[-122.1757969999788,47.43028200014318],[-122.17579299978084,47.43050800028491],[-122.17579199995592,47.43060300007627],[-122.17588900004031,47.43059000026846],[-122.17719999956931,47.43041999977505],[-122.17732400031618,47.43039599999713],[-122.17800399983344,47.43026499977595],[-122.1789789998018,47.430258000302345],[-122.17916700012276,47.43025700003022],[-122.18114200017384,47.43024600007401],[-122.18358699967982,47.43023199990541],[-122.18446000043923,47.430226999757465],[-122.18645800005653,47.4302170000679],[-122.18783399988287,47.43021500012977],[-122.18965599977305,47.430220999943984],[-122.19095100030684,47.43023199990541],[-122.19128900041565,47.43023500011546],[-122.19171000036512,47.4302339998429],[-122.19246600005035,47.43022999996785],[-122.19383600002891,47.43022600009245],[-122.19555800035998,47.430226999757465],[-122.19709099964683,47.430228000030205],[-122.19707700030146,47.42849999997767],[-122.19707599957826,47.4266910001968],[-122.19707700030146,47.42581699972548],[-122.19706399988267,47.42403800028609],[-122.1970589998598,47.42309799997559],[-122.19794400031479,47.42310199978489],[-122.19878000036596,47.42310499979358],[-122.19969099986189,47.42311000001032],[-122.19988400020573,47.42311000001032],[-122.20098999969532,47.42311200021842],[-122.20179999980724,47.42311300001855],[-122.20233499955953,47.42311500022659],[-122.20262099978979,47.42311699982671],[-122.20300999995222,47.42311800023453],[-122.2039649998291,47.42312299984225],[-122.20432200020447,47.4231250000499],[-122.20443500018237,47.42312599984977],[-122.20453499974148,47.42312700025743],[-122.20464699989449,47.42312700025743],[-122.20502699983606,47.4231300002647],[-122.20558699970272,47.42313300027183],[-122.20611200030757,47.42313199986429],[-122.20744100027828,47.42313100006453],[-122.20756599995173,47.42313100006453],[-122.20894000012828,47.4231220000423],[-122.20978399967704,47.42311500022659],[-122.20995299973146,47.42311300001855],[-122.21103099963196,47.423100999984506],[-122.21150799965794,47.42309700017513],[-122.21201700036926,47.4230919999572],[-122.21238700026514,47.4230899997483],[-122.21272899967357,47.42308500013744],[-122.21343000000553,47.42307600010741],[-122.21468899965602,47.423060000252754],[-122.21485000021282,47.42305800004262],[-122.21626200002416,47.42303699995934],[-122.21755500000982,47.42301899988123],[-122.21790399998928,47.42300399981149],[-122.21797500013442,47.42298400011699],[-122.21806700019592,47.42302700011932],[-122.21809399996008,47.4230379997609],[-122.21810800020378,47.423634000277424],[-122.2181220004475,47.42422400023462],[-122.21812400009729,47.42434399971541],[-122.2181280002953,47.42456100005208],[-122.218094999785,47.42518800022758],[-122.218102000356,47.42533200021657],[-122.21811200040173,47.42598400004839],[-122.2181159997014,47.42623799984762],[-122.21811900007445,47.426458000094925],[-122.21809200031026,47.42747399980561],[-122.21807200021875,47.42824899987026],[-122.2180870002874,47.4291549997341],[-122.21809899998294,47.42992200016655],[-122.21810400000581,47.430071999797725],[-122.21810599965566,47.43024400013698],[-122.21821199996087,47.43024600007401],[-122.21837099996952,47.43024900028327],[-122.21847100042694,47.43025100022011],[-122.21896500017135,47.43024099992739],[-122.21928099964053,47.43022400015466],[-122.21976400041262,47.43018000028838],[-122.21994000013972,47.43018600010659],[-122.22027400005052,47.43020000028742],[-122.22024800011128,47.430298000233535],[-122.22022299999692,47.43039700026662],[-122.21947399998439,47.43332199985605],[-122.21902899974546,47.43502900002505],[-122.21861700001679,47.43663900015668],[-122.21852699960513,47.436990000283515],[-122.21819199986938,47.436989000139334],[-122.21805999962488,47.4375009997742],[-122.21804700010442,47.43754100027639],[-122.21797900033233,47.437619999842106],[-122.21786200015649,47.437758999805325],[-122.21745999957527,47.43822900026565],[-122.21730999978745,47.438406000051444],[-122.21702500028039,47.43873999987561],[-122.21690800010454,47.43899600030296],[-122.21685600022602,47.439112999820075],[-122.21683000028672,47.43916800003291],[-122.21664199996576,47.43957400009023],[-122.2165669996227,47.43963800005885],[-122.21632599959827,47.43984500024067],[-122.21619599990194,47.43995599977377],[-122.21604799976393,47.44008199974822],[-122.21594300018192,47.44017300014967],[-122.21569299993666,47.44039099971012],[-122.21565899960147,47.440421000264514],[-122.21561699976871,47.440603999812836],[-122.21561199974582,47.440626000253516],[-122.21558099978368,47.440769999928214],[-122.21553800012597,47.4409720001747],[-122.21552600043039,47.4410240000645],[-122.21549700011809,47.44114500019332],[-122.21583799970162,47.4411530001067],[-122.21649899985061,47.441165999735475],[-122.21745899975035,47.44116899992975],[-122.2175879996218,47.441165999735475],[-122.21771800021645,47.441164000213384],[-122.21988700043626,47.44112199990405],[-122.2214590000812,47.44112299996967],[-122.22381599972366,47.441135000148066],[-122.22395200016608,47.441136000213426],[-122.22702600003404,47.4411489998464],[-122.22779400031315,47.441152000041654],[-122.22977100001404,47.44115799982408],[-122.23289400028581,47.44116799986501],[-122.23510500033842,47.44117400025319],[-122.23524699973032,47.441174999710235],[-122.23647899961662,47.441177999904006],[-122.23882699993656,47.44118400029108],[-122.23899799964082,47.44118400029108],[-122.23907800000674,47.44117599977484],[-122.24098500028575,47.44119599984794],[-122.24142999962633,47.4412010001688],[-122.24176400043548,47.441203999753554],[-122.24229400016492,47.44120699994568],[-122.24333199988244,47.4412139997857],[-122.24369500010563,47.441215999913425],[-122.24441599963076,47.44122200029617],[-122.2456290001488,47.441232999780844],[-122.24545699972134,47.44043299999544],[-122.24534600029159,47.43992000024646],[-122.24533600024583,47.439792999793156],[-122.24534600029159,47.439601000219405],[-122.2453839999264,47.43941100014135],[-122.24545099987354,47.43922599988567],[-122.24551199997292,47.43910500020412],[-122.24562699960066,47.438935999982284],[-122.24565599991298,47.43889399971709],[-122.24587099999813,47.43865699971888],[-122.24615999970312,47.43843599991492],[-122.24656599958399,47.43819700004173],[-122.24677499982138,47.438061999908115],[-122.24697300018808,47.43790300003566],[-122.2471439998923,47.437730999816054],[-122.24728799983234,47.437546999862974],[-122.2474030003584,47.437354999992095],[-122.24751899981104,47.43705300021423],[-122.24779099979762,47.43602799984166],[-122.24819900022659,47.43452499974072],[-122.24839900024313,47.433790000041185],[-122.2484960003275,47.43342900014984],[-122.24850300000021,47.43340300010414],[-122.24867500042765,47.43340300010414],[-122.2487130000625,47.4334039997088],[-122.2492839997998,47.433409000162534],[-122.2493399998763,47.433409999767136],[-122.24951899997644,47.43341299979602],[-122.24972900003873,47.43341599982473],[-122.24977199969643,47.43341599982473],[-122.25001899956864,47.43342000006537],[-122.25006600032262,47.43342100027737],[-122.25049700031784,47.433426999726095],[-122.2507340001443,47.433430999965836],[-122.25135699976013,47.43343899983679],[-122.25156799964734,47.43344199986402],[-122.2520010001907,47.43344799991802],[-122.25218899961335,47.4334499997333],[-122.25279799988381,47.43345800020902],[-122.25310400020558,47.43346199983874],[-122.25328099975756,47.433464999864704],[-122.25344399996418,47.43346700028701],[-122.25367900014083,47.43346900010157],[-122.25455399965176,47.433478000177665],[-122.25476200006422,47.4334799999918],[-122.25568699980384,47.4334879998553],[-122.25597200020921,47.43349300030105],[-122.25633000040949,47.43349599971757],[-122.25649699991577,47.433498999741566],[-122.25684900026828,47.433318999821964],[-122.25700999992675,47.43328799986479],[-122.25730500037785,47.43323000015074],[-122.25786900044245,47.43327099986096],[-122.25846899959376,47.433530000182074],[-122.25927399968282,47.434135999950875],[-122.25934300017808,47.434187999912794],[-122.25942600001878,47.434218999947426],[-122.259928999984,47.434411999909074],[-122.26091999984588,47.43455799995765],[-122.26169499979768,47.434444000004355],[-122.26212300031816,47.43428599972467],[-122.26229300019749,47.43416800021395],[-122.26250699955942,47.4340229998916],[-122.26283399979755,47.43362000016183],[-122.26289999991981,47.43338199989425],[-122.26283799999553,47.433085000282105],[-122.26271400014696,47.432943000069635],[-122.26253000002394,47.43280100008166],[-122.26242399971873,47.43271899989699],[-122.2621120004475,47.43264000026518],[-122.26180500030087,47.43256299975613],[-122.26119799968025,47.43241499978708],[-122.26045500041377,47.43224200023175],[-122.26039699978917,47.43222799998647],[-122.26007399974895,47.432156000055045],[-122.25940199972932,47.4320060002867],[-122.2588860002436,47.431759999886886],[-122.25862299957956,47.431477000077116],[-122.25843000013401,47.431272999940354],[-122.25825100003387,47.430494000186],[-122.25829700006464,47.43033100006269],[-122.25831999963086,47.43024800001096],[-122.25863199980037,47.42981100012779],[-122.25903100000856,47.42958300006947],[-122.25979099989175,47.429435000227926],[-122.26262899975814,47.42940900003209],[-122.26351900023599,47.42930999996366],[-122.26417799983686,47.42918199974028],[-122.26493199987227,47.42888500012614],[-122.26533100008044,47.42865600000783],[-122.26576700009852,47.42811999979245],[-122.26621099961424,47.4269419998333],[-122.26722099974269,47.42554100027219],[-122.26723699963621,47.425408999757835],[-122.26719099960545,47.425206999932186],[-122.26710899958968,47.42509999993913],[-122.26668199979241,47.42454899974038],[-122.26593500032801,47.423966999874295],[-122.26553399957172,47.42344100029515],[-122.26540800007334,47.42327600000752],[-122.26533500027841,47.42306900028553],[-122.26515399963012,47.422560000065154],[-122.26527500000394,47.42179299993196],[-122.26573899961113,47.42106999978958],[-122.26620800013949,47.420625000295615],[-122.26684499999905,47.420039000160514],[-122.26712200000847,47.419619000168844],[-122.26722900013861,47.41945499992825],[-122.26726799959835,47.41939700016563],[-122.26734499959122,47.41939499981633],[-122.26740999988857,47.41939700016563],[-122.26767100000448,47.41940299999731],[-122.27077300035984,47.41936800026036],[-122.27311599975862,47.41933200002036],[-122.27436299971352,47.41931499976343],[-122.27623599965735,47.41928999991192],[-122.276614999774,47.419283000194476],[-122.27955700029582,47.415546999811326],[-122.28132999978219,47.41552599977131],[-122.28217099985622,47.41551599972034],[-122.28234999995637,47.4155170002726],[-122.28226299991773,47.41517000019226],[-122.2821549999627,47.41473700018903],[-122.28182500024982,47.41410099980887],[-122.28153700036975,47.413561999769215],[-122.28130200019308,47.41326100022011],[-122.28129700017021,47.41261600025615],[-122.28129499962208,47.41226699989242],[-122.28115999990285,47.41168499981463],[-122.28131600043679,47.41098100005801],[-122.28134499985079,47.41075800007571],[-122.28136999996516,47.41037099979533],[-122.28137599981292,47.40925199976779],[-122.28135700044469,47.40893999974945],[-122.28134599967571,47.408860000226454],[-122.28131800008663,47.40876099981264],[-122.28123400042105,47.40854799970988],[-122.28128499957634,47.408532999772945],[-122.2813289999573,47.40850899974335],[-122.28135999991943,47.408477000294845],[-122.28137699963784,47.40844199998283],[-122.281379000186,47.40840400001725],[-122.28137400016311,47.40838499972022],[-122.28163199990597,47.40831999996407],[-122.28179599993751,47.40826599981573],[-122.28186999955736,47.4082260001655],[-122.28197599986255,47.40815200006378],[-122.2827530003625,47.40750200027308],[-122.28290300015033,47.40725899995537],[-122.28341899963605,47.40685000014673],[-122.2837459998742,47.40694799978969],[-122.28378299968414,47.40696699999711],[-122.28391099973064,47.40704499975298],[-122.2839080002559,47.40714300024904],[-122.2840270000816,47.4071579999739],[-122.28413199966357,47.40717899970308],[-122.28422700009814,47.40720800024174],[-122.28440299982523,47.407274000255164],[-122.2844639999246,47.40730400023388],[-122.2845619998339,47.407358000152584],[-122.28463200015409,47.40740700013226],[-122.28474799960672,47.40752700024971],[-122.28485999975973,47.407683999904364],[-122.28488200039934,47.407714000257585],[-122.28502299996633,47.407923999819666],[-122.28525499976992,47.4082640002595],[-122.285654999803,47.40825400004543],[-122.28614600007269,47.40824900024169],[-122.28658100026588,47.408242999746975],[-122.28655899962625,47.40426400024042],[-122.28655600015152,47.40381000009564],[-122.28659299996144,47.40380899992891],[-122.28663099959628,47.40380799976222],[-122.28667499997721,47.40380799976222],[-122.28808699978858,47.40378599973801],[-122.28812000029885,47.40378500017889],[-122.2882509998201,47.40378299984454],[-122.28840700035401,47.40378100011813],[-122.28850100006534,47.403779999950906],[-122.28856200016472,47.40377899978367],[-122.2886170004163,47.40377800022437],[-122.28868000016548,47.4037770000571],[-122.28868299964023,47.40376799976662],[-122.28870699992967,47.403723000115306],[-122.28873700006689,47.40369100019124],[-122.28877800007479,47.40366500004858],[-122.288764999656,47.403457999835],[-122.28874899976246,47.403365000046996],[-122.28871399960238,47.40325900022571],[-122.28847099992812,47.40291800012827],[-122.28829699985083,47.40267900008869],[-122.28829699985083,47.40266900003035],[-122.28830500024675,47.40222700005402],[-122.28834899972938,47.40222700005402],[-122.28864099980743,47.40222500026853],[-122.29016599959668,47.402212999730025],[-122.29016599959668,47.40220000020764],[-122.29016899996972,47.40214100008988],[-122.29017099961956,47.402104000033795],[-122.29017399999259,47.401833000112894],[-122.29017599964244,47.40166299978076],[-122.29018099966531,47.401316000229386],[-122.29018499986326,47.401019000278765],[-122.29018599968818,47.40096799999593],[-122.28655199995357,47.40103099987316],[-122.28605300018627,47.40103899980392],[-122.28563499971153,47.40104699973344],[-122.28388800016442,47.40106800007474],[-122.28388499979137,47.400568999835016],[-122.28388099959342,47.39984100013955],[-122.28387800011866,47.39925299987092],[-122.28277000008093,47.39927199981361],[-122.28276000003521,47.39745400011645],[-122.28294499998312,47.39745200014984],[-122.28347300006274,47.397026000051596],[-122.28346600039002,47.39677100010072],[-122.28411699959497,47.396640000123014],[-122.28407499976218,47.39656600016344],[-122.28576199993314,47.39652499983704],[-122.28604700033848,47.39651800013408],[-122.2865269998392,47.39650600011992],[-122.28652600001428,47.3963289998975],[-122.28652500018939,47.39605400002843],[-122.28652500018939,47.395751999829976],[-122.28652500018939,47.39573000009016],[-122.28652199981633,47.39570400027532],[-122.28662899994644,47.395702000242245],[-122.28676299984075,47.3957000002091],[-122.28728900027052,47.395692999788466],[-122.28728900027052,47.395848999734035],[-122.28729199974525,47.39589600005593],[-122.2873570000426,47.39589600005593],[-122.28750099998264,47.39589600005593],[-122.28796399976491,47.39589699976472],[-122.28892799986261,47.39589600005593],[-122.28899900000769,47.39590600018366],[-122.28909400044228,47.395914000284506],[-122.28914799997065,47.39591599970143],[-122.2899489998617,47.3958980000816],[-122.29003199970238,47.396080999984015],[-122.29034600042006,47.396076000241024],[-122.2913280000611,47.39606499983182],[-122.29172700026926,47.39606499983182],[-122.2918560001407,47.3960660001455],[-122.29209200014223,47.3960689998703],[-122.29206500037807,47.39589600005593],[-122.29196499992065,47.395227999993814],[-122.29190100034656,47.39479800002372],[-122.29186899966119,47.39457899978777],[-122.29184699991987,47.394429999712315],[-122.29184699991987,47.39424999998573],[-122.29184799974477,47.39403000016061],[-122.29184799974477,47.39392300005462],[-122.29196999994352,47.39370199972202],[-122.29199900025583,47.39370199972202],[-122.29203000021796,47.39362799989332],[-122.29207200005077,47.39352600017276],[-122.29207600024873,47.39350600022826],[-122.29209600034021,47.3934670000714],[-122.29214499984569,47.39337599979585],[-122.29233599964141,47.39301000002758],[-122.29254700042692,47.39261099980673],[-122.29258199968872,47.39254300012161],[-122.29270300006252,47.39231100010648],[-122.29276199961376,47.39220199999309],[-122.29280599999468,47.39221800010199],[-122.29333200042448,47.392457000161734],[-122.29389200029112,47.392794000177865],[-122.29473900021296,47.39347999992418],[-122.29493199965849,47.39364900015109],[-122.29539600016398,47.39405699993703],[-122.29548099965449,47.39422100021886],[-122.29592000004563,47.394594000049565],[-122.29596400042655,47.39463000017394],[-122.29609800032084,47.39472300017871],[-122.29623899988785,47.39480999981876],[-122.2965109998744,47.39495400018653],[-122.29663800009604,47.39501299983925],[-122.29683300008969,47.39509499977261],[-122.29700100031917,47.395157000260404],[-122.29715600012989,47.39520800008713],[-122.29743700033728,47.39528600022749],[-122.29761800008724,47.395328000021365],[-122.29787800037823,47.39537799996397],[-122.2985310001313,47.395483000114666],[-122.29884800032373,47.39553000015489],[-122.2987899996991,47.393739999955265],[-122.29774600013378,47.39372399970038],[-122.29755699998788,47.39372399970038],[-122.29718700009202,47.39372099984209],[-122.29719100028997,47.392463999796014],[-122.29521000039115,47.39243899996852],[-122.29511099975862,47.392436999811515],[-122.2951369996979,47.39231199988328],[-122.29523799998023,47.39231499982182],[-122.29623899988785,47.39233300005739],[-122.29625899997936,47.39217299970739],[-122.29602700017576,47.39218500010014],[-122.29564499968602,47.39218500010014],[-122.29567399999834,47.39205700022932],[-122.29519500032254,47.392030999818495],[-122.29536400037692,47.391345000062664],[-122.29544499966946,47.390964999904405],[-122.29552699968522,47.390964999904405],[-122.29626999984998,47.390964000102045],[-122.29720399981045,47.390961999889065],[-122.29719799996269,47.390426000284286],[-122.29580899971754,47.3904319997677],[-122.29557899956376,47.3904029997243],[-122.29578899962605,47.38957600007552],[-122.29592099987055,47.389009999714254],[-122.297219999704,47.389033000274026],[-122.29722899992483,47.388382999944966],[-122.29724399999343,47.38738399970336],[-122.29638899967568,47.38737700000258],[-122.2963259999265,47.38737100017142],[-122.29641999963782,47.387053000236676],[-122.29648400011024,47.38678100026203],[-122.29654299966145,47.38652199984474],[-122.29670900024112,47.38652299973136],[-122.29728800037435,47.3865279997725],[-122.29772299966922,47.386525000112805],[-122.29816000041055,47.38652099995805],[-122.29854299982689,47.38651900018466],[-122.29859999972828,47.38651800029797],[-122.29860999977403,47.38622300004405],[-122.29864599975906,47.38494399999286],[-122.2986559998048,47.3846819999081],[-122.2985939998805,47.38468099998656],[-122.29844800029065,47.38467900014337],[-122.29761999973707,47.38467000023986],[-122.29761999973707,47.38456200006132],[-122.29761999973707,47.38450400018947],[-122.29761999973707,47.38448000016091],[-122.29761999973707,47.384394999743876],[-122.29761999973707,47.38431899976293],[-122.29761999973707,47.38425699990544],[-122.29710500007626,47.384232999764436],[-122.29742999976625,47.38289299979757],[-122.2975109999571,47.382589000286735],[-122.2986709998734,47.38258599979459],[-122.29867599989626,47.382165999771416],[-122.29870900040656,47.38114699993708],[-122.2996209997274,47.38114299998249],[-122.30044699973281,47.38114699993708],[-122.30053299994655,47.38114699993708],[-122.30059900006877,47.38114699993708],[-122.3006159997872,47.37945099988422],[-122.3018259999322,47.37946500017327],[-122.30195599962856,47.37944999986345],[-122.30211999966009,47.3794290000308],[-122.30372700036342,47.37946700021425],[-122.30376599982317,47.379483999951276],[-122.30382799974745,47.3794910000919],[-122.3048019998909,47.37949800023156],[-122.30492900011248,47.37949800023156],[-122.30608800020386,47.37953399971862],[-122.30672199969035,47.37954799998562],[-122.30718000034807,47.37955400009891],[-122.30789900022336,47.37956000021148],[-122.30786099969022,47.377780000122186],[-122.30782300005541,47.3760799997025],[-122.30782200023049,47.3759809997394],[-122.30681100027712,47.37596500017646],[-122.3057459998971,47.37594900000036],[-122.30469099956281,47.37593299981941],[-122.30337800038397,47.37591299989057],[-122.30282600001492,47.37590499979524],[-122.30273700032646,47.37590399970718],[-122.30255700040142,47.37589999996315],[-122.30255700040142,47.375544000237475],[-122.30255700040142,47.3754069998359],[-122.30255700040142,47.375379000140725],[-122.30255700040142,47.37535199992089],[-122.30255700040142,47.37520399973202],[-122.30255700040142,47.375149000213625],[-122.30255700040142,47.37500100006335],[-122.30255700040142,47.37483499998422],[-122.30255700040142,47.374809000203044],[-122.30103500008688,47.37479300028449],[-122.30067500023678,47.37478799973865],[-122.30079499988737,47.37455399982104],[-122.30082099982664,47.37450300008334],[-122.30090700004035,47.374336000143785],[-122.30107199989679,47.37401300004229],[-122.30137999986839,47.373450999800134],[-122.3016340003116,47.37295100010319],[-122.30199300033678,47.372280999708174],[-122.30231899985172,47.371646999931556],[-122.30267299985404,47.370965000258735],[-122.3030999996513,47.37017000006902],[-122.30332399995729,47.369767000135916],[-122.30384799983894,47.368703000027814],[-122.30421600008496,47.368001000119484],[-122.30451499983572,47.36743400027599],[-122.30467399984437,47.36717999977499],[-122.304796999868,47.36695899987228],[-122.30485899979227,47.36684599983684],[-122.30507200022763,47.366398000172936],[-122.3053879996968,47.36580199994264],[-122.305598999584,47.36540100006527],[-122.30567499975196,47.36525899985275],[-122.3069860001793,47.362732000097864],[-122.3076129999931,47.36153700025427],[-122.3077879998953,47.361227000157996],[-122.30808099979825,47.36068599997452],[-122.30829099986055,47.36025699972981],[-122.30860200020517,47.35966100009538],[-122.30893399956786,47.35903900016865],[-122.30909400029977,47.358748999750944],[-122.30952399957174,47.35794299997614]],[[-122.28651299959549,47.387923999883945],[-122.28650799957262,47.38853699993909],[-122.28648199963335,47.390080000133636],[-122.28649000002927,47.39045900017123],[-122.28650199972485,47.3905550002777],[-122.28570500003171,47.39065899989161],[-122.28495199982125,47.39079600019252],[-122.28419899961071,47.39096700011727],[-122.28365299998778,47.39107299973519],[-122.28308899992318,47.39115199971336],[-122.28246399975919,47.391147999909755],[-122.28201900041859,47.391117000053235],[-122.28160099994382,47.39106399970706],[-122.2809430001679,47.390948000220604],[-122.28081099992342,47.390883000234254],[-122.28080900027359,47.39021499987382],[-122.28080800044867,47.38998600002023],[-122.28080599990055,47.389551999923576],[-122.2808030004258,47.388947999900616],[-122.28079699967971,47.388552000096176],[-122.27986299971924,47.38853500024219],[-122.27842199959558,47.38850599976319],[-122.27833700010507,47.388507000220415],[-122.27813999956327,47.38811299985651],[-122.27791899963033,47.38736499973142],[-122.2777339996824,47.3867279998129],[-122.27741800021322,47.384955000290624],[-122.27722499986939,47.383804999976725],[-122.27704300029451,47.38305700015025],[-122.27775700014695,47.38305400029306],[-122.28024100001103,47.383047999969826],[-122.2811409996363,47.38304600006469],[-122.2811330001387,47.38375799981952],[-122.28113499978852,47.383889000192056],[-122.28112899994072,47.384537000134856],[-122.28112399991785,47.38478700008219],[-122.28112499974276,47.385038999889936],[-122.2822729999635,47.385035000230644],[-122.28242399957624,47.38503199987776],[-122.28243399962196,47.38528199991037],[-122.28244600021584,47.38534600020497],[-122.28247800000288,47.38544500022247],[-122.28240600003286,47.38544600012957],[-122.2823089999485,47.38544600012957],[-122.28206600027424,47.38544799994366],[-122.28206700009916,47.38552400012152],[-122.28206499955103,47.38557500014743],[-122.28207100029711,47.385801000002346],[-122.28190200024272,47.38576499992887],[-122.28186200005973,47.38583000014503],[-122.28164899962442,47.38578100016729],[-122.28150200020964,47.3860229999122],[-122.28147999957001,47.38605999970488],[-122.2814570000038,47.386098999869205],[-122.28144199993517,47.38612699995383],[-122.28133599962997,47.38610900003149],[-122.28115999990285,47.3861020001614],[-122.2811409996363,47.38610399995061],[-122.28100099989422,47.386115999900646],[-122.28086299980194,47.38614399997619],[-122.28083699986267,47.386155000023535],[-122.2807399997783,47.386193000224715],[-122.28063699984614,47.38625999969639],[-122.28056900007408,47.386327000299296],[-122.28053999976176,47.3863670001557],[-122.28049999957881,47.38646000014544],[-122.28036099966161,47.386891999790656],[-122.28021599989665,47.38736200011932],[-122.28019699963008,47.387424999843574],[-122.28079500002988,47.38743600023175],[-122.28080000005278,47.38843000023574],[-122.28206100025137,47.388428999777055],[-122.28206100025137,47.38840399986008],[-122.28206100025137,47.38839000012034],[-122.28206100025137,47.38819699989708],[-122.28206100025137,47.38799600009822],[-122.2820570000534,47.387373999783],[-122.28206799992405,47.38732099993009],[-122.28211399995482,47.38722000003997],[-122.2821750000542,47.38714299999977],[-122.2826739998215,47.3866799999454],[-122.28303100019684,47.3863489997071],[-122.28311099966447,47.38638900015503],[-122.28314900019764,47.38640699998176],[-122.28356099992627,47.38661000013629],[-122.28356199975119,47.38665700018347],[-122.283823999692,47.38665200015456],[-122.28388499979137,47.38665100027035],[-122.28420799983155,47.38664600024089],[-122.28453099987173,47.38663999971834],[-122.28466700031419,47.386637999949464],[-122.28566099965079,47.386620000201624],[-122.28634100006637,47.38660900025132],[-122.28650799957262,47.38660900025132],[-122.28651299959549,47.387923999883945]]],[[[-122.01633500034599,47.36299700012353],[-122.01633600017092,47.36287999999619],[-122.01633299979787,47.362104000202784],[-122.01631100005658,47.36180099984227],[-122.01620800012441,47.359924000160646],[-122.01620499975135,47.358643000249636],[-122.01620599957624,47.35802600019393],[-122.01610799966696,47.35802600019393],[-122.01581399993908,47.35802700001248],[-122.01470900027441,47.35804099990411],[-122.0145190003036,47.35804199972233],[-122.01447900012064,47.35804199972233],[-122.01440399977757,47.35804300014912],[-121.99584900024172,47.358162000290555],[-121.99499099955091,47.35814700000628],[-121.99502599971099,47.36179899973969],[-121.99503300028202,47.362578000174004],[-121.99505099982537,47.36438100023096],[-121.99506000004621,47.36525600019977],[-121.99580800023382,47.365252000256596],[-121.99655899989618,47.365252000256596],[-122.01372000006234,47.36523100024561],[-122.01604999994063,47.36523700016269],[-122.01614799984993,47.36523100024561],[-122.01631799972925,47.36526400008525],[-122.01631899955416,47.36516800016259],[-122.01632699995008,47.3640530002667],[-122.01633500034599,47.36299700012353]]],[[[-122.05381400038696,47.34381399977604],[-122.05387299993818,47.34356999969788],[-122.05285000028927,47.34357400006744],[-122.05149000035642,47.34357600025216],[-122.04878700020923,47.34358200019706],[-122.04326399973898,47.34356999969788],[-122.04322699992906,47.34381000003332],[-122.04321699988333,47.34589999992039],[-122.04321500023349,47.34708500002752],[-122.04321500023349,47.34714999984161],[-122.043483999847,47.34714599974299],[-122.05087699988805,47.347169999721466],[-122.05111899973735,47.347238000108476],[-122.05158400006778,47.34734900010446],[-122.05359400027892,47.34783500008554],[-122.0536190003933,47.34720499994954],[-122.05365200000524,47.34513500003634],[-122.05365700002811,47.34485199976835],[-122.05365899967795,47.34475900004377],[-122.05370100040903,47.344358999779516],[-122.05379500012039,47.34390699994806],[-122.05381400038696,47.34381399977604]]],[[[-122.11246599972213,47.35236500021459],[-122.11245499985148,47.351532999999954],[-122.11177299978608,47.3518919997139],[-122.11153099993675,47.35167699991067],[-122.11099299981143,47.35195700030287],[-122.10996000011674,47.352425999913955],[-122.10929700031794,47.35264400007907],[-122.10853099968864,47.35291600027853],[-122.10778800042219,47.3531029999448],[-122.10693099955631,47.353266999835725],[-122.10574200022602,47.353476999723796],[-122.10390699991707,47.353839999802666],[-122.10208099982893,47.35419199979972],[-122.10190299955369,47.3542259997408],[-122.10191099994961,47.3543880000183],[-122.10192799966805,47.35470599979296],[-122.10193400041416,47.354955000116014],[-122.10199999963808,47.35618799986474],[-122.10198799994251,47.35622599975619],[-122.10208400020198,47.35622599975619],[-122.10221600044645,47.35622700021736],[-122.10311100004886,47.35623100023632],[-122.1047060001583,47.35624300029131],[-122.10563400027101,47.35626500008074],[-122.10570600024101,47.356266999784545],[-122.10576099959431,47.356268000244945],[-122.10591399975519,47.3562699999486],[-122.10652700022358,47.356277000127996],[-122.10721900033472,47.356287999712485],[-122.10721599996168,47.35581100024385],[-122.10721599996168,47.355764999945926],[-122.10721400031186,47.35535399993617],[-122.10721400031186,47.35511500023389],[-122.10780000011775,47.35512199995792],[-122.10853099968864,47.355131999909794],[-122.10882699996466,47.35513299978318],[-122.10900400041497,47.35513299978318],[-122.10905700011844,47.35513299978318],[-122.1096959996278,47.354614000273344],[-122.11137699995098,47.35324900025855],[-122.11163999971672,47.35303499981087],[-122.11246599972213,47.35236500021459]]],[[[-122.18417199966083,47.3338729999929],[-122.18417300038408,47.33383099994611],[-122.18310100033133,47.33381999994283],[-122.18294399997251,47.33380699999133],[-122.18283600001747,47.33379499970544],[-122.1828379996673,47.33365000004356],[-122.18284000021542,47.33349399991236],[-122.18284100004034,47.33345200017297],[-122.18277499991811,47.3333669996994],[-122.18268100020676,47.3332460003006],[-122.18258699959712,47.333125000015734],[-122.18236200036455,47.33283399997168],[-122.18226799975491,47.33271299996045],[-122.18217400004356,47.33259200028085],[-122.18213399986061,47.33253999985534],[-122.18208600018004,47.332468999718586],[-122.18199800031647,47.33234099977962],[-122.18165299963668,47.331833999713176],[-122.181577000367,47.33182200019659],[-122.1810440002645,47.331735999827046],[-122.18088699990571,47.33171099982082],[-122.18060300022356,47.331664999827076],[-122.18055299999486,47.33165699971817],[-122.1804869998726,47.3316459998709],[-122.18045599991046,47.33164100010562],[-122.18042599977322,47.33163599973101],[-122.18007000012109,47.331578999810674],[-122.17975600030172,47.33152799992598],[-122.17871500021116,47.32996099980762],[-122.17860800008101,47.32978700007572],[-122.17857200009601,47.32978700007572],[-122.17783499977904,47.329777000192706],[-122.1773050000496,47.32977099989665],[-122.1763679997161,47.32976000026539],[-122.17635099999767,47.33120599983912],[-122.17634699979969,47.33165399998143],[-122.17635000017275,47.33241899977937],[-122.17633699975396,47.33335299995927],[-122.17632599988332,47.334064000030736],[-122.17628999989829,47.33483499995016],[-122.17628400005053,47.33564600015621],[-122.17627700037782,47.3364559998552],[-122.17627200035494,47.336625000237774],[-122.17625499973818,47.33724700014597],[-122.17624399986752,47.337635000095126],[-122.17622899979894,47.33847799987772],[-122.17619600018696,47.34043699999325],[-122.1761760000955,47.34153899993011],[-122.1761760000955,47.341561999892576],[-122.17617400044566,47.34169500003457],[-122.17616000020195,47.34242500013391],[-122.17690500001655,47.342433999942905],[-122.17689599979568,47.34274900020403],[-122.17729900020181,47.34274699998802],[-122.17728400013323,47.343500999970125],[-122.17834100011734,47.343500999970125],[-122.17854000030896,47.343503000157604],[-122.18005400022757,47.34351999992178],[-122.1804579995603,47.34352499977979],[-122.18142000000816,47.34353600019616],[-122.18145799964302,47.34353600019616],[-122.18145500016827,47.34343100005715],[-122.1814569998181,47.3433089998826],[-122.18146100001604,47.343084000013704],[-122.1814860001304,47.34067500027652],[-122.1814869999553,47.34061099994261],[-122.18148899960515,47.34047500026904],[-122.18149100015327,47.340338000091464],[-122.18149199997818,47.34020100016714],[-122.18149399962802,47.34006399988728],[-122.18149600017614,47.33992699986072],[-122.18149700000106,47.33979000008737],[-122.18149799982596,47.33973999977497],[-122.18151700009254,47.33831400029861],[-122.18151799991743,47.33823500028985],[-122.18151799991743,47.33814300006133],[-122.18151999956727,47.33803800015383],[-122.18152200011541,47.337864999839276],[-122.18152299994033,47.33772899978871],[-122.18152499959015,47.33764199970248],[-122.18152499959015,47.33757699974737],[-122.18152600031338,47.33746700010942],[-122.1815279999632,47.33731900015744],[-122.1815279999632,47.33721800007134],[-122.18152999961302,47.33710800029424],[-122.18153100033622,47.33704399989791],[-122.18156499977313,47.337045000113925],[-122.18415999996529,47.3370870000396],[-122.18416099979018,47.3365440002948],[-122.1841619996151,47.3364840001217],[-122.18416599981305,47.33538099974815],[-122.18417099983591,47.334801000302335],[-122.18417199966083,47.3338729999929]]]]},"properties":{"name":"Kent city","geoid":"5335415","basetype":"incorporated_place","source":"US Census TIGERweb Places layer (cartographic boundary)","source_layer":"TIGERweb/Places_CouSub_ConCity_SubMCD MapServer/25","note":"Kent city, King County, WA \u2014 use for spatial filter; independent of zoning portals."}}],"name":"kent_wa_city_boundary"}
